********************************************************************************
              CENTRO DE INSTRUMENTACION Y REGISTRO SISMICO  A.C.

    Anaxagoras 814, Col. Narvarte, Benito Juarez, C.P. 03020 Mexico, D.F.
           Tels. 5687 45 42/ 5687 45  82             Fax. 5669 25 12
********************************************************************************
ARCHIVO ESTANDAR DE ACELERACION:
VERSION DEL FORMATO                    : 2.0
NOMBRE DEL ARCHIVO                     : AL0120220919180509
FECHA Y HORA DE CREACION               : 19/SEP/22, 19:41
REF. CATALOGO ACELEROGRAMAS, SMIS 1996 : REGISTRO No.     /PAG.


================================================================================
DATOS DE LA ESTACION:
NOMBRE DE LA ESTACION                  : ALAMEDA
CLAVE DE LA ESTACION                   : AL01
LOCALIZACION DE LA ESTACION            : Del. Cuauhtémoc, Col. Centro,          
                                       : Dr. Mora entre Av. Hidalgo             
                                       : y Av. Juárez.                          
                                       :                                        
                                       : 
COORDENADAS DE LA ESTACION             : 19.4356 LAT. N
                                       : 99.1453 LONG. W
ALTITUD (msnm)                         : 2232
TIPO DE SUELO                          : Terreno blando, material compresible
                                       : (arcillas)                
                                       : 
INSTITUCION RESPONSABLE                : CIRES, A. C.
                                       : 

================================================================================
DATOS DEL ACELEROGRAFO:
MODELO DEL ACELEROGRAFO                : RAD_IO14
NUMERO DE SERIE DEL ACELEROGRAFO       : 
NUMERO DE CANALES                      : 3
ORIENTACION C1-C6 (rumbo;orientacion)  : /S00E/+V/N90W
ORIENTACION C7-C12 (rumbo;orientacion) : 
VEL. DE MUESTREO, C1-C6 (muestras/s)   : /100/100/100
VEL. DE MUESTREO, C7-C12 (muestras/s)  : 
ESC. COMPLETA DE SENSORES, C1-C6, (g)  : /2.0/2.0/2.0
ESC. COMPLETA DE SENSORES, C7-C12, (g) : 
FREC. NAT. DE SENSORES, C1-C6, (Hz)    : /51.29/51.09/53.75
FREC. NAT. DE SENSORES, C7-C12, (Hz)   : 
AMORTIGUAMIENTO DE SENSORES, C1-C6     : /0.5519/0.5670/0.5810
AMORTIGUAMIENTO DE SENSORES, C7-C12    : 
INTERVALO DE MUESTREO, C1-C6, (s)      : /0.01/0.01/0.01
INTERVALO DE MUESTREO, C7-C12, (s)     : 
UMBRAL DE DISPARO, C1-C6, (Gal)        : / / /
UMBRAL DE DISPARO, C7-C12, (Gal)       : 
MEMORIA DE PREEVENTO (s)               : 60
TIEMPO DE POSEVENTO (s)                : 90


================================================================================
DATOS DEL SISMO:
FECHA DEL SISMO (GMT)                  : 19/SEP/22
HORA EPICENTRO (GMT)                   : 18:05:09.0
MAGNITUD(ES)                           : /Mc=7.7
COORDENADAS DEL EPICENTRO              : 18.22 LAT. N
                                       : 103.29 LONG. W
PROFUNDIDAD FOCAL (km)                 : 15
FUENTE DE LOS DATOS EPICENTRALES       : SSN
                                       : INSTITUTO DE GEOFISICA, UNAM

================================================================================
DATOS DE ESTE REGISTRO:
HORA DE LA PRIMERA MUESTRA (GMT)       : 18:04:26.990.00
EXACTITUD DEL TIEMPO (s)               : 
DURACION DEL REGISTRO (s), C1-C6       : /505.81/505.81/505.81
DURACION DEL REGISTRO (s), C7-C12      : 
NUM. TOTAL DE MUESTRAS, C1-C6          : /50581/50581/50581
NUM. TOTAL DE MUESTRAS, C7-C12         : 
ACEL. MAX. (Gal), C1-C6                : /16.29613/6.44949/22.78524
ACEL. MAX., C1-C6, EN LA MUESTRA       : /21613/20976/19316
ACEL. MAX. (Gal), C7-C12               : 
ACEL. MAX., C7-C12, EN LA MUESTRA      : 
UNIDADES DE LOS DATOS                  : Gal (cm/s/s)
FACTOR DE DECIMACION                   : 1
FORMATO DATOS (FORTRAN,10 campos/dato) : 3F10.5


================================================================================
CALIDAD DEL ACELEROGRAMA:
REGISTRO DIGITAL COMPLETO CON TIEMPO ABSOLUTO CORRECTO.


================================================================================
COMENTARIOS:














================================================================================
DATOS DE ACELERACION:
---------+---------+---------+---------+---------+---------+---------+---------+
   CANAL-1   CANAL-2   CANAL-3   CANAL-4   CANAL-5   CANAL-6   CANAL-7   CANAL-8
      N00E        +V      N90W
---------+---------+---------+---------+---------+---------+---------+---------+
[...]
  -6.48433  -0.07651   5.72956
  -6.04523  -0.33191   6.41696
  -5.53153  -0.42001   6.49816
  -4.90453  -0.34891   7.16476
  -4.42543  -0.52731   7.42496
  -3.91133  -0.62511   7.72396
  -3.09883  -0.66971   8.03026
  -2.69853  -0.79181   8.17896
  -2.05013  -0.82101   8.36766
  -1.56833  -1.06271   8.35926
  -1.07073  -1.21731   8.42966
  -0.36443  -1.35151   8.67116
   0.06697  -1.30241   8.44106
   0.58227  -1.59541   8.49786
   1.12827  -1.65011   8.37846
   1.59987  -1.89911   8.24306
   2.00637  -2.15091   8.10816
   2.34217  -2.10761   7.97466
   2.84207  -2.35801   7.80306
   3.16637  -2.57991   7.46676
   3.50377  -2.73891   7.65646
   3.90237  -2.92621   7.14106
   4.03707  -2.88811   7.00826
   4.38117  -3.06721   6.63776
   4.56827  -3.13691   6.36646
   4.80277  -3.18831   5.98586
   4.96547  -3.30681   5.48456
   5.14417  -3.24751   5.13896
   5.36347  -3.20681   4.81076
   5.50887  -3.05671   4.37356
   5.64637  -2.87691   3.90896
   5.71487  -2.78291   3.71436
   5.76487  -2.54061   3.43896
   5.73307  -2.45931   3.04146
   5.89257  -2.31621   2.67886
   5.94217  -1.89741   2.30856
   5.90747  -1.67951   2.05066
   5.95617  -1.46211   1.69336
   5.99937  -1.19131   1.52896
   6.09457  -0.86871   1.29196
   6.03447  -0.67201   0.91946
   6.09597  -0.23511   0.71906
   6.13247  -0.12731   0.53926
   6.19697   0.14389   0.43196
   6.19227   0.33499   0.16056
   6.15187   0.57789  -0.25844
   6.35877   0.63029  -0.22504
   6.55117   0.96839  -0.55124
   6.63657   1.05999  -0.75064
   6.93067   1.33609  -0.88854
   6.99357   1.36259  -0.97764
   7.32997   1.66599  -1.06554
   7.41137   1.73639  -1.06654
   7.55287   1.84999  -1.19274
   7.91987   2.03639  -1.35414
   8.09037   2.05389  -1.16004
   8.34097   2.26789  -1.21714
   8.63397   2.33449  -1.14764
   9.01347   2.35089  -1.23114
   9.20167   2.13829  -1.01744
   9.37607   2.45839  -0.87244
   9.47937   2.53369  -0.73684
   9.75877   2.59939  -0.38024
   9.76347   2.57769  -0.14254
   9.74737   2.51129   0.07916
   9.74947   2.71119   0.32156
   9.71227   2.73619   0.70836
   9.63067   2.68469   0.82316
   9.48267   2.68379   1.23746
   9.18997   2.58189   1.54206
   8.95287   2.62249   2.00316
   8.84647   2.59779   2.26686
   8.17267   2.42639   2.59146
   7.65477   2.40249   2.90006
   7.20047   2.23749   3.20026
   6.81047   2.15589   3.55706
   6.21727   1.98329   3.70626
   5.76447   1.78479   4.08826
   5.21147   1.64589   4.12056
   4.57087   1.53629   4.22336
   3.93747   1.27229   4.55026
   3.28587   1.17759   4.77686
   2.66837   0.94799   4.75276
   2.06717   0.79279   4.85566
   1.45207   0.45139   4.78246
   0.67747   0.33539   4.69316
   0.22107   0.25169   4.43146
  -0.53973   0.16329   4.28046
  -1.28773  -0.00031   4.24776
  -1.79153  -0.01831   3.86806
  -2.48603  -0.15601   3.86216
  -3.07873  -0.13311   3.68846
  -3.54213  -0.29981   3.37846
  -4.14813  -0.09971   3.34736
  -4.61993  -0.28421   3.07586
  -4.87523  -0.11351   2.89986
  -5.48103  -0.09011   2.60496
  -5.76113  -0.19411   2.58156
  -6.11073  -0.12631   2.29896
  -6.35393  -0.25351   2.21756
  -6.48903  -0.29891   2.12336
  -6.63683  -0.19461   2.01536
  -6.92933  -0.13851   1.72306
  -6.80443  -0.19301   1.60496
  -6.66323  -0.19231   1.46986
  -6.56613  -0.37601   1.48506
  -6.52693  -0.33541   1.42046
  -6.46823  -0.20681   1.16006
  -6.08663  -0.39971   1.28446
  -5.88023  -0.48271   1.06836
  -5.68473  -0.45741   0.81826
  -5.43103  -0.42611   0.77336
  -5.07963  -0.53321   0.69286
  -5.03313  -0.60281   0.21356
  -4.62653  -0.73351   0.04946
  -4.43693  -0.53501  -0.19604
  -4.18953  -0.69011  -0.27154
  -4.00383  -0.61481  -0.32814
  -3.96113  -0.64071  -0.57174
  -3.76773  -0.42771  -0.81054
  -3.65663  -0.32791  -1.04364
  -3.69683  -0.33021  -1.20094
  -3.58533  -0.46121  -1.56454
  -3.57153  -0.27811  -1.82824
  -3.51683  -0.12611  -2.32184
  -3.55543   0.01389  -2.70224
  -3.60243   0.10299  -3.11354
  -3.69053   0.39529  -3.88294
  -3.81213   0.81519  -4.07424
  -3.82663   0.95199  -4.64454
  -3.95013   1.02099  -5.11934
  -3.92533   1.33359  -5.41584
  -4.10843   1.43969  -6.21454
  -4.16773   1.81869  -6.70834
  -4.26693   2.08809  -7.18994
  -4.25783   2.23959  -7.74624
  -4.43993   2.53179  -8.18814
  -4.35953   2.59849  -8.70764
  -4.39173   2.71769  -9.09924
  -4.32183   2.93769  -9.45884
  -4.23303   2.90729 -10.09084
  -4.27163   2.90149 -10.47704
  -4.21473   2.86309 -11.02354
  -4.00783   2.82429 -11.46634
  -3.91593   2.66419 -11.87454
  -3.96153   2.57509 -12.37074
  -3.85003   2.47829 -12.78034
  -3.70883   2.32469 -12.92554
  -3.54703   2.09129 -13.33934
  -3.69173   1.92089 -13.81934
  -3.44643   1.70269 -13.87504
  -3.34713   1.46079 -14.19554
  -3.12853   1.34059 -14.44624
  -3.09713   1.03149 -14.68374
  -2.95733   0.79349 -14.64314
  -2.71183   0.53739 -14.61484
  -2.59583   0.25239 -14.75764
  -2.56173   0.14929 -14.74554
  -2.45353  -0.02931 -14.62434
  -2.38243  -0.24581 -14.46724
  -2.39623  -0.38541 -14.43084
  -1.97793  -0.69331 -14.11744
  -2.11893  -0.72631 -13.66744
  -2.20473  -0.88321 -13.40904
  -2.20893  -1.21731 -13.11654
  -2.24283  -1.32691 -12.48904
  -2.21523  -1.44531 -12.07094
  -2.34643  -1.56031 -11.57854
  -2.44533  -1.69221 -11.00344
  -2.41003  -1.78781 -10.37584
  -2.21543  -1.91241  -9.88504
  -2.44293  -2.11931  -9.22154
  -2.25453  -2.06601  -8.72564
  -2.34663  -2.22691  -8.07544
  -2.28913  -2.24421  -7.51244
  -1.99003  -2.17541  -6.97164
  -2.11823  -2.07631  -6.58274
  -1.68913  -2.17451  -6.07754
  -1.64543  -2.10761  -5.34824
  -1.46143  -2.05271  -5.06234
  -1.20963  -1.82171  -4.70884
  -0.94353  -1.72631  -4.20284
  -0.64213  -1.50091  -3.69964
  -0.37563  -1.30191  -3.31924
  -0.28843  -1.17121  -2.96204
  -0.05713  -0.92811  -2.52974
   0.24797  -0.83221  -2.13974
   0.62767  -0.45901  -1.76354
   1.03777  -0.26311  -1.53044
   1.12097   0.01179  -1.20634
   1.57367   0.01369  -0.81074
   1.87057   0.25009  -0.55634
   2.03007   0.35199  -0.47684
   2.28347   0.42659  -0.08964
   2.70877   0.57629   0.19886
   3.14857   0.59729   0.43316
   3.19327   0.72289   1.06816
   3.44367   0.84399   1.20046
   4.04267   1.03779   1.45936
   4.13857   1.08149   1.72166
   4.58717   1.22929   2.39616
   4.81847   1.33449   2.69986
   5.14417   1.24709   3.03026
   5.54117   1.38059   3.58086
   5.77637   1.52719   3.92436
   6.19577   1.49649   4.32886
   6.68797   1.64759   4.70926
   7.19437   1.47219   5.40886
   7.42607   1.42359   5.96786
   7.76447   1.45439   6.42446
   8.02977   1.40769   7.03706
   8.34827   1.10979   7.55236
   8.57597   0.95249   8.09246
   8.97367   0.74269   8.74126
   9.13827   0.61409   9.38776
   9.35177   0.13899   9.98776
   9.36207   0.02279  10.56146
   9.51327  -0.29231  11.17826
   9.54397  -0.62181  11.79346
   9.36817  -0.90561  12.48476
   9.05667  -1.24981  12.98586
   8.83947  -1.49151  13.61336
   8.60897  -1.81561  14.17146
   8.25447  -2.05011  14.64566
   7.84437  -2.13411  15.12196
   7.31947  -2.29681  15.44736
   6.89347  -2.52101  15.97226
   6.35737  -2.76561  16.38496
   5.78057  -2.86841  16.59446
   5.17807  -2.96691  16.76676
   4.74617  -3.20611  17.02676
   4.12897  -3.33161  17.08316
   3.51897  -3.39521  17.44576
   3.00737  -3.51521  17.54866
   2.44547  -3.52241  17.74946
   1.80747  -3.61061  17.75716
   1.47497  -3.68001  17.89186
   0.86797  -3.56711  17.88506
   0.43707  -3.68791  18.11326
  -0.00553  -3.50671  18.14676
  -0.16803  -3.55281  18.25476
  -0.54983  -3.50811  17.91176
  -0.83343  -3.33981  17.97556
  -1.11163  -3.35941  18.04246
  -1.31903  -3.29841  17.75256
  -1.35293  -3.15141  17.82286
  -1.74813  -2.98321  17.75276
  -1.65343  -2.77071  17.72776
  -1.58113  -2.67201  17.29616
  -1.59163  -2.39381  16.99426
  -1.67673  -2.05011  16.67536
  -1.77773  -1.72491  16.40926
  -1.67463  -1.55471  16.02726
  -1.65153  -1.16631  15.62396
  -1.49513  -0.84201  15.39316
  -1.49113  -0.53711  14.84786
  -1.39273  -0.23741  14.48596
  -1.41603  -0.06701  14.32136
  -1.47083   0.31559  13.67396
  -1.28043   0.50889  13.22056
  -1.20213   0.82599  12.69406
  -1.24123   1.08809  12.16286
  -1.08013   1.48579  11.78646
  -0.99003   1.59079  11.23926
  -1.10463   1.86129  10.68286
  -1.06983   1.91759  10.27556
  -1.01623   2.09229   9.89846
  -1.01393   2.08879   9.47386
  -0.97273   2.12919   9.06466
  -0.84533   2.22249   8.84206
  -0.81663   2.29169   8.65686
  -0.61813   2.18139   8.30636
  -0.58133   2.25129   7.87386
  -0.41093   2.08569   7.74126
  -0.50283   2.11209   7.54976
  -0.48083   1.91319   7.40296
  -0.61343   1.79999   7.38026
  -0.53043   1.72659   7.29756
  -0.40043   1.55849   7.22316
  -0.50583   1.45889   7.29706
  -0.55123   1.31979   7.13176
  -0.73153   1.31229   7.33286
  -0.83133   1.27459   7.36276
  -0.85893   1.17129   7.49186
  -1.15513   1.13179   7.51476
  -1.34993   0.90239   7.66886
  -1.52993   0.96769   7.66576
  -1.59613   0.90029   7.77146
  -1.90103   0.64849   7.86196
  -1.97603   0.70179   7.64336
  -2.45603   0.65999   7.49326
  -2.59373   0.57769   7.51866
  -2.85723   0.47669   7.34986
  -3.05293   0.42639   7.04056
  -3.04833   0.41629   6.66716
  -3.25873   0.09859   6.28746
  -3.49023   0.08319   5.89136
  -3.70903   0.13689   5.39156
  -3.76003  -0.04661   4.81796
  -3.85213  -0.13501   3.98816
  -4.02463  -0.30241   3.32536
  -4.23793  -0.40461   2.57596
  -4.38423  -0.53131   1.56476
  -4.23063  -0.72351   0.79976
  -4.49813  -0.86821  -0.10484
  -4.53973  -0.93531  -1.23324
  -4.52033  -0.94581  -2.05224
  -4.75303  -1.11281  -3.22664
  -4.86363  -1.23341  -4.25564
  -5.06603  -1.20371  -5.52524
  -5.15003  -1.12331  -6.50074
  -5.14763  -1.08261  -7.58864
  -5.36443  -1.15811  -8.70574
  -5.45133  -1.11441  -9.84974
  -5.35463  -0.92691 -10.91614
  -5.51033  -1.11021 -11.97254
  -5.50163  -0.96661 -12.91314
  -5.39293  -1.05971 -14.01064
  -5.41633  -1.09731 -15.09314
  -5.21803  -0.93411 -15.85024
  -5.17363  -0.86401 -16.81984
  -5.04083  -0.72581 -17.63954
  -4.90773  -0.73331 -18.37884
  -4.50143  -0.57691 -19.13014
  -4.57503  -0.55231 -19.79814
  -4.30483  -0.58231 -20.50934
  -4.11583  -0.39691 -21.09804
  -3.77283  -0.37981 -21.62724
  -3.39013  -0.39191 -21.73264
  -3.02303  -0.26031 -22.20424
  -2.83883  -0.10131 -22.40014
  -2.37863  -0.09411 -22.62884
  -1.75763   0.14929 -22.68614
  -1.30553   0.26509 -22.78524
  -0.79323   0.51689 -22.72964
  -0.48203   0.58369 -22.54394
   0.18617   0.73339 -22.67484
   0.57297   0.89029 -22.48504
   1.19907   1.22649 -22.26874
   1.81187   1.43199 -22.24304
   2.25657   1.66019 -21.85184
   2.75277   1.94169 -21.43264
   3.33817   1.92669 -21.24024
   3.68077   2.37279 -21.00364
   4.17007   2.36649 -20.61624
   4.60217   2.56009 -20.40324
   5.06607   2.76119 -20.28494
   5.40667   2.78879 -20.05854
   5.73307   2.93229 -19.59044
   6.00497   3.02029 -19.41564
   6.26037   2.89329 -19.23344
   6.36667   2.95829 -18.91714
   6.46517   2.97369 -18.79224
   6.62737   2.78639 -18.69334
   6.51447   2.86519 -18.29654
   6.52127   2.68519 -18.17714
   6.35617   2.53999 -18.03074
   6.42957   2.52039 -17.77004
   6.28507   2.39949 -17.44554
   6.08377   2.35159 -17.11444
   5.96477   2.06469 -16.84654
   5.75807   1.96579 -16.64054
   5.35827   1.77079 -16.18974
   5.03537   1.47849 -15.82384
   4.70617   1.28029 -15.24094
   4.50627   1.22339 -14.69684
   4.20347   1.15029 -14.36764
   3.79647   0.92069 -13.74504
   3.53227   0.87579 -13.17544
   3.25287   1.00969 -12.65974
   2.84927   0.81429 -12.12754
   2.40417   0.77589 -11.44434
   1.82587   0.75909 -10.82874
   1.56897   0.84839 -10.06624
   1.06837   0.81969  -9.44594
   0.69307   0.80329  -8.68894
   0.58117   1.03079  -8.06654
   0.09087   1.12029  -7.24584
  -0.32373   1.26149  -6.57084
  -0.43123   1.31369  -5.84584
  -0.75373   1.41489  -5.14294
  -1.06583   1.29119  -4.26294
  -1.30153   1.46919  -3.41844
  -1.54283   1.52739  -2.79694
  -1.65573   1.56319  -1.80484
  -1.67423   1.65409  -1.09804
  -1.73923   1.86479  -0.30244
  -1.71253   1.85209   0.88186
  -1.72933   1.75999   1.77566
  -1.70763   1.79739   2.66226
  -1.55213   1.81589   3.88626
  -1.47503   1.64969   4.82076
  -1.38563   1.66279   5.77446
  -1.03313   1.47619   6.87926
  -0.74173   1.26739   7.87736
  -0.48743   1.15519   9.09506
  -0.01623   1.15629   9.96056
   0.19117   1.09269  11.13246
   0.63697   0.81219  12.13686
   1.05267   0.63839  13.04216
   1.49597   0.65109  13.96346
   1.82587   0.39969  14.64196
   2.37487   0.17429  15.66276
   2.83687   0.01109  16.12446
   3.11677  -0.14671  16.68636
   3.53597  -0.28301  17.26296
   3.69777  -0.53831  17.60686
   3.92627  -0.71411  17.94166
   4.31197  -0.83411  18.25236
   4.71767  -1.16231  18.57296
   4.84927  -1.18431  18.48176
   4.81537  -1.28351  18.59726
   4.88977  -1.46331  18.64686
   5.18107  -1.73681  18.47896
   5.15697  -1.82031  18.29726
   5.15047  -1.90541  17.93256
   5.15017  -2.00061  17.75676
   4.93017  -1.95291  17.59216
   4.78877  -2.06651  17.39436
   4.68147  -2.09431  16.89376
   4.45907  -2.19841  16.55286
   4.15257  -2.24141  16.28236
   3.72397  -2.22551  15.94586
   3.49137  -2.44531  15.45746
   3.15157  -2.44061  14.95476
   2.80417  -2.35031  14.50256
   2.35127  -2.26221  14.16756
   1.82337  -2.39641  13.73076
   1.23907  -2.46981  13.33956
   0.48617  -2.28911  12.98706
  -0.09483  -2.16731  12.35436
  -0.93883  -2.12141  11.80046
  -1.48743  -2.07091  11.37656
  -2.29453  -2.02511  10.88136
  -2.91833  -1.74101  10.48836
  -3.58023  -1.45671   9.97536
  -4.28253  -1.19461   9.64846
  -4.78243  -0.82751   9.31836
  -5.35643  -0.61901   8.77706
  -5.78343  -0.30191   8.15276
  -6.28913  -0.01571   7.52336
  -6.68243   0.26369   7.08316
  -6.80443   0.43919   6.36716
  -7.08403   0.63629   5.69666
  -7.38733   0.87599   5.07656
  -7.47853   1.05879   4.39576
  -7.30553   1.04409   3.62326
  -7.43103   1.02679   2.82216
  -7.29913   1.14749   2.18296
  -7.32113   1.18579   1.41096
  -7.25523   1.03479   0.53836
  -7.01583   0.98609  -0.25824
  -6.92433   0.84839  -1.16544
  -6.56293   0.97649  -1.89044
  -6.56573   0.57879  -2.69434
  -6.18293   0.46869  -3.59324
  -5.82593   0.40089  -4.13294
  -5.55143   0.03259  -4.88644
  -5.11233  -0.20161  -5.39664
  -4.72423  -0.48571  -5.80744
  -4.12383  -0.49371  -6.46684
  -3.56243  -0.71951  -6.95944
  -3.29313  -1.01251  -7.16444
  -2.98563  -1.34941  -7.78034
  -2.44813  -1.47851  -7.90804
  -2.12873  -1.89931  -8.40534
  -1.67093  -2.04731  -8.56244
  -1.31273  -2.21261  -8.55444
  -0.89583  -2.44531  -8.69924
  -0.65643  -2.51821  -8.80274
  -0.51593  -2.67461  -8.92814
  -0.22883  -2.75621  -8.78714
  -0.12923  -2.82051  -8.94964
  -0.08153  -2.97741  -8.90804
  -0.05273  -3.06441  -9.25734
  -0.13313  -3.17731  -9.44594
  -0.29383  -3.04711  -9.57744
