********************************************************************************
              CENTRO DE INSTRUMENTACION Y REGISTRO SISMICO  A.C.

    Anaxagoras 814, Col. Narvarte, Benito Juarez, C.P. 03020 Mexico, D.F.
           Tels. 5687 45 42/ 5687 45  82             Fax. 5669 25 12
********************************************************************************
ARCHIVO ESTANDAR DE ACELERACION:
VERSION DEL FORMATO                    : 2.0
NOMBRE DEL ARCHIVO                     : AO2420220919180509
FECHA Y HORA DE CREACION               : 19/SEP/22, 19:42
REF. CATALOGO ACELEROGRAMAS, SMIS 1996 : REGISTRO No.     /PAG.


================================================================================
DATOS DE LA ESTACION:
NOMBRE DE LA ESTACION                  : ALBERCA OLÍMPICA
CLAVE DE LA ESTACION                   : AO24
LOCALIZACION DE LA ESTACION            : Del. Benito Juárez, Col. General Pedro 
                                       : María Anaya, Río Churubusco            
                                       : y División del Norte.                  
                                       :                                        
                                       : 
COORDENADAS DE LA ESTACION             : 19.3580 LAT. N
                                       : 99.1539 LONG. W
ALTITUD (msnm)                         : 2235
TIPO DE SUELO                          : Transición                          
                                       :                           
                                       : 
INSTITUCION RESPONSABLE                : CIRES, A. C.
                                       : 

================================================================================
DATOS DEL ACELEROGRAFO:
MODELO DEL ACELEROGRAFO                : RAD_IO14
NUMERO DE SERIE DEL ACELEROGRAFO       : 
NUMERO DE CANALES                      : 3
ORIENTACION C1-C6 (rumbo;orientacion)  : /N00E/+V/N90W
ORIENTACION C7-C12 (rumbo;orientacion) : 
VEL. DE MUESTREO, C1-C6 (muestras/s)   : /100/100/100
VEL. DE MUESTREO, C7-C12 (muestras/s)  : 
ESC. COMPLETA DE SENSORES, C1-C6, (g)  : /2.0/2.0/2.0
ESC. COMPLETA DE SENSORES, C7-C12, (g) : 
FREC. NAT. DE SENSORES, C1-C6, (Hz)    : /30/30/30
FREC. NAT. DE SENSORES, C7-C12, (Hz)   : 
AMORTIGUAMIENTO DE SENSORES, C1-C6     : /0.700/0.700/0.700
AMORTIGUAMIENTO DE SENSORES, C7-C12    : 
INTERVALO DE MUESTREO, C1-C6, (s)      : /0.01/0.01/0.01
INTERVALO DE MUESTREO, C7-C12, (s)     : 
UMBRAL DE DISPARO, C1-C6, (Gal)        : / / /
UMBRAL DE DISPARO, C7-C12, (Gal)       : 
MEMORIA DE PREEVENTO (s)               : 60
TIEMPO DE POSEVENTO (s)                : 90


================================================================================
DATOS DEL SISMO:
FECHA DEL SISMO (GMT)                  : 19/SEP/22
HORA EPICENTRO (GMT)                   : 18:05:09.0
MAGNITUD(ES)                           : /Mc=7.7
COORDENADAS DEL EPICENTRO              : 18.22 LAT. N
                                       : 103.29 LONG. W
PROFUNDIDAD FOCAL (km)                 : 15
FUENTE DE LOS DATOS EPICENTRALES       : SSN
                                       : INSTITUTO DE GEOFISICA, UNAM

================================================================================
DATOS DE ESTE REGISTRO:
HORA DE LA PRIMERA MUESTRA (GMT)       : 18:04:26.851.00
EXACTITUD DEL TIEMPO (s)               : 
DURACION DEL REGISTRO (s), C1-C6       : /514.41/514.41/514.41
DURACION DEL REGISTRO (s), C7-C12      : 
NUM. TOTAL DE MUESTRAS, C1-C6          : /51441/51441/51441
NUM. TOTAL DE MUESTRAS, C7-C12         : 
ACEL. MAX. (Gal), C1-C6                : /9.17006/4.02829/14.23479
ACEL. MAX., C1-C6, EN LA MUESTRA       : /19095/18856/19166
ACEL. MAX. (Gal), C7-C12               : 
ACEL. MAX., C7-C12, EN LA MUESTRA      : 
UNIDADES DE LOS DATOS                  : Gal (cm/s/s)
FACTOR DE DECIMACION                   : 1
FORMATO DATOS (FORTRAN,10 campos/dato) : 3F10.5


================================================================================
CALIDAD DEL ACELEROGRAMA:
REGISTRO DIGITAL COMPLETO CON TIEMPO ABSOLUTO CORRECTO.


================================================================================
COMENTARIOS:














================================================================================
DATOS DE ACELERACION:
---------+---------+---------+---------+---------+---------+---------+---------+
   CANAL-1   CANAL-2   CANAL-3   CANAL-4   CANAL-5   CANAL-6   CANAL-7   CANAL-8
      N00E        +V      N90W
---------+---------+---------+---------+---------+---------+---------+---------+
[...]
   2.29124   1.86959  -0.10171
   2.78034   1.73349  -0.00441
   2.96674   1.97659   0.18049
   3.23344   1.82929   0.42129
   3.61084   1.92379   0.50339
   3.64194   1.47889   0.48589
   3.84814   1.89529   0.71799
   4.08664   1.68719   0.71639
   4.29544   1.83849   0.79359
   4.28914   1.85369   0.87049
   4.37114   1.82299   0.95649
   4.43714   2.10499   1.21509
   4.48244   2.27379   1.42719
   4.53744   2.11759   1.47389
   4.70484   2.46949   1.56399
   4.41324   2.65539   1.91579
   4.57554   2.84799   1.99109
   4.39484   3.27759   2.09919
   4.34404   3.38319   2.12909
   4.40064   3.36639   2.22939
   4.35594   3.63319   2.33829
   4.17854   3.85199   2.32989
   4.09854   3.97169   2.47109
   3.98164   4.02829   2.44099
   3.79044   3.87609   2.54289
   3.69574   3.70069   2.49779
   3.29284   3.33829   2.53609
   3.30474   3.35469   2.48099
   3.10974   3.11509   2.48099
   2.84484   3.10989   2.19949
   2.49814   3.02359   1.91839
   2.26554   2.79239   1.86039
   1.96674   2.36639   1.77599
   1.58674   2.23589   1.63269
   1.26224   2.10169   1.67179
   1.06984   1.73679   1.41809
   0.52084   1.76409   1.32429
   0.17994   1.75339   1.25019
  -0.09196   1.37269   0.92799
  -0.47426   1.16039   0.90369
  -1.08076   1.16509   0.76689
  -1.32576   0.95259   0.64599
  -1.77796   0.89639   0.56229
  -1.95946   1.14329   0.40869
  -2.26476   0.79889   0.29389
  -2.68376   0.61069   0.00539
  -2.95736   0.46719  -0.23291
  -3.12376   0.37739  -0.43091
  -3.23816   0.71739  -0.82721
  -3.67416   0.48349  -0.75121
  -3.86286   0.46509  -1.14611
  -4.13406   0.31399  -1.58821
  -4.46676   0.37199  -1.99511
  -4.62766   0.35489  -2.34601
  -4.78356   0.62099  -2.68571
  -4.97576   0.37879  -3.12601
  -5.30246   0.22449  -3.43911
  -5.51636   0.63529  -3.81951
  -5.58136   0.11299  -4.36291
  -5.71786   0.14759  -4.67291
  -5.79386   0.28779  -5.01241
  -5.92626   0.25089  -5.46181
  -5.88416   0.09989  -5.80361
  -5.96836   0.25349  -6.21371
  -5.86726   0.12669  -6.61021
  -5.67296   0.05309  -6.97711
  -5.60026  -0.00771  -7.33951
  -5.38336   0.18659  -7.69111
  -5.13176   0.12629  -8.01261
  -5.12706  -0.01591  -8.38371
  -4.89346  -0.04791  -8.66071
  -4.77286  -0.24451  -9.02941
  -4.54696  -0.03671  -9.32611
  -4.34876  -0.00281  -9.59081
  -4.16656   0.01869  -9.71661
  -4.04666  -0.11271 -10.05911
  -3.81746  -0.37271 -10.23821
  -3.49066  -0.17601 -10.39351
  -3.44196  -0.09141 -10.53731
  -3.22966  -0.06711 -10.49871
  -2.94306  -0.12131 -10.55951
  -2.76416  -0.19641 -10.42711
  -2.50656   0.00889 -10.38721
  -2.21286  -0.31591  -9.98011
  -1.97836  -0.53451  -9.92471
  -1.60196  -0.36921  -9.64011
  -1.40506  -0.47511  -9.32291
  -1.13946  -0.78071  -8.98411
  -0.96526  -0.64621  -8.57681
  -0.60586  -0.66351  -8.21511
  -0.24746  -0.78181  -7.68641
   0.04264  -0.61791  -7.40631
   0.31414  -0.84241  -6.88801
   0.55584  -1.09931  -6.55671
   0.84624  -1.28051  -5.93521
   1.27624  -1.30721  -5.43321
   1.50444  -1.39791  -4.95391
   1.88084  -1.69021  -4.45821
   2.24704  -1.65741  -4.05421
   2.53224  -1.56391  -3.60411
   2.85354  -1.70721  -3.07221
   3.22014  -1.66381  -2.46571
   3.58464  -1.79001  -1.99811
   3.85074  -1.89521  -1.41731
   4.14484  -1.94501  -1.11571
   4.32064  -2.02151  -0.57541
   4.61904  -1.72031  -0.19801
   4.98684  -1.59691   0.35119
   5.06864  -2.03011   0.73369
   5.29004  -2.00301   1.12419
   5.46194  -1.95561   1.60389
   5.32914  -1.77411   1.88849
   5.59004  -1.91811   2.25439
   5.53904  -1.95161   2.37809
   5.63774  -1.70231   2.69229
   5.47804  -1.86511   2.94019
   5.53814  -2.04931   3.07739
   5.42374  -1.89621   3.31819
   5.12914  -2.00751   3.50759
   5.11494  -2.02551   3.67109
   5.06234  -2.04421   3.96819
   4.85044  -1.95911   4.06219
   4.69434  -2.16201   4.13799
   4.63444  -2.19361   4.32199
   4.29594  -2.21041   4.34349
   4.22174  -2.23681   4.40779
   4.03684  -2.25411   4.53499
   3.60994  -2.47691   4.58409
   3.47664  -2.61701   4.57239
   3.06494  -2.48651   4.52769
   2.69994  -2.46061   4.49429
   2.29144  -2.82251   4.25419
   1.98634  -2.66821   4.24059
   1.85444  -2.50151   4.22519
   1.48314  -2.48751   4.07339
   1.04854  -2.78021   4.04579
   0.75394  -2.52511   3.81249
   0.39994  -2.41731   3.58429
   0.14394  -2.40631   3.49919
  -0.27136  -2.21841   3.23309
  -0.62906  -2.41621   3.15269
  -0.84576  -2.30351   2.93479
  -1.05226  -2.51951   2.53569
  -1.33146  -2.51231   2.33669
  -1.64936  -2.22651   2.10359
  -1.97786  -2.07131   1.73819
  -2.30076  -1.96331   1.29739
  -2.53976  -1.96631   1.15479
  -2.85566  -1.77551   0.72439
  -3.08946  -1.76361   0.36709
  -3.37206  -1.56111   0.03279
  -3.52526  -1.92981  -0.46741
  -3.87876  -1.46991  -0.82091
  -3.98256  -1.43931  -1.15761
  -4.16166  -1.69131  -1.64551
  -4.41396  -1.55081  -1.95981
  -4.43316  -1.49401  -2.35961
  -4.72956  -1.69041  -2.73511
  -4.69176  -1.69201  -2.88991
  -4.90726  -1.43771  -3.06471
  -4.81796  -1.61491  -3.30911
  -4.92806  -1.56351  -3.45451
  -5.25286  -1.75891  -3.55081
  -5.16636  -1.64971  -3.62921
  -5.24486  -1.54571  -3.71751
  -5.30056  -1.48681  -3.75101
  -5.17546  -1.74091  -3.64791
  -5.11866  -1.72621  -3.65251
  -4.99496  -1.80291  -3.55061
  -4.78196  -1.59291  -3.34631
  -4.55796  -1.48511  -3.53731
  -4.45366  -1.76831  -3.39351
  -4.19626  -1.49311  -3.28691
  -3.88156  -1.59151  -3.06151
  -3.77096  -1.37271  -2.93431
  -3.48036  -1.29781  -2.98991
  -3.25706  -1.10571  -2.72321
  -3.02696  -1.09091  -2.61441
  -2.76586  -0.97961  -2.49381
  -2.41486  -0.41051  -2.17111
  -2.16756  -0.33501  -2.01141
  -1.89026  -0.05541  -1.74471
  -1.37556  -0.13751  -1.65141
  -1.03826   0.15619  -1.35771
  -0.67746   0.32059  -0.96351
  -0.14856   0.32219  -0.78741
   0.08314   0.45529  -0.50971
   0.27344   0.58739  -0.24621
   0.46334   0.44729   0.10639
   1.00364   0.83919   0.35519
   1.27864   0.49219   0.83589
   1.87554   0.32219   1.05099
   2.29194   0.59109   1.41689
   2.49444   0.46459   1.81509
   2.98894   0.56069   2.22189
   3.35504   0.76289   2.54339
   3.82334   0.26539   2.93099
   4.22764   0.33599   3.45759
   4.52694   0.67499   3.93639
   5.03824   0.78189   4.22349
   5.58254   0.61959   4.59949
   6.08224   0.80429   4.92939
   6.40934   0.92189   5.20579
   6.80304   0.99369   5.57429
   6.96624   1.12559   5.91489
   7.24024   1.18149   6.28269
   7.64474   1.04559   6.58009
   8.03124   1.16179   7.02339
   8.20284   1.17349   7.00139
   8.29194   1.23429   7.35749
   8.42144   0.89219   7.47679
   8.68564   1.04489   7.53709
   8.53534   1.25489   7.72019
   8.65734   1.31119   7.99599
   8.76584   1.04139   8.01099
   8.61434   1.02269   8.01119
   8.62324   1.28899   8.25459
   8.46704   1.19879   8.02249
   8.38664   1.32529   8.27049
   8.29164   1.39329   8.05569
   8.02564   1.41359   7.89829
   7.76374   1.34279   7.88619
   7.55914   1.68529   7.65369
   7.27974   1.65259   7.40029
   6.91194   1.52839   7.18219
   6.57644   1.66799   6.78509
   6.16424   1.49359   6.49849
   5.88414   1.24579   5.92609
   5.53044   1.32239   5.62519
   5.29284   1.50129   5.11059
   4.89444   1.16489   4.62519
   4.48224   1.16769   4.07479
   3.96744   1.19079   3.59299
   3.52834   1.07269   2.87959
   3.11914   1.03439   2.30349
   2.57154   1.06639   1.82629
   2.08894   0.91769   1.28079
   1.57674   0.80969   0.71079
   1.07164   0.76109   0.22469
   0.57174   0.65889  -0.42321
  -0.03706   0.42979  -0.94531
  -0.79596   0.53939  -1.26611
  -1.24446   0.56909  -2.06541
  -1.75456   0.36849  -2.50011
  -2.64126   0.23479  -2.93191
  -3.00526   0.28059  -3.68251
  -3.71886   0.31519  -4.18941
  -4.38776   0.27499  -4.58731
  -4.77356   0.37109  -5.01991
  -5.43146   0.05259  -5.44121
  -5.95686   0.21769  -5.86481
  -6.54836   0.14379  -6.30461
  -6.99166   0.04839  -6.47461
  -7.27666  -0.05451  -7.02101
  -7.61436   0.08299  -7.20041
  -7.89136   0.09749  -7.34321
  -8.24706  -0.21091  -7.74581
  -8.46916  -0.23611  -7.76151
  -8.58646  -0.16111  -8.09651
  -8.80346  -0.22701  -7.97681
  -8.81536  -0.39531  -8.30491
  -9.08686  -0.28591  -8.32751
  -9.17006  -0.34021  -8.42621
  -9.09506  -0.26701  -8.41871
  -9.04896  -0.29551  -8.67291
  -9.06606  -0.16881  -8.70121
  -9.10926   0.00069  -8.51371
  -8.84276  -0.33201  -8.64761
  -8.80466  -0.05771  -8.77271
  -8.67466  -0.04811  -8.70561
  -8.43616  -0.12831  -8.66561
  -8.14786  -0.05491  -8.49661
  -7.83686   0.24719  -8.47811
  -7.65946   0.45989  -8.44091
  -7.27736   0.48379  -8.24741
  -6.96526   0.74519  -8.28171
  -6.62016   0.53429  -8.08111
  -6.21846   0.98649  -7.91701
  -5.89046   0.86839  -7.86601
  -5.49506   0.79779  -7.67691
  -5.13826   0.74869  -7.34741
  -4.69636   1.15109  -7.13681
  -4.29376   1.11039  -6.65421
  -3.98256   1.30399  -6.44121
  -3.63486   1.36449  -6.07251
  -3.22126   1.47259  -5.56071
  -2.92296   1.60719  -5.10171
  -2.56596   1.51139  -4.54451
  -2.09246   1.30889  -4.17811
  -1.85516   1.38979  -3.74771
  -1.36256   1.40169  -3.25621
  -1.00406   1.36849  -2.68041
  -0.54396   1.51319  -2.14401
  -0.27036   1.34859  -1.74371
   0.25544   1.33319  -1.21631
   0.54214   1.29649  -0.58331
   0.90214   1.22189   0.04539
   1.21574   1.33479   0.56609
   1.78544   1.29629   1.06529
   1.96084   1.32149   1.65979
   2.23814   1.07109   2.23309
   2.59614   1.12179   2.85619
   2.69384   1.13239   3.38789
   3.19934   1.01009   3.97499
   3.43994   0.81039   4.54759
   3.74994   0.66469   5.03559
   3.90424   0.39539   5.57289
   4.27044   0.53969   6.16059
   4.38664   0.46129   6.50079
   4.73174   0.09399   7.02899
   4.88934  -0.14311   7.51559
   5.18364  -0.23001   7.93009
   5.37354  -0.44261   8.34349
   5.41674  -0.49781   8.91399
   5.40484  -0.57701   9.20999
   5.55144  -0.56301   9.81059
   5.64314  -0.48791  10.20389
   5.70714  -0.92021  10.54879
   5.55494  -0.66561  10.87519
   5.54914  -0.86951  11.19079
   5.59544  -0.75101  11.56579
   5.51914  -0.69791  11.82329
   5.54004  -0.61561  12.29489
   5.27154  -1.00251  12.55299
   5.29754  -0.67901  12.77669
   5.17474  -0.75591  12.96919
   5.15634  -0.81501  13.29769
   5.21964  -0.87821  13.47649
   4.92884  -0.85501  13.82649
   4.98304  -1.01381  13.82999
   4.85194  -0.84291  13.91909
   4.61224  -1.01211  14.04769
   4.62414  -0.98291  14.05219
   4.57904  -0.85411  14.23479
   4.22644  -1.25811  13.91159
   4.19884  -1.05071  13.98669
   4.03494  -0.93641  13.78679
   3.80134  -0.96071  13.67319
   3.66994  -0.99461  13.49359
   3.41324  -0.68851  13.22679
   3.35804  -1.22541  12.93829
   3.18814  -1.09771  12.61749
   2.86144  -1.12251  12.12229
   2.61294  -1.35751  11.86769
   2.37534  -0.90761  11.44819
   2.13804  -0.93191  10.86209
   1.86454  -1.11731  10.29229
   1.48454  -1.10821   9.98809
   1.39594  -1.04741   9.38439
   1.03824  -0.89101   8.75519
   0.75154  -0.98311   8.26069
   0.54864  -1.01351   7.58309
   0.21574  -0.83861   6.98269
   0.14554  -0.89131   6.25509
  -0.27666  -0.82161   5.57779
  -0.50536  -0.67731   4.97479
  -0.80696  -0.81601   4.04769
  -0.95596  -0.85951   3.24739
  -1.19366  -0.81341   2.59689
  -1.48996  -0.77361   1.90769
  -1.80046  -1.10051   1.15599
  -1.73496  -0.99131   0.32709
  -1.91196  -0.80851  -0.31311
  -2.27366  -0.87071  -1.05141
  -2.56966  -1.15831  -1.64901
  -2.78546  -0.80661  -2.28921
  -3.08026  -1.13981  -2.92491
  -3.37796  -1.12971  -3.55341
  -3.41276  -1.10141  -4.10751
  -3.75576  -0.95561  -4.54641
  -3.82336  -0.69581  -5.29901
  -4.14436  -1.03501  -5.77041
  -4.28186  -0.92661  -6.39771
  -4.45436  -0.88191  -6.96941
  -4.59916  -0.55781  -7.55931
  -4.82496  -0.56701  -7.99231
  -4.90216  -0.57091  -8.82161
  -5.20216  -0.47861  -9.33831
  -5.20956  -0.55971  -9.72101
  -5.24866  -0.26601 -10.27701
  -5.32816  -0.33361 -10.62891
  -5.32256  -0.30981 -11.01311
  -5.39076  -0.10661 -11.27281
  -5.41976  -0.16111 -11.50991
  -5.67766  -0.40211 -11.70371
  -5.51566  -0.35121 -11.87351
  -5.51546  -0.08181 -11.76761
  -5.61596  -0.17581 -11.88421
  -5.41906  -0.18961 -11.57161
  -5.49906  -0.27241 -11.37271
  -5.17896  -0.20111 -11.14001
  -5.05786  -0.22211 -10.82791
  -4.96366  -0.20921 -10.53521
  -4.86726  -0.34881 -10.19191
  -4.65266  -0.51201  -9.73041
  -4.47006  -0.87891  -9.41131
  -4.40486  -0.74721  -8.77551
  -4.04756  -0.68411  -8.35561
  -3.74616  -0.67081  -7.95021
  -3.51446  -0.68501  -7.37901
  -3.30946  -0.74301  -6.79331
  -3.07496  -0.71401  -6.23431
  -2.81566  -0.54711  -5.73581
  -2.42186  -0.76831  -5.16741
  -2.02186  -0.88561  -4.44451
  -1.65426  -0.80451  -3.87701
  -1.40996  -0.54901  -3.14101
  -1.12076  -0.41941  -2.44611
  -0.88226  -0.34741  -1.86901
  -0.63766  -0.14001  -1.18731
  -0.31996  -0.50481  -0.75071
  -0.02486  -0.26821  -0.14841
   0.10654   0.11439   0.23969
   0.21224   0.33899   0.80319
   0.25194   0.33269   1.14519
   0.57644   0.53639   1.60419
   0.53854   0.61169   1.91369
   0.79484   0.93149   2.35349
   0.79064   0.90669   2.75899
   1.08964   1.05709   2.90979
   1.29164   1.09169   3.18959
   1.44814   1.29179   3.63829
   1.89074   1.27709   4.05219
   1.86384   1.32479   4.10969
   2.13644   1.49709   4.31329
   2.28724   1.40869   4.64489
   2.57394   1.53119   4.97359
   2.83484   1.80619   4.99839
   3.02444   1.87349   5.31939
   3.23274   1.98689   5.30259
   3.55304   2.16699   5.33439
   3.67184   2.02599   5.48329
   3.96154   2.04559   5.65069
   4.31324   2.13259   5.64579
   4.59424   2.42159   5.80619
   4.71834   2.35919   5.76389
   4.94094   2.10849   5.66469
   5.29564   2.43869   5.59459
   5.47214   2.34229   5.55509
   5.68214   2.31849   5.35919
   5.86054   2.17049   5.14829
   6.17194   2.18219   4.97659
   6.16384   2.15919   4.80029
   6.25964   2.13379   4.56789
   6.48454   2.10239   4.14779
   6.59634   2.26909   3.75849
   6.67424   2.25999   3.47929
   6.68964   2.14939   3.02459
   6.79884   2.26029   2.70959
   6.81334   2.40969   2.51319
   6.93324   2.28739   1.84969
   6.81754   2.35329   1.47279
   6.91994   2.59199   1.15179
   6.91804   2.53079   0.79519
   6.86244   2.45899   0.42809
   6.82944   2.86349  -0.03391
   6.79764   2.60139  -0.50451
   6.67534   2.59179  -0.77321
   6.40764   2.37689  -1.30321
   6.21474   2.10149  -1.58961
   5.99424   1.95419  -1.64671
   5.59424   1.66829  -2.19521
   5.35804   1.96469  -2.76901
   5.02514   1.63969  -3.00791
   4.77454   1.21679  -3.30701
   4.31904   1.61469  -3.61491
   4.09814   1.56559  -3.81971
   3.66694   1.47399  -3.96071
   3.18574   1.36359  -4.34301
   2.85304   1.60539  -4.39041
   2.31834   1.19549  -4.64971
   1.85214   1.38859  -4.85501
   1.39434   1.34019  -4.89661
   0.95754   1.02829  -5.08421
   0.64244   1.10689  -5.02801
   0.23254   0.80809  -5.09301
  -0.18386   1.08509  -5.06991
