********************************************************************************
              CENTRO DE INSTRUMENTACION Y REGISTRO SISMICO  A.C.

    Anaxagoras 814, Col. Narvarte, Benito Juarez, C.P. 03020 Mexico, D.F.
           Tels. 5687 45 42/ 5687 45  82             Fax. 5669 25 12
********************************************************************************
ARCHIVO ESTANDAR DE ACELERACION:
VERSION DEL FORMATO                    : 2.0
NOMBRE DEL ARCHIVO                     : AU1120220919180509
FECHA Y HORA DE CREACION               : 19/SEP/22, 19:42
REF. CATALOGO ACELEROGRAMAS, SMIS 1996 : REGISTRO No.     /PAG.


================================================================================
DATOS DE LA ESTACION:
NOMBRE DE LA ESTACION                  : AUTÓDROMO
CLAVE DE LA ESTACION                   : AU11
LOCALIZACION DE LA ESTACION            : Del. Iztacalco, Cd. Deportiva          
                                       : Magdalena Mixhuca,                     
                                       : Col. Granjas México                    
                                       :                                        
                                       : 
COORDENADAS DE LA ESTACION             : 19.3919 LAT. N
                                       : 99.0869 LONG. W
ALTITUD (msnm)                         : 2234
TIPO DE SUELO                          : Terreno blando, material compresible
                                       : (arcillas)                
                                       : 
INSTITUCION RESPONSABLE                : CIRES, A. C.
                                       : 

================================================================================
DATOS DEL ACELEROGRAFO:
MODELO DEL ACELEROGRAFO                : RAD_IO14
NUMERO DE SERIE DEL ACELEROGRAFO       : 
NUMERO DE CANALES                      : 3
ORIENTACION C1-C6 (rumbo;orientacion)  : /S00E/+V/N90W
ORIENTACION C7-C12 (rumbo;orientacion) : 
VEL. DE MUESTREO, C1-C6 (muestras/s)   : /100/100/100
VEL. DE MUESTREO, C7-C12 (muestras/s)  : 
ESC. COMPLETA DE SENSORES, C1-C6, (g)  : /2.0/2.0/2.0
ESC. COMPLETA DE SENSORES, C7-C12, (g) : 
FREC. NAT. DE SENSORES, C1-C6, (Hz)    : /51.77/52.56/52.29
FREC. NAT. DE SENSORES, C7-C12, (Hz)   : 
AMORTIGUAMIENTO DE SENSORES, C1-C6     : /0.5912/0.6083/0.6067
AMORTIGUAMIENTO DE SENSORES, C7-C12    : 
INTERVALO DE MUESTREO, C1-C6, (s)      : /0.01/0.01/0.01
INTERVALO DE MUESTREO, C7-C12, (s)     : 
UMBRAL DE DISPARO, C1-C6, (Gal)        : / / /
UMBRAL DE DISPARO, C7-C12, (Gal)       : 
MEMORIA DE PREEVENTO (s)               : 60
TIEMPO DE POSEVENTO (s)                : 90


================================================================================
DATOS DEL SISMO:
FECHA DEL SISMO (GMT)                  : 19/SEP/22
HORA EPICENTRO (GMT)                   : 18:05:09.0
MAGNITUD(ES)                           : /Mc=7.7
COORDENADAS DEL EPICENTRO              : 18.22 LAT. N
                                       : 103.29 LONG. W
PROFUNDIDAD FOCAL (km)                 : 15
FUENTE DE LOS DATOS EPICENTRALES       : SSN
                                       : INSTITUTO DE GEOFISICA, UNAM

================================================================================
DATOS DE ESTE REGISTRO:
HORA DE LA PRIMERA MUESTRA (GMT)       : 18:04:26.870.00
EXACTITUD DEL TIEMPO (s)               : 
DURACION DEL REGISTRO (s), C1-C6       : /600.21/600.21/600.21
DURACION DEL REGISTRO (s), C7-C12      : 
NUM. TOTAL DE MUESTRAS, C1-C6          : /60021/60021/60021
NUM. TOTAL DE MUESTRAS, C7-C12         : 
ACEL. MAX. (Gal), C1-C6                : /28.14123/5.30157/20.37961
ACEL. MAX., C1-C6, EN LA MUESTRA       : /23514/20523/22690
ACEL. MAX. (Gal), C7-C12               : 
ACEL. MAX., C7-C12, EN LA MUESTRA      : 
UNIDADES DE LOS DATOS                  : Gal (cm/s/s)
FACTOR DE DECIMACION                   : 1
FORMATO DATOS (FORTRAN,10 campos/dato) : 3F10.5


================================================================================
CALIDAD DEL ACELEROGRAMA:
REGISTRO DIGITAL COMPLETO CON TIEMPO ABSOLUTO CORRECTO.


================================================================================
COMENTARIOS:














================================================================================
DATOS DE ACELERACION:
---------+---------+---------+---------+---------+---------+---------+---------+
   CANAL-1   CANAL-2   CANAL-3   CANAL-4   CANAL-5   CANAL-6   CANAL-7   CANAL-8
      N00E        +V      N90W
---------+---------+---------+---------+---------+---------+---------+---------+
[...]
 -16.57113  -1.35517   5.26449
 -16.33873  -1.60857   5.48429
 -16.04813  -1.64977   5.70879
 -15.75193  -1.88047   5.82289
 -15.55103  -2.01447   6.25419
 -15.27913  -1.77317   6.44059
 -15.12033  -2.17327   6.47729
 -14.85853  -2.17867   6.86499
 -14.56183  -2.23057   6.96029
 -14.44093  -2.34837   7.25939
 -14.00973  -2.41637   7.35669
 -13.59613  -2.40447   7.87549
 -13.33223  -2.59037   7.96669
 -13.01793  -2.67597   8.16589
 -12.73923  -2.63217   8.32269
 -12.38033  -2.83727   8.63579
 -12.16173  -2.86977   8.72539
 -11.83583  -2.83447   8.77939
 -11.51593  -2.81947   9.12729
 -11.11663  -2.67917   9.23579
 -10.73323  -2.80107   9.54669
 -10.44813  -2.89737   9.61879
 -10.08273  -2.84097   9.64889
  -9.71233  -2.84307   9.96289
  -9.49263  -2.82397   9.98049
  -9.26603  -2.76647  10.03309
  -8.94553  -2.82577  10.19809
  -8.63383  -2.60107  10.28509
  -8.42663  -2.55247  10.60939
  -8.31723  -2.52837  10.67319
  -7.88543  -2.29417  10.79639
  -7.69293  -2.30117  11.19509
  -7.46593  -2.09257  11.30449
  -7.11033  -1.91227  11.41629
  -6.88653  -1.87867  11.57899
  -6.68783  -1.77597  11.81369
  -6.46823  -1.60367  11.87589
  -6.21483  -1.59647  12.01159
  -5.86953  -1.41827  12.00129
  -5.65373  -1.45617  12.14999
  -5.35793  -1.14117  12.29379
  -5.18863  -1.05637  12.29259
  -4.85993  -1.02147  12.32719
  -4.44023  -0.73417  12.46229
  -4.08533  -0.63807  12.67249
  -3.60223  -0.58377  12.58089
  -3.33593  -0.49307  12.72749
  -3.31043  -0.32127  12.86779
  -2.75963  -0.35607  13.06109
  -2.39813  -0.20597  12.99989
  -2.07013  -0.10547  13.13729
  -1.73363   0.02483  13.22339
  -1.44183   0.04373  13.08609
  -1.11503   0.18633  13.08959
  -0.63403   0.37313  13.29329
  -0.29553   0.36123  13.15209
   0.17867   0.29343  13.28109
   0.53737   0.63313  13.28599
   0.67337   0.53313  13.30379
   1.18217   0.54503  13.37349
   1.54107   0.64203  13.39499
   1.92947   0.65143  13.28599
   2.29117   0.65093  13.46069
   2.85087   0.73743  13.46629
   3.25087   0.69443  13.31899
   3.64957   0.71543  13.41349
   4.09007   0.73443  13.51559
   4.49527   0.98083  13.55279
   5.00517   0.85833  13.48759
   5.45317   1.00183  13.54839
   5.66637   0.93713  13.57269
   6.14967   1.01073  13.57079
   6.69847   0.87723  13.63559
   7.12257   0.98413  13.54069
   7.41297   1.09123  13.51069
   7.97297   1.06993  13.42019
   8.23287   1.22613  13.44949
   8.57007   1.04603  13.41139
   9.13167   1.16293  13.11259
   9.49457   1.16673  13.09099
  10.01337   1.22233  12.99169
  10.52287   1.21373  12.85069
  10.78427   1.46313  12.91189
  11.25307   1.42763  12.72959
  11.68327   1.44233  12.48549
  12.07037   1.47273  12.32319
  12.42857   1.68483  12.30659
  12.85487   1.56563  12.07209
  13.28597   1.66143  11.95009
  13.48637   1.78353  11.81799
  14.14267   1.85063  11.66319
  14.39497   1.82463  11.49949
  14.96707   1.94223  11.17659
  15.36947   2.10963  11.01229
  15.86817   1.90293  10.83949
  16.22987   2.00443  10.59539
  16.48217   2.10853  10.29589
  17.13967   2.04323  10.11299
  17.63737   2.04563   9.88789
  17.99027   1.97683   9.77909
  18.49707   2.22233   9.55699
  19.02127   2.07953   9.38749
  19.39307   1.97073   9.20719
  19.94577   2.07113   9.05199
  20.35897   2.07533   8.61449
  20.76387   1.85973   8.40059
  21.19037   2.10103   8.07049
  21.71317   2.07503   7.95569
  22.28317   1.96073   7.69029
  22.57757   1.85523   7.53249
  22.98737   2.06363   7.18249
  23.41927   1.90433   7.00289
  23.92337   1.97573   6.93699
  24.23857   1.97683   6.61169
  24.51017   1.78843   6.33369
  24.94347   1.77863   6.10179
  25.14457   1.65023   5.92759
  25.51627   1.84053   5.83199
  25.56707   1.78563   5.88759
  25.98037   1.77933   5.69819
  26.17847   1.69983   5.49019
  26.50907   1.81113   5.33719
  26.55437   1.70893   5.34539
  26.60097   1.83563   5.15599
  26.97577   1.91463   5.09479
  26.96427   1.81203   4.94769
  26.95867   2.07813   4.74829
  27.05877   2.18543   4.83269
  27.04917   2.13253   4.80019
  27.03627   2.22773   4.74479
  26.97647   2.18753   4.65989
  26.99347   2.36143   4.52709
  26.97807   2.34913   4.57779
  26.79287   2.17283   4.61879
  26.73657   2.49613   4.58019
  26.55487   2.52373   4.36999
  26.49077   2.50943   4.44739
  26.44407   2.46033   4.36059
  26.25837   2.52633   4.35149
  26.04187   2.59743   4.22449
  26.01847   2.58473   4.19159
  25.78637   2.75753   4.19319
  25.63067   2.64013   4.11349
  25.35797   2.64203   3.87099
  25.22587   2.70613   3.76439
  25.11137   2.59273   3.70969
  24.80387   2.60113   3.60799
  24.58827   2.69463   3.47729
  24.30147   2.53893   3.58339
  24.01107   2.42763   3.33889
  23.74147   2.49243   3.14829
  23.55437   2.48373   3.01529
  23.40387   2.34093   2.71059
  23.20577   2.25233   2.66199
  23.00287   2.31773   2.43919
  22.64137   2.18403   2.20679
  22.45737   2.18303   2.06019
  22.24807   1.96443   2.04899
  22.20537   1.78513   1.73819
  22.00727   1.97923   1.46699
  21.80737   1.81573   1.25069
  21.58317   1.67083   1.11229
  21.42467   1.65143   1.01079
  21.33137   1.53053   0.61899
  21.14967   1.53633   0.57109
  21.01567   1.36173   0.27359
  20.85667   1.23213   0.27129
  20.61547   1.15873  -0.04131
  20.50457   1.23543  -0.34951
  20.23357   1.10333  -0.62391
  20.20347   0.84613  -0.79911
  20.04307   0.94883  -1.14651
  19.85667   0.73743  -1.38221
  19.64937   0.72623  -1.49751
  19.44967   0.50623  -1.77551
  19.18357   0.55573  -2.14741
  19.09517   0.38443  -2.31391
  18.67507   0.49403  -2.54231
  18.48077   0.44773  -2.66631
  18.06577   0.23923  -2.91741
  17.73447   0.26683  -3.15161
  17.50647   0.15223  -3.35601
  17.18427   0.06333  -3.74761
  16.85457  -0.00097  -3.87291
  16.50857  -0.00517  -4.13581
  16.03577  -0.03647  -4.33241
  15.81787  -0.20977  -4.67231
  15.41507  -0.33057  -4.91551
  15.08697  -0.31047  -4.96481
  14.73817  -0.31237  -5.26831
  14.29677  -0.45827  -5.69811
  13.94607  -0.41037  -5.85851
  13.54247  -0.47907  -6.01231
  13.25167  -0.48937  -6.40161
  12.80297  -0.59057  -6.57841
  12.23357  -0.60347  -6.88581
  11.96357  -0.51457  -7.23561
  11.44287  -0.65377  -7.54751
  11.09127  -0.70657  -7.72871
  10.72767  -0.74677  -8.15211
  10.29817  -0.87027  -8.44601
   9.83687  -0.81387  -8.80981
   9.42717  -0.80387  -9.11451
   9.05217  -0.92377  -9.23631
   8.57497  -0.99887  -9.61251
   8.24037  -1.02897  -9.82601
   7.81047  -1.14797 -10.30851
   7.37597  -1.06897 -10.58791
   6.94747  -1.13767 -10.73061
   6.65237  -1.16647 -10.99691
   6.14287  -1.06737 -11.29871
   6.01077  -1.30467 -11.47031
   5.53827  -1.33477 -11.89611
   5.23287  -1.38957 -12.15331
   4.76597  -1.40377 -12.47411
   4.47027  -1.46197 -12.56951
   4.18477  -1.70607 -12.77331
   3.80947  -1.64717 -12.99801
   3.54717  -1.71547 -13.13831
   3.31567  -1.89387 -13.32821
   2.98927  -1.78227 -13.59121
   2.76557  -1.79077 -13.79441
   2.37087  -1.80757 -13.77831
   2.01527  -1.99177 -13.99151
   1.99697  -1.98127 -14.05041
   1.75707  -2.00347 -14.21811
   1.64697  -1.99277 -14.31271
   1.30847  -1.94057 -14.27721
   0.93757  -1.84617 -14.54281
   0.82487  -1.89597 -14.44341
   0.74727  -1.91227 -14.61811
   0.32197  -2.02197 -14.86131
   0.17887  -1.78187 -14.69761
  -0.02103  -1.87167 -14.92771
  -0.39743  -1.90737 -15.03051
  -0.59543  -1.65627 -15.14671
  -0.94643  -1.87977 -15.31111
  -1.21323  -1.57047 -15.29781
  -1.32943  -1.78047 -15.41091
  -1.75543  -1.79707 -15.66091
  -2.05323  -1.86507 -15.75301
  -2.31303  -1.93547 -15.78851
  -2.38523  -1.74027 -15.81171
  -2.69343  -1.81877 -15.97541
  -2.92213  -1.85057 -16.09181
  -3.26483  -1.92447 -15.93611
  -3.65063  -1.75847 -16.16941
  -3.94123  -1.87677 -16.20381
  -4.26483  -2.04627 -16.06981
  -4.43253  -2.12347 -16.08831
  -4.87063  -2.23477 -16.07471
  -5.03343  -2.27707 -16.06281
  -5.66443  -2.15947 -15.90641
  -5.86783  -2.37827 -15.82741
  -6.30393  -2.48327 -15.78881
  -6.79703  -2.61237 -15.50281
  -7.04133  -2.60227 -15.58121
  -7.26163  -2.75477 -15.38851
  -7.82013  -2.78747 -15.00441
  -8.10333  -2.90317 -14.89261
  -8.57653  -3.09067 -14.54701
  -8.90993  -3.02387 -14.31721
  -9.17393  -3.05847 -14.17431
  -9.71613  -3.12527 -13.75671
  -9.99243  -3.08257 -13.38151
 -10.29643  -3.29507 -13.19421
 -10.66963  -3.20787 -12.79671
 -11.15633  -3.20127 -12.48741
 -11.41803  -3.16997 -12.12381
 -11.72083  -3.18397 -11.65711
 -12.24173  -3.21327 -11.40511
 -12.60713  -3.28617 -10.98491
 -13.01213  -3.05027 -10.60291
 -13.21503  -3.13727 -10.18771
 -13.58163  -3.11087  -9.93001
 -14.13393  -3.11267  -9.66371
 -14.38293  -3.03277  -9.14231
 -14.72503  -2.99887  -8.86221
 -15.02173  -3.06027  -8.52431
 -15.43223  -2.90947  -8.16471
 -15.60413  -2.95717  -7.78481
 -16.15403  -3.04957  -7.46661
 -16.23403  -3.05957  -7.02631
 -16.72243  -3.03277  -6.83721
 -17.13343  -2.97917  -6.54421
 -17.32733  -2.96047  -6.22481
 -17.58803  -2.87027  -5.83441
 -18.00553  -2.84497  -5.64761
 -18.36773  -2.66237  -5.23111
 -18.59433  -2.74347  -4.99731
 -18.92303  -2.69697  -4.74151
 -19.22983  -2.43507  -4.46241
 -19.38953  -2.48347  -4.12081
 -19.77733  -2.30907  -3.95201
 -20.17723  -2.21927  -3.75351
 -20.40003  -2.16367  -3.51501
 -20.67523  -2.03787  -3.12871
 -20.98033  -1.96817  -2.81641
 -21.21973  -1.82157  -2.71441
 -21.58823  -1.54477  -2.43271
 -21.95603  -1.43017  -2.24661
 -22.34553  -1.40707  -2.11871
 -22.40823  -1.25647  -1.79861
 -22.61043  -1.04297  -1.56761
 -23.02593  -0.93707  -1.26391
 -23.41073  -0.65277  -1.01491
 -23.78393  -0.44657  -0.64551
 -24.11593  -0.44427  -0.37871
 -24.31353  -0.30677  -0.07381
 -24.51363  -0.15477   0.02039
 -24.78603   0.12203   0.46049
 -25.01023   0.17143   0.78149
 -25.38173   0.30093   1.04849
 -25.59453   0.38233   1.22599
 -25.61063   0.65213   1.48339
 -25.94313   0.57583   1.71809
 -26.14263   0.82983   2.22739
 -26.30013   0.89153   2.42279
 -26.55693   0.93263   2.50249
 -26.75353   1.16553   2.99419
 -27.05463   1.31473   3.19459
 -27.12603   1.35863   3.50469
 -27.41423   1.48703   3.67929
 -27.34693   1.58713   3.95709
 -27.55523   1.55153   4.07279
 -27.71403   1.71993   4.16099
 -27.77853   1.75473   4.27969
 -27.90663   1.88893   4.55259
 -28.09493   1.93243   4.87869
 -27.95643   2.05703   4.98539
 -27.96933   2.11033   4.86449
 -28.02963   1.93753   5.07959
 -28.11083   2.25393   5.41489
 -28.14123   2.13563   5.41649
 -27.99293   2.14683   5.57619
 -27.91833   2.14173   5.72749
 -27.99013   2.18823   5.69149
 -27.66043   2.11713   5.57899
 -27.59453   2.23893   5.83479
 -27.66253   2.03623   6.08589
 -27.31493   2.15623   5.99049
 -27.24033   2.21233   6.16209
 -27.01193   1.95933   6.14649
 -26.95923   2.03273   6.08189
 -26.56643   2.12513   6.17189
 -26.44143   1.97993   6.12939
 -25.97563   1.76103   6.10059
 -25.69743   1.70123   6.07069
 -25.34833   1.67363   6.00869
 -24.83233   1.52673   6.02509
 -24.63053   1.59533   5.95869
 -24.31653   1.55133   5.80349
 -23.82853   1.48543   5.83179
 -23.25993   1.44563   5.73259
 -22.84143   1.32943   5.81089
 -22.49003   1.49783   5.73799
 -21.93213   1.46533   5.55379
 -21.50893   1.32333   5.41739
 -20.91083   1.32293   5.42379
 -20.39603   1.30743   5.25699
 -19.70353   1.33643   5.11139
 -19.19773   1.30163   4.94489
 -18.95133   1.14143   4.60989
 -18.40583   0.97453   4.50489
 -17.98153   1.07923   4.42869
 -17.41173   0.88593   4.36369
 -16.50293   0.87333   4.12119
 -16.20923   0.98153   3.78379
 -15.69693   0.68503   3.78189
 -15.13723   0.56023   3.86499
 -14.41663   0.44233   3.95779
 -13.61673   0.58663   3.97319
 -13.17863   0.49313   3.75319
 -12.69743   0.24503   3.55539
 -12.30933   0.21813   3.61829
 -11.73393   0.15993   3.55209
 -11.09203   0.24483   3.39869
 -10.57283   0.34483   3.29939
 -10.04273   0.14703   3.46979
  -9.72293   0.19593   3.35669
  -9.28563   0.05403   3.24109
  -8.92563   0.05843   3.18849
  -8.51293   0.05383   3.17499
  -7.98333   0.08583   3.24909
  -7.70443   0.20083   3.10579
  -7.24053   0.19363   2.86939
  -6.90153   0.10523   2.95499
  -6.47903   0.21693   2.70059
  -6.23163   0.33413   2.91449
  -5.77993   0.41903   2.83689
  -5.51103   0.32663   2.87549
  -5.14683   0.21023   2.81399
  -4.82483   0.24413   2.84129
  -4.63963   0.39823   2.94909
  -4.47763   0.42833   3.09339
  -4.11853   0.37273   3.13429
  -3.83143   0.22233   2.85819
  -3.69833   0.31093   2.80979
  -3.40113   0.36453   3.02579
  -3.19593   0.33293   3.17829
  -3.08923   0.13303   2.95539
  -2.71373   0.20293   3.08749
  -2.41773   0.21483   3.03729
  -2.20293   0.12723   2.98259
  -1.99083   0.13003   2.96879
  -1.93753   0.17813   2.97199
  -1.77833   0.15343   3.02559
  -1.39133   0.14913   2.85579
  -1.17883   0.12063   2.95429
  -0.92253   0.35373   2.98069
  -0.81763   0.10213   2.74239
  -0.51623   0.09193   2.80699
  -0.47293   0.06103   2.75199
  -0.26043  -0.09637   2.67809
  -0.11083   0.02383   2.80089
  -0.08293  -0.18217   2.83059
   0.13517  -0.05357   2.78709
   0.22097  -0.15617   2.79459
   0.38867   0.09843   2.76719
   0.57077   0.21953   2.79459
   0.75357  -0.00137   2.70339
   0.90437  -0.02737   2.88649
   1.00167   0.30443   2.84949
   1.12517   0.34113   2.97389
   1.40057   0.23573   2.87659
   1.45857   0.37973   3.05409
   1.76787   0.21553   3.26169
   1.95957   0.56533   3.21889
   2.36357   0.59903   3.34099
   2.52517   0.64463   3.54509
   2.76417   0.57023   3.71509
   3.00537   0.57513   3.68609
   3.47487   0.69253   3.97669
   3.71087   0.80803   4.05529
   4.04957   0.80593   4.18619
   4.62567   0.88613   4.29769
   4.65747   0.78603   4.49269
   4.90367   0.97753   4.57919
   5.29047   0.73253   4.70619
   5.65777   0.90223   4.65969
   6.25797   1.10523   4.79849
   6.70217   1.06083   5.09149
   7.01477   1.17603   5.09199
   7.41197   1.19173   5.32129
   7.85807   1.42223   5.44879
   8.32877   1.48613   5.55539
   8.71857   1.32403   5.48409
   9.14947   1.49923   5.58699
   9.46977   1.44403   5.66059
   9.95727   1.44983   5.48339
  10.38137   1.48753   5.52919
  11.03787   1.48443   5.51329
  11.49357   1.66963   5.51839
  11.95747   1.76293   5.35829
  12.19527   1.67943   5.20979
  12.42887   1.82303   5.10789
  12.92757   1.81413   5.08849
  13.22357   1.70703   5.03519
  13.51797   1.85643   5.02019
  13.82637   1.75003   4.87149
  14.25937   1.69673   4.65269
  14.60347   1.94903   4.50679
  14.86517   1.81813   4.36689
  15.26517   1.86323   4.26499
  15.43587   1.81713   4.09099
  15.73067   1.94483   3.73799
  16.02457   1.89363   3.71649
  16.54437   1.94413   3.56219
  16.60347   1.92123   3.42119
  16.97477   1.80783   3.21729
  17.28437   1.98243   2.99349
  17.34237   1.99833   2.84509
  17.60417   2.14073   2.57319
  17.75387   2.03113   2.64769
  17.99067   1.96863   2.41319
  18.26537   1.92213   2.11089
  18.54107   2.05263   1.98119
