********************************************************************************
              CENTRO DE INSTRUMENTACION Y REGISTRO SISMICO  A.C.

    Anaxagoras 814, Col. Narvarte, Benito Juarez, C.P. 03020 Mexico, D.F.
           Tels. 5687 45 42/ 5687 45  82             Fax. 5669 25 12
********************************************************************************
ARCHIVO ESTANDAR DE ACELERACION:
VERSION DEL FORMATO                    : 2.0
NOMBRE DEL ARCHIVO                     : AU4620220919180509
FECHA Y HORA DE CREACION               : 19/SEP/22, 19:42
REF. CATALOGO ACELEROGRAMAS, SMIS 1996 : REGISTRO No.     /PAG.


================================================================================
DATOS DE LA ESTACION:
NOMBRE DE LA ESTACION                  : ESC. SEC. TÉC. NO. 14
CLAVE DE LA ESTACION                   : AU46
LOCALIZACION DE LA ESTACION            : Del. Benito Juárez, Col. del Valle,    
                                       : Entre Angel Urraza y Coyoacán.         
                                       :                                        
                                       :                                        
                                       : 
COORDENADAS DE LA ESTACION             : 19.3832 LAT. N
                                       : 99.1681 LONG. W
ALTITUD (msnm)                         : 2233
TIPO DE SUELO                          : Transición                          
                                       :                           
                                       : 
INSTITUCION RESPONSABLE                : CIRES, A. C.
                                       : 

================================================================================
DATOS DEL ACELEROGRAFO:
MODELO DEL ACELEROGRAFO                : RAD_IO14
NUMERO DE SERIE DEL ACELEROGRAFO       : 
NUMERO DE CANALES                      : 3
ORIENTACION C1-C6 (rumbo;orientacion)  : /N00E/+V/N90W
ORIENTACION C7-C12 (rumbo;orientacion) : 
VEL. DE MUESTREO, C1-C6 (muestras/s)   : /100/100/100
VEL. DE MUESTREO, C7-C12 (muestras/s)  : 
ESC. COMPLETA DE SENSORES, C1-C6, (g)  : /2.0/2.0/2.0
ESC. COMPLETA DE SENSORES, C7-C12, (g) : 
FREC. NAT. DE SENSORES, C1-C6, (Hz)    : /33/30/30
FREC. NAT. DE SENSORES, C7-C12, (Hz)   : 
AMORTIGUAMIENTO DE SENSORES, C1-C6     : /0.735/0.733/0.730
AMORTIGUAMIENTO DE SENSORES, C7-C12    : 
INTERVALO DE MUESTREO, C1-C6, (s)      : /0.01/0.01/0.01
INTERVALO DE MUESTREO, C7-C12, (s)     : 
UMBRAL DE DISPARO, C1-C6, (Gal)        : / / /
UMBRAL DE DISPARO, C7-C12, (Gal)       : 
MEMORIA DE PREEVENTO (s)               : 60
TIEMPO DE POSEVENTO (s)                : 90


================================================================================
DATOS DEL SISMO:
FECHA DEL SISMO (GMT)                  : 19/SEP/22
HORA EPICENTRO (GMT)                   : 18:05:09.0
MAGNITUD(ES)                           : /Mc=7.7
COORDENADAS DEL EPICENTRO              : 18.22 LAT. N
                                       : 103.29 LONG. W
PROFUNDIDAD FOCAL (km)                 : 15
FUENTE DE LOS DATOS EPICENTRALES       : SSN
                                       : INSTITUTO DE GEOFISICA, UNAM

================================================================================
DATOS DE ESTE REGISTRO:
HORA DE LA PRIMERA MUESTRA (GMT)       : 18:04:27.036.00
EXACTITUD DEL TIEMPO (s)               : 
DURACION DEL REGISTRO (s), C1-C6       : /547.41/547.41/547.41
DURACION DEL REGISTRO (s), C7-C12      : 
NUM. TOTAL DE MUESTRAS, C1-C6          : /54741/54741/54741
NUM. TOTAL DE MUESTRAS, C7-C12         : 
ACEL. MAX. (Gal), C1-C6                : /9.39164/3.62795/8.17252
ACEL. MAX., C1-C6, EN LA MUESTRA       : /18084/18805/21792
ACEL. MAX. (Gal), C7-C12               : 
ACEL. MAX., C7-C12, EN LA MUESTRA      : 
UNIDADES DE LOS DATOS                  : Gal (cm/s/s)
FACTOR DE DECIMACION                   : 1
FORMATO DATOS (FORTRAN,10 campos/dato) : 3F10.5


================================================================================
CALIDAD DEL ACELEROGRAMA:
REGISTRO DIGITAL COMPLETO CON TIEMPO ABSOLUTO CORRECTO.


================================================================================
COMENTARIOS:














================================================================================
DATOS DE ACELERACION:
---------+---------+---------+---------+---------+---------+---------+---------+
   CANAL-1   CANAL-2   CANAL-3   CANAL-4   CANAL-5   CANAL-6   CANAL-7   CANAL-8
      N00E        +V      N90W
---------+---------+---------+---------+---------+---------+---------+---------+
[...]
   3.83334   0.12765   0.31552
   3.55184   0.29435   0.41562
   3.66614   0.42835   0.33172
   3.34864   0.38015   0.41262
   3.29654   0.44425   0.44912
   3.32924   0.88045   0.33592
   3.22234   1.00095   0.59992
   2.86624   1.01585   0.09652
   2.66334   0.82855   0.00222
   2.85274   1.00625   0.16852
   2.66774   1.55175   0.16822
   2.35404   1.55835   0.14702
   2.24694   1.34675  -0.08028
   2.17844   1.36335  -0.24068
   2.13934   1.60555  -0.11508
   1.79524   1.67425  -0.29588
   1.80784   1.47415  -0.24068
   1.66354   1.55245  -0.28158
   1.57214   1.57095  -0.47498
   1.48824   1.41035  -0.50928
   1.45614   1.22985  -0.72748
   1.43984   1.25015  -0.55188
   1.20184   1.21925  -0.62338
   1.35614   1.06315  -0.63438
   1.45834   0.98035  -0.56498
   1.18494   0.71145  -0.64208
   1.14474   0.80385  -0.36478
   1.05124   0.81295  -0.37468
   1.08704   0.49755  -0.42088
   1.17634   0.40635  -0.32318
   0.97154   0.46525  -0.44738
   0.86954   0.50595  -0.21468
   1.01194   0.35695  -0.16678
   1.15244   0.34035  -0.17988
   0.97384   0.36375   0.06352
   0.96844   0.43955   0.17462
   0.95044   0.25735   0.33052
   0.90464   0.34715   0.33292
   0.84574   0.36585   0.33732
   0.86344   0.11615   0.47132
   0.78704   0.08275   0.47102
   0.74444   0.05915   0.72822
   0.76764  -0.08065   0.88982
   0.79664  -0.20995   0.95782
   0.75104  -0.14055   1.13062
   0.47604  -0.36055   1.10492
   0.51584  -0.43635   1.14112
   0.68884  -0.53385   1.48582
   0.46014  -0.36755   1.44342
   0.25534  -0.55645   1.48182
   0.14284  -0.74285   1.15612
   0.38904  -0.58435   1.31252
   0.04534  -0.60065   1.49392
  -0.29266  -0.68625   1.56202
  -0.11806  -0.64045   1.52712
  -0.19946  -0.25235   1.56922
  -0.29406   0.21645   1.44442
  -0.45126  -0.07185   1.29012
  -0.58266  -0.16675   1.13692
  -0.82906  -0.11575   0.91952
  -0.86666   0.23655   1.06192
  -0.59596   0.50125   1.15262
  -0.86386   0.80775   1.14812
  -1.09956   0.86555   1.15982
  -1.26956   0.79815   0.85472
  -1.20266   0.67965   0.49862
  -1.25106   0.57565   0.52902
  -1.40046   0.71145   0.52322
  -1.55176   0.94925   0.45372
  -1.81016   0.97375   0.19562
  -1.93236   0.79355  -0.02388
  -2.20476   0.70355  -0.23198
  -2.13696   0.41875  -0.35898
  -2.13516   0.63715  -0.58508
  -2.41076   0.75705  -0.69988
  -2.62326   0.60505  -0.92288
  -2.49306   0.59435  -1.09898
  -2.61486   0.43485  -1.59698
  -2.65556   0.45425  -1.60608
  -2.50896   0.54035  -1.70408
  -2.38066   0.70065  -1.81978
  -2.66566   0.78935  -1.93558
  -2.64666   0.98155  -2.10388
  -2.48466   1.12105  -2.19578
  -2.61396   0.92045  -2.47638
  -2.17226   0.77835  -2.64028
  -2.14186   0.81525  -2.70338
  -2.20806   0.58235  -2.61238
  -1.84236   0.90875  -2.24188
  -1.90626   1.01375  -2.48948
  -1.67426   1.00905  -2.45298
  -1.72316   0.76895  -2.37178
  -1.48696   0.76335  -2.08988
  -1.38946   0.91585  -1.89838
  -1.40726   0.80025  -1.81978
  -1.25106   0.95745  -1.56798
  -0.79536   0.91975  -1.59858
  -0.73036   0.84755  -1.38518
  -0.68576   0.53355  -1.12398
  -0.38736   0.45445  -0.92968
  -0.21316   0.42295  -0.75268
  -0.23796   0.56415  -0.45598
  -0.17186   0.40495  -0.27578
  -0.00346   0.18425  -0.15648
   0.11954   0.27535  -0.00688
   0.39184   0.44955   0.55222
   0.26094   0.38625   0.69602
   0.17934   0.11805   0.65812
   0.32454   0.03365   0.97442
   0.43634   0.11755   1.18492
   0.46744   0.31985   1.31392
   0.44634   0.08815   1.40932
   0.46274  -0.00095   1.65252
   0.33154  -0.04985   1.96742
   0.41204  -0.10715   2.26862
   0.40314   0.12785   2.20072
   0.51344   0.14185   2.19402
   0.32664  -0.12275   2.30902
   0.30284  -0.28385   2.43502
   0.25514  -0.29695   2.52782
   0.17184  -0.12515   2.54142
   0.23054  -0.19295   2.64902
   0.48334  -0.34415   2.72942
   0.41554  -0.52425   2.57112
   0.52494  -0.66145   2.61272
   0.62924  -0.43355   2.54192
   0.53454  -0.79245   2.38502
   0.97964  -0.76015   2.31092
   0.99064  -0.68855   2.42872
   1.13444  -0.58245   2.42502
   0.93244  -0.47885   2.32092
   1.06764  -0.61775   2.03122
   1.20294  -0.68465   2.04782
   1.52564  -0.63105   2.01492
   1.36174  -0.41625   2.08812
   1.32714  -0.51235   1.80022
   1.67294  -0.51935   1.65552
   1.56704  -0.28415   1.46402
   1.70214  -0.45435   1.64872
   1.71364  -0.37205   1.41842
   1.81644  -0.35145   1.32072
   1.53054  -0.59465   1.31702
   1.97034  -0.47555   1.40492
   1.87614  -0.40895   1.13862
   1.80944  -0.19335   0.76402
   1.59554  -0.45685   0.43362
   1.54484  -0.85645   0.50612
   1.85764  -0.84595   0.26762
   1.85344  -0.71265   0.17602
   1.69934  -0.55855  -0.13408
   1.74514  -0.99535  -0.18528
   1.78654  -1.03725  -0.37258
   1.84364  -1.00215  -0.35098
   1.95794  -0.92965  -0.50248
   1.99184  -1.13445  -0.70948
   1.95214  -1.18145  -0.76178
   1.99864  -1.17355  -0.79808
   2.17164  -0.97455  -0.71668
   2.05104  -0.81955  -0.79148
   2.01034  -0.98855  -0.96968
   2.22614  -1.14985  -0.82538
   2.14684  -0.99885  -0.72978
   2.13864  -0.86815  -0.88998
   2.23964  -0.74495  -0.82328
   1.99654  -0.65675  -0.77328
   2.08884  -1.06125  -0.84318
   2.21164  -1.04395  -0.62948
   2.13634  -0.78885  -0.36998
   2.02694  -0.77675  -0.46398
   2.03164  -0.88595  -0.44918
   1.91984  -0.91725  -0.42188
   1.58224  -0.89875  -0.12628
   1.53054  -0.92405  -0.12538
   1.41204  -1.02505  -0.01578
   1.25654  -0.91495   0.23112
   0.81364  -1.01175   0.39392
   0.59534  -1.00255   0.53162
   0.48404  -1.25275   0.71702
   0.39304  -1.30355   0.98542
   0.32614  -0.93335   1.03362
  -0.04836  -1.23225   1.11842
  -0.24106  -1.13115   1.01442
  -0.35746  -1.16605   1.10422
  -0.43016  -1.24225   1.28022
  -0.76896  -1.29365   1.03872
  -0.75356  -1.18335   1.40162
  -0.95136  -1.03725   1.22462
  -1.10146  -1.16275   1.25242
  -1.20176  -1.05265   1.06092
  -1.05146  -0.88995   0.93162
  -1.25526  -0.98905   1.10722
  -1.53356  -0.97755   0.90292
  -1.57586  -1.04935   0.75742
  -1.61396  -0.99065   0.67982
  -1.51786  -0.92915   0.74372
  -1.43366  -0.70655   0.56132
  -1.62396  -0.73115   0.50562
  -1.72386  -0.85345   0.42572
  -1.84896  -0.78725   0.19002
  -1.68386  -0.49995   0.16472
  -1.80966  -0.54245   0.20242
  -1.62006  -0.75145   0.35862
  -1.56256  -0.55835  -0.16698
  -1.52536  -0.74305  -0.29378
  -1.75466  -0.90115  -0.13308
  -1.88256  -1.05025  -0.53718
  -1.63356  -1.15945  -0.51098
  -1.46966  -0.98485  -0.17918
  -1.49406  -0.94085  -0.10548
  -1.37736  -1.02735  -0.48168
  -1.37706  -1.38345  -0.56748
  -1.44986  -1.36965  -0.70708
  -1.40076  -1.45925  -0.66078
  -1.16406  -1.40615  -0.49758
  -0.78746  -1.18615  -0.33978
  -0.78976  -0.89155  -0.44808
  -0.78886  -1.06085  -0.56498
  -0.79796  -1.12935  -0.77978
  -0.46176  -1.08935  -0.56398
  -0.31326  -1.10785  -0.48588
  -0.20996  -1.09095  -0.43188
  -0.05376  -0.91375  -0.31478
   0.08164  -0.86935  -0.49478
   0.49524  -0.91445  -0.49198
   0.53174  -0.94085  -0.60328
   0.61074  -1.02925  -0.61878
   0.89154  -0.88105  -0.60398
   1.04964  -0.65395  -0.46508
   1.28854  -0.73275  -0.40788
   1.41084  -0.82985  -0.88008
   1.41974  -0.74445  -0.90348
   1.56654  -1.16275  -0.75458
   1.74864  -1.14895  -0.60238
   1.70824  -0.89575  -0.82468
   1.79174  -0.69515  -0.84058
   2.11294  -0.64515  -0.98958
   2.08794  -0.63505  -1.22758
   1.90584  -0.54125  -1.30398
   2.23384  -0.70075  -1.07938
   2.23994  -0.61965  -1.24088
   2.27124  -0.28835  -1.53388
   2.60564  -0.13305  -1.49948
   2.46534   0.05585  -1.65338
   2.47884  -0.16885  -1.88248
   2.73094  -0.22565  -1.87098
   2.71384   0.00655  -1.86568
   2.56214   0.18355  -1.88008
   2.50434  -0.02765  -2.03558
   2.78254   0.17745  -2.00098
   2.83284   0.09345  -2.34638
   2.60414   0.02615  -2.44948
   2.71034  -0.12935  -2.32838
   2.53054  -0.13585  -2.43428
   2.51134  -0.21135  -2.22238
   2.37204  -0.05635  -2.41348
   2.19264  -0.12415  -2.59768
   2.29084  -0.13655  -2.56798
   2.23434  -0.16815  -2.55728
   1.73914  -0.48685  -2.58648
   1.82584  -0.33765  -2.37838
   1.39114   0.04295  -2.22618
   0.96374  -0.00495  -2.38628
   0.82114   0.00045  -2.20328
   0.57074   0.01585  -2.21988
   0.03864   0.02425  -2.14528
  -0.35046  -0.05915  -1.96828
  -0.58496   0.11195  -1.69218
  -1.15916  -0.00635  -1.76978
  -1.12836   0.06565  -1.61798
  -1.69576   0.05075  -1.63138
  -2.02126   0.29855  -1.56988
  -2.42876   0.22915  -1.46998
  -2.86646   0.05495  -1.57078
  -3.29506  -0.02835  -1.18758
  -3.39516   0.25485  -0.93628
  -3.68456   0.43955  -1.01038
  -4.23866   0.05585  -0.79218
  -4.39346  -0.04325  -0.82218
  -4.61746   0.19705  -0.49478
  -4.93406   0.41635  -0.54388
  -5.25416   0.27165  -0.66948
  -5.31286   0.21325  -0.45808
  -5.67546   0.21715  -0.45698
  -5.76266   0.22935  -0.26288
  -5.74096   0.30135  -0.20578
  -5.93426   0.59245  -0.26498
  -6.21226   0.29805  -0.31478
  -5.96886   0.38735  -0.01578
  -5.68316   0.69975  -0.05778
  -6.13416   0.86925  -0.21778
  -6.10286   0.59175  -0.12098
  -5.75166   0.79565  -0.10648
  -5.83466   1.05845   0.00062
  -5.82066   1.00395   0.02022
  -5.69836   1.30715   0.04882
  -5.30746   1.42835  -0.02248
  -5.06756   1.60835  -0.13848
  -4.95956   1.67705  -0.03938
  -4.49586   1.51765  -0.22758
  -3.96396   1.79885  -0.16168
  -3.86066   1.84725  -0.18828
  -3.38926   1.68995  -0.03488
  -2.63596   2.06425  -0.19178
  -2.27326   2.05115  -0.14758
  -1.94086   1.78445  -0.22898
  -1.48606   1.92235  -0.19838
  -1.14656   2.04085  -0.19278
  -0.49006   2.10755  -0.11958
   0.03584   2.20875   0.06022
   0.23574   1.96845   0.05562
   1.08584   2.09415  -0.04378
   1.57024   2.23145  -0.09668
   1.95604   2.16365  -0.23928
   2.50064   2.27615   0.02522
   2.94884   2.39235   0.25362
   3.61844   2.35765   0.32052
   4.23014   2.39695   0.12292
   4.57004   2.37645   0.14862
   5.12814   2.40705   0.15332
   5.34794   2.45445   0.16942
   6.09144   2.20105   0.26972
   6.48474   2.29855   0.26222
   6.87614   2.39655   0.27862
   7.25024   2.12065   0.17132
   7.38584   2.06945   0.14462
   7.94464   1.92075   0.18532
   8.29554   1.98665   0.15092
   8.30604   1.75775   0.04882
   8.59644   1.36965   0.10252
   9.11064   1.45475  -0.10318
   9.12764   1.33055  -0.04498
   8.92284   1.33855  -0.04638
   8.99484   1.11105  -0.16658
   9.39164   0.93355  -0.21288
   9.22004   1.08535  -0.11328
   8.87354   0.78535  -0.29798
   8.89084   0.86785  -0.22688
   8.69394   0.84285  -0.50648
   8.61144   0.56185  -0.48098
   8.30094   0.68575  -0.56678
   7.93854   0.79395  -0.73028
   7.79524   0.56065  -0.76418
   7.38864   0.65465  -0.85228
   7.16394   0.60905  -0.98768
   6.80804   0.44655  -1.01268
   6.49924   0.45265  -1.10088
   5.90344   0.26025  -1.25868
   5.66424   0.24005  -0.99588
   5.15784   0.12625  -1.16958
   4.80624  -0.06995  -1.38678
   4.16464   0.19635  -1.22918
   3.64254   0.05725  -1.17308
   3.18894  -0.00825  -1.25658
   2.95914  -0.29605  -1.19108
   2.33714  -0.47745  -1.09268
   1.86204  -0.39445  -0.65198
   1.20764  -0.29555  -0.60658
   0.74724  -0.48055  -0.75898
   0.19904  -0.51815  -0.55538
  -0.43186  -0.72505  -0.63838
  -0.74026  -0.54415  -0.50348
  -1.10796  -0.37065  -0.40648
  -1.63636  -0.51305  -0.34238
  -2.11356  -0.46325  -0.32948
  -2.69696  -0.36435  -0.33418
  -3.09886  -0.28945  -0.39518
  -3.33226  -0.27145  -0.41838
  -3.87866  -0.16555  -0.20768
  -4.02706  -0.16905  -0.09808
  -4.76616   0.01145  -0.12348
  -5.11566   0.13935  -0.02698
  -5.39156   0.01895  -0.09098
  -5.53306   0.20665  -0.08078
  -5.72336   0.38135   0.06772
  -6.25946   0.36355   0.16382
  -6.37316   0.17795   0.14952
  -6.47226   0.27285   0.31652
  -6.69536   0.46455   0.24282
  -6.77996   0.33435   0.14142
  -6.85126   0.17085   0.32862
  -6.97546   0.17645   0.26882
  -6.92796   0.11545   0.38342
  -7.10056   0.46295   0.55082
  -6.96696   0.42335   0.50352
  -7.02386   0.06805   0.71162
  -7.10126   0.00025   0.66932
  -6.83886   0.26165   0.81852
  -6.89336   0.34555   0.90542
  -6.81616   0.30695   1.06472
  -6.59156   0.15055   1.22182
  -6.40006   0.13535   1.41702
  -6.15526   0.17715   1.41892
  -5.91116   0.24855   1.66302
  -5.88466   0.05955   1.66842
  -5.33126   0.12715   1.80192
  -5.13136   0.04695   2.07082
  -4.96796   0.11685   2.12552
  -4.65366   0.00765   2.30082
  -4.54666  -0.13895   2.34012
  -4.25156  -0.11435   2.65972
  -3.92096   0.13815   2.78742
  -3.37636   0.11265   2.82482
  -3.14726   0.05635   2.95642
  -2.95066  -0.19925   3.02912
  -2.50996  -0.32265   3.30622
  -2.13226  -0.06545   3.58372
  -1.83846  -0.04675   3.54612
  -1.83726  -0.13545   4.09902
  -1.65646  -0.13495   3.93682
  -0.97776  -0.01355   3.84702
  -0.75706  -0.12305   4.18442
  -0.67386   0.41775   4.34382
  -0.67876  -0.12935   4.22582
  -0.24286  -0.09545   4.68782
   0.20814   0.30785   4.58702
   0.03464   0.15875   4.62722
   0.24134   0.29835   4.68752
   0.68954   0.13165   4.56972
   0.68954   0.11945   4.80332
   1.17704   0.28105   4.87442
   1.23824   0.38555   4.59612
   1.13444  -0.06645   4.90902
   1.38464  -0.01425   4.86572
   1.78774  -0.01775   4.79562
   1.79824  -0.07045   4.80702
   1.85744  -0.38655   4.83022
   2.21934  -0.51765   4.76282
   2.34604  -0.31095   4.59002
   2.18034  -0.42505   4.63612
   2.34184  -0.83825   4.46712
   2.66774  -1.13145   4.23022
   2.78394  -0.96935   4.45052
   2.85014  -0.98975   4.04602
   2.77604  -1.03695   3.85142
   3.14284  -1.14355   3.78742
   2.96074  -1.02085   3.47012
   2.93314  -1.50035   3.42332
   3.35194  -1.28855   3.29082
   3.21634  -1.03345   3.04392
   2.63624  -1.25515   2.57622
   2.63244  -1.39755   2.36982
   2.94534  -1.18055   2.29642
   2.67224  -1.09515   1.85682
   2.66894  -1.46065   1.62302
   2.45384  -1.34165   1.42012
   2.52964  -1.18945   1.05842
   2.15434  -1.18845   0.50662
   1.97614  -1.20415   0.13932
   1.68834  -1.19335  -0.19948
   1.69934  -1.17325  -0.29698
   1.53844  -1.10735  -0.75018
   1.34794  -0.86445  -1.07868
   0.99024  -0.98315  -1.40388
   0.73094  -0.93125  -1.39358
   0.42274  -0.74405  -1.95288
   0.21724  -0.77535  -2.14458
   0.09844  -0.55365  -2.37208
  -0.00396  -0.41945  -2.54038
  -0.32356  -0.23195  -2.94538
  -0.67546  -0.37555  -3.43538
  -0.69366  -0.34235  -3.58298
  -0.65726  -0.20085  -3.56358
  -0.98596   0.04065  -3.63108
  -1.29036  -0.07415  -3.80578
  -1.06586  -0.24155  -3.88858
  -1.31206   0.24825  -3.92148
  -1.89246   0.06335  -3.95518
  -1.97286  -0.21345  -3.92598
  -1.79656  -0.12415  -3.64068
  -2.22026  -0.00655  -3.86048
  -2.77316  -0.24035  -3.81158
  -2.63036  -0.47745  -3.48588
  -2.62216   0.01145  -3.44968
  -2.88636  -0.03045  -3.35478
  -3.28426  -0.53635  -3.28838
  -3.14466  -0.67665  -3.14078
  -2.90266  -0.44665  -2.95918
