********************************************************************************
              CENTRO DE INSTRUMENTACION Y REGISTRO SISMICO  A.C.

    Anaxagoras 814, Col. Narvarte, Benito Juarez, C.P. 03020 Mexico, D.F.
           Tels. 5687 45 42/ 5687 45  82             Fax. 5669 25 12
********************************************************************************
ARCHIVO ESTANDAR DE ACELERACION:
VERSION DEL FORMATO                    : 2.0
NOMBRE DEL ARCHIVO                     : BA4920220919180509
FECHA Y HORA DE CREACION               : 19/SEP/22, 19:42
REF. CATALOGO ACELEROGRAMAS, SMIS 1996 : REGISTRO No.     /PAG.


================================================================================
DATOS DE LA ESTACION:
NOMBRE DE LA ESTACION                  : BUENOS AIRES
CLAVE DE LA ESTACION                   : BA49
LOCALIZACION DE LA ESTACION            : Del. Cuauhtémoc, Col. Doctores,        
                                       : Av. Lázaro Cárdenas esq. con           
                                       : Calle Dr. Márquez.                     
                                       :                                        
                                       : 
COORDENADAS DE LA ESTACION             : 19.4097 LAT. N
                                       : 99.1450 LONG. W
ALTITUD (msnm)                         : 2233
TIPO DE SUELO                          : Terreno blando, material compresible
                                       : (arcillas)                
                                       : 
INSTITUCION RESPONSABLE                : CIRES, A. C.
                                       : 

================================================================================
DATOS DEL ACELEROGRAFO:
MODELO DEL ACELEROGRAFO                : RAD_IO14
NUMERO DE SERIE DEL ACELEROGRAFO       : 
NUMERO DE CANALES                      : 3
ORIENTACION C1-C6 (rumbo;orientacion)  : /S00E/+V/N90W
ORIENTACION C7-C12 (rumbo;orientacion) : 
VEL. DE MUESTREO, C1-C6 (muestras/s)   : /100/100/100
VEL. DE MUESTREO, C7-C12 (muestras/s)  : 
ESC. COMPLETA DE SENSORES, C1-C6, (g)  : /2.0/2.0/2.0
ESC. COMPLETA DE SENSORES, C7-C12, (g) : 
FREC. NAT. DE SENSORES, C1-C6, (Hz)    : /52.99/52.03/52.99
FREC. NAT. DE SENSORES, C7-C12, (Hz)   : 
AMORTIGUAMIENTO DE SENSORES, C1-C6     : /0.5589/0.5469/0.6096
AMORTIGUAMIENTO DE SENSORES, C7-C12    : 
INTERVALO DE MUESTREO, C1-C6, (s)      : /0.01/0.01/0.01
INTERVALO DE MUESTREO, C7-C12, (s)     : 
UMBRAL DE DISPARO, C1-C6, (Gal)        : / / /
UMBRAL DE DISPARO, C7-C12, (Gal)       : 
MEMORIA DE PREEVENTO (s)               : 60
TIEMPO DE POSEVENTO (s)                : 90


================================================================================
DATOS DEL SISMO:
FECHA DEL SISMO (GMT)                  : 19/SEP/22
HORA EPICENTRO (GMT)                   : 18:05:09.0
MAGNITUD(ES)                           : /Mc=7.7
COORDENADAS DEL EPICENTRO              : 18.22 LAT. N
                                       : 103.29 LONG. W
PROFUNDIDAD FOCAL (km)                 : 15
FUENTE DE LOS DATOS EPICENTRALES       : SSN
                                       : INSTITUTO DE GEOFISICA, UNAM

================================================================================
DATOS DE ESTE REGISTRO:
HORA DE LA PRIMERA MUESTRA (GMT)       : 18:04:26.976.00
EXACTITUD DEL TIEMPO (s)               : 
DURACION DEL REGISTRO (s), C1-C6       : /598.81/598.81/598.81
DURACION DEL REGISTRO (s), C7-C12      : 
NUM. TOTAL DE MUESTRAS, C1-C6          : /59881/59881/59881
NUM. TOTAL DE MUESTRAS, C7-C12         : 
ACEL. MAX. (Gal), C1-C6                : /31.46452/5.40369/28.59395
ACEL. MAX., C1-C6, EN LA MUESTRA       : /20485/20323/22158
ACEL. MAX. (Gal), C7-C12               : 
ACEL. MAX., C7-C12, EN LA MUESTRA      : 
UNIDADES DE LOS DATOS                  : Gal (cm/s/s)
FACTOR DE DECIMACION                   : 1
FORMATO DATOS (FORTRAN,10 campos/dato) : 3F10.5


================================================================================
CALIDAD DEL ACELEROGRAMA:
REGISTRO DIGITAL COMPLETO CON TIEMPO ABSOLUTO CORRECTO.


================================================================================
COMENTARIOS:














================================================================================
DATOS DE ACELERACION:
---------+---------+---------+---------+---------+---------+---------+---------+
   CANAL-1   CANAL-2   CANAL-3   CANAL-4   CANAL-5   CANAL-6   CANAL-7   CANAL-8
      N00E        +V      N90W
---------+---------+---------+---------+---------+---------+---------+---------+
[...]
 -15.89068   0.28281  -5.74385
 -15.64468   0.31061  -6.34945
 -15.38778   0.33351  -6.85635
 -15.13598   0.31741  -7.31295
 -15.02538   0.40581  -7.85095
 -14.80318   0.50331  -8.29125
 -14.78168   0.51571  -8.96275
 -14.61458   0.57301  -9.26455
 -14.52658   0.68801  -9.86635
 -14.32438   0.65321 -10.49185
 -14.10458   0.77151 -10.86495
 -13.66968   0.96271 -11.26505
 -13.54208   0.95411 -11.73965
 -13.39238   1.11821 -12.19375
 -13.38568   1.21241 -12.80465
 -12.99358   1.26711 -13.17925
 -12.88998   1.46981 -13.63955
 -12.64778   1.54071 -14.00665
 -12.36628   1.58441 -14.24165
 -11.92058   1.67141 -14.51265
 -11.53088   1.89721 -14.86755
 -11.35548   2.04201 -15.04895
 -10.86008   2.01131 -15.25425
 -10.53458   2.02941 -15.51845
 -10.09178   2.05791 -15.46165
  -9.70478   2.04031 -15.53885
  -9.25148   2.07401 -15.58325
  -8.68938   2.13691 -15.50185
  -8.18788   2.23911 -15.20705
  -7.64258   2.03261 -15.37795
  -7.05218   2.06111 -15.06235
  -6.44858   2.04151 -14.84255
  -5.78148   1.73241 -14.56175
  -5.18878   1.66981 -14.24705
  -4.54298   1.43501 -14.28445
  -3.86168   1.24661 -13.85025
  -2.92738   1.17711 -13.62485
  -2.36978   0.99731 -13.36795
  -1.71228   0.98521 -13.00225
  -0.95098   0.85731 -12.68265
  -0.40388   0.82871 -12.32165
   0.42872   0.74151 -11.86985
   0.84912   0.50281 -11.50585
   1.55002   0.43201 -11.07235
   2.40112   0.34761 -10.54675
   3.02352   0.29051 -10.14275
   3.54892   0.31651  -9.69825
   4.39152   0.22201  -9.36345
   5.09112   0.04061  -8.99405
   5.71652  -0.04239  -8.52645
   6.42432  -0.00359  -8.07075
   7.12682   0.10391  -7.63075
   7.68662   0.14811  -7.15025
   8.41912   0.10461  -6.69175
   9.14532   0.16101  -6.13405
   9.63052   0.22321  -5.65155
  10.70882   0.15651  -5.29915
  11.23022   0.17101  -4.72495
  12.09112   0.11591  -4.31695
  12.96462  -0.01389  -3.72985
  13.46312   0.07801  -3.31995
  14.33142  -0.08849  -2.89115
  15.03682   0.08101  -2.40295
  15.72002   0.18861  -1.96035
  16.64962   0.01791  -1.53185
  17.37472   0.23301  -1.07585
  18.09552   0.34501  -0.68755
  18.71492   0.32161  -0.37185
  19.39112   0.37161   0.02235
  20.16752   0.47871   0.30035
  20.85072   0.48931   0.66065
  21.49582   0.50471   0.66135
  22.14062   0.65221   1.01295
  22.70672   0.70411   1.20585
  23.27982   0.84371   1.52595
  23.84022   0.77781   1.65785
  24.44672   1.00951   1.77705
  24.65672   1.00671   1.81425
  25.37422   1.07521   2.01015
  25.85612   1.14021   2.16125
  26.19162   1.31411   2.32865
  26.58212   1.59911   2.42725
  27.02942   1.55611   2.27995
  27.34852   1.67331   2.55375
  27.55122   1.82571   2.53085
  27.90382   1.96341   2.57855
  28.10142   2.01371   2.58655
  28.40912   2.08291   2.73335
  28.84652   2.28581   2.73385
  29.07352   2.24731   2.80585
  29.33122   2.46451   2.78805
  29.59282   2.29101   2.92625
  29.61812   2.34901   2.84205
  29.66272   2.40201   2.91245
  29.87712   2.43731   3.10885
  29.89422   2.52481   3.05855
  29.91852   2.48111   3.18905
  29.95502   2.37001   3.17195
  29.79442   2.49001   3.31555
  29.72352   2.50961   3.50495
  29.40322   2.43411   3.64965
  29.23952   2.43901   3.82195
  29.14232   2.36881   3.93675
  28.72772   2.51101   4.08735
  28.31132   2.51821   4.24465
  27.99432   2.44251   4.25635
  27.57692   2.38471   4.38265
  27.01652   2.59681   4.63425
  26.36072   2.44861   4.75085
  25.90362   2.50871   4.85725
  25.38892   2.63211   4.97365
  24.85942   2.66441   5.45275
  24.12362   2.59101   5.62765
  23.37212   2.79981   5.79435
  22.83412   2.75601   6.12615
  22.10532   2.96131   6.45625
  21.42052   3.02301   6.54695
  20.70902   2.95201   6.99665
  20.02792   2.93791   7.25265
  19.29612   3.04951   7.44805
  18.70202   3.10281   7.63795
  17.98702   3.18441   8.02185
  17.34522   3.25101   8.43945
  16.64802   3.16801   8.59935
  15.94922   3.24311   9.06765
  15.24262   3.19001   9.37675
  14.50142   3.11611   9.71395
  13.82592   3.00431   9.86175
  13.16242   2.86431  10.30355
  12.45422   2.97391  10.47845
  11.87552   2.77191  10.68985
  11.14232   2.64031  10.99595
  10.48672   2.49811  11.32555
   9.68332   2.29821  11.67095
   9.08922   2.21061  11.99335
   8.42382   2.22481  12.01765
   7.76422   1.86121  12.56245
   6.97462   1.69941  12.59075
   6.33662   1.33701  12.86595
   5.62862   1.17241  13.03585
   4.86332   0.77031  13.28185
   4.11492   0.33331  13.35435
   3.35482  -0.02299  13.41955
   2.69692  -0.41229  13.52335
   1.94312  -0.69519  13.59635
   1.17992  -1.16399  13.75625
   0.56662  -1.49579  13.63115
  -0.38188  -1.93349  13.58815
  -1.25428  -2.33449  13.52715
  -1.89958  -2.66669  13.68545
  -2.72558  -2.98719  13.63955
  -3.51938  -3.12639  13.50235
  -4.29988  -3.43219  13.46355
  -5.01438  -3.45039  13.34385
  -5.73888  -3.67439  13.03515
  -6.55378  -3.91059  12.95635
  -7.15908  -3.93159  12.65895
  -7.73398  -4.04549  12.45255
  -8.44548  -4.04759  12.38915
  -9.24538  -4.11139  12.07725
  -9.76698  -4.18689  11.67865
 -10.30198  -4.23019  11.49255
 -10.74638  -4.42629  11.08845
 -11.23768  -4.38539  10.59425
 -11.79038  -4.39689  10.21495
 -12.28648  -4.56519   9.80185
 -12.70038  -4.69429   9.35415
 -13.09268  -4.91569   8.85605
 -13.20308  -5.05689   8.28025
 -13.70948  -5.08709   7.81215
 -13.97598  -5.17059   7.41255
 -14.08938  -5.40369   7.02465
 -14.25868  -5.31829   6.60665
 -14.64048  -5.38329   5.93675
 -14.52058  -5.31009   5.45675
 -14.84838  -5.12149   5.02205
 -14.98368  -5.16629   4.53415
 -15.07098  -5.08539   3.95385
 -15.11748  -5.08189   3.62065
 -15.26078  -5.10389   3.06935
 -15.15908  -5.18319   2.81615
 -15.27248  -4.96409   2.18905
 -15.32248  -4.87029   1.87055
 -15.31128  -4.78709   1.46535
 -15.36128  -4.54109   0.93375
 -15.42558  -4.47429   0.49605
 -15.68138  -4.32999   0.17545
 -15.66338  -4.25449  -0.25595
 -15.65548  -3.98139  -0.85235
 -15.76068  -3.56549  -1.26475
 -16.11648  -3.44739  -1.81285
 -16.20208  -3.05829  -2.08845
 -16.47008  -2.67209  -2.48035
 -16.75718  -2.38499  -2.89585
 -17.01478  -2.19389  -3.18695
 -17.41508  -1.92549  -3.46235
 -17.72818  -1.47939  -3.80655
 -18.09058  -1.29839  -4.02915
 -18.36528  -1.03559  -4.31625
 -18.82518  -0.88719  -4.72425
 -19.37208  -0.74919  -4.87245
 -19.88828  -0.39149  -4.98795
 -20.27998  -0.01949  -5.13405
 -20.74428  -0.05549  -5.24145
 -21.18618   0.13481  -5.44735
 -21.67018   0.25101  -5.62535
 -22.13668   0.43521  -5.71275
 -22.42588   0.59591  -5.80935
 -22.98768   0.62041  -5.80095
 -23.36268   0.76351  -5.98025
 -23.73188   0.66671  -6.05765
 -24.04868   0.91691  -6.10675
 -24.30008   0.90681  -6.24075
 -24.44198   1.24521  -6.21335
 -24.77638   1.24211  -6.27975
 -24.86658   1.20871  -6.21965
 -24.98578   1.37471  -6.14815
 -24.98158   1.56151  -6.14115
 -25.09848   1.58071  -6.26225
 -25.14718   1.40111  -6.14815
 -25.08988   1.66301  -6.23975
 -25.07488   1.62701  -6.11585
 -25.02748   1.81051  -6.08775
 -24.89088   1.67161  -5.94265
 -24.99658   1.80401  -5.84795
 -24.86118   1.89631  -5.89955
 -24.78448   1.86261  -5.69385
 -24.73518   1.78781  -5.65405
 -24.64708   1.76001  -5.52365
 -24.66388   1.70551  -5.40465
 -24.57318   1.51361  -5.33685
 -24.41248   1.57951  -5.26335
 -24.39918   1.51571  -5.11935
 -24.21658   1.55191  -5.27435
 -24.07068   1.46841  -5.03615
 -23.96108   1.42331  -4.87175
 -23.88388   1.28001  -4.65685
 -23.51258   1.44391  -4.58695
 -23.36718   1.37311  -4.45025
 -23.22038   1.33451  -4.42915
 -22.93628   1.25241  -4.42895
 -22.65618   1.25991  -4.17195
 -22.53268   1.12191  -4.20165
 -22.26548   0.88791  -4.18595
 -21.98678   0.80071  -4.21945
 -21.65288   0.72121  -4.37325
 -21.34028   0.68031  -4.48385
 -21.02788   0.60761  -4.50795
 -20.48218   0.35271  -4.76355
 -20.33208   0.36071  -4.97115
 -20.03208   0.17411  -5.16145
 -19.67838   0.16921  -5.43055
 -19.30378   0.16311  -5.73985
 -18.80558   0.12311  -5.94845
 -18.45088   0.19231  -6.28345
 -18.00568   0.13881  -6.52925
 -17.59588   0.20771  -6.68405
 -17.18338   0.01811  -7.08965
 -16.52218  -0.01269  -7.55305
 -16.01038   0.04711  -7.52245
 -15.29028  -0.17589  -7.87125
 -14.89648  -0.18529  -8.35155
 -14.24438  -0.34359  -8.75605
 -13.45558  -0.38239  -9.14365
 -12.95398  -0.43239  -9.47825
 -11.85298  -0.68539  -9.74295
 -11.10178  -0.57809 -10.11025
 -10.36668  -0.62269 -10.62885
  -9.32348  -0.71069 -10.89635
  -8.34638  -0.55449 -11.26265
  -7.45628  -0.83199 -11.66135
  -6.50418  -1.00849 -11.87765
  -5.55468  -0.97419 -11.98775
  -4.27368  -0.88719 -12.29305
  -3.42558  -0.98509 -12.69925
  -2.46118  -0.91339 -12.88695
  -1.23088  -1.17079 -13.20755
  -0.01688  -0.81699 -13.15495
   0.97512  -0.67629 -13.39525
   1.84742  -0.61829 -13.36795
   2.98452  -0.72159 -13.59255
   4.06022  -0.62089 -13.64165
   5.12452  -0.34399 -13.58135
   5.95902  -0.45929 -13.79645
   7.20192  -0.15139 -13.59215
   8.16242  -0.10319 -13.80345
   9.07192   0.15071 -13.72725
  10.06302   0.47501 -13.66715
  10.82432   0.67821 -13.68075
  11.75142   0.91971 -13.53185
  12.61292   1.14741 -13.46285
  13.66022   1.49601 -13.46985
  14.29292   1.78881 -13.30125
  15.06302   2.13341 -13.30645
  15.92792   2.27301 -13.28255
  16.48762   2.48951 -12.98045
  17.23072   2.82101 -12.95875
  17.89822   3.13851 -12.74925
  18.50732   3.39461 -12.50795
  19.33282   3.55641 -12.55865
  19.84742   3.62071 -12.28205
  20.38612   3.72051 -12.09275
  20.84812   3.84441 -11.90475
  21.55452   4.05201 -11.66205
  22.25102   3.95341 -11.42755
  22.77402   4.09041 -11.30855
  23.26742   3.92861 -10.87505
  24.00292   3.87901 -10.62785
  24.54442   3.94071 -10.37915
  25.07992   3.93791 -10.00735
  25.50122   3.71631  -9.68335
  25.97092   3.59491  -9.31835
  26.58982   3.32581  -8.85355
  26.92602   2.98191  -8.53695
  27.20942   2.71041  -8.16965
  27.77312   2.37491  -7.60005
  28.16992   2.17741  -7.25525
  28.49862   1.84351  -6.76935
  28.82592   1.61901  -6.32835
  29.12292   1.25121  -5.79155
  29.36882   0.98101  -5.36865
  29.54072   0.84371  -4.61455
  29.86712   0.25801  -3.79225
  30.04292   0.12761  -3.03795
  30.32612  -0.37719  -2.07935
  30.59662  -0.34939  -1.11845
  30.80542  -0.69309  -0.18365
  31.04272  -0.75319   0.90195
  31.25052  -0.91729   1.77495
  31.46282  -1.08989   2.94305
  31.44582  -1.00409   3.90705
  31.36582  -1.15399   4.90895
  31.38782  -1.41249   5.92455
  31.46452  -1.43549   6.69265
  31.30642  -1.71229   7.57625
  31.22272  -1.89189   8.39435
  31.02472  -1.95499   9.20495
  30.69972  -2.20839   9.70645
  30.36912  -2.26669  10.39385
  30.06262  -2.42909  10.99665
  29.56012  -2.59329  11.64635
  29.17712  -2.68049  12.18695
  28.74292  -2.66879  12.66765
  27.97142  -2.88759  13.28275
  27.22292  -2.98799  13.74455
  26.55962  -3.10669  14.43215
  25.85942  -2.94169  14.97625
  25.07352  -3.06349  15.45165
  24.43622  -3.05759  15.77285
  23.64172  -3.17309  16.24775
  22.90752  -3.29379  16.84585
  22.01442  -3.39379  17.09925
  21.20312  -3.53759  17.48485
  20.31092  -3.64329  17.88605
  19.51192  -3.78359  18.23935
  18.83392  -3.80559  18.41535
  18.08362  -3.83179  18.73545
  17.41092  -3.86819  18.99425
  16.56432  -4.07259  19.00335
  16.00222  -4.12659  19.05085
  15.11262  -4.22989  19.24795
  14.20312  -4.28109  19.25985
  13.76142  -4.24509  19.29285
  12.77242  -4.22639  19.10675
  12.14372  -4.37299  18.90965
  11.34342  -4.30309  18.72165
  10.85752  -4.31199  18.43285
  10.09362  -4.22039  18.19865
   9.42962  -4.13429  17.83315
   8.83882  -4.09899  17.74995
   8.08872  -4.04709  17.40765
   7.50352  -4.08829  16.96785
   6.75562  -4.08589  16.74265
   6.09112  -3.93959  16.47805
   5.54022  -3.82869  16.21285
   5.05582  -3.90709  15.97045
   4.60452  -3.79129  15.68795
   4.16242  -3.62129  15.29145
   3.60292  -3.63119  15.09455
   3.26042  -3.55959  14.95335
   2.95762  -3.74059  14.66905
   2.62282  -3.51219  14.36115
   2.22692  -3.50019  14.03585
   1.88132  -3.42309  13.77025
   1.70742  -3.31929  13.36715
   1.48552  -3.13309  13.31365
   1.19182  -3.13029  12.98445
   0.67402  -2.90939  12.66745
   0.36652  -2.51139  12.40135
   0.03102  -2.23439  12.06445
  -0.22408  -1.96809  12.00245
  -0.57408  -1.75509  11.63255
  -1.06738  -1.48249  11.37935
  -1.51188  -1.17519  11.24535
  -1.59418  -0.90569  11.00435
  -1.99188  -0.51749  10.87945
  -2.31668  -0.34869  10.57925
  -2.85838   0.06891  10.48925
  -3.33018   0.34731  10.37075
  -3.75858   0.62701  10.17945
  -4.02088   0.98731  10.19695
  -4.48918   1.27811  10.13055
  -4.91358   1.53601  10.02275
  -5.63068   1.71231   9.91855
  -6.10058   1.98941  10.01015
  -6.69028   2.40391   9.81115
  -7.07168   2.54931   9.89275
  -7.66668   2.79721   9.83645
  -8.15488   2.78671   9.89605
  -8.74408   2.93261   9.90495
  -9.35668   3.11771  10.07845
  -9.81538   3.17011  10.11915
 -10.52588   3.35551  10.25965
 -10.95428   3.55941  10.25685
 -11.35288   3.71841  10.20355
 -11.86728   3.59421  10.45485
 -12.15838   3.62511  10.51215
 -12.37438   3.69691  10.62765
 -12.60398   3.43271  10.69565
 -12.65568   3.52391  10.57735
 -12.88548   3.37911  10.58625
 -13.13898   3.40981  10.55585
 -13.40058   3.35671  10.53835
 -13.59068   2.96621  10.51195
 -13.61268   2.86551  10.30335
 -13.67558   2.62491  10.02135
 -13.79548   2.46001   9.87575
 -13.98558   2.28401   9.61055
 -14.00008   2.03821   9.22905
 -14.29848   1.74291   8.89375
 -14.28678   1.33121   8.52645
 -14.35528   0.96221   8.19585
 -14.31428   0.81311   7.80275
 -14.43988   0.59001   7.43105
 -14.16818   0.61291   7.22295
 -14.10858   0.51501   6.97765
 -14.16348   0.37591   6.64375
 -14.25608   0.28631   6.14975
 -14.28858   0.20141   5.56715
 -14.11698   0.21521   5.22195
 -14.02398   0.21081   4.57835
 -13.95238  -0.12569   4.09715
 -13.95118  -0.28249   3.64235
 -13.88368  -0.30689   3.01625
 -13.93978  -0.53599   2.52035
 -13.83738  -0.44789   2.01485
 -13.81068  -0.40859   1.43195
 -13.76228  -0.33279   0.72285
 -13.78518  -0.22709   0.40835
 -13.79968  -0.25609  -0.23325
 -13.87688  -0.13449  -0.86755
 -13.77328  -0.10349  -1.47825
 -13.50648  -0.12959  -1.92135
 -13.63158  -0.18339  -2.69385
 -13.55818  -0.08899  -3.37115
 -13.47308  -0.18949  -4.16615
 -13.66438  -0.18879  -5.04015
 -13.56638  -0.19349  -5.94165
 -13.68938  -0.32209  -6.64165
 -13.91618  -0.23489  -7.42565
 -13.91478  -0.17519  -8.20095
 -14.03278  -0.34709  -9.17055
 -14.26758  -0.28539  -9.98305
 -14.49198  -0.39359 -10.85005
 -14.65408  -0.23529 -11.97515
 -14.97178  -0.26289 -12.68055
 -15.08078  -0.23369 -13.65945
 -15.41698  -0.21469 -14.59515
 -15.68938  -0.17869 -15.28885
 -15.82148   0.02211 -16.17825
 -16.19278  -0.00239 -16.79135
 -16.50258   0.11541 -17.81545
 -16.64398   0.15561 -18.64805
 -16.84788   0.27091 -19.28865
 -17.03678   0.47971 -20.03055
 -17.38568   0.51961 -20.52995
 -17.47918   0.50891 -21.23225
