********************************************************************************
               CENTRO DE INSTRUMENTACION Y REGISTRO SISMICO  A.C.

    Anaxagoras 814, Col. Narvarte, Benito Juarez, C.P. 03020 Mexico, D.F.
           Tels. 5687 45 42/ 5687 45  82             Fax. 5669 25 12
********************************************************************************
ARCHIVO ESTANDAR DE ACELERACION:
VERSION DEL FORMATO                    : 2.0
NOMBRE DEL ARCHIVO                     : C16620220919180509
FECHA Y HORA DE CREACION               : 19/SEP/22, 17:24
REF. CATALOGO ACELEROGRAMAS, SMIS 1996 : REGISTRO No.     /PAG.


================================================================================
DATOS DE LA ESTACION:
NOMBRE DE LA ESTACION                  : CENTRAL DE ABASTO (POZO 12 MTS)
CLAVE DE LA ESTACION                   : C166
LOCALIZACION DE LA ESTACION            : Del. Iztapalapa, Central de Abasto     
                                       : Oficinas, Eje 4 Oriente.               
                                       :                                        
                                       :                                        
                                       : 
COORDENADAS DE LA ESTACION             : 19.3728 LAT. N
                                       : 99.0983 LONG. W
ALTITUD (msnm)                         : 2235
TIPO DE SUELO                          : Arcilloso, zona lago                
                                       :                           
                                       : 
INSTITUCION RESPONSABLE                : CIRES, A. C.
                                       : 

================================================================================
DATOS DEL ACELEROGRAFO:
MODELO DEL ACELEROGRAFO                : 
NUMERO DE SERIE DEL ACELEROGRAFO       : 
NUMERO DE CANALES                      : 3
ORIENTACION C1-C6 (rumbo;orientacion)  : /S00E/+V/N90W
ORIENTACION C7-C12 (rumbo;orientacion) : 
VEL. DE MUESTREO, C1-C6 (muestras/s)   : /200/200/200
VEL. DE MUESTREO, C7-C12 (muestras/s)  : 
ESC. COMPLETA DE SENSORES, C1-C6, (g)  : /7.0/7.0/7.0
ESC. COMPLETA DE SENSORES, C7-C12, (g) : 
FREC. NAT. DE SENSORES, C1-C6, (Hz)    : /500/500/500
FREC. NAT. DE SENSORES, C7-C12, (Hz)   : 
AMORTIGUAMIENTO DE SENSORES, C1-C6     : /0.700/0.700/0.700
AMORTIGUAMIENTO DE SENSORES, C7-C12    : 
INTERVALO DE MUESTREO, C1-C6, (s)      : /0.005/0.005/0.005
INTERVALO DE MUESTREO, C7-C12, (s)     : 
UMBRAL DE DISPARO, C1-C6, (Gal)        : /1/1   1/56
UMBRAL DE DISPARO, C7-C12, (Gal)       : 
MEMORIA DE PREEVENTO (s)               : 6
TIEMPO DE POSEVENTO (s)                : 4


================================================================================
DATOS DEL SISMO:
FECHA DEL SISMO (GMT)                  : 19/SEP/22
HORA EPICENTRO (GMT)                   : 18:05:09.0
MAGNITUD(ES)                           : /Mc=7.7
COORDENADAS DEL EPICENTRO              : 18.22 LAT. N
                                       : 103.29 LONG. W
PROFUNDIDAD FOCAL (km)                 : 15
FUENTE DE LOS DATOS EPICENTRALES       : SSN
                                       : INSTITUTO DE GEOFISICA, UNAM

================================================================================
DATOS DE ESTE REGISTRO:
HORA DE LA PRIMERA MUESTRA (GMT)       : .00
EXACTITUD DEL TIEMPO (s)               : 
DURACION DEL REGISTRO (s), C1-C6       : /364.77/364.77/364.77
DURACION DEL REGISTRO (s), C7-C12      : 
NUM. TOTAL DE MUESTRAS, C1-C6          : /72954/72954/72954
NUM. TOTAL DE MUESTRAS, C7-C12         : 
ACEL. MAX. (Gal), C1-C6                : /33.6648/8.98668/27.85755
ACEL. MAX., C1-C6, EN LA MUESTRA       : /9525/13900/7835
ACEL. MAX. (Gal), C7-C12               : 
ACEL. MAX., C7-C12, EN LA MUESTRA      : 
UNIDADES DE LOS DATOS                  : Gal (cm/s/s)
FACTOR DE DECIMACION                   : 1
FORMATO DATOS (FORTRAN,10 campos/dato) : 3F10.5


================================================================================
CALIDAD DEL ACELEROGRAMA:
REGISTRO DIGITAL COMPLETO CON TIEMPO ABSOLUTO CORRECTO.


================================================================================
COMENTARIOS:














================================================================================
DATOS DE ACELERACION:
---------+---------+---------+---------+---------+---------+---------+---------+
   CANAL-1   CANAL-2   CANAL-3   CANAL-4   CANAL-5   CANAL-6   CANAL-7   CANAL-8
      N00E        +V      N90W
---------+---------+---------+---------+---------+---------+---------+---------+
[...]
 -30.12817  -0.23873 -19.85755
 -29.43832  -0.38603 -18.86492
 -30.06189  -0.22236 -18.81746
 -30.42522  -0.27146 -18.93775
 -30.26892  -0.47605 -18.39602
 -30.53324  -0.60698 -18.04986
 -30.52915  -0.77883 -18.29372
 -30.40149  -0.85248 -18.27081
 -30.49233  -0.86066 -17.59487
 -30.41540  -0.95886 -17.92957
 -30.65108  -0.95068 -17.91484
 -30.77792  -0.88521 -17.38210
 -30.23701  -0.95886 -17.98931
 -30.21491  -1.06524 -17.74462
 -30.30411  -1.02433 -17.49749
 -30.01606  -1.10616 -17.89356
 -30.11671  -1.23709 -17.49503
 -30.11344  -1.35166 -17.77818
 -29.97842  -1.37621 -17.95084
 -29.61835  -1.26983 -17.62597
 -29.18463  -1.40894 -17.73317
 -29.63308  -1.47441 -17.73890
 -29.81639  -1.49078 -17.89520
 -29.45714  -1.58897 -17.92220
 -29.38022  -1.62989 -17.98767
 -28.83684  -1.70354 -17.95575
 -29.16172  -1.69536 -17.90174
 -29.36385  -1.77719 -18.39029
 -28.30657  -1.89176 -17.99422
 -29.38840  -1.89994 -17.83219
 -29.36876  -1.91631 -18.67425
 -27.57089  -2.05542 -18.28636
 -28.56189  -2.09634 -17.79045
 -28.91950  -1.92449 -18.43939
 -28.05534  -1.94904 -18.43611
 -28.38594  -1.98996 -17.85264
 -27.93586  -2.16999 -18.27081
 -27.68300  -2.16999 -18.31746
 -28.14699  -1.85902 -18.03186
 -27.66336  -2.07997 -18.20944
 -27.52342  -2.06361 -17.84692
 -27.27956  -1.94904 -18.19061
 -26.86303  -2.17817 -18.02859
 -27.21737  -2.15362 -17.40011
 -27.22637  -2.23546 -17.82809
 -26.99233  -2.19454 -17.40584
 -26.78856  -2.10452 -16.89683
 -26.96532  -2.29274 -17.13333
 -26.86794  -2.23546 -17.11451
 -26.69773  -2.11271 -16.65215
 -26.96369  -2.17817 -16.57196
 -26.54961  -2.04724 -16.65870
 -26.32375  -1.98996 -16.18325
 -26.54388  -2.01451 -15.84282
 -26.83521  -1.97359 -15.70043
 -26.54552  -2.07997 -15.75772
 -26.02915  -2.02269 -15.43448
 -26.09707  -2.09634 -15.06214
 -25.96778  -2.07179 -14.95903
 -26.07580  -1.96541 -14.44102
 -25.79675  -2.13726 -14.39111
 -25.42522  -2.00632 -14.26590
 -25.33521  -2.04724 -13.62597
 -25.06516  -2.11271 -13.26917
 -25.26729  -1.98996 -13.03268
 -24.84912  -2.01451 -12.98849
 -24.07170  -1.97359 -12.63169
 -24.22801  -2.07179 -11.95494
 -24.46205  -2.05542 -11.93366
 -23.69364  -1.96541 -11.63497
 -23.41377  -1.94904 -11.17752
 -23.69282  -1.91631 -11.02859
 -23.24765  -1.98177 -10.35019
 -23.19527  -2.01451 -10.24381
 -22.82702  -2.07997 -10.09323
 -22.53897  -2.03087  -9.42466
 -22.70673  -2.03087  -9.27572
 -22.05043  -2.00632  -9.20043
 -21.86303  -1.71172  -8.98685
 -21.69609  -1.72809  -8.53350
 -21.34994  -1.81811  -8.40747
 -21.47187  -1.71991  -8.09814
 -21.14781  -1.82629  -7.56541
 -20.95550  -1.91631  -7.41484
 -20.67727  -1.94904  -6.99585
 -20.33112  -1.98996  -6.71516
 -20.47105  -1.89176  -6.43857
 -20.06352  -1.77719  -6.22662
 -19.70918  -1.61352  -5.95166
 -19.88022  -1.66262  -5.78636
 -19.57989  -1.51532  -5.85264
 -19.54224  -1.33529  -5.18652
 -19.66254  -1.53987  -5.33055
 -19.10116  -1.46623  -5.51713
 -19.10444  -1.49078  -4.70207
 -19.40558  -1.48259  -4.79700
 -19.22882  -1.49896  -4.79700
 -18.76892  -1.69536  -4.38783
 -18.14126  -1.45804  -4.35919
 -18.17891  -1.48259  -4.13824
 -18.04961  -1.54806  -4.04495
 -17.73128  -1.39258  -4.02613
 -17.89576  -1.46623  -3.90911
 -17.44241  -1.48259  -3.87556
 -17.08971  -1.48259  -3.70371
 -17.00460  -1.43349  -3.52858
 -16.87776  -1.48259  -3.45903
 -16.85730  -1.46623  -3.51140
 -16.33603  -1.31074  -3.26426
 -16.25337  -1.25346  -2.90256
 -16.35812  -1.35984  -2.94348
 -16.18873  -1.47441  -2.68898
 -16.07252  -1.10616  -2.49421
 -15.65845  -1.58897  -2.34119
 -15.70018  -1.54806  -2.02367
 -15.71900  -0.72973  -2.10878
 -15.28202  -1.37621  -1.87147
 -15.15026  -1.23709  -1.51222
 -14.81720  -1.20436  -1.51058
 -14.59707  -1.44986  -1.28145
 -14.85730  -0.96704  -0.81173
 -14.97432  -1.59716  -0.73317
 -14.66172  -1.44168  -0.70862
 -13.93341  -1.11434  -0.16525
 -14.14699  -1.36803  -0.08178
 -14.76892  -1.21254  -0.04904
 -14.15845  -1.36803   0.42559
 -13.78611  -1.23709   0.66863
 -14.03815  -1.32711   1.10644
 -14.17727  -1.39258   1.15390
 -14.29102  -1.39258   1.55079
 -13.75992  -1.55624   2.18500
 -13.49478  -1.41713   1.95341
 -14.09625  -1.62989   2.77911
 -13.80329  -1.50714   3.10235
 -13.53652  -1.46623   3.02788
 -13.95223  -1.59716   3.93295
 -13.79347  -1.51532   3.90268
 -13.81639  -1.67081   4.36176
 -13.55943  -1.58897   4.90022
 -13.45468  -1.60534   5.01806
 -14.23864  -1.66262   5.73410
 -13.92440  -1.62989   6.01724
 -13.13472  -1.58897   6.47305
 -14.08807  -1.63807   6.89204
 -14.54224  -1.76901   7.01888
 -12.96859  -1.62989   7.54507
 -12.93095  -1.71991   7.94441
 -14.14535  -1.75264   8.31757
 -14.10116  -1.71991   8.63836
 -13.11589  -1.83447   8.86667
 -13.09544  -1.67899   9.23737
 -14.12490  -1.71991   9.18255
 -12.69527  -1.80174   9.47714
 -11.67563  -1.78537  10.34376
 -12.97105  -1.80992  10.43050
 -12.95059  -1.72809  10.56389
 -12.76892  -1.85902  11.21201
 -12.16909  -1.78537  11.39531
 -11.62080  -1.72809  11.58025
 -12.12326  -1.95722  11.85358
 -11.51851  -1.73627  12.14408
 -11.41458  -1.65444  12.56307
 -11.49887  -1.94086  12.48778
 -10.94404  -1.82629  12.61135
 -10.59544  -1.75264  13.09253
  -9.85730  -1.87539  13.36831
 -10.67645  -1.84266  13.47305
 -10.86876  -1.94904  13.51561
  -9.00296  -1.83447  13.81430
  -8.76810  -1.75264  13.84294
  -9.08643  -1.98177  13.87976
  -9.47105  -1.88357  14.08762
  -9.51115  -1.94904  14.12199
  -7.78120  -1.98177  14.12608
  -7.03406  -1.94904  14.28156
  -8.23210  -2.07997  14.83475
  -8.70346  -1.93267  14.77829
  -7.01851  -2.09634  14.66209
  -6.30084  -2.11271  14.88631
  -7.25256  -2.01451  14.95178
  -6.95550  -2.20272  15.23246
  -6.17481  -2.11271  15.14081
  -5.73537  -2.14544  15.34539
  -5.81966  -2.22727  15.54016
  -6.56925  -2.28456  15.39613
  -6.20182  -2.21909  15.63426
  -4.82375  -2.09634  15.49187
  -4.85730  -2.26819  15.58762
  -5.48987  -2.15362  15.95914
  -4.87039  -2.01451  16.08107
  -4.46041  -2.16181  16.28156
  -4.85075  -2.05542  16.48369
  -4.51933  -1.91631  16.76029
  -4.19282  -2.13726  16.90104
  -4.42277  -1.88357  16.98615
  -3.00787  -1.80992  17.02133
  -2.77629  -2.16999  17.36749
  -4.25174  -1.68717  17.69237
  -3.59298  -1.71172  17.63917
  -2.91131  -1.89176  18.06471
  -2.24601  -1.47441  18.12608
  -1.91868  -1.62171  18.16372
  -2.53815  -1.65444  18.78566
  -1.89740  -1.51532  18.89449
  -1.61098  -1.31893  18.95669
  -1.67891  -1.29438  19.40922
  -1.45632  -1.18799  19.67518
  -1.06843  -0.90976  19.75538
  -0.40804  -1.05706  20.08926
  -0.51360  -0.79519  20.31021
  -0.32375  -0.61516  20.63672
   0.29736  -0.62334  21.07207
   0.66070  -0.41058  21.04752
   0.95939  -0.31238  21.45341
   0.84401  -0.27146  21.82575
   1.33173  -0.14053  21.97142
   2.52650   0.08042  22.19973
   2.53632   0.06405  22.14408
   2.39884   0.30137  22.56143
   3.12551   0.34229  22.70055
   3.72617   0.48140  22.70219
   4.54368   0.75963  23.21119
   4.84401   0.64507  23.40186
   4.97740   0.95603  23.66863
   5.60015   0.93148  23.71119
   6.45448   1.03787  23.82412
   6.91929   1.32428  24.32412
   6.64597   1.18517  24.15800
   8.27445   1.31610  24.27829
   8.93321   1.35702  24.84458
   8.25317   1.52887  24.61053
   9.09442   1.74981  24.38058
   9.94466   1.55341  24.69318
  11.79982   1.47977  24.62199
  10.41766   1.96258  24.78975
   9.57478   1.64343  24.84703
  14.43566   1.20153  24.03606
  14.72208   2.19990  24.63836
  12.33828   2.25718  25.31348
  12.91766   1.65980  24.84376
  14.14352   1.99531  24.70791
  16.44876   2.09351  24.92314
  16.11160   1.99531  25.14899
  14.93648   2.05260  24.43050
  16.85383   1.95440  25.03279
  17.65743   2.24900  25.39040
  17.71062   2.69089  24.15636
  17.94139   2.28173  24.68827
  17.83664   2.29810  25.61626
  18.71062   2.76454  24.45587
  20.39065   2.68271  23.87567
  20.33501   2.64998  26.15800
  18.42175   2.59269  24.90759
  20.22453   2.59269  23.27911
  22.63206   2.64998  25.38877
  21.13533   2.86274  24.97305
  20.74581   2.91184  24.02870
  22.18034   2.87911  24.19646
  23.13370   3.28828  24.70055
  23.00604   3.23918  24.73901
  22.19098   3.11643  23.53115
  23.45530   3.38648  24.00497
  24.09360   3.45194  24.64899
  23.76790   3.45194  23.51970
  24.92830   3.69744  23.85685
  24.08378   3.75472  23.48615
  25.96267   3.78746  23.16372
  26.67707   3.95931  24.86094
  23.35874   3.91021  22.79466
  26.84155   4.23754  22.15145
  27.70489   4.49122  24.30448
  25.28673   4.31937  23.10235
  28.26709   4.17207  22.26765
  27.45612   4.64670  23.11299
  26.28836   5.07224  23.09580
  28.20898   4.48304  22.32985
  28.46267   4.72854  22.28566
  29.16889   5.08860  23.80693
  27.52322   4.58124  23.49024
  27.97658   4.99040  21.60971
  30.69180   5.30955  23.37158
  28.69180   5.30137  23.67109
  28.67134   5.30137  22.15636
  29.65498   5.10497  23.27665
  30.32355   5.40775  23.21610
  30.78427   5.38320  23.15145
  28.59769   5.39957  23.42150
  30.00522   5.42412  23.60726
  31.46185   5.22772  23.72264
  30.84401   5.47322  22.95669
  31.07969   5.53050  23.79057
  30.63043   5.30137  24.17436
  30.92584   5.16225  23.83803
  31.14679   5.63688  24.26111
  31.44876   5.50595  24.22674
  31.35874   5.20317  24.35276
  31.46021   5.30955  24.48533
  32.49295   4.94949  24.73001
  31.29245   5.59597  25.00497
  30.99295   5.72690  24.75538
  31.95203   5.21135  24.52543
  31.96021   5.40775  24.87976
  32.34974   5.19499  25.29138
  31.89393   5.03132  24.73165
  31.76136   5.02314  24.83312
  32.40702   5.14589  25.32003
  31.83173   5.20317  24.74801
  31.85137   5.08860  24.44850
  32.87838   4.97404  24.79384
  32.40538   4.93312  24.84703
  32.42093   4.94130  24.40513
  32.65334   4.99859  24.67354
  31.97985   4.81855  24.52379
  32.13615   4.18026  24.01970
  31.80718   4.81855  24.22510
  32.96676   4.95767  24.15390
  33.09278   4.67944  24.31430
  31.99867   5.04769  23.47960
  33.15007   4.05751  23.53525
  32.47331   4.26209  24.11626
  32.82846   4.60579  22.60153
  33.46185   4.12297  23.00006
  32.11079   4.40939  23.08107
  32.88902   3.86929  22.18746
  33.02568   4.00841  22.76111
  32.56250   4.33574  21.77665
  33.27200   4.08206  21.51397
  32.97985   4.45849  22.13917
  32.82355   4.27846  21.05407
  33.23517   4.16389  20.71773
  32.56660   4.41757  21.23819
  32.47249   4.04932  20.08107
  33.66480   3.59106  19.50006
  33.24990   3.87747  20.30530
  32.26381   4.00022  18.81512
  32.84974   3.55833  18.55980
  32.94630   3.59924  18.97878
  32.72208   3.44376  17.71855
  32.22699   3.37011  17.81921
  32.27609   3.28828  16.66945
  33.26136   2.98549  17.33066
  31.08624   3.19008  17.56061
  30.95858   2.80546  15.05407
  33.32355   2.46176  16.71364
  31.49786   2.64179  16.52624
  30.71881   2.69089  15.12608
  31.60260   2.54360  16.24228
  30.77772   2.49450  15.21201
  30.24826   2.69089  14.87076
  30.05023   2.15080  15.57207
  29.67953   2.04441  14.74719
  29.63779   2.28991  13.93786
  28.99376   2.23263  14.63017
  28.49867   2.35538  14.17518
  29.00768   1.65161  13.62199
  28.59524   1.55341  14.34130
  27.77281   1.92985  13.42395
  26.67871   1.42248  14.25701
  26.53468   1.04605  14.35030
  26.37674   1.02968  13.18255
  25.00113   1.25882  14.12199
  24.90375   0.72690  13.45914
  24.21389   0.30137  13.15963
  24.16970   0.87420  12.42641
  23.91357   0.58778  12.19728
  22.86447   0.04769  13.62281
  23.65661   0.12952  11.51970
  22.94139  -0.05870  11.07862
  21.79000  -0.12416  13.12526
  21.04450  -0.53333  12.12772
  20.57560  -0.81156  11.23001
  21.51422  -0.27965  11.78074
  20.18853  -0.61516  11.77011
  19.16725  -0.70518  10.90268
  19.97331  -0.89339  10.79384
  19.17216  -1.22073  10.68582
  19.13452  -0.94249   9.41086
  18.54941  -1.55624   9.68336
  17.68362  -1.49078   9.33803
  18.16234  -1.56442   8.76929
  17.41848  -2.27637   9.51315
  16.61160  -2.22727   8.87813
  16.46103  -1.81811   8.43705
  16.86447  -1.76082   8.36012
  15.69098  -1.94904   8.07371
  15.42584  -1.79356   7.80529
  16.18116  -1.80992   7.83721
  14.32682  -1.67899   7.65227
  14.26136  -1.97359   7.51561
  14.31046  -2.07179   7.89122
  13.31619  -2.04724   6.92232
  13.58705  -2.53005   6.16863
  14.17871  -1.93267   5.11462
  13.57396  -1.40076   3.71691
  13.24008  -1.67899   3.45669
  14.84810  -1.93267   2.87731
  13.32355  -2.10452   1.83966
  12.81209  -2.07997   1.11790
  14.58951  -2.40731   1.74556
  12.48885  -2.74282   1.18254
  12.97494  -2.42367  -0.40093
  13.82601  -2.48096   0.96896
  11.66398  -2.53824   0.28893
  12.91439  -2.49732  -2.11533
  13.21553  -2.70190  -1.44839
  12.24335  -2.71009  -2.55313
  12.61242  -2.94740  -4.05395
  12.71471  -3.18472  -4.30600
  12.89966  -2.86557  -4.01631
  11.22862  -2.39912  -3.45575
  11.02240  -3.11925  -5.26099
  11.72208  -3.64298  -4.38047
  11.04368  -2.82465  -4.21844
  10.86201  -2.71827  -6.23480
   9.60015  -3.25019  -4.97376
  10.75072  -3.20109  -6.51713
  10.96512  -3.15199  -7.45985
   8.92993  -3.39749  -6.19716
  10.36529  -3.24200  -7.65870
  10.26709  -3.24200  -8.02695
  10.09278  -3.57752  -7.79863
   9.60424  -3.49569  -7.50158
   8.09196  -3.34020  -8.63006
   9.70898  -3.61843  -9.37801
   9.61979  -3.79847  -8.32318
   8.49049  -3.70027  -9.96230
   8.32519  -3.67572  -9.94757
   8.34155  -4.04397  -9.75281
   8.50931  -4.17490 -11.60714
   8.01013  -3.72482 -11.01631
   7.72371  -4.09307 -10.85755
   7.88329  -4.24855 -11.67834
   7.97085  -3.74937 -12.02449
   7.36283  -4.18308 -12.24053
   6.34237  -4.28947 -11.99258
   6.37756  -4.11762 -13.00976
   6.92911  -4.57588 -13.45903
   5.79655  -4.45313 -12.82318
   6.01586  -4.18308 -13.49012
   6.68607  -4.30583 -14.06459
   5.58460  -4.33857 -13.94757
   5.35465  -4.75591 -14.12678
   5.48885  -4.60861 -14.22335
   5.29245  -4.15035 -14.92220
   5.67380  -4.49405 -16.03759
   5.06823  -4.38767 -14.24217
   2.13288  -4.48587 -16.14315
   6.12224  -5.13235 -17.35592
   7.16807  -4.76410 -13.07359
  -0.53652  -4.47768 -17.36819
   4.71962  -5.24691 -18.52040
   7.50686  -5.08325 -14.09078
   0.84728  -4.58406 -17.15134
   3.75236  -5.29601 -18.37638
   5.01749  -5.36148 -16.37310
   2.99458  -5.05051 -16.46476
   2.38001  -5.20600 -18.08096
   2.53795  -4.96868 -17.86165
   4.54204  -4.72318 -16.73808
   1.16807  -4.77228 -18.63170
   2.21308  -5.20600 -18.24381
   4.25317  -4.60861 -16.30191
   0.34646  -4.33857 -18.71844
   2.17707  -5.17326 -18.87556
   1.88001  -4.47768 -17.25199
   0.65252  -4.52678 -18.49667
   2.31946  -4.94413 -18.62024
   0.76054  -4.42858 -18.04168
   0.78673  -4.56770 -17.74381
   0.86856  -4.42858 -18.78390
  -0.22637  -4.77228 -19.45248
   0.06741  -5.05051 -18.38456
  -0.41377  -4.19945 -18.81418
  -1.00133  -3.79847 -19.85346
  -0.69364  -4.14217 -19.63906
  -1.49642  -4.29765 -19.58832
