********************************************************************************
              CENTRO DE INSTRUMENTACION Y REGISTRO SISMICO  A.C.

    Anaxagoras 814, Col. Narvarte, Benito Juarez, C.P. 03020 Mexico, D.F.
           Tels. 5687 45 42/ 5687 45  82             Fax. 5669 25 12
********************************************************************************
ARCHIVO ESTANDAR DE ACELERACION:
VERSION DEL FORMATO                    : 2.0
NOMBRE DEL ARCHIVO                     : CE1820220919180509
FECHA Y HORA DE CREACION               : 19/SEP/22, 19:42
REF. CATALOGO ACELEROGRAMAS, SMIS 1996 : REGISTRO No.     /PAG.


================================================================================
DATOS DE LA ESTACION:
NOMBRE DE LA ESTACION                  : ESC. PRIM. "RAMÓN ESPINOZA VILLANUEVA"
CLAVE DE LA ESTACION                   : CE18
LOCALIZACION DE LA ESTACION            : Del. Iztapalapa, Col. U. H. San Nicólas
                                       : Tolentino, calle 3 entre Carril        
                                       : y Estrella.                            
                                       :                                        
                                       : 
COORDENADAS DE LA ESTACION             : 19.3398 LAT. N
                                       : 99.0847 LONG. W
ALTITUD (msnm)                         : 2240
TIPO DE SUELO                          : Arenoso, limoso, compacto           
                                       :                           
                                       : 
INSTITUCION RESPONSABLE                : CIRES, A. C.
                                       : 

================================================================================
DATOS DEL ACELEROGRAFO:
MODELO DEL ACELEROGRAFO                : RAD_IO14
NUMERO DE SERIE DEL ACELEROGRAFO       : 
NUMERO DE CANALES                      : 3
ORIENTACION C1-C6 (rumbo;orientacion)  : /N00E/+V/N90W
ORIENTACION C7-C12 (rumbo;orientacion) : 
VEL. DE MUESTREO, C1-C6 (muestras/s)   : /100/100/100
VEL. DE MUESTREO, C7-C12 (muestras/s)  : 
ESC. COMPLETA DE SENSORES, C1-C6, (g)  : /2.0/2.0/2.0
ESC. COMPLETA DE SENSORES, C7-C12, (g) : 
FREC. NAT. DE SENSORES, C1-C6, (Hz)    : /30/30/30
FREC. NAT. DE SENSORES, C7-C12, (Hz)   : 
AMORTIGUAMIENTO DE SENSORES, C1-C6     : /0.720/0.774/0.740
AMORTIGUAMIENTO DE SENSORES, C7-C12    : 
INTERVALO DE MUESTREO, C1-C6, (s)      : /0.01/0.01/0.01
INTERVALO DE MUESTREO, C7-C12, (s)     : 
UMBRAL DE DISPARO, C1-C6, (Gal)        : / / /
UMBRAL DE DISPARO, C7-C12, (Gal)       : 
MEMORIA DE PREEVENTO (s)               : 60
TIEMPO DE POSEVENTO (s)                : 90


================================================================================
DATOS DEL SISMO:
FECHA DEL SISMO (GMT)                  : 19/SEP/22
HORA EPICENTRO (GMT)                   : 18:05:09.0
MAGNITUD(ES)                           : /Mc=7.7
COORDENADAS DEL EPICENTRO              : 18.22 LAT. N
                                       : 103.29 LONG. W
PROFUNDIDAD FOCAL (km)                 : 15
FUENTE DE LOS DATOS EPICENTRALES       : SSN
                                       : INSTITUTO DE GEOFISICA, UNAM

================================================================================
DATOS DE ESTE REGISTRO:
HORA DE LA PRIMERA MUESTRA (GMT)       : 18:04:26.879.00
EXACTITUD DEL TIEMPO (s)               : 
DURACION DEL REGISTRO (s), C1-C6       : /513.01/513.01/513.01
DURACION DEL REGISTRO (s), C7-C12      : 
NUM. TOTAL DE MUESTRAS, C1-C6          : /51301/51301/51301
NUM. TOTAL DE MUESTRAS, C7-C12         : 
ACEL. MAX. (Gal), C1-C6                : /4.45271/2.25217/3.53373
ACEL. MAX., C1-C6, EN LA MUESTRA       : /19771/19402/19728
ACEL. MAX. (Gal), C7-C12               : 
ACEL. MAX., C7-C12, EN LA MUESTRA      : 
UNIDADES DE LOS DATOS                  : Gal (cm/s/s)
FACTOR DE DECIMACION                   : 1
FORMATO DATOS (FORTRAN,10 campos/dato) : 3F10.5


================================================================================
CALIDAD DEL ACELEROGRAMA:
REGISTRO DIGITAL COMPLETO CON TIEMPO ABSOLUTO CORRECTO.


================================================================================
COMENTARIOS:














================================================================================
DATOS DE ACELERACION:
---------+---------+---------+---------+---------+---------+---------+---------+
   CANAL-1   CANAL-2   CANAL-3   CANAL-4   CANAL-5   CANAL-6   CANAL-7   CANAL-8
      N00E        +V      N90W
---------+---------+---------+---------+---------+---------+---------+---------+
[...]
  -0.88099   0.71137   0.09213
  -0.73599   0.46377   0.14123
  -0.40099   0.57997   0.07313
  -0.40559   0.59467   0.01493
  -0.26959   0.63377  -0.13937
  -0.01889   0.63467  -0.40007
   0.09571   0.51477  -0.39357
   0.36311   0.59887  -0.48567
   0.39241   0.49677  -0.65047
   0.52891   0.55447  -0.79197
   0.55021   0.53227  -0.79217
   0.54531   0.65717  -1.03207
   0.67041   0.49327  -0.95817
   0.91401   0.49107  -1.06647
   0.86821   0.60917  -1.19387
   0.90181   0.48897  -1.12367
   1.04331   0.68447  -1.17307
   1.08541   0.61057  -1.10127
   1.19621   0.55257  -1.00467
   1.26451   0.53487  -1.00167
   1.21091   0.58367  -1.02757
   1.37761   0.51867  -0.91957
   1.34861   0.54677  -0.92777
   1.16491   0.58557  -0.79987
   1.22541   0.53417  -0.70847
   1.09171   0.59777  -0.61357
   1.01661   0.65357  -0.71777
   0.76271   0.46077  -0.63977
   0.69161   0.65267  -0.64067
   0.37371   0.56637  -0.75987
   0.17471   0.50137  -0.59017
  -0.17249   0.55307  -0.67647
  -0.41519   0.50417  -0.63367
  -0.59829   0.53627  -0.66307
  -0.73369   0.17707  -0.72877
  -0.99479   0.27087  -0.66217
  -1.11129   0.10717  -0.46207
  -1.21619   0.08847  -0.54857
  -1.44139   0.03097  -0.44427
  -1.50359  -0.08803  -0.41547
  -1.53889  -0.08873  -0.32427
  -1.52279  -0.18883  -0.19477
  -1.54619  -0.24143  -0.20227
  -1.35159  -0.35903  -0.15827
  -1.41589  -0.18743  -0.08677
  -1.30349  -0.25803  -0.09047
  -1.12339  -0.23513  -0.08207
  -1.19469  -0.30083  -0.25327
  -1.14679  -0.29913  -0.30727
  -1.03409  -0.32373  -0.43347
  -1.07339  -0.15213  -0.58967
  -1.03339  -0.06063  -0.64717
  -1.15049  -0.22643  -0.79867
  -1.07809  -0.20403  -0.87427
  -0.97589  -0.20403  -1.04097
  -0.94499  -0.29963  -1.19077
  -0.92159  -0.17173  -1.51067
  -0.81949  -0.29213  -1.53637
  -0.71219  -0.41463  -1.80477
  -0.69199  -0.31503  -1.93807
  -0.47479  -0.40433  -1.96827
  -0.39419  -0.49163  -2.11387
  -0.22929  -0.56333  -1.99227
  -0.26209  -0.63043  -2.15297
  -0.08669  -0.44183  -2.24717
  -0.00069  -0.51453  -2.15897
   0.15011  -0.48383  -2.15337
   0.27921  -0.49603  -2.00587
   0.37971  -0.44923  -2.19127
   0.58221  -0.39663  -2.14477
   0.62551  -0.31063  -2.05917
   0.60841  -0.27413  -2.10707
   0.65211  -0.36343  -2.00867
   0.69121  -0.30873  -2.03397
   0.61381  -0.36603  -2.04747
   0.59511  -0.10303  -2.01757
   0.61141  -0.34433  -2.04327
   0.59511  -0.21473  -1.98807
   0.52771  -0.11283  -1.97267
   0.33621  -0.04663  -2.02157
   0.50971  -0.02633  -2.04727
   0.38791  -0.05573  -2.08097
   0.22471   0.07917  -2.02247
   0.34211  -0.07613  -1.87077
   0.09991  -0.04573  -1.89877
   0.18051  -0.01743  -1.98177
   0.23361  -0.25753  -1.84947
   0.20551  -0.06583  -1.85087
   0.18611  -0.22273  -1.92167
   0.17771  -0.26663  -1.99347
   0.35661  -0.41863  -2.10077
   0.53761  -0.44783  -2.06037
   0.74521  -0.31923  -2.16787
   0.95541  -0.47333  -2.07137
   1.00471  -0.27883  -2.19577
   1.13211  -0.44273  -2.23527
   1.31081  -0.28183  -2.40377
   1.43231  -0.28633  -2.31617
   1.72881  -0.34313  -2.43767
   1.99681  -0.40623  -2.63437
   2.13541  -0.36413  -2.64677
   2.22421  -0.33423  -2.61567
   2.24761  -0.42283  -2.58477
   2.39821  -0.40043  -2.71077
   2.44871  -0.42233  -2.73937
   2.53611  -0.66553  -2.76687
   2.66101  -0.53273  -2.75097
   2.40831  -0.62933  -2.70337
   2.41781  -0.77213  -2.83937
   2.35781  -0.71233  -2.73137
   2.24931  -0.76023  -2.97457
   2.15691  -0.77893  -3.11577
   2.29771  -0.82453  -2.99257
   2.18401  -0.81843  -2.99677
   2.02741  -0.81873  -3.17537
   2.06151  -1.17573  -3.02647
   1.65051  -0.97763  -3.06317
   1.69301  -0.97443  -2.99087
   1.63481  -1.10303  -2.96447
   1.51371  -0.99923  -2.97597
   1.61051  -1.09063  -2.81247
   1.53851  -1.08543  -2.73437
   1.32741  -1.23483  -2.81137
   1.07511  -1.01503  -2.66897
   1.14381  -1.05323  -2.54827
   1.00381  -0.98473  -2.63337
   0.84171  -1.11893  -2.47697
   0.90441  -1.03943  -2.37857
   0.62341  -0.95193  -2.48097
   0.56301  -0.83993  -2.30137
   0.32761  -0.84723  -2.16367
   0.20581  -0.81373  -2.02617
   0.17661  -0.72773  -1.64577
  -0.06359  -0.88323  -1.68157
  -0.28639  -0.78263  -1.44587
  -0.40279  -0.87623  -1.47047
  -0.76289  -0.93093  -1.25677
  -0.78389  -0.89283  -1.06057
  -0.98809  -0.90213  -0.91237
  -1.04949  -1.01293  -0.91867
  -1.34479  -1.06533  -0.73277
  -1.53869  -1.10813  -0.62807
  -1.79019  -1.15983  -0.55037
  -2.02379  -1.17713  -0.38117
  -2.17649  -1.33933  -0.46417
  -2.31819  -1.27323  -0.35097
  -2.27419  -1.09083  -0.29677
  -2.56809  -1.38453  -0.38557
  -2.90059  -1.24023  -0.41387
  -2.92069  -1.33193  -0.48797
  -2.97099  -1.36933  -0.54267
  -3.04529  -1.06163  -0.41877
  -2.89239  -1.17083  -0.50437
  -3.09859  -0.99073  -0.39027
  -3.10779  -0.94563  -0.32197
  -2.95339  -0.90243  -0.41337
  -3.06099  -0.81873  -0.41927
  -2.80759  -0.76303  -0.51257
  -2.59969  -0.84863  -0.41247
  -2.55549  -0.67913  -0.40097
  -2.33059  -0.75533  -0.21817
  -2.29529  -0.57903  -0.40447
  -2.03339  -0.67423  -0.28507
  -1.93329  -0.52363  -0.48237
  -1.73039  -0.67423  -0.33457
  -1.85449  -0.50583  -0.10877
  -1.82699  -0.35763   0.05513
  -1.72129  -0.42733   0.28803
  -1.79939  -0.44993   0.44183
  -1.67049  -0.50463   0.59033
  -1.82739  -0.42563   0.71523
  -1.87609  -0.51753   0.93473
  -2.00999  -0.57083   1.05563
  -2.08439  -0.49513   1.17023
  -2.12899  -0.47853   1.35563
  -2.25299  -0.47313   1.56533
  -2.13889  -0.62883   1.66303
  -2.29429  -0.71833   1.78233
  -2.19289  -0.70033   2.01583
  -2.20479  -0.52383   2.03833
  -2.30699  -0.51173   2.11053
  -2.32399  -0.52903   2.13533
  -2.19429  -0.53643   2.10003
  -2.25509  -0.33023   1.99363
  -2.06169  -0.36093   2.03203
  -2.07669  -0.41493   1.97983
  -2.01819  -0.27083   1.97843
  -1.91949  -0.20653   1.86713
  -1.96259  -0.23653   1.66543
  -1.71939  -0.13623   1.76663
  -1.62889  -0.19933   1.69973
  -1.48469  -0.08753   1.55173
  -1.37129  -0.14603   1.56793
  -1.15549  -0.06463   1.64203
  -1.18679  -0.02843   1.44493
  -1.19099   0.06557   1.35353
  -1.00109   0.08897   1.53423
  -1.04599   0.29917   1.33713
  -1.06709  -0.04313   1.29743
  -0.84869   0.02327   1.34673
  -0.82529   0.19507   1.32803
  -0.91039   0.00897   1.29953
  -0.72639   0.24047   1.25183
  -0.73369   0.20747   1.18003
  -0.67289   0.11587   1.44283
  -0.39559   0.08687   1.26253
  -0.46239   0.16307   1.11403
  -0.31959  -0.02843   1.17253
  -0.05749   0.10607   1.11123
  -0.03619   0.13077   1.12763
   0.21441   0.08687   1.06663
   0.29231  -0.00923   1.00463
   0.51421   0.09267   1.12603
   0.54881   0.15747   1.06593
   0.35401   0.13177   0.97243
   0.56471   0.16687   1.03833
   0.69701   0.28187   1.07133
   0.61261   0.24417   1.23243
   0.73561   0.11537   1.22983
   0.68491   0.33797   1.25273
   0.59511   0.21617   1.19423
   0.62241   0.26197   1.19403
   0.50621   0.21707   1.21723
   0.75011   0.24187   1.31373
   0.85621   0.40627   1.20553
   0.65001   0.47497   1.38113
   0.80531   0.38427   1.03293
   0.91091   0.49467   1.11363
   1.21491   0.50027   1.12693
   1.11321   0.55097   1.04393
   1.22191   0.76537   0.97313
   1.28271   0.72817   1.06493
   1.37831   0.79367   1.12553
   1.26751   0.85257   1.11783
   1.23101   0.79137   1.03953
   1.09751   0.94657   0.97493
   1.02711   0.95497   1.09913
   0.99821   1.03797   1.20763
   1.00981   0.91617   1.26373
   0.85901   0.88017   1.30603
   0.87941   0.95707   1.32493
   0.70641   0.92577   1.19073
   0.72201   0.98377   1.37433
   0.61871   0.78737   1.47863
   0.51881   0.91897   1.42663
   0.22031   0.95057   1.48913
   0.13821   0.70177   1.45563
   0.03741   0.55517   1.56903
  -0.20319   0.55047   1.67823
  -0.43069   0.38267   1.62633
  -0.74039   0.35267   1.78863
  -0.64059   0.18667   2.04063
  -0.75659   0.23767   1.87443
  -0.97919  -0.01083   1.97663
  -0.98709  -0.09573   1.94273
  -0.96419  -0.02743   2.17233
  -0.86579  -0.04593   2.21533
  -0.94709  -0.04523   2.43163
  -0.97659   0.00387   2.37103
  -0.97589  -0.08003   2.27423
  -1.00369  -0.09453   2.27723
  -0.92069  -0.08363   2.32403
  -0.89569  -0.08073   2.25223
  -0.93359  -0.24543   2.27003
  -0.94919  -0.15073   2.22163
  -0.85589  -0.22803   2.28803
  -0.96229   0.05767   2.24803
  -0.97169   0.07887   1.92843
  -1.07669  -0.05833   2.00423
  -1.05229   0.24727   2.00233
  -1.19569   0.25897   2.16453
  -1.07829   0.02307   2.06543
  -1.22699   0.28027   2.18653
  -1.23569   0.28447   2.36123
  -1.34649   0.42847   2.43533
  -1.27699   0.46357   2.49353
  -1.30159   0.39407   2.40703
  -1.28639   0.33187   2.64763
  -1.19429   0.74177   2.65113
  -1.28729   0.77477   2.63223
  -1.30629   0.54347   2.89963
  -1.37239   0.68727   2.96183
  -1.39069   0.48597   3.11973
  -1.35839   0.62857   3.14493
  -1.41289   0.60237   3.33663
  -1.27239   0.73097   3.35773
  -1.24219   0.86427   3.22743
  -1.31189   0.93537   3.25393
  -1.21839   0.84067   3.36003
  -1.36749   0.95667   3.38693
  -1.30459   1.02097   3.53373
  -1.20989   1.11167   3.31753
  -1.25809   1.19507   3.27893
  -1.29619   1.34197   3.14233
  -1.21619   1.35967   3.24123
  -1.10329   1.52337   3.30723
  -0.92419   1.47587   3.22353
  -0.95739   1.61897   3.23173
  -0.87089   1.68967   3.17513
  -0.78929   1.92667   3.11523
  -0.73879   1.90307   3.06263
  -0.57839   1.78777   2.82183
  -0.57559   1.75627   2.72293
  -0.22559   1.85397   2.61673
  -0.10569   1.79877   2.55783
   0.05031   1.58627   2.38463
   0.22031   1.62137   2.04673
   0.43631   1.61157   1.79753
   0.63341   1.61197   1.72693
   0.81951   1.37847   1.50943
   1.08931   1.46167   1.30113
   1.28991   1.36507   1.24523
   1.39561   1.30127   1.00283
   1.48331   1.21127   0.98103
   1.73041   1.18597   0.87023
   1.80571   0.98707   0.83603
   1.94621   1.00827   0.58333
   2.13821   0.82877   0.48723
   2.39751   0.79807   0.47793
   2.52611   0.67797   0.31613
   2.65561   0.38587   0.20833
   2.91871   0.47267   0.14353
   3.03351   0.44907   0.08793
   3.02131   0.47167   0.13953
   3.41601   0.22477  -0.00937
   3.52471   0.16867  -0.31757
   3.82401   0.34427  -0.24457
   3.89811   0.25007  -0.17957
   3.96031   0.15627  -0.31517
   4.17821   0.09617  -0.20347
   4.22381  -0.02843  -0.33017
   4.33621   0.04877  -0.20177
   4.27331   0.22877  -0.32737
   4.45271   0.08477  -0.28877
   4.43141  -0.06533  -0.28577
   4.30961  -0.03053  -0.33067
   4.34441  -0.07493  -0.13747
   4.25491  -0.06443  -0.16437
   3.91661  -0.00783  -0.14337
   3.68391  -0.00623  -0.37367
   3.66681  -0.04033  -0.22027
   3.41291  -0.09643  -0.20927
   3.12001  -0.11043  -0.18847
   2.80811  -0.21733  -0.22827
   2.47231  -0.35313  -0.23547
   2.27221  -0.15423  -0.27377
   2.04871  -0.15323  -0.37997
   1.70941  -0.33213  -0.36967
   1.57431  -0.47783  -0.40237
   1.38671  -0.65763  -0.52167
   1.27621  -0.57463  -0.65027
   1.05121  -0.69683  -0.50407
   0.96991  -0.78593  -0.59297
   1.04401  -0.77963  -0.58667
   0.83751  -0.95613  -0.66897
   0.92191  -0.94443  -0.88827
   0.73931  -1.03073  -0.84407
   0.73001  -1.10393  -0.99157
   0.99021  -1.01583  -1.15437
   1.01691  -1.35523  -1.12977
   0.94391  -1.34313  -1.52937
   1.00241  -1.32583  -1.39397
   0.90881  -1.47663  -1.58477
   0.87381  -1.39803  -1.72667
   1.03071  -1.33283  -1.85227
   0.95421  -1.22993  -1.97637
   1.26051  -1.38983  -2.11107
   1.12651  -1.35973  -2.17747
   1.07671  -1.28633  -2.23107
   1.00561  -1.20773  -2.31897
   0.83571  -1.29093  -2.33277
   1.01481  -1.19373  -2.27057
   1.12701  -1.22063  -2.30257
   0.92731  -1.23233  -2.41367
   0.83191  -1.26903  -2.30587
   0.67921  -1.21473  -2.47347
   0.55491  -1.18783  -2.44727
   0.47301  -1.11003  -2.46227
   0.31291  -1.06113  -2.42067
   0.08541  -1.06723  -2.47887
  -0.08159  -1.01813  -2.47537
  -0.22699  -0.95433  -2.65537
  -0.19779  -0.96173  -2.62967
  -0.49309  -0.93113  -2.63527
  -0.70719  -1.03913  -2.57357
  -0.76779  -0.92113  -2.74637
  -1.00749  -0.99493  -2.63267
  -1.09469  -0.94773  -2.62827
  -1.26459  -1.05553  -2.53197
  -1.44259  -1.01653  -2.40287
  -1.66729  -0.98253  -2.59387
  -1.58539  -1.16493  -2.53237
  -1.76339  -1.18273  -2.58247
  -1.80849  -1.24963  -2.20997
  -1.78459  -1.26363  -2.25137
  -1.75729  -1.48803  -2.31447
  -1.79609  -1.08783  -2.44727
  -1.74629  -1.27903  -2.42457
  -1.59779  -1.22733  -2.34377
  -1.49989  -1.32983  -2.16717
  -1.62729  -1.13013  -2.31617
  -1.61489  -1.03613  -2.39637
  -1.43599  -1.20403  -2.28577
  -1.39209  -0.98353  -2.23147
  -1.45849  -1.09923  -2.21347
  -1.57119  -1.13763  -2.14197
  -1.56979  -1.04853  -2.02577
  -1.48749  -1.04453  -2.07417
  -1.61189  -1.10653  -1.98667
  -1.58569  -1.01503  -1.78867
  -1.68829  -1.00483  -1.90397
  -1.63619  -1.05763  -1.77537
  -1.83749  -0.96153  -1.89787
  -1.78719  -0.98683  -1.81067
  -1.79089  -1.08663  -1.74517
  -1.80939  -0.91523  -1.91097
  -1.77319  -1.01933  -1.86347
  -1.64789  -1.04733  -1.94647
  -1.54119  -1.19253  -2.03577
  -1.45169  -1.09273  -2.01527
  -1.43859  -1.10833  -2.14377
  -1.22139  -0.96433  -2.02737
  -1.11969  -1.02913  -2.09257
  -0.98079  -0.95453  -2.19077
  -0.84049  -0.96973  -2.22587
  -0.53189  -1.07633  -2.20767
  -0.69669  -0.91123  -2.12157
  -0.56229  -0.94543  -2.12327
  -0.37009  -0.98233  -2.11247
  -0.20569  -0.98563  -2.22097
  -0.16319  -1.04973  -2.19387
  -0.13299  -1.09853  -2.10387
   0.03091  -1.00873  -2.19057
   0.02341  -1.09643  -2.17587
  -0.01049  -0.91853  -2.19577
   0.11901  -1.06703  -2.01947
  -0.07989  -0.87313  -2.06527
  -0.11269  -0.84533  -1.93217
  -0.11849  -0.92483  -1.90017
  -0.13299  -0.83453  -1.99887
  -0.15449  -0.75933  -1.88667
  -0.17039  -0.74713  -1.87937
  -0.29109  -0.70713  -1.77467
  -0.33339  -0.53643  -1.98417
  -0.24149  -0.34213  -1.67597
  -0.19819  -0.46863  -1.74047
  -0.24779  -0.33683  -1.57267
  -0.25619  -0.13133  -1.64627
  -0.12719  -0.09153  -1.72017
  -0.06469  -0.17243  -1.64257
   0.01291   0.05577  -1.54877
   0.00961  -0.11253  -1.64697
   0.01991   0.18277  -1.56747
  -0.08839   0.19507  -1.46717
   0.01431   0.13127  -1.49567
   0.08331  -0.07863  -1.46837
   0.04521  -0.02603  -1.40077
   0.19081   0.01417  -1.32287
   0.15551  -0.00973  -1.39027
  -0.00699  -0.02143  -1.34087
   0.02901  -0.29823  -1.29367
   0.24671  -0.45933  -1.36127
   0.09241  -0.42073  -1.30867
  -0.02589  -0.19063  -1.29767
  -0.03719  -0.34873  -1.40637
  -0.30179  -0.47003  -1.31427
  -0.18419  -0.31953  -1.42277
  -0.33219  -0.27763  -1.43377
  -0.48089  -0.24723  -1.37597
  -0.44119  -0.22553  -1.31937
  -0.57259  -0.21053  -1.13727
  -0.59919  -0.10483  -1.12787
  -0.49589  -0.03243  -1.21747
  -0.44189   0.04547  -1.03017
  -0.33919   0.21457  -0.93107
  -0.32779   0.11237  -0.82537
  -0.25339   0.24447  -0.93997
