********************************************************************************
              CENTRO DE INSTRUMENTACION Y REGISTRO SISMICO  A.C.

    Anaxagoras 814, Col. Narvarte, Benito Juarez, C.P. 03020 Mexico, D.F.
           Tels. 5687 45 42/ 5687 45  82             Fax. 5669 25 12
********************************************************************************
ARCHIVO ESTANDAR DE ACELERACION:
VERSION DEL FORMATO                    : 2.0
NOMBRE DEL ARCHIVO                     : CH8420220919180509
FECHA Y HORA DE CREACION               : 19/SEP/22, 19:42
REF. CATALOGO ACELEROGRAMAS, SMIS 1996 : REGISTRO No.     /PAG.


================================================================================
DATOS DE LA ESTACION:
NOMBRE DE LA ESTACION                  : CULHUACÁN
CLAVE DE LA ESTACION                   : CH84
LOCALIZACION DE LA ESTACION            : Del. Coyoacán, Col. Ampliación         
                                       : San  Francisco Culhuacán,  entre       
                                       : Calle Ejido Santa Úrsula               
                                       : y Ejido Culhuacán.                     
                                       : 
COORDENADAS DE LA ESTACION             : 19.3300 LAT. N
                                       : 99.1254 LONG. W
ALTITUD (msnm)                         : 2234
TIPO DE SUELO                          : Alto riesgo sísmico                 
                                       :                           
                                       : 
INSTITUCION RESPONSABLE                : CIRES, A. C.
                                       : 

================================================================================
DATOS DEL ACELEROGRAFO:
MODELO DEL ACELEROGRAFO                : RAD_IO14
NUMERO DE SERIE DEL ACELEROGRAFO       : 
NUMERO DE CANALES                      : 3
ORIENTACION C1-C6 (rumbo;orientacion)  : /N00E/+V/N90W
ORIENTACION C7-C12 (rumbo;orientacion) : 
VEL. DE MUESTREO, C1-C6 (muestras/s)   : /100/100/100
VEL. DE MUESTREO, C7-C12 (muestras/s)  : 
ESC. COMPLETA DE SENSORES, C1-C6, (g)  : /2.0/2.0/2.0
ESC. COMPLETA DE SENSORES, C7-C12, (g) : 
FREC. NAT. DE SENSORES, C1-C6, (Hz)    : /32/30/33
FREC. NAT. DE SENSORES, C7-C12, (Hz)   : 
AMORTIGUAMIENTO DE SENSORES, C1-C6     : /0.793/0.714/0.776
AMORTIGUAMIENTO DE SENSORES, C7-C12    : 
INTERVALO DE MUESTREO, C1-C6, (s)      : /0.01/0.01/0.01
INTERVALO DE MUESTREO, C7-C12, (s)     : 
UMBRAL DE DISPARO, C1-C6, (Gal)        : / / /
UMBRAL DE DISPARO, C7-C12, (Gal)       : 
MEMORIA DE PREEVENTO (s)               : 60
TIEMPO DE POSEVENTO (s)                : 90


================================================================================
DATOS DEL SISMO:
FECHA DEL SISMO (GMT)                  : 19/SEP/22
HORA EPICENTRO (GMT)                   : 18:05:09.0
MAGNITUD(ES)                           : /Mc=7.7
COORDENADAS DEL EPICENTRO              : 18.22 LAT. N
                                       : 103.29 LONG. W
PROFUNDIDAD FOCAL (km)                 : 15
FUENTE DE LOS DATOS EPICENTRALES       : SSN
                                       : INSTITUTO DE GEOFISICA, UNAM

================================================================================
DATOS DE ESTE REGISTRO:
HORA DE LA PRIMERA MUESTRA (GMT)       : 18:04:26.956.00
EXACTITUD DEL TIEMPO (s)               : 
DURACION DEL REGISTRO (s), C1-C6       : /599.81/599.81/599.81
DURACION DEL REGISTRO (s), C7-C12      : 
NUM. TOTAL DE MUESTRAS, C1-C6          : /59981/59981/59981
NUM. TOTAL DE MUESTRAS, C7-C12         : 
ACEL. MAX. (Gal), C1-C6                : /23.85559/3.82698/22.11847
ACEL. MAX., C1-C6, EN LA MUESTRA       : /19844/19767/18814
ACEL. MAX. (Gal), C7-C12               : 
ACEL. MAX., C7-C12, EN LA MUESTRA      : 
UNIDADES DE LOS DATOS                  : Gal (cm/s/s)
FACTOR DE DECIMACION                   : 1
FORMATO DATOS (FORTRAN,10 campos/dato) : 3F10.5


================================================================================
CALIDAD DEL ACELEROGRAMA:
REGISTRO DIGITAL COMPLETO CON TIEMPO ABSOLUTO CORRECTO.


================================================================================
COMENTARIOS:














================================================================================
DATOS DE ACELERACION:
---------+---------+---------+---------+---------+---------+---------+---------+
   CANAL-1   CANAL-2   CANAL-3   CANAL-4   CANAL-5   CANAL-6   CANAL-7   CANAL-8
      N00E        +V      N90W
---------+---------+---------+---------+---------+---------+---------+---------+
[...]
  -1.56661  -0.82418  10.17107
  -1.70641  -0.92088  10.00437
  -2.06351  -0.82198   9.56667
  -2.04621  -0.71498   9.02187
  -2.27601  -0.59878   8.91457
  -2.57551  -0.52318   8.93767
  -2.88901  -0.71358   8.64447
  -3.17591  -0.77998   7.89957
  -3.78661  -0.53168   7.38897
  -4.10951  -0.60438   7.03407
  -4.42911  -0.65788   6.59447
  -4.80721  -0.49938   6.23647
  -5.12241  -0.54708   5.73497
  -5.32981  -0.62468   4.90547
  -5.75791  -0.70018   4.19257
  -6.46681  -0.90038   3.91877
  -6.74991  -0.92048   3.23417
  -7.35501  -0.75238   2.71717
  -7.46051  -0.87438   1.81167
  -7.79041  -0.72778   1.15797
  -7.99501  -0.63028   0.59567
  -8.53791  -0.43508   0.36347
  -8.65501  -0.53558   0.01527
  -8.42681  -0.52208  -0.62863
  -8.53111  -0.66238  -0.71393
  -8.60221  -0.60928  -1.04293
  -8.86101  -0.45748  -1.19843
  -8.69261  -0.41778  -1.35343
  -8.67561  -0.27378  -1.52643
  -8.46071  -0.14588  -1.56053
  -8.24211  -0.45868  -1.86313
  -8.27831  -0.32148  -1.87643
  -8.15651   0.10452  -1.80653
  -7.95831  -0.37828  -1.81473
  -7.56331  -0.57278  -2.29263
  -7.22131  -0.20218  -2.56643
  -7.07281  -0.08438  -2.30803
  -6.77451  -0.13908  -2.02493
  -6.44251   0.02602  -2.49273
  -5.74081  -0.05818  -2.89443
  -5.24211  -0.16148  -2.79413
  -5.00591  -0.12248  -2.95383
  -4.92321  -0.07598  -3.37323
  -4.27411  -0.15798  -3.54073
  -3.72211  -0.10238  -3.61103
  -3.33491  -0.04878  -4.00833
  -2.94421  -0.14588  -4.22083
  -2.61571   0.06102  -4.60963
  -1.98611   0.33512  -4.73423
  -1.43591   0.30612  -4.70063
  -0.89791   0.16772  -5.20053
  -0.62861   0.10012  -5.22783
  -0.34941   0.52352  -5.62413
   0.39779   0.64422  -5.63323
   0.79509   0.60702  -5.58203
   1.01529   0.80712  -5.74713
   1.36209   0.96822  -5.87153
   1.74689   0.87962  -5.76073
   1.96179   1.19502  -5.81443
   2.11189   1.53642  -5.87293
   2.77989   1.53402  -5.68093
   3.03659   1.56192  -5.63813
   3.44549   1.62972  -5.52033
   3.59399   2.16232  -5.33403
   3.70269   2.33902  -5.12733
   4.41909   2.39242  -4.62883
   5.12329   2.49312  -4.47543
   5.34149   2.71082  -4.22243
   5.49279   2.42092  -4.05813
   6.01439   2.65072  -3.72793
   6.37539   2.59532  -3.54703
   6.66629   2.48852  -3.01363
   6.96299   2.42232  -2.45413
   7.33519   2.38742  -2.22643
   7.65389   2.30002  -2.00553
   7.68659   2.03212  -1.55373
   8.21919   1.70452  -0.87643
   8.44159   1.56722  -0.74903
   8.39429   1.48422  -0.65593
   8.22879   1.20042  -0.27833
   8.59539   1.07622   0.18277
   9.19439   0.90882   0.51847
   9.35929   0.83032   0.63537
   8.99099   0.62482   0.79977
   9.19439   0.35962   1.13737
   9.41299   0.44852   1.20217
   9.12499   0.46252   1.64377
   9.19089   0.34752   1.99377
   9.23599   0.08472   1.65667
   8.90219   0.14262   1.81117
   8.56829   0.05192   2.15397
   8.37769   0.11902   2.48757
   8.43969   0.15042   2.29537
   8.24209   0.24462   2.52147
   7.95059   0.24442   2.49537
   7.76379   0.35402   2.57647
   7.81139   0.55442   2.93327
   7.46169   0.69682   3.24067
   7.24029   0.63222   3.14767
   7.40489   0.61702   2.99217
   6.95729   0.87522   3.07077
   6.57949   0.95772   3.36017
   6.27059   1.19322   3.53837
   6.29639   1.10522   3.36417
   6.06839   1.17212   3.53667
   5.61409   1.18872   3.50097
   5.17639   1.29042   3.53977
   4.97319   1.43442   3.33467
   4.78009   1.42442   3.75627
   4.49389   1.35642   3.74547
   4.39459   1.17662   3.42587
   4.02839   0.92122   3.47167
   3.49419   1.01152   3.64797
   3.28119   1.00472   3.31807
   3.22859   0.71452   3.32347
   2.71019   0.64742   3.20327
   2.24699   0.84102   2.90337
   1.99449   0.75902   2.57527
   2.04689   0.28152   2.62067
   1.74389   0.14052   2.60547
   1.11029  -0.20618   2.45647
   0.88159  -0.47618   2.03727
   0.63159  -0.50798   1.76097
   0.38849  -0.71638   1.81327
   0.06049  -0.79628   1.43917
  -0.13571  -1.19168   1.39107
  -0.64611  -1.25478   1.21737
  -1.07981  -1.30578   0.88037
  -1.17361  -1.26908   0.67537
  -1.51781  -1.60408   0.54817
  -2.31851  -1.76338   0.53347
  -2.79461  -1.67828   0.09977
  -3.29191  -1.48628  -0.51523
  -3.44041  -1.62468  -0.63213
  -3.63821  -1.39438  -0.54813
  -3.88691  -1.54008  -0.74663
  -4.28861  -1.64128  -1.04663
  -5.08521  -1.55148  -1.18923
  -5.34221  -1.04928  -1.56383
  -5.46421  -1.15658  -1.51263
  -5.87341  -1.06938  -1.23813
  -6.24001  -0.92088  -1.67463
  -6.40881  -1.01138  -1.81003
  -6.77211  -1.02778  -1.96173
  -7.20371  -0.76518  -1.90173
  -7.59631  -0.63938  -1.70503
  -7.68701  -0.49558  -1.59613
  -7.71231  -0.52978  -1.57833
  -8.13711  -0.58868  -1.72773
  -8.49251  -0.09398  -1.38663
  -8.66081  -0.05698  -1.16023
  -8.79321   0.02132  -1.12773
  -8.60801   0.21982  -0.99123
  -8.75511   0.18872  -1.04923
  -9.11351   0.13632  -1.03873
  -8.97701   0.41362  -0.83033
  -8.84881   0.36292  -0.75763
  -8.63561   0.24062  -0.67793
  -8.52061   0.37552  -0.54443
  -8.20121   0.32082  -0.61223
  -7.95571   0.32972  -0.85493
  -7.84651   0.66802  -1.02813
  -7.47851   0.43702  -0.65473
  -7.20141   0.20182  -0.67443
  -6.67861   0.15062  -0.96063
  -6.50651   0.18122  -0.89163
  -6.17501  -0.08248  -0.80793
  -5.61031   0.19852  -0.68443
  -5.20611  -0.07568  -0.52943
  -4.66931  -0.23048  -0.89633
  -4.12991  -0.04488  -0.90593
  -3.34781  -0.16218  -0.74173
  -2.83761  -0.36028  -0.56663
  -2.55311  -0.47038  -0.37253
  -2.09481  -0.46288  -0.65083
  -1.27691  -0.51618  -0.80183
  -1.00551  -0.48048  -0.73053
  -0.30481  -0.38228  -0.36533
   0.07499  -0.25858  -0.53083
   0.77749  -0.56598  -0.78543
   1.22859  -0.22748  -1.06303
   1.46989   0.04732  -1.01673
   1.95359   0.17072  -0.92993
   2.19749   0.17542  -1.10253
   3.03519   0.54342  -1.41603
   3.29009   0.69092  -1.69543
   3.55079   0.84082  -1.49343
   4.33139   1.10692  -1.35433
   4.60429   1.40802  -1.21053
   4.82059   1.20742  -1.48293
   5.06329   1.22682  -1.52623
   5.65529   1.70942  -1.20933
   6.10019   1.80222  -1.12283
   6.05949   1.68232  -0.86803
   6.40419   1.76762  -0.82223
   6.93139   1.77142  -1.07683
   7.03149   1.84662  -0.97253
   7.27249   1.80012  -0.78593
   7.41699   1.69722  -0.68493
   7.49909   2.00912  -0.58723
   7.77679   1.68812  -0.72613
   8.25429   1.51862  -0.86143
   8.58439   1.55882  -0.73003
   8.58039   1.83962  -0.59353
   9.04899   1.38812  -0.50353
   9.36209   0.94792  -1.06133
   9.59919   0.95582  -1.17593
   9.60269   0.88732  -1.16303
   9.77779   0.69682  -0.95873
  10.06859   0.17842  -1.12143
  10.13249   0.03232  -1.55053
   9.90539  -0.20478  -1.80813
   9.75299  -0.43278  -2.03283
   9.69289  -0.63168  -2.29283
   9.78409  -0.80468  -2.29493
   9.73239  -1.26278  -2.33723
   9.29539  -1.34618  -3.03733
   9.00689  -1.54468  -3.19743
   8.93579  -1.62798  -3.21993
   8.77819  -1.88348  -3.36093
   8.50349  -2.17508  -3.58533
   8.17289  -2.29038  -3.90453
   7.86479  -2.35558  -4.12473
   7.38119  -2.39838  -4.57693
   7.00759  -2.56858  -4.83153
   6.50979  -2.56368  -4.88953
   6.17529  -2.93518  -5.14483
   5.69919  -2.62888  -5.94683
   5.32579  -2.52158  -6.26153
   4.77919  -2.64948  -6.31973
   4.13969  -2.48298  -6.45953
   3.65989  -2.45888  -6.71023
   3.32419  -2.71708  -7.20513
   2.71069  -2.84398  -7.31553
   1.46119  -2.70118  -7.53203
   0.87199  -2.71238  -7.53883
   0.69149  -2.82438  -7.30923
   0.12479  -2.68988  -7.14813
  -0.93181  -2.86758  -7.24773
  -1.84061  -2.97378  -7.05503
  -2.45671  -2.72058  -6.48833
  -3.22431  -2.80518  -6.46353
  -3.75651  -3.25318  -6.27833
  -4.31221  -3.07148  -6.13293
  -5.00661  -3.12948  -5.86333
  -5.84491  -3.44938  -5.55303
  -6.63631  -3.13208  -5.23323
  -6.72871  -3.36918  -4.77243
  -7.65711  -3.65228  -4.67163
  -8.53971  -3.19048  -4.49343
  -8.92291  -3.23938  -3.93343
  -9.18711  -3.28938  -3.50563
  -9.66221  -3.34128  -3.30293
 -10.08031  -3.33358  -2.93393
 -10.54161  -3.27698  -2.61313
 -11.18811  -3.55708  -2.33843
 -11.40511  -3.50098  -1.83413
 -11.79581  -3.82698  -1.28073
 -12.35321  -3.64968  -0.93113
 -12.63631  -3.78438  -0.88013
 -12.92111  -3.68988  -0.69993
 -13.28981  -3.82598  -0.24423
 -13.51331  -3.57188   0.08987
 -13.55311  -3.71008   0.43877
 -13.69381  -3.64968   0.54327
 -13.80811  -3.41008   0.58437
 -13.93741  -3.11918   0.91827
 -13.67491  -3.02798   1.50447
 -13.71441  -3.26558   1.36187
 -13.78151  -2.67898   1.42007
 -13.59751  -2.48998   1.57487
 -13.25141  -2.49848   1.75957
 -13.38501  -2.13458   2.04037
 -13.28651  -1.85168   2.20287
 -13.02111  -1.89148   2.31457
 -12.85681  -1.55288   2.48317
 -12.86191  -1.10358   2.78287
 -12.68751  -0.77688   3.06797
 -12.41671  -0.70298   3.50207
 -11.90191  -0.35578   3.88767
 -11.67981  -0.05518   4.22927
 -12.01021   0.34582   4.37417
 -11.97861   0.64372   4.77147
 -11.44041   1.00732   5.22437
 -10.80861   1.30892   5.78547
 -10.47191   1.43752   6.10187
 -10.30171   1.54992   6.43737
  -9.78081   1.95652   6.74737
  -9.05061   2.14152   7.13717
  -8.45281   1.90042   7.40737
  -7.99361   2.11652   7.71257
  -7.32301   2.12532   7.96757
  -6.76841   2.18222   8.04387
  -5.87921   2.35962   7.87877
  -4.94351   2.45312   8.03967
  -4.00201   2.37742   8.22807
  -3.05791   2.58202   7.90077
  -2.22851   2.51162   7.71257
  -1.19211   2.34772   7.91077
  -0.39341   2.38932   7.87897
   0.70299   2.41342   7.31417
   1.65549   2.51252   7.51337
   2.46539   2.32902   7.51987
   3.39989   2.39032   7.03777
   4.51499   2.33182   7.00787
   5.62529   2.18612   6.87877
   6.48969   2.37442   6.82547
   7.49529   2.08722   6.53037
   8.32299   2.20112   6.34237
   8.94989   2.09312   6.28867
   9.92529   1.86582   6.18057
  10.90569   1.81702   5.61337
  11.95149   1.91472   5.09437
  12.55539   1.70892   4.90237
  13.19789   1.85952   4.83387
  13.94709   2.11482   4.49717
  14.89019   1.92712   4.02957
  15.49109   1.93902   3.64287
  16.35739   2.25142   3.49037
  16.91849   2.31122   2.94307
  17.58679   2.35002   2.58957
  18.47199   2.49732   2.22407
  19.18649   2.66542   1.83107
  19.59329   2.66972   1.21707
  20.02069   2.58922   0.79297
  20.50329   2.91162   0.62887
  21.12099   2.79922   0.28587
  21.72279   2.92242  -0.42803
  22.00149   2.81652  -0.73823
  22.36229   2.74802  -0.97673
  22.77679   2.88152  -1.01153
  23.35129   2.83142  -1.55423
  23.48599   2.69122  -2.12143
  23.60899   2.50482  -2.38683
  23.85559   2.56632  -2.53903
  23.69219   2.39542  -2.97133
  23.73689   2.20112  -3.45743
  23.67369   2.04822  -3.65993
  23.50749   1.97522  -3.89563
  23.00219   1.87822  -4.41673
  22.83859   1.63582  -4.93743
  22.51829   1.49082  -5.15913
  22.09179   1.41202  -5.25193
  21.35719   1.27432  -5.63843
  20.88389   1.28922  -5.93773
  20.19049   1.24582  -6.32553
  19.39689   1.08262  -6.29263
  18.62319   0.90092  -6.38243
  17.70089   0.88692  -6.84863
  16.87529   0.83662  -6.95083
  15.92159   0.71432  -7.06513
  15.01369   0.86422  -6.93353
  14.42609   0.66052  -7.10163
  13.47689   0.41292  -7.22173
  12.30479   0.26492  -7.27273
  11.63979   0.05992  -6.97303
  10.72259   0.17732  -7.06163
   9.55289  -0.10958  -7.04123
   8.33119  -0.18368  -7.11773
   7.55499  -0.32778  -6.82243
   6.74149  -0.56088  -6.73283
   5.69479  -0.70438  -6.70713
   4.69219  -0.88888  -6.42053
   3.70059  -1.01278  -6.18043
   2.75349  -1.23308  -6.36373
   1.70129  -1.34808  -6.43503
   0.93439  -1.18888  -5.78453
   0.02559  -1.66308  -5.60313
  -0.96151  -1.85708  -5.59093
  -1.99241  -1.70678  -5.47783
  -3.01111  -1.68758  -5.03913
  -3.69571  -1.56808  -4.88723
  -4.37541  -1.74698  -4.36903
  -5.42191  -1.52158  -3.96813
  -6.43151  -1.37218  -3.59513
  -7.50491  -1.40398  -3.41583
  -8.22601  -1.39818  -2.88043
  -9.16631  -1.25808  -2.31623
 -10.29171  -1.00628  -1.74853
 -11.16121  -0.97068  -1.02653
 -11.95871  -0.85058  -0.71653
 -12.50001  -0.55898  -0.35223
 -13.09081  -0.62328   0.41277
 -13.97811  -0.61648   0.81987
 -14.88831  -0.48608   1.28517
 -15.10161  -0.22258   1.48947
 -15.65731  -0.37268   1.85497
 -16.81051  -0.10358   2.36467
 -17.37791   0.16162   2.92297
 -17.74361   0.19062   3.28117
 -18.14741   0.36922   3.51027
 -18.89891   0.36032   3.99547
 -19.28141   0.25962   4.35317
 -19.74601   0.47002   4.61227
 -20.00901   0.64532   5.11987
 -20.48811   0.43582   5.42607
 -20.61221   0.46792   5.39127
 -20.86991   0.34302   5.76237
 -21.08901   0.30772   6.08737
 -21.12851   0.32602   6.10397
 -21.21801   0.31922   6.26527
 -21.06421   0.23452   6.53367
 -21.15511   0.10642   6.77547
 -21.08471  -0.04788   6.95987
 -20.91311  -0.17628   7.14997
 -20.68451  -0.16128   7.18947
 -20.33731  -0.07338   7.55967
 -19.95991  -0.00718   7.72917
 -19.61991  -0.19398   7.70787
 -19.19881  -0.11968   7.99427
 -19.13011  -0.01958   8.40997
 -18.63161  -0.08298   8.50347
 -17.97631   0.20392   8.86657
 -17.23321   0.33372   9.02097
 -16.71301   0.22662   9.53417
 -16.65851   0.29792   9.74757
 -16.16821   0.56122   9.51027
 -15.61201   0.53192   9.83387
 -14.99121   0.80482   9.96227
 -14.40301   0.98342  10.37887
 -13.68771   1.03142  10.49677
 -13.04221   1.08332  10.45887
 -12.24821   1.27922  10.65477
 -11.48151   1.25582  10.58767
 -10.54111   1.21472  10.73147
  -9.89751   1.47302  10.41817
  -8.81241   1.09542  10.35857
  -7.74921   1.11322  10.19367
  -6.99071   1.09262  10.08097
  -6.06951   1.18662   9.93277
  -4.96181   0.99652   9.44457
  -3.94981   0.72202   9.23577
  -3.20211   0.84102   9.03967
  -2.43291   0.92032   8.68357
  -1.65081   0.94982   8.43057
  -0.34361   0.95442   7.69597
   0.29259   1.06812   7.47687
   0.98869   0.85412   7.19907
   1.65249   0.83262   6.67907
   2.54229   1.08492   5.89327
   3.43759   0.86682   5.44347
   4.25659   0.92662   5.09387
   4.57759   0.78892   4.65807
   4.96229   0.80222   3.81237
   5.80929   0.76322   3.32467
   6.44159   0.72232   2.90407
   7.01279   0.74662   2.41347
   7.32069   0.37132   2.12497
   7.44479   0.24152   1.55237
   7.89629   0.38182   0.63557
   8.58859   0.16372   0.33307
   9.11489  -0.02688   0.21597
   9.20099  -0.07268  -0.32953
   9.58369  -0.46988  -0.82123
   9.93839  -0.36748  -1.22573
  10.17549  -0.44678  -1.55733
  10.63119  -0.67288  -1.98303
  10.83019  -1.04018  -2.20863
  10.90569  -1.20008  -2.62413
  11.16609  -1.27838  -3.14273
  11.57739  -1.33388  -3.51313
  11.76699  -1.34458  -3.42913
  11.88419  -1.53448  -3.56453
  11.89229  -1.29198  -4.20283
  12.24349  -1.47088  -4.54023
  12.38869  -1.57628  -4.35153
  12.18339  -1.36328  -4.35203
  12.17779  -1.38058  -4.94653
  12.74689  -1.41918  -5.03843
  12.88739  -1.34788  -5.14693
  12.81189  -1.24078  -5.52383
  12.67629  -1.05448  -5.82313
  12.93299  -1.00068  -5.78173
  13.19509  -0.94058  -6.11653
  12.97439  -0.75538  -6.57133
  12.59349  -0.57488  -6.48083
  12.68259  -0.39558  -6.65053
  12.49579   0.07762  -7.00203
