********************************************************************************
              CENTRO DE INSTRUMENTACION Y REGISTRO SISMICO  A.C.

    Anaxagoras 814, Col. Narvarte, Benito Juarez, C.P. 03020 Mexico, D.F.
           Tels. 5687 45 42/ 5687 45  82             Fax. 5669 25 12
********************************************************************************
ARCHIVO ESTANDAR DE ACELERACION:
VERSION DEL FORMATO                    : 2.0
NOMBRE DEL ARCHIVO                     : CI0520220919180509
FECHA Y HORA DE CREACION               : 19/SEP/22, 19:43
REF. CATALOGO ACELEROGRAMAS, SMIS 1996 : REGISTRO No.     /PAG.


================================================================================
DATOS DE LA ESTACION:
NOMBRE DE LA ESTACION                  : CIBELES
CLAVE DE LA ESTACION                   : CI05
LOCALIZACION DE LA ESTACION            : Del. Cuauhtémoc, Col. Roma Norte,      
                                       : Colima , entre calles Oro              
                                       : y Medellín.                            
                                       :                                        
                                       : 
COORDENADAS DE LA ESTACION             : 19.4186 LAT. N
                                       : 99.1653 LONG. W
ALTITUD (msnm)                         : 2233
TIPO DE SUELO                          : Terreno blando, material compresible
                                       : (arcillas)                
                                       : 
INSTITUCION RESPONSABLE                : CIRES, A. C.
                                       : 

================================================================================
DATOS DEL ACELEROGRAFO:
MODELO DEL ACELEROGRAFO                : RAD_IO14
NUMERO DE SERIE DEL ACELEROGRAFO       : 
NUMERO DE CANALES                      : 3
ORIENTACION C1-C6 (rumbo;orientacion)  : /S00E/+V/N90W
ORIENTACION C7-C12 (rumbo;orientacion) : 
VEL. DE MUESTREO, C1-C6 (muestras/s)   : /100/100/100
VEL. DE MUESTREO, C7-C12 (muestras/s)  : 
ESC. COMPLETA DE SENSORES, C1-C6, (g)  : /2.0/2.0/2.0
ESC. COMPLETA DE SENSORES, C7-C12, (g) : 
FREC. NAT. DE SENSORES, C1-C6, (Hz)    : /52.49/51.93/50.04
FREC. NAT. DE SENSORES, C7-C12, (Hz)   : 
AMORTIGUAMIENTO DE SENSORES, C1-C6     : /0.5896/0.5763/0.5927
AMORTIGUAMIENTO DE SENSORES, C7-C12    : 
INTERVALO DE MUESTREO, C1-C6, (s)      : /0.01/0.01/0.01
INTERVALO DE MUESTREO, C7-C12, (s)     : 
UMBRAL DE DISPARO, C1-C6, (Gal)        : / / /
UMBRAL DE DISPARO, C7-C12, (Gal)       : 
MEMORIA DE PREEVENTO (s)               : 60
TIEMPO DE POSEVENTO (s)                : 90


================================================================================
DATOS DEL SISMO:
FECHA DEL SISMO (GMT)                  : 19/SEP/22
HORA EPICENTRO (GMT)                   : 18:05:09.0
MAGNITUD(ES)                           : /Mc=7.7
COORDENADAS DEL EPICENTRO              : 18.22 LAT. N
                                       : 103.29 LONG. W
PROFUNDIDAD FOCAL (km)                 : 15
FUENTE DE LOS DATOS EPICENTRALES       : SSN
                                       : INSTITUTO DE GEOFISICA, UNAM

================================================================================
DATOS DE ESTE REGISTRO:
HORA DE LA PRIMERA MUESTRA (GMT)       : 18:04:27.049.00
EXACTITUD DEL TIEMPO (s)               : 
DURACION DEL REGISTRO (s), C1-C6       : /559.01/559.01/559.01
DURACION DEL REGISTRO (s), C7-C12      : 
NUM. TOTAL DE MUESTRAS, C1-C6          : /55901/55901/55901
NUM. TOTAL DE MUESTRAS, C7-C12         : 
ACEL. MAX. (Gal), C1-C6                : /28.62737/7.19134/28.2159
ACEL. MAX., C1-C6, EN LA MUESTRA       : /20831/19910/19237
ACEL. MAX. (Gal), C7-C12               : 
ACEL. MAX., C7-C12, EN LA MUESTRA      : 
UNIDADES DE LOS DATOS                  : Gal (cm/s/s)
FACTOR DE DECIMACION                   : 1
FORMATO DATOS (FORTRAN,10 campos/dato) : 3F10.5


================================================================================
CALIDAD DEL ACELEROGRAMA:
REGISTRO DIGITAL COMPLETO CON TIEMPO ABSOLUTO CORRECTO.


================================================================================
COMENTARIOS:














================================================================================
DATOS DE ACELERACION:
---------+---------+---------+---------+---------+---------+---------+---------+
   CANAL-1   CANAL-2   CANAL-3   CANAL-4   CANAL-5   CANAL-6   CANAL-7   CANAL-8
      N00E        +V      N90W
---------+---------+---------+---------+---------+---------+---------+---------+
[...]
  -0.30993   2.86794   5.81360
  -0.16753   2.96174   5.40770
  -0.26523   3.01924   4.95430
  -0.04553   2.89414   4.46820
   0.15397   2.82234   4.10820
   0.20727   2.65034   3.64830
   0.34707   2.70054   3.17410
   0.49857   2.51844   2.66840
   0.69457   2.40264   2.31040
   0.79787   2.15364   2.01390
   0.87317   1.89934   1.87930
   1.12897   1.98274   1.70530
   1.17197   1.69124   1.52110
   1.38287   1.48924   1.72520
   1.39997   1.28184   1.34760
   1.50887   1.05194   1.34920
   1.67467   1.00634   1.58910
   1.58367   0.79174   1.88460
   1.62387   0.46554   2.11730
   1.54697   0.14314   2.42540
   1.59467   0.07254   2.58790
   1.48717   0.01384   2.71910
   1.73197  -0.19426   2.80140
   1.78547  -0.18136   2.92370
   1.91457  -0.35046   3.18790
   2.03097  -0.18276   3.16170
   2.03967  -0.23236   3.23090
   2.29027  -0.18466   3.16450
   2.28587  -0.34786   3.05650
   2.31197  -0.00486   2.94870
   2.38267   0.04844   2.60570
   2.61827   0.12304   2.41420
   2.75957   0.23944   2.03750
   2.79997   0.43054   1.86100
   3.11907   0.51254   1.55260
   3.07887   0.60304   1.09720
   3.28977   0.76904   0.83130
   3.21127   0.90074   0.68590
   3.20727   1.05924   0.54490
   3.52707   1.00804   0.23980
   3.37097   1.09524  -0.11980
   3.38587   1.18544  -0.18530
   3.24467   1.10314  -0.34890
   3.11397   1.00664  -0.67700
   2.84577   0.86894  -0.99430
   2.47617   0.79544  -1.49930
   2.11907   0.73964  -1.82780
   1.80717   0.68514  -1.88200
   1.24727   0.64564  -2.49620
   0.76347   0.57504  -2.90140
   0.07727   0.44804  -3.23770
  -0.63863   0.38164  -3.74640
  -1.29663   0.43004  -4.25680
  -2.04083   0.39874  -4.75250
  -2.55283   0.02864  -5.28180
  -3.32653  -0.33916  -5.61080
  -4.08643  -0.49116  -6.18320
  -4.86803  -0.76266  -6.63230
  -5.57623  -0.96766  -7.03560
  -6.46843  -1.20126  -7.71790
  -6.89093  -1.55246  -8.13290
  -7.60803  -2.03316  -8.65380
  -8.50843  -2.11476  -9.14270
  -9.12383  -2.29566  -9.73940
  -9.65343  -2.35696 -10.17100
 -10.39013  -2.59076 -10.76540
 -10.72193  -2.46196 -11.31200
 -11.20283  -2.54496 -11.83900
 -11.60293  -2.26836 -12.23580
 -11.89633  -2.36206 -12.77470
 -12.12213  -2.15616 -13.25400
 -12.39903  -2.11966 -13.53340
 -12.43153  -1.91736 -14.08100
 -12.71093  -1.74576 -14.34610
 -12.78223  -1.66016 -14.80600
 -12.74553  -1.21406 -15.15000
 -12.66343  -1.00816 -15.60290
 -12.80073  -0.84216 -15.74780
 -12.62743  -0.65946 -16.30170
 -12.49183  -0.41146 -16.46680
 -12.50163  -0.24476 -16.82660
 -12.40013   0.03984 -16.98610
 -12.38263   0.14644 -17.10440
 -12.23553   0.17214 -17.33470
 -11.90383   0.18404 -17.45790
 -11.54043   0.29374 -17.49600
 -11.21293   0.25934 -17.49130
 -10.99283   0.21684 -17.55070
 -10.61133   0.18224 -17.20020
 -10.34873   0.23204 -17.16100
 -10.09853   0.05944 -16.80020
  -9.75023  -0.17206 -16.34190
  -9.41933  -0.32936 -16.11420
  -8.97273  -0.22486 -15.55960
  -8.57883  -0.41026 -15.18970
  -8.01393  -0.36206 -14.40130
  -7.72793  -0.21386 -13.87310
  -7.31183  -0.29666 -13.29590
  -6.83553  -0.18536 -12.44600
  -6.33633  -0.12756 -11.68350
  -5.98843   0.01154 -10.76960
  -5.65383   0.16354  -9.94730
  -4.91713   0.10644  -8.75600
  -4.15423   0.16494  -7.63120
  -3.71933   0.20164  -6.61380
  -3.08403  -0.01796  -5.47990
  -2.32603  -0.13976  -4.39850
  -1.81523  -0.37616  -3.43030
  -1.09103  -0.75026  -2.14930
  -0.41583  -0.88746  -0.91990
   0.14227  -1.33216   0.22390
   0.81237  -1.57396   1.21730
   1.48807  -2.03076   2.21270
   1.95407  -2.42706   3.28840
   2.44617  -2.38646   4.11030
   2.92717  -2.93216   5.05390
   3.24747  -3.03896   5.83090
   3.72867  -3.26556   6.65690
   4.12267  -3.28986   7.44270
   4.42077  -3.57956   8.05980
   4.78267  -3.66956   8.88530
   5.07607  -3.63726   9.49300
   5.30847  -3.60786   9.93300
   5.50797  -3.58236  10.57300
   5.62207  -3.44886  11.05130
   5.83387  -3.47126  11.51690
   5.92087  -3.48606  11.69950
   6.07257  -3.21526  12.20710
   6.14947  -2.99966  12.31130
   6.23227  -2.76846  12.54540
   6.46027  -2.51896  12.77470
   6.60727  -2.34366  12.69480
   6.57527  -2.05746  12.89980
   6.63257  -1.66696  12.85610
   6.88997  -1.23606  12.96740
   7.00497  -0.94526  12.99080
   7.34777  -0.52246  12.80680
   7.54347  -0.16146  12.75840
   7.82597   0.15134  12.67400
   8.37117   0.49804  12.61580
   8.69057   0.70734  12.51470
   9.01437   0.76674  12.17080
   9.24487   1.15504  11.96390
   9.46707   1.24484  11.77260
  10.26707   1.28744  11.54910
  10.55797   1.28414  11.37260
  10.73447   1.45574  11.13390
  11.29777   1.54274  10.79130
  11.65807   1.63084  10.53250
  11.98697   1.64004  10.41050
  12.39247   1.60444  10.00500
  12.75227   1.52264   9.79910
  12.86757   1.37884   9.59750
  13.28137   1.19694   9.49980
  13.35597   1.20624   9.14490
  13.60547   1.10994   8.90330
  13.65057   0.87034   8.71540
  13.58927   0.96074   8.58720
  13.55727   1.03604   8.20140
  13.38587   1.06764   8.00880
  13.39427   0.99564   7.91620
  13.33637   1.15204   7.48040
  13.04497   1.31264   7.09370
  13.01437   1.33624   6.81590
  13.06467   1.42184   6.72240
  13.10677   1.41784   6.36770
  12.99447   1.48054   6.36320
  13.01737   1.33984   6.10930
  13.07117   1.30664   5.51590
  13.30127   1.38324   4.97040
  13.33187   1.41604   4.69030
  12.95337   1.61144   4.72960
  12.81847   1.26194   4.93350
  12.48507   1.18714   4.89070
  12.42657   1.32814   4.52640
  12.34797   1.45084   4.15680
  12.22577   1.56844   4.07450
  12.05267   1.60334   3.98420
  11.89347   1.74454   4.06650
  11.60727   1.72234   3.79440
  11.39807   1.90074   3.57550
  11.25497   1.83964   3.40740
  10.95757   1.90704   3.25290
  10.45817   1.77534   3.38760
  10.19857   1.57264   3.21620
   9.75297   1.74594   3.06790
   9.50747   1.49484   3.06630
   9.32767   1.34544   3.12990
   8.87547   1.37184   2.91360
   8.52777   1.23974   2.60150
   8.09997   1.26264   2.47410
   7.56027   1.32104   2.37770
   6.79557   1.31644   1.84160
   6.21007   1.27014   1.96740
   5.72257   1.34634   1.63660
   4.99337   1.50764   1.19470
   4.54017   1.56844   0.92020
   3.73337   1.79294   0.80930
   3.13807   1.90114   0.74600
   2.32927   2.12984   0.36980
   1.60127   2.17124   0.38690
   0.81817   2.34724   0.56030
  -0.03593   2.26844   0.46890
  -0.76113   2.48594   0.34640
  -1.56593   2.64564   0.14020
  -2.28813   2.65824   0.08850
  -3.06323   2.86914  -0.36880
  -3.64243   2.87594  -0.74030
  -4.36793   2.83944  -1.01410
  -5.07263   3.11814  -1.51400
  -5.92203   2.98274  -1.90050
  -6.53603   2.98814  -2.40690
  -7.22363   3.06344  -2.84490
  -7.89303   3.04404  -3.28230
  -8.52483   3.07814  -3.79860
  -9.20873   2.88014  -4.40670
  -9.74103   2.90164  -4.97720
 -10.29173   2.71714  -5.57360
 -10.79013   2.55444  -6.25380
 -11.22343   2.46764  -6.72160
 -11.62953   2.27384  -7.44990
 -12.20213   2.25004  -8.12960
 -12.43803   2.10904  -8.78060
 -12.75343   1.97734  -9.36110
 -13.05083   1.79854  -9.92290
 -13.10323   1.62034 -10.48850
 -13.40603   1.44964 -11.07700
 -13.73473   1.38584 -11.44010
 -13.62203   1.15224 -11.67230
 -13.91483   1.16464 -12.17310
 -13.92393   0.89904 -12.72090
 -14.03333   0.86114 -12.95590
 -14.08013   0.82724 -13.18150
 -14.04173   0.60514 -13.48880
 -14.10373   0.79714 -13.64560
 -13.97163   0.49294 -13.92650
 -13.79253   0.39354 -14.15700
 -13.71113   0.30164 -14.20630
 -13.59473  -0.04246 -14.32020
 -13.32203  -0.10706 -14.38610
 -13.34823  -0.27536 -14.27440
 -13.20803  -0.43276 -14.15790
 -12.80583  -0.68686 -13.87240
 -12.67233  -1.00276 -13.65410
 -12.53533  -1.19096 -13.49620
 -12.36603  -1.28916 -12.77750
 -12.26033  -1.35416 -12.44200
 -12.15533  -1.42806 -11.73220
 -11.69783  -1.58076 -10.91200
 -11.63613  -1.57676 -10.50090
 -11.71723  -1.64426  -9.69640
 -11.66863  -1.64426  -8.99190
 -11.60643  -1.74696  -8.25660
 -11.57923  -1.89966  -7.66830
 -11.36603  -1.70396  -6.93300
 -11.42053  -1.73596  -6.26570
 -11.52173  -1.49986  -5.41930
 -11.61063  -1.65346  -4.76540
 -11.65173  -1.48786  -4.20070
 -11.87833  -1.53886  -3.60610
 -11.87903  -1.49256  -3.06770
 -11.88833  -1.44256  -2.45770
 -11.80393  -1.59306  -1.82900
 -11.88693  -1.65436  -1.27720
 -11.95823  -1.78996  -0.84130
 -11.94373  -2.02496  -0.27300
 -12.04173  -1.94356   0.19650
 -12.10043  -2.09186   0.71650
 -11.99573  -2.01766   1.16920
 -11.85703  -2.05296   1.60920
 -11.52733  -2.18346   1.99100
 -11.50723  -2.14606   2.20310
 -11.19493  -1.98726   2.36630
 -10.97113  -2.01276   2.59140
 -10.81963  -2.08106   2.90190
 -10.45953  -2.09186   3.14350
 -10.06913  -2.08456   3.54350
  -9.88623  -2.20566   3.66880
  -9.50583  -2.34806   3.68330
  -9.14623  -2.42216   3.88460
  -8.88953  -2.59166   3.99830
  -8.65243  -2.70786   3.87080
  -8.22133  -2.86876   3.95520
  -7.78643  -2.95036   4.18810
  -7.40413  -3.13786   4.02210
  -7.02793  -3.28476   4.19630
  -6.63163  -3.72216   4.30130
  -6.13713  -3.90456   4.19700
  -5.66693  -4.03926   4.40370
  -5.29173  -4.42036   4.43080
  -4.59123  -4.36516   4.45820
  -4.03333  -4.70816   4.62390
  -3.49043  -4.66866   4.58400
  -2.78693  -4.56596   4.55990
  -2.13033  -4.59006   4.60710
  -1.30453  -4.19026   4.63610
  -0.79813  -4.04626   4.83110
   0.12287  -3.78226   4.85450
   0.65917  -3.27066   4.93960
   1.48477  -2.97136   4.97370
   2.25797  -2.60596   4.97680
   3.09857  -2.24356   4.93980
   3.95027  -1.75446   5.07520
   4.88787  -1.20916   5.02660
   5.63517  -0.72286   5.02440
   6.74667  -0.25476   4.92200
   7.65427   0.16074   4.82240
   8.52127   0.56584   4.79390
   9.57997   0.85184   4.75630
  10.60617   1.13494   4.83390
  11.80537   1.17874   4.92550
  12.70127   1.56944   4.69450
  13.82897   1.79904   4.73620
  14.76607   1.74244   4.69880
  15.89277   1.75994   4.59190
  16.82617   2.00964   4.54770
  17.87247   1.82374   4.49160
  18.89957   2.01944   4.36810
  19.84647   2.06954   4.38870
  20.83457   2.09144   4.15870
  21.60027   2.19624   4.15870
  22.45087   2.22734   3.94210
  23.54627   2.06814   3.59920
  24.38897   2.13454   3.34450
  25.05577   2.17494   3.05790
  25.76277   2.20954   2.48290
  26.51777   1.97834   2.25640
  27.14647   1.95164   1.98420
  27.57267   1.97154   1.42430
  28.00717   1.78824   1.05580
  28.42097   1.92924   0.44740
  28.55447   1.85974  -0.06860
  28.47547   1.71274  -0.66320
  28.62737   1.89974  -0.93600
  28.25967   2.16214  -1.34100
  28.12407   2.16674  -1.80950
  27.86287   2.09524  -2.21800
  27.45117   2.25634  -2.69400
  27.04737   2.43614  -3.08660
  26.44337   2.70174  -3.41320
  25.86637   2.69444  -3.45440
  25.31087   2.97384  -3.77210
  24.36347   3.05614  -4.01110
  23.72067   3.08124  -4.16980
  22.84957   3.03704  -4.13220
  22.14227   2.90184  -4.21890
  21.49067   2.86144  -3.99450
  20.65247   2.74944  -3.93490
  19.88137   2.55134  -3.79480
  19.23747   2.47514  -3.78850
  18.51307   2.24014  -3.57690
  17.68167   2.15294  -3.46890
  17.01627   2.15274  -3.25540
  16.35647   2.10764  -3.17620
  15.71397   1.93294  -2.88040
  15.04427   1.69864  -2.64240
  14.25097   1.50534  -2.77560
  13.52407   1.06344  -2.68260
  12.80697   0.97224  -2.80930
  11.95947   0.62364  -2.78290
  11.17967   0.35264  -2.85330
  10.34057   0.05174  -2.53390
   9.37097  -0.07336  -2.66620
   8.51987  -0.26086  -2.50440
   7.41767  -0.09016  -2.52310
   6.63677  -0.20876  -2.49370
   5.57787  -0.27186  -2.43240
   4.49717  -0.25526  -2.37610
   3.58857  -0.11006  -2.25100
   2.67797  -0.03706  -2.13690
   1.65757   0.10834  -2.02370
   0.65247   0.31104  -1.86290
  -0.07683   0.48804  -1.65830
  -0.91013   0.54714  -1.31290
  -1.78943   0.54554  -1.02720
  -2.43763   0.85724  -0.84560
  -3.08433   1.12444  -0.42170
  -3.71553   1.13424  -0.24230
  -4.10443   1.17844   0.03520
  -4.63933   1.47424   0.44860
  -5.00713   1.55114   0.79600
  -5.45883   1.38514   1.17670
  -5.71933   1.54224   1.38080
  -6.08823   1.62014   1.62070
  -6.37683   1.70964   1.84650
  -6.64563   1.84344   2.10140
  -6.87203   1.77794   2.07820
  -7.27113   1.90464   2.38150
  -7.58983   2.03844   2.43950
  -8.15983   1.99724   2.48080
  -8.60433   2.08094   2.57530
  -8.99283   2.00524   2.67300
  -9.54183   2.06394   2.83180
 -10.08873   2.25254   2.87600
 -10.66553   2.05734   3.01810
 -10.93793   1.92804   3.04990
 -11.48293   1.73284   3.10650
 -12.01273   1.82774   3.24280
 -12.15443   1.92714   3.31020
 -12.47993   1.87594   3.33870
 -12.90593   1.87454   3.42120
 -13.34333   1.82144   3.52760
 -13.57463   1.75064   3.33050
 -13.84463   1.58644   3.43500
 -14.24963   1.47194   3.32260
 -14.63003   1.47074   3.26270
 -15.14513   1.22334   3.30690
 -15.27763   1.26944   3.31670
 -15.64283   0.87634   3.31550
 -16.12353   0.68654   3.36980
 -16.21523   0.30964   3.26010
 -16.65663   0.13964   3.17290
 -17.11073   0.09434   3.01700
 -17.26573  -0.15216   3.28840
 -17.36553  -0.25506   3.39220
 -17.50793  -0.45516   3.23110
 -17.82873  -0.45096   3.23960
 -17.97583  -0.48556   3.32330
 -18.06843  -0.59236   3.27560
 -18.08293  -0.53276   3.23700
 -18.18883  -0.48036   3.05790
 -18.33963  -0.67606   3.05460
 -18.39553  -0.50516   3.08200
 -18.36743  -0.62676   2.96620
 -18.36233  -0.54236   2.85100
 -18.30053  -0.57016   2.84160
 -18.32913  -0.55176   2.96760
 -18.08753  -0.30456   3.03660
 -17.92883  -0.34036   3.13410
 -17.79203  -0.24496   3.21310
 -17.51243  -0.41376   3.35010
 -17.31273  -0.48606   3.39150
 -17.02073  -0.19376   3.49720
 -16.52693  -0.24476   3.70930
 -16.29073  -0.42266   3.74060
 -15.81943  -0.41356   3.99120
 -15.41913  -0.39156   4.13970
 -15.19493  -0.51316   4.01600
 -14.74343  -0.46126   4.22600
 -14.27483  -0.55286   4.03640
 -13.74343  -0.62376   4.25780
 -13.38563  -0.55336   4.17480
 -12.80723  -0.63126   4.08920
 -12.41443  -0.68006   4.22300
 -11.84413  -0.69316   4.12550
 -11.19913  -0.60786   4.44060
 -10.68053  -0.79016   4.36490
 -10.15283  -0.79866   4.29400
  -9.51003  -0.81986   4.28160
  -8.96923  -0.87556   4.26200
  -8.39943  -1.08336   4.05740
  -7.67653  -1.14376   3.99870
  -6.87483  -1.17806   3.89960
  -6.36813  -1.38266   3.96550
  -5.61923  -1.41076   3.73150
  -4.93933  -1.53326   3.86480
  -4.46773  -1.64246   3.72910
  -3.94303  -1.75186   3.68570
  -3.13873  -1.79956   3.61790
  -2.55383  -1.76496   3.60640
  -2.00923  -1.78926   3.84560
  -1.34243  -1.98846   3.75160
  -0.78223  -1.73896   3.79440
  -0.31953  -1.79116   3.78690
   0.09177  -1.83326   3.67980
   0.79647  -1.73266   3.85070
   1.21007  -1.81176   3.93280
   1.62247  -1.58256   3.91760
   1.99447  -1.50216   3.97140
   2.44977  -1.38946   4.05060
   2.82167  -1.03036   3.84250
   3.26217  -1.06516   4.12220
   3.63627  -0.90686   4.28700
   4.02727  -0.54606   4.11050
   4.27137  -0.25226   4.34640
   4.57477   0.22944   4.33870
   4.95357   0.23204   4.42610
