********************************************************************************
              CENTRO DE INSTRUMENTACION Y REGISTRO SISMICO  A.C.

    Anaxagoras 814, Col. Narvarte, Benito Juarez, C.P. 03020 Mexico, D.F.
           Tels. 5687 45 42/ 5687 45  82             Fax. 5669 25 12
********************************************************************************
ARCHIVO ESTANDAR DE ACELERACION:
VERSION DEL FORMATO                    : 2.0
NOMBRE DEL ARCHIVO                     : CO4720220919180509
FECHA Y HORA DE CREACION               : 19/SEP/22, 19:43
REF. CATALOGO ACELEROGRAMAS, SMIS 1996 : REGISTRO No.     /PAG.


================================================================================
DATOS DE LA ESTACION:
NOMBRE DE LA ESTACION                  : COYOACÁN
CLAVE DE LA ESTACION                   : CO47
LOCALIZACION DE LA ESTACION            : Del. Benito Juárez, Col. del Valle,    
                                       : Av. Coyoacán entre Av. Félix Cuevas    
                                       : y calle San Lorenzo.                   
                                       :                                        
                                       : 
COORDENADAS DE LA ESTACION             : 19.3714 LAT. N
                                       : 99.1703 LONG. W
ALTITUD (msnm)                         : 2247
TIPO DE SUELO                          : Terreno estratificado               
                                       : (arcillas, limos, arenas) 
                                       : 
INSTITUCION RESPONSABLE                : CIRES, A. C.
                                       : 

================================================================================
DATOS DEL ACELEROGRAFO:
MODELO DEL ACELEROGRAFO                : RAD_IO14
NUMERO DE SERIE DEL ACELEROGRAFO       : 
NUMERO DE CANALES                      : 3
ORIENTACION C1-C6 (rumbo;orientacion)  : /S00E/+V/N90W
ORIENTACION C7-C12 (rumbo;orientacion) : 
VEL. DE MUESTREO, C1-C6 (muestras/s)   : /100/100/100
VEL. DE MUESTREO, C7-C12 (muestras/s)  : 
ESC. COMPLETA DE SENSORES, C1-C6, (g)  : /2.0/2.0/2.0
ESC. COMPLETA DE SENSORES, C7-C12, (g) : 
FREC. NAT. DE SENSORES, C1-C6, (Hz)    : /53.07/51.93/52.78
FREC. NAT. DE SENSORES, C7-C12, (Hz)   : 
AMORTIGUAMIENTO DE SENSORES, C1-C6     : /0.5715/0.5589/0.5715
AMORTIGUAMIENTO DE SENSORES, C7-C12    : 
INTERVALO DE MUESTREO, C1-C6, (s)      : /0.01/0.01/0.01
INTERVALO DE MUESTREO, C7-C12, (s)     : 
UMBRAL DE DISPARO, C1-C6, (Gal)        : / / /
UMBRAL DE DISPARO, C7-C12, (Gal)       : 
MEMORIA DE PREEVENTO (s)               : 60
TIEMPO DE POSEVENTO (s)                : 90


================================================================================
DATOS DEL SISMO:
FECHA DEL SISMO (GMT)                  : 19/SEP/22
HORA EPICENTRO (GMT)                   : 18:05:09.0
MAGNITUD(ES)                           : /Mc=7.7
COORDENADAS DEL EPICENTRO              : 18.22 LAT. N
                                       : 103.29 LONG. W
PROFUNDIDAD FOCAL (km)                 : 15
FUENTE DE LOS DATOS EPICENTRALES       : SSN
                                       : INSTITUTO DE GEOFISICA, UNAM

================================================================================
DATOS DE ESTE REGISTRO:
HORA DE LA PRIMERA MUESTRA (GMT)       : 18:04:27.037.00
EXACTITUD DEL TIEMPO (s)               : 
DURACION DEL REGISTRO (s), C1-C6       : /600.01/600.01/600.01
DURACION DEL REGISTRO (s), C7-C12      : 
NUM. TOTAL DE MUESTRAS, C1-C6          : /60001/60001/60001
NUM. TOTAL DE MUESTRAS, C7-C12         : 
ACEL. MAX. (Gal), C1-C6                : /8.55994/2.76869/7.46571
ACEL. MAX., C1-C6, EN LA MUESTRA       : /18572/22339/19144
ACEL. MAX. (Gal), C7-C12               : 
ACEL. MAX., C7-C12, EN LA MUESTRA      : 
UNIDADES DE LOS DATOS                  : Gal (cm/s/s)
FACTOR DE DECIMACION                   : 1
FORMATO DATOS (FORTRAN,10 campos/dato) : 3F10.5


================================================================================
CALIDAD DEL ACELEROGRAMA:
REGISTRO DIGITAL COMPLETO CON TIEMPO ABSOLUTO CORRECTO.


================================================================================
COMENTARIOS:














================================================================================
DATOS DE ACELERACION:
---------+---------+---------+---------+---------+---------+---------+---------+
   CANAL-1   CANAL-2   CANAL-3   CANAL-4   CANAL-5   CANAL-6   CANAL-7   CANAL-8
      N00E        +V      N90W
---------+---------+---------+---------+---------+---------+---------+---------+
[...]
  -0.01386   0.11231  -1.90299
   0.36424   0.31011  -2.12089
   0.40564   0.39051  -2.23989
   0.68434   0.68161  -2.42929
   0.81804   0.55721  -2.47259
   1.01004   0.62081  -2.58249
   1.31604   0.75571  -2.67619
   1.45984   0.74641  -2.62169
   1.44444   0.69561  -2.85649
   1.52694   0.80691  -2.86139
   1.69594   0.87821  -2.93669
   1.75144   0.70901  -2.91539
   1.89564   0.70311  -2.96359
   1.93984   0.72251  -3.05149
   2.02844   0.72671  -2.76229
   2.00464   0.55911  -2.76899
   2.14304   0.65171  -2.71149
   2.23354   0.58501  -2.56379
   2.25554   0.58011  -2.59479
   2.32754   0.66131  -2.50999
   2.31374   0.57151  -2.40059
   2.25904   0.55581  -2.20509
   2.27984   0.67251  -2.04959
   2.28304   0.65191  -1.90139
   2.37614   0.51161  -1.82769
   2.42684   0.59461  -1.69259
   2.31534   0.67861  -1.47959
   2.49514   0.49531  -1.22889
   2.30604   0.48031  -1.02109
   2.28684   0.35431  -0.81559
   2.51594   0.39941  -0.66379
   2.50664   0.23481  -0.24669
   2.65764   0.39991  -0.15129
   2.52064   0.33371   0.03641
   2.55854   0.26961   0.17271
   2.50244   0.39261   0.48581
   2.64104   0.21101   0.68741
   2.77224   0.29701   0.69201
   2.61394   0.17381   0.86691
   2.96554   0.21281   0.96511
   3.18064   0.22261   1.00631
   3.03874   0.16161   1.04741
   3.09344   0.08031   1.02361
   3.21734   0.02061   1.04601
   3.36794  -0.09529   1.02081
   3.30064  -0.20219   1.09041
   3.13764  -0.27019   0.92071
   2.85754  -0.22279   0.88051
   2.60314  -0.04549   0.65841
   2.48744  -0.25389   0.59521
   2.15844  -0.09179   0.56581
   1.90824  -0.19209   0.36421
   1.50874  -0.10909   0.39531
   1.12154  -0.09139   0.13301
   0.97304  -0.00559   0.24361
   0.50404  -0.07919   0.13461
  -0.17306  -0.03009   0.03671
  -0.56896   0.15251   0.13441
  -0.69846  -0.08579  -0.11969
  -1.14036   0.10111  -0.03629
  -1.50506   0.00851  -0.02759
  -1.93506  -0.12459   0.02761
  -2.01056  -0.24869   0.01891
  -2.54156  -0.36699   0.08181
  -2.69916  -0.36699   0.15081
  -2.88756  -0.25779  -0.06759
  -3.06246  -0.36449  -0.11089
  -3.02626  -0.49469  -0.09029
  -3.41346  -0.35879  -0.14339
  -3.49946  -0.39599  -0.18849
  -3.48876  -0.36939  -0.20579
  -3.41156  -0.39979  -0.32569
  -3.46296  -0.28149  -0.52629
  -3.38536  -0.23259  -0.69069
  -3.39056  -0.16009  -0.80009
  -3.09476  -0.15709  -0.79589
  -2.85046  -0.28289  -0.79009
  -2.66456  -0.28959  -1.23549
  -2.48216  -0.35389  -1.13489
  -2.26426  -0.26879  -1.25649
  -1.92646  -0.36279  -1.49949
  -1.76256  -0.38009  -1.40899
  -1.60986  -0.32609  -1.46059
  -1.14736  -0.33709  -1.69699
  -0.92006  -0.39039  -1.60229
  -0.67626  -0.45839  -1.70869
  -0.57496  -0.54919  -1.51389
  -0.28106  -0.60269  -1.59879
  -0.09916  -0.57859  -1.68089
   0.14304  -0.51989  -1.55109
   0.36584  -0.43439  -1.63509
   0.67054  -0.52619  -1.78589
   0.72034  -0.39949  -1.89179
   0.94194  -0.32889  -1.85689
   1.06824  -0.32559  -1.80339
   0.99784  -0.19749  -1.93389
   1.19424   0.00361  -1.79259
   1.19894  -0.24539  -1.78749
   1.27564  -0.26409  -1.80289
   1.11684  -0.13879  -1.67529
   1.09814  -0.08949  -1.93879
   1.16994  -0.22249  -2.02719
   1.08014  -0.14259  -1.85859
   0.95554  -0.19909  -1.75199
   1.02634  -0.28639  -1.69559
   1.09674  -0.49799  -1.70519
   0.86134  -0.67799  -1.52049
   0.88844  -0.69809  -1.61989
   0.88884  -0.76009  -1.37159
   0.94924  -0.82969  -1.23639
   0.71544  -1.07269  -1.10709
   0.70834  -1.11759  -0.96709
   0.65064  -1.18089  -0.93569
   0.56504  -1.30549  -0.66639
   0.58704  -1.31819  -0.67969
   0.33474  -1.02379  -0.50999
   0.39254  -1.23839  -0.35289
   0.12294  -0.89539  -0.13629
  -0.02036  -1.03519  -0.13819
  -0.06806  -0.88939  -0.01479
  -0.18896  -0.84939   0.01421
  -0.22076  -0.74249   0.02081
  -0.29626  -0.70139   0.18961
  -0.48456  -0.70529   0.16741
  -0.57006  -0.68029   0.32241
  -0.70336  -0.56649   0.31211
  -0.83806  -0.45839   0.18511
  -0.89556  -0.39389   0.22981
  -0.99116  -0.46199   0.20661
  -0.88476  -0.50959   0.31611
  -1.00686  -0.47109   0.20241
  -1.00496  -0.51009   0.11991
  -1.05056  -0.64339  -0.02619
  -0.91196  -0.66999  -0.09429
  -0.78796  -0.73849  -0.20769
  -0.61266  -0.85309  -0.36949
  -0.53966  -0.90709  -0.58879
  -0.29326  -0.96739  -0.67689
  -0.29656  -1.01649  -0.69209
  -0.10106  -1.02219  -0.65519
  -0.00406  -0.82619  -0.73679
   0.17784  -0.84099  -0.82369
   0.39484  -1.06679  -0.88989
   0.57134  -1.08219  -1.13539
   0.59004  -0.91599  -1.01149
   0.62604  -0.98659  -0.96799
   0.84544  -1.00059  -0.99719
   0.96624  -1.05859  -1.10029
   1.04154  -1.06419  -1.20159
   1.20994  -0.88649  -1.20039
   1.21034  -0.87089  -1.19249
   1.30694  -0.78949  -1.12329
   1.41124  -0.65199  -1.12439
   1.50964  -0.75399  -1.15479
   1.31744  -0.71279  -1.36589
   1.31794  -0.63429  -1.38979
   1.40534  -0.70599  -1.33319
   1.23284  -0.76639  -1.45289
   1.24334  -0.70819  -1.30939
   1.28544  -0.68009  -1.31639
   1.06054  -0.71519  -1.16089
   0.94784  -0.93819  -1.03909
   1.03084  -0.90079  -0.81069
   1.01744  -0.90919  -0.65629
   0.90544  -0.99319  -0.50649
   0.87254  -0.93349  -0.25929
   0.70044  -0.77059  -0.03419
   0.86624  -0.78789   0.38041
   0.73974  -0.81919   0.83511
   0.57134  -0.72619   1.35321
   0.37684  -0.78789   1.59941
   0.29314  -0.84309   1.99581
   0.10894  -0.75159   2.31561
  -0.03696  -0.67099   2.62631
  -0.38306  -0.70039   3.02381
  -0.48526  -0.72549   3.21161
  -0.78656  -0.76469   3.55411
  -1.20486  -0.87789   3.84521
  -1.41626  -0.76869   3.93221
  -1.62756  -0.70509   4.24011
  -1.85926  -0.59569   4.49451
  -2.08356  -0.61509   4.56341
  -2.37536  -0.74859   4.73831
  -2.62946  -0.73899   4.80471
  -2.85766  -0.71889   4.83191
  -3.05996  -0.56599   4.80051
  -3.28506  -0.53839   4.67891
  -3.44916  -0.55409   4.67731
  -3.52336  -0.18609   4.68971
  -3.67066  -0.32909   4.62701
  -3.67696  -0.23539   4.49121
  -3.76106  -0.03779   4.47951
  -3.81556  -0.07289   4.47161
  -3.75456   0.13571   4.34091
  -3.79756   0.06551   4.12221
  -3.93346   0.32271   4.03951
  -3.89836   0.40271   3.76851
  -3.90866   0.45111   3.63551
  -3.87146   0.56281   3.45801
  -3.86096   0.55181   3.12951
  -3.77836   0.68791   3.06591
  -3.79946   0.72531   2.76781
  -3.87476   0.65211   2.44141
  -3.73426   0.71461   2.21551
  -3.61756   0.52361   2.00721
  -3.49666   0.49991   1.64221
  -3.27876   0.43561   1.47951
  -2.93576   0.16301   1.08621
  -2.69116   0.08471   1.01611
  -2.57336   0.11981   0.98081
  -2.55256  -0.00439   0.71311
  -2.06416   0.06341   0.55971
  -1.81656   0.02061   0.42201
  -1.62456   0.05201   0.48841
  -1.40686   0.02181   0.29481
  -1.12706   0.15811   0.14751
  -1.01036   0.27451   0.29111
  -0.68396   0.39361   0.60111
  -0.58996   0.30261   0.59031
  -0.31286   0.53921   0.62281
   0.10774   0.52801   0.68501
   0.48904   0.39121   0.82671
   0.59074   0.39191   0.82671
   0.87674   0.49291   1.04581
   1.02444   0.62411   1.06961
   1.35274   0.86561   1.23121
   1.48414   0.81861   1.21371
   1.59354   0.99941   1.23661
   1.85174   0.97251   1.17561
   1.98774   1.13431   0.96421
   2.32544   1.25051   0.82831
   2.35794   1.17681   0.71051
   2.48624   1.40851   0.59501
   2.55504   1.41461   0.22651
   2.64474   1.44151   0.01751
   2.79464   1.47281  -0.22989
   2.81074   1.57921  -0.55579
   2.85244   1.61361  -0.66149
   2.58164   1.65281  -1.01009
   2.38644   1.87101  -1.24179
   2.38854   1.81161  -1.36969
   2.23584   1.89181  -1.58149
   2.20144   1.84501  -1.81179
   1.93124   1.81721  -1.93289
   1.71304   1.77021  -2.02509
   1.52574   2.06151  -1.92219
   1.07964   1.95031  -2.10269
   0.84864   1.88241  -1.91729
   0.61014   1.84201  -1.88169
   0.04484   1.94181  -1.86629
  -0.35286   1.92061  -1.97599
  -0.65096   1.88571  -2.00819
  -0.90606   1.85631  -1.85759
  -1.36386   1.95871  -1.71829
  -1.83216   1.89481  -1.73119
  -2.09286   1.80181  -1.74099
  -2.33416   1.71671  -1.60019
  -2.67906   1.61611  -1.53449
  -2.97646   1.53501  -1.53499
  -2.91166   1.56911  -1.56769
  -3.15386   1.38491  -1.37949
  -3.39756   1.37301  -1.49849
  -3.48616   1.19761  -1.28319
  -3.50836   1.06551  -1.30239
  -3.59066   1.01621  -1.25609
  -3.70596   0.91191  -1.14939
  -3.61756   0.86261  -1.02999
  -3.56426   0.79711  -1.20529
  -3.20366   0.64001  -0.98669
  -3.12116   0.56241  -1.05989
  -3.08216   0.59251  -0.78139
  -2.74126   0.52001  -0.66479
  -2.34816   0.42211  -0.41879
  -2.24626   0.39991  -0.29489
  -2.02486   0.39611  -0.22589
  -1.82026   0.38721  -0.00919
  -1.50256   0.19761   0.30551
  -1.19596   0.29091   0.61461
  -1.08116   0.29141   0.87741
  -0.81516   0.12091   1.15781
  -0.75646   0.08351   1.41681
  -0.54696  -0.00809   1.47971
  -0.21256  -0.03879   1.70281
  -0.23126  -0.24309   2.09581
  -0.07816  -0.13699   2.16921
   0.03454  -0.18349   2.16501
   0.17084  -0.24309   2.29481
   0.40424  -0.12359   2.39491
   0.58164  -0.16429   2.42361
   0.44324  -0.18279   2.59011
   0.50494  -0.03169   2.55641
   0.63144   0.02931   2.45071
   0.53094   0.03211   2.63831
   0.62374   0.36461   2.52391
   0.54444   0.36711   2.54751
   0.57274   0.37511   2.23281
   0.67794   0.61591   2.33241
   0.66884   0.60191   2.12081
   0.61724   0.71691   2.06851
   0.84234   0.67761   1.99881
   0.81994   0.75361   1.78301
   0.65154   0.92851   1.62141
   0.74814   0.80931   1.29181
   0.76314   0.79641   1.21741
   0.79344   0.93741   0.97801
   0.68154   0.87571   0.76641
   0.77084   1.03981   0.49351
   0.82784   1.00101   0.37131
   0.86854   1.11881   0.22001
   1.15024   1.14571   0.00181
   1.27494   1.07421  -0.19529
   1.38854   1.11721  -0.55229
   1.54144   0.97411  -0.52349
   1.67124   0.96031  -0.92119
   1.99084   1.01271  -1.13189
   2.20314   1.06791  -1.16789
   2.40584   1.12721  -1.37599
   2.75534   1.13221  -1.47979
   3.05044   1.07351  -1.58709
   3.54054   1.11701  -1.74779
   3.81314   1.28721  -1.73579
   4.23044   1.18291  -1.74679
   4.75814   1.18311  -1.76109
   5.27444   1.07141  -1.87309
   5.92164   1.27481  -1.75759
   6.34034   0.98281  -1.74959
   6.94194   0.96361  -1.80249
   7.37214   0.69871  -1.75429
   7.56604   0.58601  -1.74609
   7.82904   0.52261  -1.59839
   8.10494   0.40921  -1.43469
   8.36774   0.24231  -1.44709
   8.51924   0.13261  -1.27569
   8.55994   0.04521  -1.41429
   8.44604  -0.00529  -1.42649
   8.30484  -0.16779  -1.20509
   8.25804  -0.36399  -1.26889
   7.92554  -0.40609  -1.12959
   7.59194  -0.36679  -1.13889
   7.23304  -0.64079  -1.36339
   6.89874  -0.68919  -1.19289
   6.39364  -0.75839  -1.37969
   5.93334  -0.78229  -1.41549
   5.58494  -0.84729  -1.24649
   5.03784  -0.85869  -1.44399
   4.54964  -0.89869  -1.38329
   3.99204  -0.96699  -1.38299
   3.60554  -0.93729  -1.35939
   2.90684  -0.77079  -1.57639
   2.41944  -0.80709  -1.63599
   1.94334  -0.90409  -1.74919
   1.51124  -0.74299  -1.82769
   0.94544  -0.74599  -1.80689
   0.46174  -0.89379  -2.18149
   0.15634  -0.81129  -2.30189
   0.03454  -0.79349  -2.29559
  -0.38636  -0.67379  -2.60769
  -0.49436  -0.83389  -2.59529
  -0.45946  -0.90599  -2.89509
  -0.61686  -1.17129  -3.12509
  -0.85186  -1.41729  -3.11529
  -0.77586  -1.42879  -3.31329
  -0.72536  -1.66049  -3.37369
  -0.57076  -1.78949  -3.51109
  -0.46716  -1.74559  -3.64249
  -0.09806  -1.77829  -3.69799
   0.21784  -1.79159  -3.51089
   0.54514  -1.78759  -3.50809
   0.77524  -1.68309  -3.46509
   1.03714  -1.61669  -3.52099
   1.24734  -1.64409  -3.54129
   1.50734  -1.78389  -3.38019
   1.84144  -1.67709  -3.27659
   1.98244  -1.44889  -3.25189
   2.21854  -1.59829  -3.05569
   2.31764  -1.69669  -2.90159
   2.49934  -1.64319  -2.69659
   2.42574  -1.74319  -2.53449
   2.57254  -1.73849  -2.48889
   2.41654  -1.62509  -2.41689
   2.27324  -2.07309  -2.26069
   2.26834  -2.05959  -2.06429
   1.98334  -2.13559  -2.08299
   1.83674  -2.15429  -1.88029
   1.64294  -2.03669  -1.70989
   1.22044  -1.86129  -1.73209
   1.03754  -2.00909  -1.73699
   0.68264  -1.93419  -1.45879
   0.27074  -1.70389  -1.22819
  -0.11786  -1.74439  -1.32989
  -0.46066  -1.54069  -1.31659
  -0.66616  -1.51619  -1.16839
  -1.10766  -1.50149  -1.19479
  -1.45016  -1.66189  -1.13729
  -1.84316  -1.55799  -0.86259
  -2.13986  -1.49559  -0.65939
  -2.49526  -1.66119  -0.69139
  -2.67456  -1.64169  -0.55999
  -3.02676  -1.55899  -0.36289
  -3.32946  -1.62509  -0.11579
  -3.57356  -1.52839  -0.02619
  -3.74596  -1.67309   0.17671
  -3.83776  -1.64149   0.36611
  -3.97856  -1.63119   0.58851
  -3.88226  -1.43229   0.71281
  -4.20556  -1.35439   0.99251
  -4.24906  -1.26719   1.29361
  -4.10766  -1.16479   1.42081
  -4.21046  -1.16239   1.75211
  -4.14336  -1.03809   1.94691
  -3.97786  -0.97909   1.85311
  -3.91706  -0.79609   1.84871
  -3.73356  -0.59289   2.07451
  -3.42626  -0.45799   1.99461
  -3.10316  -0.39459   2.01751
  -2.93366  -0.30229   1.88611
  -2.78586  -0.01889   1.74251
  -2.54156  -0.20199   1.72921
  -2.41106  -0.14629   1.52861
  -2.25116  -0.23139   1.12671
  -2.09056  -0.25709   0.72921
  -1.86046  -0.19349   0.58661
  -1.65566  -0.38129   0.22931
  -1.63696  -0.32699  -0.38719
  -1.38656  -0.60709  -0.67499
  -1.53386  -0.63919  -0.90839
  -1.24956  -0.80069  -1.16139
  -1.36646  -1.08599  -1.61259
  -1.25326  -1.10019  -1.84459
  -1.21536  -1.31999  -1.98719
  -1.18546  -1.33079  -2.17139
  -1.00026  -1.40909  -2.44969
  -0.91336  -1.51219  -2.66969
  -0.85626  -1.50029  -2.84009
  -0.74446  -1.45749  -2.90959
  -0.54416  -1.49469  -2.76159
  -0.55516  -1.49449  -2.73769
  -0.40786  -1.39109  -2.68789
  -0.14616  -1.23679  -2.40619
  -0.17566  -1.18579  -2.45009
   0.16804  -1.16709  -2.37929
   0.19774  -1.15519  -2.22189
   0.30554  -1.08929  -2.03039
   0.39604  -1.24149  -1.80969
   0.64924  -1.09249  -1.59769
   0.72634  -1.06139  -1.48659
   0.56244  -1.14439  -1.14639
   0.63354  -1.17319  -0.85479
   0.51454  -1.25599  -0.47209
   0.51124  -1.25569  -0.06849
   0.59734  -1.03359   0.32401
   0.44484  -1.06519   0.61891
   0.41984  -1.01019   1.12811
   0.08554  -0.68009   1.67821
   0.04554  -0.63709   2.26581
  -0.16046  -0.76029   2.84171
  -0.40266  -0.61279   3.13881
  -0.53526  -0.29479   3.57281
  -0.77206  -0.45909   3.92071
  -1.19366  -0.41729   4.45171
  -1.33466  -0.41539   4.91881
  -1.46936  -0.36159   5.25671
  -1.58366  -0.47079   5.34861
  -1.60636  -0.41589   5.72801
  -1.96916  -0.48809   6.05961
  -1.89746  -0.48389   6.24831
  -1.91446  -0.41849   6.35631
  -2.06576  -0.41709   6.17701
  -2.14156  -0.35369   6.25721
  -2.15526  -0.34599   6.05961
  -2.24506  -0.39859   5.87371
  -2.08006  -0.31959   5.74491
  -2.16816  -0.47199   5.48231
  -1.94256  -0.38149   5.22721
  -1.92476  -0.18179   4.88801
  -1.81976  -0.07499   4.65001
  -1.89466  -0.07849   4.33551
