********************************************************************************
              CENTRO DE INSTRUMENTACION Y REGISTRO SISMICO  A.C.

    Anaxagoras 814, Col. Narvarte, Benito Juarez, C.P. 03020 Mexico, D.F.
           Tels. 5687 45 42/ 5687 45  82             Fax. 5669 25 12
********************************************************************************
ARCHIVO ESTANDAR DE ACELERACION:
VERSION DEL FORMATO                    : 2.0
NOMBRE DEL ARCHIVO                     : CP2820220919180509
FECHA Y HORA DE CREACION               : 19/SEP/22, 19:43
REF. CATALOGO ACELEROGRAMAS, SMIS 1996 : REGISTRO No.     /PAG.


================================================================================
DATOS DE LA ESTACION:
NOMBRE DE LA ESTACION                  : CERRO DEL PEÑÓN
CLAVE DE LA ESTACION                   : CP28
LOCALIZACION DE LA ESTACION            : Del. Venustiano Carranza, Col. Peñon   
                                       : de los Baños, calle Morelos,           
                                       : Esq. con calle La Paz.                 
                                       :                                        
                                       : 
COORDENADAS DE LA ESTACION             : 19.4385 LAT. N
                                       : 99.0839 LONG. W
ALTITUD (msnm)                         : 2240
TIPO DE SUELO                          : Arenoso, limoso, compacto           
                                       :                           
                                       : 
INSTITUCION RESPONSABLE                : CIRES, A. C.
                                       : 

================================================================================
DATOS DEL ACELEROGRAFO:
MODELO DEL ACELEROGRAFO                : RAD_IO14
NUMERO DE SERIE DEL ACELEROGRAFO       : 
NUMERO DE CANALES                      : 3
ORIENTACION C1-C6 (rumbo;orientacion)  : /N00E/+V/N90W
ORIENTACION C7-C12 (rumbo;orientacion) : 
VEL. DE MUESTREO, C1-C6 (muestras/s)   : /100/100/100
VEL. DE MUESTREO, C7-C12 (muestras/s)  : 
ESC. COMPLETA DE SENSORES, C1-C6, (g)  : /2.0/2.0/2.0
ESC. COMPLETA DE SENSORES, C7-C12, (g) : 
FREC. NAT. DE SENSORES, C1-C6, (Hz)    : /30/30/30
FREC. NAT. DE SENSORES, C7-C12, (Hz)   : 
AMORTIGUAMIENTO DE SENSORES, C1-C6     : /0.700/0.700/0.700
AMORTIGUAMIENTO DE SENSORES, C7-C12    : 
INTERVALO DE MUESTREO, C1-C6, (s)      : /0.01/0.01/0.01
INTERVALO DE MUESTREO, C7-C12, (s)     : 
UMBRAL DE DISPARO, C1-C6, (Gal)        : / / /
UMBRAL DE DISPARO, C7-C12, (Gal)       : 
MEMORIA DE PREEVENTO (s)               : 60
TIEMPO DE POSEVENTO (s)                : 90


================================================================================
DATOS DEL SISMO:
FECHA DEL SISMO (GMT)                  : 19/SEP/22
HORA EPICENTRO (GMT)                   : 18:05:09.0
MAGNITUD(ES)                           : /Mc=7.7
COORDENADAS DEL EPICENTRO              : 18.22 LAT. N
                                       : 103.29 LONG. W
PROFUNDIDAD FOCAL (km)                 : 15
FUENTE DE LOS DATOS EPICENTRALES       : SSN
                                       : INSTITUTO DE GEOFISICA, UNAM

================================================================================
DATOS DE ESTE REGISTRO:
HORA DE LA PRIMERA MUESTRA (GMT)       : 18:04:26.996.00
EXACTITUD DEL TIEMPO (s)               : 
DURACION DEL REGISTRO (s), C1-C6       : /522.21/522.21/522.21
DURACION DEL REGISTRO (s), C7-C12      : 
NUM. TOTAL DE MUESTRAS, C1-C6          : /52221/52221/52221
NUM. TOTAL DE MUESTRAS, C7-C12         : 
ACEL. MAX. (Gal), C1-C6                : /6.41158/2.44968/5.516
ACEL. MAX., C1-C6, EN LA MUESTRA       : /19623/19289/19218
ACEL. MAX. (Gal), C7-C12               : 
ACEL. MAX., C7-C12, EN LA MUESTRA      : 
UNIDADES DE LOS DATOS                  : Gal (cm/s/s)
FACTOR DE DECIMACION                   : 1
FORMATO DATOS (FORTRAN,10 campos/dato) : 3F10.5


================================================================================
CALIDAD DEL ACELEROGRAMA:
REGISTRO DIGITAL COMPLETO CON TIEMPO ABSOLUTO CORRECTO.


================================================================================
COMENTARIOS:














================================================================================
DATOS DE ACELERACION:
---------+---------+---------+---------+---------+---------+---------+---------+
   CANAL-1   CANAL-2   CANAL-3   CANAL-4   CANAL-5   CANAL-6   CANAL-7   CANAL-8
      N00E        +V      N90W
---------+---------+---------+---------+---------+---------+---------+---------+
[...]
   1.65522   2.44968   0.27360
   1.45162   2.27908   0.28530
   1.37772   2.29778   0.49950
   1.19652   2.20798   0.66880
   1.07442   2.18718   0.81230
   0.89512   1.94778   0.98350
   0.53762   1.76748   1.15770
   0.41422   1.61058   1.41580
   0.27812   1.50448   1.46890
  -0.01038   1.52688   1.68790
  -0.26478   1.22758   1.73490
  -0.64728   1.05338   1.73470
  -1.13828   0.76908   1.89320
  -1.32068   0.70528   2.11770
  -1.70088   0.76508   1.99700
  -2.03148   0.77958   2.10360
  -2.27318   0.92408   2.03230
  -2.38008   0.79088   2.22190
  -2.76628   1.00128   2.07630
  -2.82828   1.03008   2.23880
  -2.98238   1.05828   2.03630
  -3.07468   1.11048   1.86750
  -3.07168   0.97438   1.97690
  -3.14978   1.05578   1.68650
  -3.18598   1.11518   1.66480
  -3.31758   1.14528   1.52470
  -3.43898   1.14928   1.46910
  -3.30358   0.90448   1.45060
  -3.33678   1.29498   1.33000
  -3.40248   1.32628   1.33770
  -3.65528   1.24818   1.48240
  -3.58858   1.44738   1.52660
  -3.90288   1.38238   1.75670
  -3.91198   1.47568   1.75640
  -3.89238   1.39338   1.96170
  -3.86638   1.27928   2.07750
  -3.68118   1.29708   2.21260
  -3.46328   1.22718   2.53380
  -3.28728   1.17688   2.53030
  -3.09228   0.88558   2.67110
  -2.71858   0.72518   2.72460
  -2.42868   0.57808   2.62640
  -2.19578   0.33868   2.80020
  -2.15748   0.02538   2.68490
  -1.75928  -0.07262   2.74500
  -1.36888  -0.12852   2.59000
  -1.12518  -0.41322   2.61450
  -0.79668  -0.45512   2.42400
  -0.39688  -0.59802   2.27570
  -0.08518  -0.54562   2.22220
   0.41182  -0.72092   2.12210
   0.88692  -0.88342   1.81470
   1.25122  -0.86612   1.67040
   1.46092  -0.97022   1.35100
   1.87292  -0.85472   1.13570
   2.13762  -0.78522   0.75620
   2.36202  -1.01112   0.43750
   2.56332  -0.93582   0.20790
   2.83922  -0.74622  -0.14910
   2.88322  -0.74012  -0.30970
   2.77492  -0.78242  -0.56720
   3.09252  -0.72802  -0.84910
   2.92202  -0.51172  -0.93170
   2.80982  -0.39802  -1.13880
   2.73312  -0.36412  -1.28140
   2.69782  -0.38942  -1.20990
   2.43972  -0.28892  -1.13620
   2.41512  -0.28072  -1.20050
   2.14512  -0.27812  -1.04950
   2.30692  -0.34382  -0.82860
   2.20212  -0.31862  -0.61600
   2.19212  -0.36482  -0.21830
   2.45672  -0.42752  -0.07940
   2.56572  -0.51782   0.25910
   2.84062  -0.66162   0.42020
   2.87312  -0.61902   0.86350
   3.14372  -0.64992   1.01150
   3.22742  -0.54982   1.16510
   3.49582  -0.79112   1.51790
   3.54092  -0.79882   1.66710
   3.66952  -0.71212   1.89810
   3.60472  -0.81142   1.97410
   3.77912  -0.66832   2.29930
   3.69052  -0.68942   2.19810
   3.52132  -0.64852   2.27430
   3.52992  -0.54282   2.43680
   3.58952  -0.56052   2.58440
   3.41982  -0.29142   2.65100
   3.33072  -0.38852   2.74870
   3.37002  -0.37002   2.74050
   3.07282  -0.42472   2.66380
   2.89422  -0.45932   2.67340
   2.65032  -0.25292   2.75340
   2.27152  -0.16752   2.62410
   2.21892  -0.23062   2.60070
   1.78782  -0.28072   2.75500
   1.52012  -0.29772   2.89910
   1.00762  -0.30592   2.75340
   0.86142  -0.19632   2.66950
   0.60382  -0.35252   2.88640
   0.46892  -0.35462   2.82890
   0.11422  -0.38472   2.91640
  -0.05858  -0.49722   3.16070
  -0.09458  -0.48552   3.06690
  -0.29008  -0.67632   3.06440
  -0.40278  -0.60572   3.03470
  -0.50958  -0.50122   2.74540
  -0.49958  -0.69192   2.53130
  -0.38448  -0.43172   2.44640
  -0.56878  -0.49372   2.22940
  -0.41278  -0.53272   1.91640
  -0.37978  -0.56432   1.49950
  -0.26848  -0.38732   1.14640
  -0.23528  -0.41372   0.92500
   0.19632  -0.27412   0.47590
   0.34052  -0.41142   0.17050
   0.24162  -0.52172  -0.25760
   0.67602  -0.38262  -0.60430
   1.03242  -0.39992  -0.87230
   1.10412  -0.53812  -1.34620
   1.35222  -0.53602  -1.57860
   1.51822  -0.79742  -1.90240
   1.75902  -0.51282  -2.08010
   1.99782  -0.93462  -2.25600
   2.16562  -1.07352  -2.43410
   2.30692  -0.98702  -2.59430
   2.26732  -1.22432  -2.83230
   2.37792  -1.09712  -3.01470
   2.26132  -1.03382  -3.19100
   2.26172  -1.06772  -3.34250
   2.14742  -0.93252  -3.66610
   2.14232  -0.84742  -3.78090
   2.02632  -0.65082  -4.18420
   1.79762  -0.55212  -4.20940
   1.72352  -0.44482  -4.45610
   1.51142  -0.39242  -4.52410
   1.59302  -0.20842  -4.53560
   1.39622  -0.16452  -4.56880
   1.23862  -0.04012  -4.49490
   1.28892   0.00548  -4.41280
   0.97392   0.15558  -4.38010
   0.83062   0.25048  -4.22580
   0.76492   0.08688  -3.98170
   0.77522   0.05668  -3.67920
   0.65312  -0.12662  -3.47130
   0.60922  -0.03472  -3.15380
   0.61522  -0.13382  -2.92370
   0.43872  -0.23392  -2.67190
   0.27622  -0.21902  -2.40120
   0.17942  -0.29422  -2.07640
   0.09922  -0.38002  -1.92490
  -0.21758  -0.30222  -1.58020
  -0.27858  -0.32582  -1.19470
  -0.60548  -0.21052  -1.17600
  -0.87338  -0.29842  -1.02590
  -1.15188  -0.19492  -0.70390
  -1.36958  -0.29312  -0.54120
  -1.47868  -0.26172  -0.16360
  -1.97298  -0.13482   0.10710
  -2.09808  -0.21152   0.22030
  -2.41328  -0.23252   0.33490
  -2.59698  -0.18482   0.63230
  -2.68258  -0.19672   0.73070
  -2.90748   0.10038   0.93180
  -3.01978   0.10788   0.99730
  -3.13198   0.14788   1.05780
  -3.05548   0.38798   1.04660
  -2.92788   0.39528   1.05570
  -2.95238   0.28558   0.90370
  -2.75668   0.38378   0.91450
  -2.61368   0.21778   0.86520
  -2.39128   0.22758   0.78050
  -2.30168   0.23318   0.66780
  -1.75598  -0.06742   0.62710
  -1.55008  -0.04032   0.61920
  -1.28328  -0.30012   0.63720
  -1.15048  -0.36792   0.63720
  -0.68238  -0.52832   0.41740
  -0.33958  -0.75602   0.21960
  -0.25848  -0.82712   0.05550
  -0.08408  -0.93912  -0.18530
   0.02792  -0.73892  -0.47780
   0.14462  -0.71652  -0.82270
   0.25802  -0.70482  -1.05040
   0.23322  -0.48602  -1.46290
   0.12352  -0.52032  -1.88610
  -0.09948  -0.38122  -2.02800
  -0.25868  -0.25522  -2.20150
  -0.25378  -0.13202  -2.33990
  -0.54628   0.01278  -2.40610
  -0.66528   0.07098  -2.47410
  -0.74618   0.28468  -2.57320
  -0.86268   0.35148  -2.64740
  -1.02558   0.39408  -2.36190
  -0.80578   0.39618  -2.12200
  -1.01068   0.53108  -2.04550
  -0.86058   0.48808  -1.81150
  -0.95198   0.45318  -1.45750
  -0.94238   0.06858  -1.48300
  -0.96198   0.11838  -1.29690
  -1.05948   0.05088  -1.01350
  -1.29118  -0.15562  -0.79910
  -1.27598  -0.02792  -0.64030
  -1.34688  -0.22602  -0.64500
  -1.69148  -0.38292  -0.57560
  -1.77358  -0.20822  -0.56480
  -2.15888  -0.21642  -0.71420
  -2.27788  -0.03452  -0.82880
  -2.29588  -0.04132  -0.86180
  -2.27298   0.04198  -1.06960
  -2.06908  -0.09292  -1.19700
  -2.14838  -0.04592  -1.43790
  -1.96738  -0.00572  -1.83790
  -2.01718  -0.15332  -2.05090
  -1.72308  -0.17342  -2.34900
  -1.73618  -0.39452  -2.64360
  -1.73128  -0.37022  -2.97910
  -1.89118  -0.38312  -3.22040
  -1.85068  -0.36202  -3.35460
  -1.93628  -0.43922  -3.37360
  -2.08198  -0.49982  -3.60200
  -2.23678  -0.37892  -3.72990
  -2.16008  -0.40342  -3.47920
  -2.08988  -0.19442  -3.61250
  -1.98658  -0.06092  -3.44860
  -1.97578   0.06908  -3.51950
  -1.71888   0.16658  -3.45330
  -1.62018   0.15208  -3.50220
  -1.20568   0.43518  -3.35840
  -0.91288   0.41958  -3.33900
  -0.60028   0.37328  -3.31140
  -0.37028   0.33488  -3.37780
  -0.02018   0.45748  -3.34710
   0.09572   0.06538  -3.21130
   0.28562   0.14668  -3.17550
   0.41002   0.21448  -3.07780
   0.61882   0.00878  -2.90780
   0.60712   0.27948  -2.61790
   0.77612   0.26568  -2.82180
   0.73292   0.46798  -2.65160
   0.76702   0.39458  -2.46520
   0.80742   0.61268  -2.35950
   0.79062   0.82758  -2.05230
   0.77332   0.93138  -1.85380
   0.83042   0.95728  -1.58400
   1.04802   1.16568  -1.31280
   1.08292   0.94518  -0.97050
   1.32422   0.84858  -0.67260
   1.40082   1.00948  -0.49440
   1.52762   1.03378  -0.12430
   1.72122   0.98188   0.32130
   1.80392   0.97248   0.63770
   2.22432   0.96338   0.91100
   2.22552   0.95798   1.21910
   2.36442   1.03098   1.61170
   2.56762   1.10108   1.77370
   2.53202   1.22008   1.87540
   2.69712   1.27018   2.16540
   2.53762   1.21548   2.53150
   2.51682   1.27198   2.65450
   2.29312   1.43288   2.83760
   2.16402   1.42378   3.08910
   1.88532   1.32248   3.32690
   1.56762   1.34128   3.38800
   1.38032   1.39108   3.65240
   1.08682   1.16308   3.78520
   1.07912   1.08268   3.84220
   0.91032   0.84978   4.03000
   0.93302   0.66388   4.14220
   0.87522   0.36458   4.21100
   0.92812   0.19298   4.27220
   0.84042   0.05158   4.36810
   1.06722  -0.20562   4.40360
   1.17412  -0.22202   4.38420
   1.18922  -0.15792   4.39010
   1.39102  -0.20092   4.33090
   1.52242  -0.11752   4.41370
   1.61242  -0.17292   4.30100
   1.80442   0.20418   4.31080
   1.80602   0.43898   4.43960
   1.96642   0.64918   4.32510
   1.74812   0.74638   4.44690
   1.74222   0.88558   4.54670
   1.68752   1.07918   4.58480
   1.78902   1.22578   4.47400
   1.78502   1.15118   4.53170
   1.84582   1.23318   4.68000
   1.63772   1.25048   4.71150
   1.48342   1.07258   4.66310
   1.52732   1.07608   4.51560
   1.29032   0.86988   4.53270
   1.11492   0.64678   4.39430
   0.95402   0.31578   4.48430
   0.76982   0.13178   4.20390
   0.65972  -0.15492   4.18590
   0.24192  -0.35572   4.12700
  -0.00358  -0.60662   3.71080
  -0.40648  -0.55842   3.41270
  -0.66178  -0.74922   3.12560
  -0.77118  -0.83952   2.75040
  -0.78498  -0.96202   2.28760
  -0.92018  -1.00222   1.96030
  -1.13458  -1.01342   1.37700
  -1.26828  -0.96552   1.08140
  -0.94098  -0.96622   0.63740
  -0.95478  -0.70782   0.11420
  -0.90118  -0.61672  -0.40700
  -0.59728  -0.65362  -0.69670
  -0.65388  -0.53132  -1.12250
  -0.50768  -0.42102  -1.44580
  -0.35858  -0.41352  -1.55060
  -0.24628  -0.14622  -1.93050
  -0.36598  -0.18742  -2.06280
  -0.43918  -0.09482  -2.32100
  -0.41978  -0.00312  -2.14540
  -0.57058   0.00338  -2.12600
  -0.62508  -0.03142  -2.13090
  -0.90608   0.01458  -2.25670
  -1.03028  -0.07122  -2.09140
  -1.17388  -0.11212  -2.00130
  -1.53738  -0.33562  -1.96020
  -1.85448  -0.55702  -2.13040
  -2.35318  -0.77802  -2.24080
  -2.72818  -0.86852  -2.27610
  -3.16428  -1.13342  -2.40140
  -3.61368  -1.37792  -2.68730
  -3.99428  -1.50492  -2.83390
  -4.39288  -1.77332  -3.01490
  -4.98658  -1.94772  -3.19730
  -5.47078  -1.99822  -3.19330
  -5.64848  -1.97022  -3.46690
  -5.96458  -1.87392  -3.64340
  -6.14348  -1.73782  -3.58420
  -6.28488  -1.80282  -3.60690
  -6.41158  -1.64942  -3.63220
  -6.29238  -1.56902  -3.61090
  -6.16218  -1.27252  -3.66180
  -6.09808  -0.99992  -3.70210
  -5.69898  -0.82012  -3.43300
  -5.63188  -0.77892  -3.22530
  -5.12168  -0.74692  -3.02380
  -4.49018  -0.61782  -2.67540
  -3.94218  -0.58702  -2.20640
  -3.12708  -0.75272  -1.77360
  -2.52198  -0.82172  -1.18230
  -1.87618  -1.04592  -0.71660
  -1.04758  -1.09132  -0.32140
  -0.39108  -1.31952   0.11560
   0.16702  -1.52032   0.29560
   0.53862  -1.73292   0.46670
   1.15962  -1.91342   0.47960
   1.49062  -1.96992   0.30820
   1.93002  -2.16962   0.04820
   2.13482  -2.27062  -0.22350
   2.42702  -2.36302  -0.27280
   2.79042  -2.31602  -0.58000
   2.89092  -2.37982  -0.63710
   3.15772  -2.44082  -0.81080
   3.30012  -2.39622  -0.93590
   3.47152  -2.28002  -1.02710
   3.45442  -2.21382  -1.03450
   3.53362  -1.96462  -0.78020
   3.56362  -1.90312  -0.83630
   3.65852  -1.70392  -0.77950
   3.77422  -1.61642  -0.70530
   3.70782  -1.51072  -0.66700
   3.66652  -1.13522  -0.64970
   3.75932  -0.73432  -0.42200
   3.90612  -0.47782  -0.17320
   4.06252  -0.22642   0.01550
   4.13732  -0.05392   0.32270
   4.18252   0.27698   0.70240
   4.37682   0.54488   0.82470
   4.47642   0.43848   1.07840
   4.62692   0.47268   1.26870
   4.48502   0.66738   1.44640
   4.58092   0.72488   1.60330
   4.63542   0.82338   1.61640
   4.79322   0.76768   1.91450
   4.51632   0.77638   1.91240
   4.59092   0.68868   2.08630
   4.49952   0.70248   2.03630
   4.42242   0.59728   2.33630
   4.31392   0.36348   2.49430
   4.27932   0.24838   2.60540
   4.09272   0.08168   2.57870
   3.94212   0.00058   2.63600
   3.66862   0.00568   2.52890
   3.38822  -0.18202   2.15860
   3.14182  -0.11402   2.09080
   2.70462  -0.28302   1.80740
   2.42942  -0.37212   1.51440
   2.03842  -0.17992   1.18940
   1.61152   0.01878   0.77930
   1.30732   0.15068   0.37370
   0.89442   0.49788  -0.11400
   0.62392   0.71528  -0.38950
   0.26872   0.86848  -0.60900
  -0.02118   1.21148  -0.73880
  -0.28658   1.33798  -0.83530
  -0.68308   1.44618  -0.94310
  -0.79458   1.55848  -0.94410
  -1.02158   1.58458  -0.95690
  -1.07708   1.56898  -0.86040
  -1.37588   1.42748  -0.96110
  -1.60098   1.39618  -0.91410
  -1.59938   1.19508  -0.91090
  -1.60378   1.05668  -1.04810
  -1.54888   1.07518  -1.07570
  -1.56848   0.95518  -0.92230
  -1.45648   0.96738  -0.98730
  -1.41748   0.76558  -0.93470
  -1.31128   0.73218  -0.82500
  -1.26708   0.68888  -0.67470
  -1.24308   0.65948  -0.46220
  -1.17528   0.76138  -0.41990
  -1.03748   0.62768  -0.09420
  -1.00758   0.66548   0.16490
  -0.97158   0.69028   0.19740
  -1.04198   0.66458   0.66270
  -0.99378   0.53508   0.98930
  -0.92808   0.58068   1.05830
  -0.89798   0.53408   1.23850
  -0.67228   0.51258   1.48590
  -0.77008   0.49908   1.55230
  -0.77988   0.47688   1.76650
  -0.73728   0.59518   1.75570
  -0.95218   0.55658   1.90560
  -1.03918   0.51938   1.72700
  -1.14808   0.51888   1.79030
  -1.27038   0.42468   1.79480
  -1.47728   0.46728   1.61500
  -1.79738   0.42798   1.62460
  -1.82198   0.39318   1.61080
  -2.08478   0.40058   1.51370
  -2.31688   0.08058   1.23460
  -2.54258   0.14738   1.03300
  -2.66418   0.09598   0.61450
  -2.76348   0.14158   0.26080
  -3.07068   0.19368  -0.01890
  -3.04688   0.22388  -0.27160
  -3.26928   0.39898  -0.67170
  -3.11888   0.33798  -0.92580
  -3.36888   0.36178  -1.10420
  -2.99268   0.53478  -1.34360
  -2.83648   0.47868  -1.52200
  -2.70528   0.63188  -1.56250
  -2.41698   0.76678  -1.48980
  -2.34588   0.82008  -1.53260
  -2.12028   1.05298  -1.23610
  -1.85608   1.17288  -1.21550
  -1.54628   1.19858  -1.00770
  -1.42078   1.13148  -0.80450
  -1.19158   1.35738  -0.37010
  -0.96598   1.45388  -0.07220
  -0.92018   1.27458   0.33040
  -0.83898   1.14298   0.70520
  -0.74828   1.15278   1.20530
  -0.52528   0.83128   1.82400
  -0.40138   0.64818   2.30400
  -0.25988   0.49998   2.61990
  -0.31998   0.16428   3.05690
  -0.21688  -0.07562   3.47210
  -0.12028  -0.11122   3.87940
   0.14742  -0.38852   4.16770
   0.31762  -0.51502   4.18850
   0.43522  -0.66412   4.45300
   0.39312  -0.72892   4.40030
   0.46002  -0.76612   4.20000
   0.66532  -0.87852   4.09010
   0.65012  -0.85422   4.06790
   0.56992  -0.79512   3.81980
   0.78482  -0.69192   3.56050
   0.66042  -0.46162   3.21890
   0.78032  -0.27742   2.88760
   0.91342  -0.17522   2.46140
   0.86242  -0.08522   2.08450
   0.90352   0.17028   1.86540
