********************************************************************************
              CENTRO DE INSTRUMENTACION Y REGISTRO SISMICO  A.C.

    Anaxagoras 814, Col. Narvarte, Benito Juarez, C.P. 03020 Mexico, D.F.
           Tels. 5687 45 42/ 5687 45  82             Fax. 5669 25 12
********************************************************************************
ARCHIVO ESTANDAR DE ACELERACION:
VERSION DEL FORMATO                    : 2.0
NOMBRE DEL ARCHIVO                     : CS7820220919180509
FECHA Y HORA DE CREACION               : 19/SEP/22, 19:43
REF. CATALOGO ACELEROGRAMAS, SMIS 1996 : REGISTRO No.     /PAG.


================================================================================
DATOS DE LA ESTACION:
NOMBRE DE LA ESTACION                  : ESC. SEC. NO. TÉC. NO. 243
CLAVE DE LA ESTACION                   : CS78
LOCALIZACION DE LA ESTACION            : Del. Magdalena Contreras, Col. Colinas 
                                       : del Sur, entre calle de los Corceles   
                                       : y Corrido.                             
                                       :                                        
                                       : 
COORDENADAS DE LA ESTACION             : 19.3656 LAT. N
                                       : 99.2262 LONG. W
ALTITUD (msnm)                         : 2430
TIPO DE SUELO                          : Arenoso, limoso, compacto           
                                       :                           
                                       : 
INSTITUCION RESPONSABLE                : CIRES, A. C.
                                       : 

================================================================================
DATOS DEL ACELEROGRAFO:
MODELO DEL ACELEROGRAFO                : RAD_IO14
NUMERO DE SERIE DEL ACELEROGRAFO       : 
NUMERO DE CANALES                      : 3
ORIENTACION C1-C6 (rumbo;orientacion)  : /N00E/+V/N90W
ORIENTACION C7-C12 (rumbo;orientacion) : 
VEL. DE MUESTREO, C1-C6 (muestras/s)   : /100/100/100
VEL. DE MUESTREO, C7-C12 (muestras/s)  : 
ESC. COMPLETA DE SENSORES, C1-C6, (g)  : /2.0/2.0/2.0
ESC. COMPLETA DE SENSORES, C7-C12, (g) : 
FREC. NAT. DE SENSORES, C1-C6, (Hz)    : /33/33/33
FREC. NAT. DE SENSORES, C7-C12, (Hz)   : 
AMORTIGUAMIENTO DE SENSORES, C1-C6     : /0.800/0.795/0.795
AMORTIGUAMIENTO DE SENSORES, C7-C12    : 
INTERVALO DE MUESTREO, C1-C6, (s)      : /0.01/0.01/0.01
INTERVALO DE MUESTREO, C7-C12, (s)     : 
UMBRAL DE DISPARO, C1-C6, (Gal)        : / / /
UMBRAL DE DISPARO, C7-C12, (Gal)       : 
MEMORIA DE PREEVENTO (s)               : 60
TIEMPO DE POSEVENTO (s)                : 90


================================================================================
DATOS DEL SISMO:
FECHA DEL SISMO (GMT)                  : 19/SEP/22
HORA EPICENTRO (GMT)                   : 18:05:09.0
MAGNITUD(ES)                           : /Mc=7.7
COORDENADAS DEL EPICENTRO              : 18.22 LAT. N
                                       : 103.29 LONG. W
PROFUNDIDAD FOCAL (km)                 : 15
FUENTE DE LOS DATOS EPICENTRALES       : SSN
                                       : INSTITUTO DE GEOFISICA, UNAM

================================================================================
DATOS DE ESTE REGISTRO:
HORA DE LA PRIMERA MUESTRA (GMT)       : 18:04:27.078.00
EXACTITUD DEL TIEMPO (s)               : 
DURACION DEL REGISTRO (s), C1-C6       : /599.81/599.81/599.81
DURACION DEL REGISTRO (s), C7-C12      : 
NUM. TOTAL DE MUESTRAS, C1-C6          : /59981/59981/59981
NUM. TOTAL DE MUESTRAS, C7-C12         : 
ACEL. MAX. (Gal), C1-C6                : /4.39287/3.95259/5.40916
ACEL. MAX., C1-C6, EN LA MUESTRA       : /18705/19280/19185
ACEL. MAX. (Gal), C7-C12               : 
ACEL. MAX., C7-C12, EN LA MUESTRA      : 
UNIDADES DE LOS DATOS                  : Gal (cm/s/s)
FACTOR DE DECIMACION                   : 1
FORMATO DATOS (FORTRAN,10 campos/dato) : 3F10.5


================================================================================
CALIDAD DEL ACELEROGRAMA:
REGISTRO DIGITAL COMPLETO CON TIEMPO ABSOLUTO CORRECTO.


================================================================================
COMENTARIOS:














================================================================================
DATOS DE ACELERACION:
---------+---------+---------+---------+---------+---------+---------+---------+
   CANAL-1   CANAL-2   CANAL-3   CANAL-4   CANAL-5   CANAL-6   CANAL-7   CANAL-8
      N00E        +V      N90W
---------+---------+---------+---------+---------+---------+---------+---------+
[...]
  -2.25207   0.90139  -0.68084
  -2.21307   0.91919  -0.53564
  -2.41577   0.77069  -0.54924
  -2.34257   0.72529  -0.54484
  -2.38097   0.66199  -0.56704
  -2.44547   0.64959  -0.70404
  -2.61517   0.55139  -0.58154
  -2.66827   0.63199  -0.61774
  -2.74197   0.81389  -0.67944
  -2.94487   0.77069  -0.64934
  -3.09217   0.61079  -0.73984
  -3.10247   0.63879  -0.79194
  -3.19927   0.55349  -0.63154
  -3.23227   0.53989  -0.53844
  -3.32107   0.36759  -0.59434
  -3.30757   0.14339  -0.50344
  -3.44037   0.16929  -0.32404
  -3.51187  -0.11851  -0.27104
  -3.28737  -0.35281  -0.32154
  -3.41017  -0.49021  -0.24134
  -3.35217  -0.66651  -0.16974
  -3.20887  -0.99741  -0.04094
  -3.10387  -1.28241   0.09256
  -3.13217  -1.45731  -0.01564
  -2.90837  -1.63871  -0.07624
  -2.71247  -1.51641  -0.07814
  -2.70987  -1.59941  -0.05494
  -2.72647  -1.56341   0.06006
  -2.52407  -1.78531  -0.06734
  -2.42697  -1.55171  -0.11504
  -2.30757  -1.78601  -0.18244
  -2.11817  -1.70581  -0.12464
  -1.91827  -1.65671  -0.03934
  -1.68307  -1.70881  -0.11484
  -1.32907  -1.59871  -0.19874
  -1.13777  -1.62511  -0.32154
  -0.92337  -1.64451  -0.18774
  -0.65567  -1.67891  -0.20604
  -0.31337  -1.68341  -0.31634
   0.06403  -1.62651  -0.12414
   0.26533  -1.59191  -0.20324
   0.58403  -1.54261  -0.23684
   0.73173  -1.39761  -0.14314
   0.99713  -1.51621  -0.17794
   1.10163  -1.46501  -0.15644
   1.38333  -1.62091   0.10616
   1.26743  -1.35581   0.23796
   1.47223  -1.44531   0.39696
   1.49893  -1.38831   0.59176
   1.41333  -1.24451   0.71756
   1.52253  -1.25101   0.88686
   1.48463  -1.19801   1.21226
   1.55123  -1.08201   1.19946
   1.64053  -0.91461   1.41916
   1.76383  -0.97631   1.51526
   1.90753  -0.73131   1.60506
   2.01583  -0.70301   1.65556
   1.97773  -0.55521   1.83636
   2.16993  -0.55901   1.86226
   2.14843  -0.45311   2.03556
   2.05303  -0.34501   2.20366
   2.09673  -0.43951   2.08926
   2.10233  -0.35721   2.35606
   2.05163  -0.50801   2.41126
   1.81593  -0.44531   2.63076
   1.54073  -0.58731   2.76106
   1.49283  -0.69391   2.83746
   1.09063  -0.82361   2.84266
   0.94153  -0.77061   2.92096
   0.86903  -0.68381   2.95856
   0.79163  -0.92321   3.04116
   0.52953  -0.77571   3.12346
   0.29333  -1.14261   2.87276
   0.00433  -1.04881   2.84496
   0.06773  -1.22421   2.84356
  -0.04757  -1.26511   2.68296
  -0.02887  -1.39761   2.49496
  -0.21957  -1.34761   2.43786
  -0.26097  -1.29831   2.18186
  -0.30467  -1.34181   2.13326
  -0.41697  -1.46121   1.98896
  -0.38487  -1.29851   1.75076
  -0.38237  -1.29801   1.64136
  -0.32737  -1.30621   1.50826
  -0.26307  -1.19471   1.53866
  -0.27597  -1.07451   1.30556
  -0.26427  -1.03831   1.30346
  -0.10017  -0.90061   1.39866
  -0.07867  -0.79561   1.32636
  -0.06947  -0.70771   1.24786
   0.07523  -0.68661   1.44236
   0.07103  -0.72831   1.51906
   0.21483  -0.61391   1.57186
   0.33503  -0.52131   1.74376
   0.17153  -0.40841   1.92256
   0.36443  -0.37541   2.08086
   0.15873  -0.31981   2.31796
   0.23983  -0.57561   2.50426
   0.22933  -0.48441   2.64806
  -0.02227  -0.47221   2.89216
   0.03293  -0.47081   3.10566
  -0.01547  -0.43721   3.12226
  -0.13477  -0.37521   3.29106
  -0.27477  -0.30301   3.37356
  -0.15087  -0.26391   3.43506
  -0.21917  -0.21131   3.45706
  -0.33837  -0.10591   3.31936
  -0.34727  -0.22351   3.25206
  -0.58927  -0.12061   3.34416
  -0.58177  -0.03571   3.25626
  -0.63817  -0.13671   2.97146
  -0.68377  -0.05861   2.89036
  -0.87547  -0.16641   2.69536
  -0.93137  -0.03521   2.33336
  -0.93927  -0.03971   2.31216
  -1.15997   0.02229   2.03946
  -1.11257  -0.08321   1.91956
  -1.19317  -0.07921   1.66356
  -1.25187  -0.12081   1.52066
  -1.27897  -0.14681   1.43206
  -1.17797  -0.18441   1.16486
  -0.99607  -0.11641   1.00726
  -0.88317  -0.13391   0.86806
  -0.63397  -0.16361   0.69886
  -0.52027  -0.22021   0.46196
  -0.45247  -0.15661   0.31936
  -0.21427  -0.03271   0.19616
  -0.00357  -0.19891   0.27046
   0.10003  -0.32631  -0.11644
   0.04483  -0.35071   0.03856
   0.17693  -0.19891  -0.07604
   0.23463  -0.31751  -0.29154
   0.12623  -0.52531  -0.15064
   0.04623  -0.48911  -0.05964
   0.14093  -0.46081  -0.07814
   0.06513  -0.52321  -0.09794
  -0.19597  -0.44001   0.12626
  -0.45127  -0.45661   0.16506
  -0.34887  -0.40961   0.27116
  -0.67997  -0.45451   0.24546
  -0.89227  -0.22881   0.30556
  -1.10907  -0.13301   0.28456
  -1.29657   0.13799   0.51176
  -1.39287   0.17749   0.44256
  -1.80317   0.16609   0.26016
  -1.83077   0.49639   0.29766
  -2.01197   0.54339   0.29176
  -2.22237   0.74589   0.23516
  -2.32487   0.81489   0.12156
  -2.50207   1.04959   0.18516
  -2.65567   1.10639   0.05186
  -2.67137   1.12069   0.16246
  -2.76467   1.24769   0.07576
  -2.76317   1.43819   0.12786
  -2.96967   1.69309   0.20056
  -2.96687   1.63909   0.12926
  -2.80947   1.79429   0.18866
  -2.92827   1.87589   0.16416
  -2.87027   2.08659   0.05676
  -2.85537   2.27899  -0.05874
  -2.93087   2.22849   0.06666
  -2.90867   2.23549   0.07826
  -2.87517   2.31009  -0.00724
  -2.71247   2.21189  -0.01754
  -2.80367   2.36619   0.08506
  -2.90957   2.46279   0.11286
  -2.73237   2.48009   0.13446
  -2.83387   2.58219   0.35766
  -2.72047   2.57919   0.32986
  -2.44757   2.55039   0.47976
  -2.40857   2.52779   0.53656
  -2.00827   2.64119   0.65046
  -1.88227   2.67719   0.77976
  -1.51467   2.68209   0.75006
  -1.02457   2.78749   0.84756
  -0.55277   2.85489   1.04156
  -0.19207   2.87729   0.98616
   0.48863   2.76389   1.14606
   1.00253   2.98599   1.12066
   1.48653   2.98419   1.22276
   2.06703   2.92499   1.02776
   2.29173   3.05519   1.00236
   2.72943   2.94299   1.06096
   3.11103   2.97249   1.03366
   3.20823   3.07089   0.86926
   3.47313   3.04799   0.71376
   3.47853   3.22869   0.61746
   3.53113   3.26049   0.46666
   3.38853   3.05759   0.47066
   3.22533   3.09759   0.31606
   3.20123   3.10739   0.20996
   3.07223   3.16889   0.10096
   2.74603   3.14409  -0.04184
   2.77293   3.11789  -0.23384
   2.53633   3.01269  -0.21864
   2.43693   3.07649  -0.52304
   2.21733   3.07439  -0.49784
   2.20213   3.22289  -0.63924
   2.06213   2.94279  -0.85104
   1.89523   3.12299  -0.89714
   1.89473   3.03069  -1.02314
   1.87693   2.97149  -1.21184
   1.92023   2.90329  -1.26254
   1.80003   2.78709  -1.55534
   1.71823   2.66289  -1.40074
   1.70273   2.55349  -1.58784
   1.44463   2.41299  -1.46484
   1.49653   2.24439  -1.77884
   1.43603   2.12189  -1.79264
   1.13643   1.80439  -1.93194
   0.99803   1.75899  -1.91514
   0.79533   1.57759  -1.90394
   0.60203   1.29119  -2.06694
   0.36423   1.25469  -2.13094
   0.17043   1.13959  -2.28174
   0.11873   1.06739  -2.23994
  -0.11347   1.17749  -2.45714
  -0.13847   1.02669  -2.49734
  -0.40007   1.17099  -2.60954
  -0.57497   1.15509  -2.86584
  -0.75857   1.06479  -2.96944
  -0.91797   0.96969  -3.07434
  -1.05687   0.94819  -3.12744
  -1.23647   0.94629  -3.40264
  -1.24977   0.89109  -3.44964
  -1.40457   0.85229  -3.63854
  -1.46887   0.65589  -3.62644
  -1.56427   0.58039  -3.74374
  -1.47747   0.32899  -3.76694
  -1.48517   0.27099  -3.78534
  -1.33607   0.19549  -3.72414
  -1.29397   0.17709  -3.69704
  -1.38677  -0.04621  -3.71104
  -1.21327  -0.22721  -3.73554
  -1.20297  -0.55061  -3.58334
  -1.21287  -0.60361  -3.49474
  -1.06977  -0.77621  -3.46044
  -1.07727  -0.89641  -3.35374
  -0.92997  -0.92001  -3.27824
  -0.85697  -0.97381  -3.10364
  -0.85227  -1.19941  -3.02294
  -0.73537  -1.49561  -3.14804
  -0.81907  -1.59051  -3.17184
  -0.88967  -1.55361  -3.06544
  -0.97157  -1.53841  -3.17934
  -0.97057  -1.71101  -3.22584
  -0.98837  -1.81711  -3.31004
  -1.01297  -1.70981  -3.43584
  -0.90937  -1.83951  -3.46714
  -1.03027  -1.66161  -3.48914
  -0.94257  -1.55481  -3.68504
  -0.99397  -1.78741  -3.72414
  -0.64747  -1.64761  -3.67434
  -0.50837  -1.73811  -3.75194
  -0.22947  -1.85081  -3.80484
   0.11823  -1.95221  -3.94484
   0.32863  -2.06311  -3.79404
   0.66793  -2.14701  -3.89574
   0.99803  -2.23261  -3.96194
   1.43903  -2.30831  -3.95794
   1.72423  -2.51711  -3.90114
   1.89473  -2.73011  -3.73744
   2.24313  -2.83161  -3.90444
   2.51363  -2.83861  -3.90514
   2.64923  -2.78951  -3.65704
   2.75233  -2.85031  -3.65564
   2.79673  -2.85011  -3.53424
   2.87743  -2.80171  -3.50804
   2.93073  -2.73671  -3.27844
   2.91483  -2.52881  -3.17424
   2.94003  -2.41401  -3.10684
   2.73013  -2.38481  -2.90694
   2.58303  -2.13201  -2.64814
   2.50143  -1.96881  -2.49964
   2.36423  -2.04131  -2.54714
   1.88003  -1.88091  -2.38814
   1.83113  -1.79651  -2.22844
   1.28093  -1.87951  -2.03374
   1.04763  -1.84521  -1.86064
   0.62913  -1.83161  -1.74564
   0.33333  -1.93191  -1.35404
   0.05463  -1.81101  -1.21844
  -0.25067  -2.03011  -1.13584
  -0.47007  -2.03381  -0.87564
  -0.51747  -2.22421  -0.70444
  -0.99867  -2.16031  -0.62824
  -0.94697  -2.21951  -0.22684
  -0.86397  -2.39881   0.02876
  -1.01827  -2.30041   0.09306
  -0.90047  -2.48351   0.40326
  -1.10667  -2.51781   0.48886
  -1.12467  -2.53611   0.80736
  -1.27617  -2.63471   0.86246
  -1.26447  -2.68781   1.11076
  -1.28137  -2.74271   1.16976
  -1.27737  -2.75331   1.33386
  -1.15977  -2.72661   1.30046
  -1.31637  -2.63571   1.43956
  -1.36197  -2.69131   1.62116
  -1.07797  -2.45001   1.61446
  -1.04987  -2.42291   1.58496
  -0.89457  -2.34481   1.59476
  -0.60447  -2.28191   1.65886
  -0.39797  -2.28431   1.67026
  -0.25307  -2.18001   1.76196
  -0.01967  -2.20711   1.74166
   0.16663  -2.13441   1.82976
   0.22883  -2.09491   1.88326
   0.32723  -2.09881   2.02386
   0.62043  -2.11121   2.00326
   0.83343  -1.97731   2.06356
   1.03053  -2.12361   2.02706
   1.27183  -2.03131   2.27966
   1.42713  -2.01351   2.30786
   1.70623  -2.25011   2.50246
   1.72193  -2.23771   2.58476
   1.90683  -2.31021   2.87166
   2.11123  -2.25781   2.99526
   2.16333  -2.38921   3.24076
   2.52013  -2.32751   3.52466
   2.41843  -2.21621   3.68196
   2.52273  -2.14071   3.93456
   2.78413  -2.22001   4.15106
   2.97913  -2.27791   4.27186
   2.77523  -2.22071   4.38456
   2.86013  -2.22741   4.72876
   2.91813  -2.14351   4.66326
   3.02383  -2.20011   4.88186
   2.88163  -2.19981   5.04576
   2.93773  -2.14441   4.98366
   2.77173  -2.18441   5.16126
   2.74363  -2.43201   5.28986
   2.71773  -2.39761   5.37946
   2.55923  -2.54561   5.40916
   2.23773  -2.76121   5.37876
   2.12033  -2.76361   5.26416
   1.82553  -2.86341   5.19076
   1.73503  -3.02941   5.28056
   1.56623  -3.04301   5.11216
   1.31023  -3.10351   5.03596
   0.88633  -3.05231   4.95226
   0.67333  -3.06421   4.81996
   0.44653  -3.28801   4.70586
   0.04643  -3.33011   4.47856
  -0.08397  -3.20661   4.25926
  -0.46487  -2.98821   4.31426
  -0.75477  -3.02381   3.97126
  -1.04637  -2.90921   3.67246
  -1.32417  -2.72541   3.70066
  -1.57247  -2.61231   3.44466
  -1.55697  -2.46621   3.20246
  -1.87777  -2.22441   2.92866
  -1.71767  -2.04301   2.70706
  -1.87377  -1.78041   2.53076
  -1.80697  -1.60691   2.24686
  -1.80137  -1.51171   2.14706
  -1.82867  -1.20361   1.82466
  -1.80577  -1.26301   1.71566
  -1.94087  -1.01841   1.61136
  -1.89247  -0.93401   1.28006
  -1.95817  -0.83391   1.04766
  -2.17587  -0.91721   0.79516
  -2.02767  -0.69741   0.57986
  -2.30827  -0.58451   0.42976
  -2.24677  -0.56201   0.13656
  -2.36857  -0.34691  -0.18334
  -2.51767  -0.33571  -0.47704
  -2.69167  -0.14371  -0.87984
  -2.67807  -0.09371  -1.14174
  -2.65167   0.09149  -1.14594
  -2.83147   0.21189  -1.64604
  -2.78097   0.28109  -1.84874
  -2.85857   0.51959  -2.09354
  -2.75107   0.65049  -2.15974
  -2.78687   0.87939  -2.39794
  -2.67227   0.98459  -2.62264
  -2.75877   1.23829  -2.72014
  -2.78307   1.39779  -2.78234
  -2.82327   1.58039  -3.03254
  -2.69257   1.87469  -3.13074
  -2.73397   2.08959  -3.25764
  -2.89067   2.29789  -3.07484
  -2.85487   2.39149  -3.24764
  -2.88827   2.62009  -3.26864
  -2.97877   2.81469  -3.27034
  -3.09457   2.87429  -3.35704
  -3.14477   2.88949  -3.28874
  -3.02227   3.21489  -3.59084
  -2.72297   3.25629  -3.47044
  -2.77557   3.16329  -3.59534
  -2.81117   3.23199  -3.47604
  -2.41697   3.21239  -3.47394
  -2.32577   3.09619  -3.53284
  -2.12307   3.08839  -3.48584
  -1.76837   3.00099  -3.30794
  -1.44337   3.10809  -3.41294
  -1.36897   3.14129  -3.49754
  -1.11207   3.20649  -3.49684
  -0.96527   3.11669  -3.55394
  -0.70967   3.22549  -3.34374
  -0.62947   3.28979  -3.35124
  -0.51327   3.23829  -3.28694
  -0.44527   3.41199  -3.28204
  -0.53617   3.44289  -3.20994
  -0.55397   3.72089  -3.13864
  -0.48027   3.67159  -2.79754
  -0.61827   3.83689  -2.72364
  -0.70847   3.65869  -2.61094
  -0.71807   3.75899  -2.38624
  -0.89767   3.79129  -2.29064
  -0.99447   3.76019  -2.14124
  -1.22237   3.78219  -1.83874
  -1.16677   3.83869  -1.69004
  -1.29117   3.75319  -1.52284
  -1.14457   3.75899  -1.44284
  -1.35307   3.77399  -1.35474
  -1.34287   3.72489  -1.29224
  -1.22477   3.68279  -1.17024
  -1.19997   3.61639  -1.11274
  -1.17987   3.63599  -0.94624
  -1.13217   3.78149  -1.04304
  -1.15037   3.72089  -1.01754
  -1.06247   3.77159  -0.96374
  -1.06667   3.76949  -0.93624
  -1.03097   3.76249  -0.95864
  -1.13407   3.82329  -1.04494
  -1.13657   3.86089  -0.96214
  -1.09477   3.82329  -0.79824
  -0.96497   3.95259  -0.79594
  -1.16517   3.77839  -0.59764
  -1.05197   3.68469  -0.64094
  -1.13337   3.66379  -0.54574
  -1.27317   3.47699  -0.30884
  -1.17377   3.29959  -0.21814
  -1.30257   3.21769  -0.18104
  -1.28207   3.13539  -0.23454
  -1.09057   2.97569  -0.09354
  -1.30187   2.99979  -0.18474
  -1.38487   2.73139  -0.09514
  -1.27737   2.80019  -0.00984
  -1.44497   2.67089  -0.19434
  -1.54837   2.61969  -0.27034
  -1.55117   2.51439  -0.29414
  -1.43797   2.43659  -0.47094
  -1.58597   2.39239  -0.76454
  -1.62827   2.38559  -0.84294
  -1.56727   2.11859  -0.86444
  -1.49647   2.12439  -1.13194
  -1.40197   1.96289  -1.44264
  -1.25417   1.88759  -1.60884
  -1.17427   1.61829  -1.79594
  -0.96897   1.66809  -1.75354
  -0.81137   1.46509  -1.90084
  -0.63067   1.06649  -1.91464
  -0.48967   1.20209  -2.08564
  -0.39427   0.99559  -2.16484
  -0.13937   0.84359  -2.14544
  -0.30657   0.83659  -2.17004
  -0.25847   0.71059  -2.03974
  -0.15067   0.57449  -2.03324
  -0.02887   0.58009  -1.83514
   0.09953   0.20579  -1.88354
  -0.05757   0.47259  -1.72814
   0.04223   0.38699  -1.62684
  -0.12707   0.14009  -1.47464
  -0.06457   0.06899  -1.39634
  -0.10577  -0.05251  -1.13474
  -0.02487   0.08329  -0.81114
  -0.08677  -0.02941  -0.76664
  -0.13197  -0.09601  -0.50664
  -0.11697   0.02089  -0.42794
  -0.32717  -0.15571  -0.20644
  -0.31247  -0.04371   0.11196
  -0.42797  -0.05161   0.28966
  -0.42867  -0.12201   0.46456
  -0.56847  -0.14211   0.58586
  -0.65517  -0.07221   0.75566
