********************************************************************************
              CENTRO DE INSTRUMENTACION Y REGISTRO SISMICO  A.C.

    Anaxagoras 814, Col. Narvarte, Benito Juarez, C.P. 03020 Mexico, D.F.
           Tels. 5687 45 42/ 5687 45  82             Fax. 5669 25 12
********************************************************************************
ARCHIVO ESTANDAR DE ACELERACION:
VERSION DEL FORMATO                    : 2.0
NOMBRE DEL ARCHIVO                     : CT6420220919180509
FECHA Y HORA DE CREACION               : 19/SEP/22, 19:43
REF. CATALOGO ACELEROGRAMAS, SMIS 1996 : REGISTRO No.     /PAG.


================================================================================
DATOS DE LA ESTACION:
NOMBRE DE LA ESTACION                  : CERRO DEL TEPEYAC
CLAVE DE LA ESTACION                   : CT64
LOCALIZACION DE LA ESTACION            : Del. Gustavo A. Madero, Col. Rosas     
                                       : del Tepeyac, Av. Cantera,              
                                       : Rinconada Gral. Maríano Salas.         
                                       :                                        
                                       : 
COORDENADAS DE LA ESTACION             : 19.4876 LAT. N
                                       : 99.1137 LONG. W
ALTITUD (msnm)                         : 2240
TIPO DE SUELO                          : Arenoso, limoso, compacto           
                                       :                           
                                       : 
INSTITUCION RESPONSABLE                : CIRES, A. C.
                                       : 

================================================================================
DATOS DEL ACELEROGRAFO:
MODELO DEL ACELEROGRAFO                : RAD_IO14
NUMERO DE SERIE DEL ACELEROGRAFO       : 
NUMERO DE CANALES                      : 3
ORIENTACION C1-C6 (rumbo;orientacion)  : /N00E/+V/N90W
ORIENTACION C7-C12 (rumbo;orientacion) : 
VEL. DE MUESTREO, C1-C6 (muestras/s)   : /100/100/100
VEL. DE MUESTREO, C7-C12 (muestras/s)  : 
ESC. COMPLETA DE SENSORES, C1-C6, (g)  : /2.0/2.0/2.0
ESC. COMPLETA DE SENSORES, C7-C12, (g) : 
FREC. NAT. DE SENSORES, C1-C6, (Hz)    : /30/30/30
FREC. NAT. DE SENSORES, C7-C12, (Hz)   : 
AMORTIGUAMIENTO DE SENSORES, C1-C6     : /0.700/0.700/0.700
AMORTIGUAMIENTO DE SENSORES, C7-C12    : 
INTERVALO DE MUESTREO, C1-C6, (s)      : /0.01/0.01/0.01
INTERVALO DE MUESTREO, C7-C12, (s)     : 
UMBRAL DE DISPARO, C1-C6, (Gal)        : / / /
UMBRAL DE DISPARO, C7-C12, (Gal)       : 
MEMORIA DE PREEVENTO (s)               : 60
TIEMPO DE POSEVENTO (s)                : 90


================================================================================
DATOS DEL SISMO:
FECHA DEL SISMO (GMT)                  : 19/SEP/22
HORA EPICENTRO (GMT)                   : 18:05:09.0
MAGNITUD(ES)                           : /Mc=7.7
COORDENADAS DEL EPICENTRO              : 18.22 LAT. N
                                       : 103.29 LONG. W
PROFUNDIDAD FOCAL (km)                 : 15
FUENTE DE LOS DATOS EPICENTRALES       : SSN
                                       : INSTITUTO DE GEOFISICA, UNAM

================================================================================
DATOS DE ESTE REGISTRO:
HORA DE LA PRIMERA MUESTRA (GMT)       : 18:04:26.938.00
EXACTITUD DEL TIEMPO (s)               : 
DURACION DEL REGISTRO (s), C1-C6       : /599.81/599.81/599.81
DURACION DEL REGISTRO (s), C7-C12      : 
NUM. TOTAL DE MUESTRAS, C1-C6          : /59981/59981/59981
NUM. TOTAL DE MUESTRAS, C7-C12         : 
ACEL. MAX. (Gal), C1-C6                : /2.15402/1.70411/1.85958
ACEL. MAX., C1-C6, EN LA MUESTRA       : /20161/19730/20693
ACEL. MAX. (Gal), C7-C12               : 
ACEL. MAX., C7-C12, EN LA MUESTRA      : 
UNIDADES DE LOS DATOS                  : Gal (cm/s/s)
FACTOR DE DECIMACION                   : 1
FORMATO DATOS (FORTRAN,10 campos/dato) : 3F10.5


================================================================================
CALIDAD DEL ACELEROGRAMA:
REGISTRO DIGITAL COMPLETO CON TIEMPO ABSOLUTO CORRECTO.


================================================================================
COMENTARIOS:














================================================================================
DATOS DE ACELERACION:
---------+---------+---------+---------+---------+---------+---------+---------+
   CANAL-1   CANAL-2   CANAL-3   CANAL-4   CANAL-5   CANAL-6   CANAL-7   CANAL-8
      N00E        +V      N90W
---------+---------+---------+---------+---------+---------+---------+---------+
[...]
  -0.45942  -0.38611  -0.76358
  -0.40492  -0.34031  -0.81168
  -0.36892  -0.27481  -0.86968
  -0.50612  -0.29311  -0.99808
  -0.58842  -0.37841  -0.80628
  -0.69882  -0.30941  -0.88648
  -0.59872  -0.13951  -1.01768
  -0.67192  -0.43621  -0.92908
  -0.70092  -0.38451  -1.01208
  -0.77392  -0.12661  -0.94188
  -0.86712  -0.18201  -0.99548
  -0.86642  -0.24261  -0.94828
  -0.80612  -0.10091  -1.16168
  -0.83932  -0.07451  -0.83088
  -1.03572  -0.03421  -0.88348
  -1.06102  -0.06951  -0.83698
  -1.19002   0.07469  -0.91758
  -1.19472   0.16449  -0.80348
  -1.27722   0.06839  -0.58818
  -1.16452   0.13149  -0.49838
  -1.22232   0.20329  -0.45748
  -1.38222   0.32439  -0.40208
  -1.39862   0.20139  -0.24888
  -1.38062   0.32999  -0.34268
  -1.41172   0.23319  -0.11938
  -1.32002   0.30949  -0.12988
  -1.33132   0.40629  -0.18908
  -1.41782   0.29359  -0.16028
  -1.32262   0.21239   0.00902
  -1.30162   0.31339  -0.09718
  -1.27442   0.37069   0.05502
  -1.28892   0.46679  -0.00508
  -1.19122   0.37399  -0.02238
  -1.22372   0.37729   0.02842
  -1.18652   0.36979  -0.01998
  -1.06852   0.42119   0.01152
  -1.03242   0.29469   0.04402
  -0.95722   0.22999   0.12982
  -0.91162   0.26459   0.01432
  -0.85692   0.18789   0.04962
  -0.90972   0.26289   0.03352
  -0.81342   0.19769   0.06482
  -0.57182   0.24259   0.25522
  -0.51642   0.19859   0.08002
  -0.44402   0.09529   0.17682
  -0.31912   0.16989   0.08682
  -0.32612   0.14879   0.29512
  -0.42082  -0.04061   0.15302
  -0.35252  -0.02471   0.24462
  -0.12322  -0.02721   0.37252
  -0.20362  -0.14861   0.35852
  -0.13512  -0.17971   0.32162
  -0.05282  -0.07261   0.30752
   0.00218  -0.18721   0.53272
   0.06998  -0.29101   0.43822
   0.09608  -0.31761   0.60402
   0.22988  -0.23411   0.53712
   0.29228  -0.37681   0.48312
   0.27198  -0.38871   0.78752
   0.37088  -0.38681   0.85232
   0.29628  -0.45981   0.90792
   0.31128  -0.21571   0.86282
   0.49988  -0.35431   0.73212
   0.30418  -0.34451   0.81932
   0.50578  -0.30521   0.89252
   0.32898  -0.37681   0.88222
   0.61518  -0.39031   0.82682
   0.62248  -0.28581   0.92412
   0.53848  -0.42611   0.91732
   0.60978  -0.45601   0.96202
   0.60468  -0.55701   0.86752
   0.65608  -0.46841   1.12072
   0.52068  -0.48391   1.07372
   0.59298  -0.50281   0.97672
   0.69698  -0.64961   0.95032
   0.62428  -0.55821   0.94842
   0.73748  -0.65801   0.96272
   0.68978  -0.54511   1.06672
   0.77628  -0.56551   0.94982
   0.73398  -0.55731   0.94562
   0.82628  -0.48221   0.85352
   0.94388  -0.55191   0.97862
   0.91728  -0.55031   0.70992
   0.93148  -0.60381   0.88112
   1.01878  -0.45161   0.89232
   1.03748  -0.45981   0.75462
   1.06218  -0.39941   0.77722
   0.95558  -0.45211   0.77072
   1.02388  -0.37541   0.67342
   0.97218  -0.31221   0.67862
   0.95028  -0.57991   0.63132
   1.16538  -0.28321   0.69002
   1.09098  -0.19351   0.63462
   1.04308  -0.22741   0.46862
   1.12418  -0.41111   0.45882
   1.19108  -0.22461   0.50912
   1.01778  -0.30591   0.41532
   1.13778  -0.15421   0.37672
   1.11088  -0.18951   0.24952
   1.12208  -0.31831   0.21892
   1.15738  -0.19391   0.21772
   1.14238  -0.19531   0.12212
   1.21978  -0.20381   0.17612
   0.91328  -0.25431   0.09412
   1.00818  -0.31571   0.09222
   1.02578  -0.20631  -0.01418
   1.00678  -0.20471  -0.08358
   1.10638  -0.25191  -0.00618
   1.00818  -0.20261  -0.09248
   0.98928  -0.30801   0.03002
   1.12858  -0.28911  -0.16848
   1.18548  -0.29351  -0.14208
   1.16178  -0.23741  -0.20288
   1.30098  -0.28001  -0.05978
   1.16648  -0.32671  -0.17058
   1.24088  -0.38451  -0.16308
   1.26658  -0.33961  -0.21848
   1.16398  -0.37701  -0.14368
   1.29138  -0.33091  -0.15188
   1.41648  -0.38661  -0.20778
   1.26748  -0.21941  -0.32278
   1.30238  -0.37771  -0.24328
   1.34838  -0.28211  -0.20478
   1.32388  -0.30691  -0.32418
   1.43768  -0.34221  -0.31438
   1.45618  -0.34051  -0.30038
   1.41808  -0.21821  -0.31738
   1.29768  -0.24441  -0.26438
   1.29908  -0.36111  -0.31508
   1.29508  -0.27791  -0.44508
   1.31008  -0.28581  -0.31578
   1.33578  -0.21661  -0.36628
   1.42718  -0.06631  -0.32538
   1.33138  -0.06391  -0.48718
   1.20878  -0.05391  -0.46778
   1.19738   0.03239  -0.42338
   1.08488   0.03379  -0.39948
   0.99418   0.05949  -0.34738
   1.11738   0.15649  -0.40628
   0.90488   0.10929  -0.32698
   0.93738   0.20379  -0.39548
   0.80108   0.18899  -0.36088
   0.98648   0.16189  -0.34918
   0.88638   0.31159  -0.29848
   0.65498   0.26969  -0.32068
   0.66028   0.38029  -0.15208
   0.57478   0.39219  -0.27298
   0.58668   0.33799  -0.26718
   0.59158   0.56949  -0.10018
   0.38048   0.58209  -0.22908
   0.21818   0.57319  -0.21248
   0.18268   0.56549  -0.19118
   0.01548   0.67789  -0.17788
  -0.00062   0.70509  -0.16518
  -0.09632   0.68819  -0.16078
  -0.29882   0.82689  -0.24638
  -0.30112   0.66769  -0.34198
  -0.39652   0.78829  -0.25618
  -0.42082   0.73309  -0.29918
  -0.27442   0.90189  -0.17228
  -0.50012   0.89729  -0.16658
  -0.63382   0.88419  -0.24638
  -0.69162   0.86989  -0.16148
  -0.65812   0.89889  -0.29148
  -0.80332   0.96879  -0.32888
  -0.82792   0.96859  -0.26178
  -0.78512   1.08169  -0.26338
  -0.90462   1.03779  -0.30438
  -1.01072   1.06119  -0.25238
  -0.96562   1.14419  -0.35248
  -1.01472   1.01419  -0.20708
  -1.29482   1.13429  -0.37358
  -1.08742   1.02469  -0.33358
  -1.19962   1.06489  -0.41398
  -1.20242   1.37119  -0.51498
  -1.18702   1.02189  -0.48088
  -1.21062   1.34409  -0.58558
  -1.25412   1.09009  -0.51168
  -1.26562   1.11589  -0.50658
  -1.29012   1.25399  -0.71328
  -1.18352   1.27279  -0.54068
  -1.29712   1.32279  -0.58238
  -1.17482   1.13149  -0.55238
  -1.15332   1.19119  -0.53248
  -1.31212   1.23579  -0.61408
  -1.24332   1.14039  -0.63988
  -1.24472   1.18579  -0.58308
  -1.25082   1.16709  -0.60478
  -1.22392   1.22439  -0.54188
  -1.25712   1.18669  -0.46568
  -1.17322   0.94779  -0.52478
  -1.15682   1.25659  -0.59448
  -1.23472   1.10579  -0.46008
  -1.15082   1.06719  -0.59218
  -1.16032   1.18969  -0.55778
  -1.13132   1.07749  -0.52968
  -0.97732   0.93119  -0.63468
  -0.99952   0.97889  -0.63428
  -0.94622   0.81329  -0.61038
  -0.93992   0.75979  -0.61668
  -0.82442   0.73289  -0.61998
  -0.66632   0.69519  -0.72778
  -0.65342   0.67979  -0.55268
  -0.81202   0.56619  -0.49858
  -0.68132   0.70109  -0.56038
  -0.67872   0.63189  -0.61248
  -0.71382   0.62739  -0.64268
  -0.63242   0.47289  -0.67468
  -0.66682   0.53979  -0.60738
  -0.47862   0.40109  -0.73498
  -0.40842   0.34689  -0.60338
  -0.46592   0.48509  -0.78758
  -0.41332   0.22529  -0.91178
  -0.30372   0.26129  -0.83998
  -0.24152   0.41159  -0.85798
  -0.20082   0.28789  -0.81448
  -0.19732   0.30199  -0.81378
  -0.02402   0.28699  -0.89918
   0.17818   0.21379  -0.86898
   0.15268   0.18249  -0.88438
   0.11458   0.03679  -0.87038
   0.17188   0.16239  -0.83298
   0.28228   0.10089  -1.01118
   0.38608   0.14739  -0.76188
   0.57828   0.10389  -0.79278
   0.53028   0.13949  -0.76288
   0.54248   0.10859  -0.71588
   0.55018   0.03799  -0.50518
   0.69168   0.03359  -0.52128
   0.72418   0.02399  -0.57068
   0.63808  -0.06371  -0.40908
   0.68388  -0.13781  -0.37918
   0.70008  -0.15911  -0.36258
   0.76298  -0.18361  -0.13298
   0.94248  -0.21451  -0.20258
   0.71008  -0.10481  -0.14538
   0.93058  -0.15681  -0.15888
   0.85648  -0.31781   0.05832
   0.92638  -0.39241   0.00872
   0.96568  -0.28751  -0.02958
   0.98298  -0.19601   0.11672
   1.08238  -0.42471   0.05432
   1.10198  -0.26691   0.07042
   0.99648  -0.32231   0.21982
   1.16298  -0.31481   0.17472
   1.15248  -0.32391   0.17662
   1.25228  -0.37211   0.17892
   1.40568  -0.29801   0.30822
   1.27658  -0.38571   0.19042
   1.32718  -0.27511   0.38302
   1.37648  -0.39271   0.41132
   1.42558  -0.29071   0.22362
   1.45458  -0.44321   0.41602
   1.47368  -0.32021   0.46532
   1.49128  -0.30311   0.47452
   1.64958  -0.33611   0.27992
   1.50688  -0.43551   0.50862
   1.56208  -0.51571   0.45582
   1.64928  -0.45421   0.57482
   1.56908  -0.59541   0.51562
   1.61678  -0.40251   0.57522
   1.61078  -0.59211   0.42822
   1.68998  -0.41231   0.61052
   1.72108  -0.40671   0.40462
   1.74918  -0.54091   0.59602
   1.67198  -0.54091   0.45272
   1.67998  -0.64891   0.50162
   1.61008  -0.56781   0.42792
   1.62948  -0.69971   0.52402
   1.49668  -0.74711   0.57712
   1.55348  -0.78431   0.52402
   1.59348  -0.72871   0.45722
   1.59368  -0.74341   0.42472
   1.50528  -0.82501   0.56212
   1.34868  -0.87241   0.52082
   1.34588  -0.87131   0.35762
   1.34608  -0.93861   0.41252
   1.29908  -1.04921   0.39892
   1.14238  -0.96431   0.57222
   1.17888  -0.96411   0.39522
   1.16038  -1.03331   0.41342
   0.93078  -1.10131   0.49322
   0.81928  -1.11841   0.43712
   0.83568  -0.91971   0.56312
   0.78048  -1.05931   0.37492
   0.70728  -1.17051   0.48592
   0.59718  -1.21081   0.40252
   0.71288  -1.25471   0.43072
   0.59488  -1.13901   0.41442
   0.49428  -1.09201   0.47592
   0.53618  -1.25961   0.57732
   0.56538  -1.31221   0.36152
   0.30398  -1.07091   0.32202
   0.35358  -0.97231   0.44382
   0.32388  -1.10811   0.37162
   0.31218  -1.08941   0.57942
   0.21398  -1.02301   0.56662
   0.04278  -1.03311   0.52872
  -0.09182  -0.95641   0.49362
   0.01708  -0.91851   0.44382
  -0.10632  -0.99311   0.46962
  -0.21512  -0.84271   0.47592
  -0.16432  -0.61431   0.39752
  -0.37172  -0.71321   0.24772
  -0.24262  -0.81631   0.25802
  -0.26392  -0.56941   0.11512
  -0.32312  -0.66321   0.00102
  -0.45382  -0.66061  -0.02468
  -0.43112  -0.56451  -0.05628
  -0.75162  -0.50051  -0.12638
  -0.81762  -0.48531  -0.31978
  -0.75492  -0.44151  -0.13618
  -0.81902  -0.52921  -0.37358
  -0.90482  -0.47781  -0.34058
  -0.87982  -0.36061  -0.41308
  -0.96812  -0.36231  -0.54728
  -0.94382  -0.16241  -0.49188
  -1.37382  -0.14391  -0.64238
  -1.19892  -0.15281  -0.70368
  -1.27842  -0.00691  -0.45068
  -1.23492  -0.06391  -0.46608
  -1.43372   0.01229  -0.59028
  -1.33972  -0.04761  -0.65718
  -1.37592   0.14699  -0.45558
  -1.58072   0.03939  -0.58888
  -1.62842   0.03079  -0.60058
  -1.58262   0.20379  -0.55828
  -1.74812   0.37189  -0.53628
  -1.72712   0.33379  -0.51478
  -1.75442   0.44059  -0.38128
  -1.85432   0.40839  -0.41258
  -1.80282   0.58249  -0.40858
  -1.95232   0.50379  -0.31348
  -2.15402   0.75319  -0.36678
  -2.09602   0.70809  -0.36488
  -1.89292   0.74809  -0.34968
  -1.93782   0.83619  -0.43598
  -1.88752   0.91549  -0.28138
  -1.90672   0.90119  -0.29588
  -2.01122   0.96439  -0.31178
  -1.98692   1.09859  -0.33658
  -1.86062   1.31269  -0.31068
  -1.85432   1.24489  -0.37728
  -1.72522   1.30569  -0.24868
  -1.77672   1.33679  -0.30408
  -1.78602   1.51099  -0.31958
  -1.68802   1.49279  -0.49088
  -1.62962   1.51639  -0.28328
  -1.51622   1.47269  -0.44668
  -1.50522   1.53409  -0.36208
  -1.55552   1.54559  -0.19378
  -1.39602   1.46959  -0.19208
  -1.33272   1.52669  -0.16658
  -1.42132   1.54019  -0.32938
  -1.39562   1.54679  -0.24538
  -1.37902   1.51899  -0.30898
  -1.27702   1.55589  -0.06328
  -1.10052   1.43289  -0.25808
  -1.26132   1.49699  -0.31088
  -1.10562   1.31549  -0.20448
  -1.17482   1.25989  -0.22908
  -1.15452   1.21029  -0.31878
  -1.07872   1.18019  -0.14188
  -1.12672   1.06909  -0.25918
  -0.96702   1.00269  -0.08758
  -0.98312   1.06439  -0.16008
  -1.01822   0.93699  -0.03478
  -0.82042   0.90939  -0.12408
  -0.97982   0.90889  -0.02278
  -0.78182   0.87669  -0.04198
  -0.64902   0.71629   0.08492
  -0.67592   0.71249  -0.06588
  -0.61492   0.74039  -0.16168
  -0.42342   0.64379  -0.19798
  -0.42172   0.68029  -0.02818
  -0.42922   0.65919  -0.05318
  -0.23052   0.61289  -0.19238
  -0.10982   0.56099  -0.27328
  -0.15332   0.64499  -0.23818
  -0.00512   0.71039  -0.23798
   0.08698   0.57509  -0.29568
   0.10778   0.48039  -0.20658
   0.34728   0.60009  -0.29988
   0.45638   0.53559  -0.28118
   0.46418   0.58789  -0.10188
   0.52498   0.49789  -0.23868
   0.65448   0.50799  -0.25528
   0.70288   0.52289  -0.41068
   0.86558   0.45209  -0.44598
   0.96638   0.42589  -0.38428
   0.96118   0.36419  -0.43968
   1.06968   0.38919  -0.43648
   1.11108   0.44549  -0.56578
   1.27478   0.52619  -0.41098
   1.29248   0.45139  -0.54868
   1.12978   0.40389  -0.50588
   1.39608   0.30739  -0.51358
   1.44968   0.42709  -0.43288
   1.41108   0.28959  -0.44278
   1.19458   0.28959  -0.48108
   1.29838   0.28839  -0.52598
   1.40618   0.45749  -0.45328
   1.51998   0.32909  -0.40718
   1.51928   0.32329  -0.41028
   1.49618   0.23629  -0.34198
   1.49128   0.24909  -0.40908
   1.57868   0.28579  -0.45748
   1.52588   0.20029  -0.44138
   1.41758   0.27909  -0.38058
   1.54878   0.17779  -0.39438
   1.44428   0.30479  -0.40558
   1.53078   0.30709  -0.25808
   1.58738   0.43219  -0.52928
   1.50408   0.36669  -0.40928
   1.44568   0.44669  -0.38128
   1.50978   0.47309  -0.37918
   1.30768   0.43409  -0.32588
   1.34258   0.49019  -0.37798
   1.32058   0.63119  -0.24638
   1.21518   0.55589  -0.30718
   1.30748   0.66389  -0.10418
   1.32828   0.55119  -0.27118
   1.27288   0.61739  -0.16168
   1.22188   0.61289  -0.13158
   1.34728   0.71369  -0.05748
   1.13778   0.57229  -0.22348
   1.07948   0.53859  -0.04388
   1.04518   0.72979   0.05062
   1.01028   0.78219  -0.00758
   0.96258   0.67119  -0.00758
   0.92238   0.76449  -0.02098
   0.88338   0.64589   0.12592
   0.94178   0.58749   0.03822
   0.81228   0.70339   0.09152
   0.86138   0.66789   0.20722
   0.71598   0.51469   0.33232
   0.85508   0.63839   0.22922
   0.76858   0.54979   0.44172
   0.75638   0.51969   0.37932
   0.71128   0.41839   0.30572
   0.66728   0.45299   0.26122
   0.65938   0.46169   0.51232
   0.66098   0.41159   0.63042
   0.68438   0.45609   0.39362
   0.51908   0.35409   0.51022
   0.53658   0.37049   0.55372
   0.47588   0.26899   0.53432
   0.52958   0.34939   0.60172
   0.43188   0.22249   0.69382
   0.31308   0.22459   0.69942
   0.38998   0.27279   0.80342
   0.37338   0.21759   0.70992
   0.35428   0.29779   0.85722
   0.10618   0.10739   0.88222
   0.20178   0.15679   0.79972
   0.13728   0.10459   0.89982
   0.24248   0.14909   0.81752
   0.13308   0.15579   0.71342
   0.03328   0.17499   0.97012
   0.14078   0.26079   0.89342
   0.11878   0.29729   0.96832
   0.04238   0.00219   1.01482
   0.01898   0.14769   1.00682
  -0.00062   0.27999   0.86942
  -0.21062   0.17739   0.93132
  -0.04132   0.21869   0.82142
  -0.09492   0.14509   0.81332
  -0.17602   0.25499   0.80412
  -0.19872   0.45089   0.68842
  -0.23452   0.26039   0.70692
  -0.17532   0.15419   0.66622
  -0.13282   0.19979   0.61522
  -0.32892   0.14489   0.40852
  -0.08512   0.29049   0.54812
  -0.33242   0.34059   0.51822
  -0.30532   0.30809   0.36552
  -0.33732   0.20659   0.38092
