********************************************************************************
               CENTRO DE INSTRUMENTACION Y REGISTRO SISMICO  A.C.

    Anaxagoras 814, Col. Narvarte, Benito Juarez, C.P. 03020 Mexico, D.F.
           Tels. 5687 45 42/ 5687 45  82             Fax. 5669 25 12
********************************************************************************
ARCHIVO ESTANDAR DE ACELERACION:
VERSION DEL FORMATO                    : 2.0
NOMBRE DEL ARCHIVO                     : D17020220919180509
FECHA Y HORA DE CREACION               : 19/SEP/22, 17:30
REF. CATALOGO ACELEROGRAMAS, SMIS 1996 : REGISTRO No.     /PAG.


================================================================================
DATOS DE LA ESTACION:
NOMBRE DE LA ESTACION                  : SEP - IMP (POZO 10 MTS)
CLAVE DE LA ESTACION                   : D170
LOCALIZACION DE LA ESTACION            : Del. Magdalena Contreras. Col. Lomas   
                                       : de San Ángel Inn, Camino Antiguo       
                                       : a Acapulco, entre Anillo periférico    
                                       : y Av. Toluca.                          
                                       : 
COORDENADAS DE LA ESTACION             : 19.3428 LAT. N
                                       : 99.2032 LONG. W
ALTITUD (msnm)                         : 2355
TIPO DE SUELO                          : Arenoso, limoso, compacto           
                                       :                           
                                       : 
INSTITUCION RESPONSABLE                : CIRES, A. C.
                                       : 

================================================================================
DATOS DEL ACELEROGRAFO:
MODELO DEL ACELEROGRAFO                : 
NUMERO DE SERIE DEL ACELEROGRAFO       : 
NUMERO DE CANALES                      : 3
ORIENTACION C1-C6 (rumbo;orientacion)  : /S00E/+V/N90W
ORIENTACION C7-C12 (rumbo;orientacion) : 
VEL. DE MUESTREO, C1-C6 (muestras/s)   : /200/200/200
VEL. DE MUESTREO, C7-C12 (muestras/s)  : 
ESC. COMPLETA DE SENSORES, C1-C6, (g)  : /7.0/7.0/7.0
ESC. COMPLETA DE SENSORES, C7-C12, (g) : 
FREC. NAT. DE SENSORES, C1-C6, (Hz)    : /500/500/500
FREC. NAT. DE SENSORES, C7-C12, (Hz)   : 
AMORTIGUAMIENTO DE SENSORES, C1-C6     : /0.700/0.700/0.700
AMORTIGUAMIENTO DE SENSORES, C7-C12    : 
INTERVALO DE MUESTREO, C1-C6, (s)      : /0.005/0.005/0.005
INTERVALO DE MUESTREO, C7-C12, (s)     : 
UMBRAL DE DISPARO, C1-C6, (Gal)        : /1/1/1
UMBRAL DE DISPARO, C7-C12, (Gal)       : 
MEMORIA DE PREEVENTO (s)               : 60
TIEMPO DE POSEVENTO (s)                : 70


================================================================================
DATOS DEL SISMO:
FECHA DEL SISMO (GMT)                  : 19/SEP/22
HORA EPICENTRO (GMT)                   : 18:05:09.0
MAGNITUD(ES)                           : /Mc=7.7
COORDENADAS DEL EPICENTRO              : 18.22 LAT. N
                                       : 103.29 LONG. W
PROFUNDIDAD FOCAL (km)                 : 15
FUENTE DE LOS DATOS EPICENTRALES       : SSN
                                       : INSTITUTO DE GEOFISICA, UNAM

================================================================================
DATOS DE ESTE REGISTRO:
HORA DE LA PRIMERA MUESTRA (GMT)       : .00
EXACTITUD DEL TIEMPO (s)               : 
DURACION DEL REGISTRO (s), C1-C6       : /311.26/311.26/311.26
DURACION DEL REGISTRO (s), C7-C12      : 
NUM. TOTAL DE MUESTRAS, C1-C6          : /62252/62252/62252
NUM. TOTAL DE MUESTRAS, C7-C12         : 
ACEL. MAX. (Gal), C1-C6                : /7.27615/4.21095/7.67196
ACEL. MAX., C1-C6, EN LA MUESTRA       : /25560/27102/26292
ACEL. MAX. (Gal), C7-C12               : 
ACEL. MAX., C7-C12, EN LA MUESTRA      : 
UNIDADES DE LOS DATOS                  : Gal (cm/s/s)
FACTOR DE DECIMACION                   : 1
FORMATO DATOS (FORTRAN,10 campos/dato) : 3F10.5


================================================================================
CALIDAD DEL ACELEROGRAMA:
REGISTRO DIGITAL COMPLETO CON TIEMPO ABSOLUTO CORRECTO.


================================================================================
COMENTARIOS:














================================================================================
DATOS DE ACELERACION:
---------+---------+---------+---------+---------+---------+---------+---------+
   CANAL-1   CANAL-2   CANAL-3   CANAL-4   CANAL-5   CANAL-6   CANAL-7   CANAL-8
      N00E        +V      N90W
---------+---------+---------+---------+---------+---------+---------+---------+
[...]
   0.38751   2.59756  -1.58522
   0.31632   2.59756  -1.69406
   0.26231   2.65484  -1.76607
   0.23694   2.77759  -1.78571
   0.16247   2.82669  -1.81353
   0.07327   2.84306  -1.89127
   0.01272   2.91671  -1.92237
  -0.06175   2.98217  -1.93874
  -0.19268   2.99854  -2.02548
  -0.26633   3.07219  -2.07131
  -0.33098   3.16221  -2.10322
  -0.48892   3.18676  -2.17523
  -0.59203   3.20312  -2.22106
  -0.63131   3.26859  -2.26198
  -0.73442   3.32587  -2.32990
  -0.86290   3.35860  -2.37654
  -0.91691   3.43225  -2.38473
  -1.00119   3.51409  -2.39782
  -1.16813   3.49772  -2.40600
  -1.25733   3.49772  -2.39700
  -1.30889   3.49772  -2.40109
  -1.46191   3.44044  -2.40273
  -1.59121   3.45680  -2.38391
  -1.64440   3.53045  -2.32581
  -1.79661   3.51409  -2.27016
  -1.95864   3.44044  -2.21206
  -2.01920   3.39952  -2.10568
  -2.13295   3.33405  -2.04185
  -2.30398   3.23586  -1.99520
  -2.41936   3.18676  -1.89700
  -2.52820   3.18676  -1.80535
  -2.70905   3.17039  -1.72515
  -2.84653   3.15402  -1.62613
  -2.91445   3.12947  -1.49520
  -3.06093   3.08037  -1.40028
  -3.20823   3.03127  -1.31517
  -3.26715   3.01491  -1.15805
  -3.36699   2.98217  -1.04021
  -3.54866   2.91671  -0.96247
  -3.66732   2.90852  -0.84299
  -3.74015   2.90852  -0.72106
  -3.89236   2.85942  -0.62286
  -4.00365   2.85942  -0.52139
  -4.05193   2.86761  -0.39537
  -4.16077   2.83487  -0.28816
  -4.26060   2.81032  -0.19324
  -4.30807   2.79396  -0.05658
  -4.37844   2.78577   0.06208
  -4.46437   2.76941   0.13900
  -4.49792   2.79396   0.24621
  -4.52574   2.81032   0.36650
  -4.63049   2.75304   0.46961
  -4.72705   2.74486   0.57599
  -4.74997   2.75304   0.68483
  -4.78597   2.72849   0.77812
  -4.83916   2.74486   0.87550
  -4.82198   2.76941   0.99743
  -4.80398   2.76941   1.08499
  -4.82689   2.75304   1.16928
  -4.77533   2.76122   1.29449
  -4.70578   2.79396   1.38450
  -4.67714   2.78577   1.45488
  -4.58957   2.81032   1.54490
  -4.46601   2.85942   1.63164
  -4.37353   2.84306   1.68647
  -4.28270   2.81851   1.72575
  -4.14195   2.78577   1.79367
  -4.02247   2.74486   1.85341
  -3.93573   2.73667   1.88860
  -3.74915   2.75304   1.92378
  -3.56912   2.74486   1.96552
  -3.47337   2.67939   2.01380
  -3.33835   2.63847   2.04162
  -3.17959   2.62211   2.05635
  -3.04129   2.53209   2.07681
  -2.88745   2.47481   2.07026
  -2.68614   2.51572   2.07354
  -2.52165   2.50754   2.08581
  -2.42673   2.45026   2.09563
  -2.30398   2.43389   2.14882
  -2.17304   2.40934   2.16110
  -2.08221   2.33569   2.12427
  -1.99874   2.28659   2.12346
  -1.87763   2.29477   2.12591
  -1.77533   2.25386   2.11691
  -1.72296   2.15566   2.12591
  -1.63540   2.06564   2.15455
  -1.55684   1.97563   2.14964
  -1.52247   1.86924   2.14473
  -1.43082   1.82833   2.20283
  -1.29252   1.79559   2.24539
  -1.23442   1.68921   2.26748
  -1.19759   1.56646   2.33049
  -1.07157   1.51736   2.40087
  -0.98810   1.42734   2.45079
  -0.94882   1.30459   2.50562
  -0.83098   1.27186   2.59481
  -0.71069   1.25549   2.68647
  -0.62067   1.17366   2.76748
  -0.49956   1.13275   2.86732
  -0.33671   1.10820   2.98270
  -0.17632   1.01000   3.08090
  -0.01920   0.96090   3.17256
   0.18784   1.00181   3.29040
   0.40388   0.97726   3.38941
   0.59291   0.93635   3.50071
   0.80977   0.97726   3.66928
   1.05773   0.98545   3.78549
   1.25331   0.92816   3.88369
   1.45134   0.96090   4.04735
   1.72385   1.03455   4.18892
   1.94971   1.02636   4.27157
   2.14611   1.00181   4.38532
   2.37688   1.03455   4.54162
   2.56427   1.02636   4.64310
   2.72385   0.95271   4.71920
   2.92025   0.96090   4.82968
   3.13465   0.96908   4.89351
   3.27704   0.91180   4.91806
   3.40061   0.89543   4.99498
   3.55936   0.87088   5.07599
   3.64283   0.79723   5.09891
   3.71157   0.76450   5.14310
   3.85314   0.82996   5.20938
   3.96525   0.82996   5.19874
   3.99062   0.79723   5.17828
   4.05527   0.80541   5.20938
   4.13383   0.73995   5.21184
   4.10683   0.64993   5.18156
   4.11501   0.64175   5.17174
   4.15838   0.62538   5.16683
   4.12156   0.54355   5.12509
   4.07246   0.48626   5.10054
   4.07491   0.46171   5.10300
   4.05527   0.39625   5.03262
   3.96689   0.33896   4.95570
   3.95543   0.36351   4.93197
   3.98735   0.33078   4.87878
   3.92843   0.24895   4.81167
   3.89161   0.18348   4.77403
   3.88588   0.08528   4.71920
   3.79750  -0.05383   4.62264
   3.71239  -0.11112   4.55472
   3.71648  -0.11930   4.52771
   3.66902  -0.21750   4.44670
   3.54709  -0.30752   4.35668
   3.51435  -0.34025   4.32395
   3.49635  -0.41390   4.24948
   3.35478  -0.53665   4.15864
   3.26067  -0.59393   4.11282
   3.26149  -0.59393   4.01135
   3.19439  -0.65940   3.86650
   3.12156  -0.70850   3.77403
   3.10683  -0.69213   3.68892
   3.05363  -0.72487   3.55226
   2.94480  -0.74123   3.43360
   2.88915  -0.69213   3.36405
   2.88833  -0.74123   3.26012
   2.78359  -0.85580   3.14146
   2.68784  -0.89671   3.08663
   2.71075  -0.95400   3.00234
   2.63710  -1.06038   2.84686
   2.57000  -1.09311   2.74539
   2.64038  -1.11766   2.66028
   2.62565  -1.19131   2.53017
   2.57000  -1.24860   2.44752
   2.60846  -1.29770   2.40169
   2.60519  -1.40408   2.31658
   2.51599  -1.51865   2.20938
   2.50781  -1.54320   2.14882
   2.58637  -1.56775   2.09072
   2.56182  -1.64958   1.99989
   2.51354  -1.67413   1.99416
   2.54463  -1.69868   1.99989
   2.51026  -1.82961   1.92624
   2.44152  -1.97691   1.92215
   2.44316  -2.03419   1.96143
   2.43007  -2.07511   1.94833
   2.34660  -2.14058   1.97943
   2.31796  -2.18149   2.06208
   2.33105  -2.21423   2.10791
   2.24758  -2.32061   2.12837
   2.18948  -2.36971   2.20038
   2.17557  -2.38608   2.28876
   2.06836  -2.47609   2.31658
   1.94889  -2.50883   2.37796
   1.87360  -2.50883   2.50153
   1.76395  -2.55793   2.58990
   1.63056  -2.61521   2.66110
   1.55691  -2.66431   2.77403
   1.48817  -2.65613   2.86650
   1.38997  -2.67249   2.90660
   1.31305  -2.69704   2.99089
   1.23530  -2.67249   3.07108
   1.12074  -2.70523   3.10136
   0.99635  -2.77888   3.18892
   0.93661  -2.80343   3.29121
   0.86787  -2.85252   3.32558
   0.74431  -2.89344   3.36241
   0.67475  -2.84434   3.43442
   0.61010  -2.81161   3.47452
   0.52008  -2.85252   3.46634
   0.46525  -2.87707   3.47370
   0.40879  -2.87707   3.48925
   0.32041  -2.89344   3.45897
   0.24676  -2.87707   3.41969
   0.22303  -2.81161   3.41806
   0.19930  -2.77888   3.38614
   0.14611  -2.77888   3.30513
   0.11992  -2.73796   3.25766
   0.12237  -2.69704   3.19301
   0.07246  -2.72978   3.08254
   0.02336  -2.69704   3.02935
   0.02254  -2.62339   2.96225
  -0.03475  -2.64794   2.82231
  -0.09858  -2.67249   2.70856
  -0.11331  -2.62339   2.60218
  -0.16731  -2.62339   2.44015
  -0.22951  -2.66431   2.27730
  -0.24260  -2.65613   2.16274
  -0.28188  -2.66431   2.05062
  -0.36044  -2.72159   1.89023
  -0.37763  -2.77069   1.70856
  -0.36617  -2.77888   1.54326
  -0.39727  -2.84434   1.36814
  -0.40627  -2.90981   1.18974
  -0.39808  -2.90162   1.04571
  -0.42263  -2.92617   0.88860
  -0.44064  -2.99982   0.73966
  -0.42100  -3.04074   0.63573
  -0.40463  -3.05711   0.49743
  -0.41609  -3.12257   0.35995
  -0.39072  -3.21259   0.26585
  -0.32853  -3.23714   0.16274
  -0.29743  -3.31897   0.03835
  -0.26142  -3.42536  -0.06967
  -0.16731  -3.44172  -0.14414
  -0.08957  -3.50719  -0.24479
  -0.05029  -3.61357  -0.34381
   0.04545  -3.63812  -0.39618
   0.15920  -3.67086  -0.48866
   0.20093  -3.74451  -0.58113
   0.29259  -3.75269  -0.60486
   0.42679  -3.72814  -0.65232
   0.48244  -3.75269  -0.73497
   0.57000  -3.76906  -0.77916
   0.72385  -3.73632  -0.82172
   0.82287  -3.70359  -0.89291
   0.89242  -3.66267  -0.95674
   1.03727  -3.58084  -1.00175
   1.19111  -3.50719  -1.08194
   1.27131  -3.46627  -1.19733
   1.39488  -3.37626  -1.27753
   1.55609  -3.28624  -1.38309
   1.63629  -3.26169  -1.55167
   1.73694  -3.22896  -1.65887
   1.89651  -3.16349  -1.74070
   1.98653  -3.17167  -1.90928
   2.05200  -3.16349  -2.07294
   2.18457  -3.05711  -2.18260
   2.32041  -2.97527  -2.32417
   2.37524  -2.94254  -2.49029
   2.43989  -2.86889  -2.63759
   2.58800  -2.82797  -2.79798
   2.66656  -2.87707  -2.98947
   2.71157  -2.91799  -3.16378
   2.85560  -2.90162  -3.30780
   2.94889  -2.92617  -3.46574
   2.98080  -2.95072  -3.61959
   3.08800  -2.89344  -3.72761
   3.19766  -2.83616  -3.86591
   3.25003  -2.86071  -4.04676
   3.33760  -2.86889  -4.14414
   3.44398  -2.81979  -4.23743
   3.47507  -2.80343  -4.39864
   3.53154  -2.74614  -4.48375
   3.67147  -2.63158  -4.53612
   3.76067  -2.59066  -4.65150
   3.82450  -2.59884  -4.74316
   3.93416  -2.53338  -4.77834
   4.03399  -2.46791  -4.83481
   4.12237  -2.43518  -4.91746
   4.24103  -2.33698  -4.95429
   4.36624  -2.21423  -4.97229
   4.44561  -2.13239  -5.03448
   4.52090  -2.07511  -5.08767
   4.63547  -1.95236  -5.08358
   4.73285  -1.83779  -5.09831
   4.82778  -1.81324  -5.12695
   4.97016  -1.73141  -5.10159
   5.11828  -1.60866  -5.10404
   5.21157  -1.55956  -5.15396
   5.28686  -1.45318  -5.15478
   5.42516  -1.28951  -5.15068
   5.52499  -1.20768  -5.17851
   5.55773  -1.11766  -5.16132
   5.66247  -1.01946  -5.12450
   5.75740  -0.97036  -5.14659
   5.79504  -0.94581  -5.19160
   5.89079  -0.84761  -5.18587
   5.98408  -0.71668  -5.19078
   6.01190  -0.67577  -5.25298
   6.07164  -0.58575  -5.28653
   6.16902  -0.43845  -5.31435
   6.18784  -0.37298  -5.39046
   6.15511  -0.31570  -5.45510
   6.17557  -0.17658  -5.50011
   6.17557  -0.03747  -5.58440
   6.14856   0.09347  -5.69160
   6.21403   0.18348  -5.75625
   6.23203   0.24895  -5.83235
   6.15674   0.32260  -5.93710
   6.14529   0.41261  -6.00993
   6.15920   0.52718  -6.09995
   6.10764   0.61720  -6.21779
   6.05363   0.74813  -6.32663
   6.05609   0.91998  -6.42401
   5.99799   1.01000  -6.54348
   5.85314   1.05910  -6.66787
   5.75413   1.17366  -6.73170
   5.67311   1.27186  -6.82008
   5.55036   1.32914  -6.95265
   5.47262   1.47644  -7.02384
   5.45462   1.63193  -7.09258
   5.36460   1.69739  -7.21124
   5.23612   1.77923  -7.27834
   5.17475   1.93471  -7.31435
   5.06264   2.07383  -7.41010
   4.89488   2.17203  -7.49602
   4.80895   2.28659  -7.51566
   4.70912   2.35206  -7.54758
   4.53481   2.36842  -7.59995
   4.42516   2.41752  -7.59749
   4.35642   2.47481  -7.60568
   4.22303   2.52391  -7.67196
   4.10601   2.58119  -7.66705
   4.04709   2.65484  -7.62450
   3.92025   2.62211  -7.63759
   3.73940   2.54027  -7.62368
   3.62319   2.53209  -7.56803
   3.51845   2.54027  -7.55658
   3.37115   2.48299  -7.55576
   3.25740   2.48299  -7.50584
   3.16411   2.49117  -7.45265
   3.02336   2.36842  -7.41746
   2.88015   2.25386  -7.36181
   2.75904   2.19658  -7.27180
   2.60846   2.12293  -7.21370
   2.45134   2.02473  -7.17442
   2.35560   1.98381  -7.06722
   2.26722   1.95108  -6.98047
   2.11746   1.83651  -6.94283
   1.98980   1.74649  -6.83645
   1.88506   1.71376  -6.73661
   1.75413   1.63193  -6.70797
   1.65102   1.59101  -6.63350
   1.60192   1.61556  -6.52466
   1.52827   1.59101  -6.46492
   1.39079   1.50918  -6.39864
   1.31959   1.49281  -6.29471
   1.26149   1.53373  -6.24807
   1.16575   1.56646  -6.21370
   1.16165   1.60738  -6.13268
   1.16575   1.65648  -6.06558
   1.11910   1.66466  -6.01075
   1.05854   1.66466  -5.95838
   1.00535   1.72194  -5.87163
   0.95052   1.77104  -5.81435
   0.89488   1.80378  -5.80126
   0.91943   1.87743  -5.70551
   0.92843   1.91834  -5.60977
   0.88751   1.91016  -5.57131
   0.88260   1.92653  -5.48293
   0.86378   1.97563  -5.39127
   0.81059   1.96744  -5.33972
   0.80650   1.95926  -5.23252
   0.85069   2.00018  -5.13841
   0.83105   1.94289  -5.09013
   0.77131   1.85288  -4.98456
   0.74185   1.83651  -4.86754
   0.69848   1.79559  -4.76934
   0.62647   1.73831  -4.68587
   0.60355   1.71376  -4.60568
   0.65102   1.67284  -4.49438
   0.64529   1.57464  -4.38555
   0.60273   1.46008  -4.25052
   0.58882   1.37006  -4.07213
   0.53072   1.24731  -3.94610
   0.48980   1.11638  -3.81599
   0.53563   1.05910  -3.61386
   0.58146   0.96908  -3.46247
   0.56836   0.78086  -3.32826
   0.57327   0.65811  -3.11713
   0.60355   0.55173  -2.92319
   0.55200   0.37988  -2.74643
   0.55363   0.23258  -2.51484
   0.63301   0.14257  -2.28244
   0.62974   0.01982  -2.08031
   0.65020  -0.14385  -1.85445
   0.72876  -0.25842  -1.58276
   0.74840  -0.30752  -1.34790
   0.75003  -0.33207  -1.13268
   0.82696  -0.37298  -0.84708
   0.91452  -0.42208  -0.58604
   0.95625  -0.50392  -0.38636
   1.01108  -0.59393  -0.13759
   1.08146  -0.61848   0.13573
   1.13301  -0.64303   0.34441
   1.19684  -0.69213   0.55553
   1.33841  -0.69213   0.82149
   1.48735  -0.72487   1.03999
   1.53399  -0.79033   1.21429
   1.60928  -0.81488   1.43524
   1.74431  -0.81488   1.66519
   1.79177  -0.83125   1.83540
   1.88588  -0.83943   2.01871
   2.09537  -0.82306   2.22575
   2.22712  -0.84761   2.35668
   2.33023  -0.94581   2.49580
   2.50372  -0.98673   2.69220
   2.61501  -0.98673   2.85013
   2.64774  -1.03583   2.97698
   2.76640  -1.03583   3.12755
   2.91534  -1.05220   3.27321
   3.00535  -1.10948   3.37796
   3.13710  -1.13403   3.51707
   3.25904  -1.15858   3.68319
   3.29750  -1.18313   3.77157
   3.35151  -1.16676   3.85177
   3.45052  -1.13403   3.97779
   3.49717  -1.09311   4.10218
   3.50044  -1.13403   4.19056
   3.54872  -1.15858   4.25112
   3.55363  -1.13403   4.32313
   3.48571  -1.11766   4.36077
   3.45707  -1.03583   4.38614
   3.45462  -0.93763   4.45161
   3.38751  -0.89671   4.47698
   3.26804  -0.85580   4.49580
   3.19193  -0.77397   4.54408
   3.09701  -0.70032   4.53753
   2.94971  -0.64303   4.50398
   2.87278  -0.56120   4.50071
   2.80650  -0.50392   4.47125
   2.67311  -0.47937   4.40414
   2.53972  -0.44663   4.35914
   2.41452  -0.38935   4.32231
   2.23776  -0.34843   4.25439
   2.05854  -0.31570   4.18892
   1.93498  -0.24205   4.14637
   1.78522  -0.22568   4.07927
   1.61010  -0.24205   3.99580
   1.45953  -0.25023   3.94097
   1.27786  -0.25842   3.88450
   1.06836  -0.27478   3.80594
   0.89651  -0.28297   3.74375
   0.75003  -0.25023   3.69711
   0.59291  -0.25842   3.61936
   0.43088  -0.29933   3.54490
   0.29913  -0.32388   3.51789
   0.14201  -0.36480   3.48598
  -0.06257  -0.38935   3.41069
  -0.19596  -0.34843   3.35832
  -0.31380  -0.34025   3.33213
  -0.48892  -0.38117   3.27076
  -0.60676  -0.41390   3.25357
  -0.68695  -0.44663   3.26257
  -0.83098  -0.45482   3.23311
  -0.96110  -0.44663   3.22820
  -1.01347  -0.41390   3.22984
  -1.07239  -0.38117   3.20529
  -1.15749  -0.40572   3.16028
  -1.20659  -0.38117   3.13409
  -1.25569  -0.34843   3.14555
  -1.36126  -0.34843   3.13246
  -1.45373  -0.29115   3.13164
  -1.48074  -0.19295   3.14964
  -1.52820  -0.16022   3.13082
