********************************************************************************
               CENTRO DE INSTRUMENTACION Y REGISTRO SISMICO  A.C.

    Anaxagoras 814, Col. Narvarte, Benito Juarez, C.P. 03020 Mexico, D.F.
           Tels. 5687 45 42/ 5687 45  82             Fax. 5669 25 12
********************************************************************************
ARCHIVO ESTANDAR DE ACELERACION:
VERSION DEL FORMATO                    : 2.0
NOMBRE DEL ARCHIVO                     : D27020220919180509
FECHA Y HORA DE CREACION               : 19/SEP/22, 17:30
REF. CATALOGO ACELEROGRAMAS, SMIS 1996 : REGISTRO No.     /PAG.


================================================================================
DATOS DE LA ESTACION:
NOMBRE DE LA ESTACION                  : SEP - IMP (POZO 40 MTS)
CLAVE DE LA ESTACION                   : D270
LOCALIZACION DE LA ESTACION            : Del. Magdalena Contreras. Col. Lomas   
                                       : de San Ángel Inn, Camino Antiguo       
                                       : a Acapulco, entre Anillo periférico    
                                       : y Av. Toluca.                          
                                       : 
COORDENADAS DE LA ESTACION             : 19.3428 LAT. N
                                       : 99.2032 LONG. W
ALTITUD (msnm)                         : 2325
TIPO DE SUELO                          : Arenoso, limoso, compacto           
                                       :                           
                                       : 
INSTITUCION RESPONSABLE                : CIRES, A. C.
                                       : 

================================================================================
DATOS DEL ACELEROGRAFO:
MODELO DEL ACELEROGRAFO                : 
NUMERO DE SERIE DEL ACELEROGRAFO       : 
NUMERO DE CANALES                      : 3
ORIENTACION C1-C6 (rumbo;orientacion)  : /S00E/+V/N90W
ORIENTACION C7-C12 (rumbo;orientacion) : 
VEL. DE MUESTREO, C1-C6 (muestras/s)   : /200/200/200
VEL. DE MUESTREO, C7-C12 (muestras/s)  : 
ESC. COMPLETA DE SENSORES, C1-C6, (g)  : /7.0/7.0/7.0
ESC. COMPLETA DE SENSORES, C7-C12, (g) : 
FREC. NAT. DE SENSORES, C1-C6, (Hz)    : /500/500/500
FREC. NAT. DE SENSORES, C7-C12, (Hz)   : 
AMORTIGUAMIENTO DE SENSORES, C1-C6     : /0.700/0.700/0.700
AMORTIGUAMIENTO DE SENSORES, C7-C12    : 
INTERVALO DE MUESTREO, C1-C6, (s)      : /0.005/0.005/0.005
INTERVALO DE MUESTREO, C7-C12, (s)     : 
UMBRAL DE DISPARO, C1-C6, (Gal)        : /0.5/0.5/0.5
UMBRAL DE DISPARO, C7-C12, (Gal)       : 
MEMORIA DE PREEVENTO (s)               : 60
TIEMPO DE POSEVENTO (s)                : 70


================================================================================
DATOS DEL SISMO:
FECHA DEL SISMO (GMT)                  : 19/SEP/22
HORA EPICENTRO (GMT)                   : 18:05:09.0
MAGNITUD(ES)                           : /Mc=7.7
COORDENADAS DEL EPICENTRO              : 18.22 LAT. N
                                       : 103.29 LONG. W
PROFUNDIDAD FOCAL (km)                 : 15
FUENTE DE LOS DATOS EPICENTRALES       : SSN
                                       : INSTITUTO DE GEOFISICA, UNAM

================================================================================
DATOS DE ESTE REGISTRO:
HORA DE LA PRIMERA MUESTRA (GMT)       : .00
EXACTITUD DEL TIEMPO (s)               : 
DURACION DEL REGISTRO (s), C1-C6       : /311.26/311.26/311.26
DURACION DEL REGISTRO (s), C7-C12      : 
NUM. TOTAL DE MUESTRAS, C1-C6          : /62252/62252/62252
NUM. TOTAL DE MUESTRAS, C7-C12         : 
ACEL. MAX. (Gal), C1-C6                : /5.86303/3.80849/7.24431
ACEL. MAX., C1-C6, EN LA MUESTRA       : /25565/27102/26299
ACEL. MAX. (Gal), C7-C12               : 
ACEL. MAX., C7-C12, EN LA MUESTRA      : 
UNIDADES DE LOS DATOS                  : Gal (cm/s/s)
FACTOR DE DECIMACION                   : 1
FORMATO DATOS (FORTRAN,10 campos/dato) : 3F10.5


================================================================================
CALIDAD DEL ACELEROGRAMA:
REGISTRO DIGITAL COMPLETO CON TIEMPO ABSOLUTO CORRECTO.


================================================================================
COMENTARIOS:














================================================================================
DATOS DE ACELERACION:
---------+---------+---------+---------+---------+---------+---------+---------+
   CANAL-1   CANAL-2   CANAL-3   CANAL-4   CANAL-5   CANAL-6   CANAL-7   CANAL-8
      N00E        +V      N90W
---------+---------+---------+---------+---------+---------+---------+---------+
[...]
  -0.76729   2.77089  -1.79096
  -0.87040   2.79544  -1.77295
  -0.85403   2.91000  -1.60601
  -1.03979   2.89364  -1.67885
  -1.11671   2.89364  -1.67803
  -1.19609   2.99184  -1.49472
  -1.27220   3.01639  -1.65839
  -1.30002   2.94274  -1.66412
  -1.50624   3.02457  -1.63302
  -1.49806   3.08185  -1.51354
  -1.51606   2.98365  -1.54055
  -1.73619   3.04094  -1.61338
  -1.75092   3.09822  -1.44317
  -1.82293   3.03275  -1.62811
  -2.00706   3.01639  -1.64448
  -2.09707   3.10640  -1.33269
  -2.13472   3.12277  -1.41043
  -2.19364   3.00820  -1.46035
  -2.37121   3.02457  -1.23204
  -2.40149   3.08185  -1.30978
  -2.40477   3.00820  -1.45462
  -2.72964   2.95910  -1.27295
  -2.81884   3.00002  -1.16493
  -2.78447   3.00820  -1.30405
  -2.97269   2.92637  -1.25495
  -2.99969   2.91000  -0.99636
  -3.01279   2.91819  -1.03236
  -3.16418   2.85272  -1.08801
  -3.32457   2.83635  -0.77705
  -3.37040   2.82817  -0.69358
  -3.43668   2.72179  -0.79587
  -3.62817   2.70542  -0.57328
  -3.67645   2.77907  -0.46444
  -3.64536   2.75452  -0.59701
  -3.80984   2.69724  -0.54628
  -4.06270   2.70542  -0.25659
  -3.96778   2.68906  -0.18703
  -3.91131   2.63177  -0.21813
  -4.12244   2.59086  -0.02582
  -4.05943   2.63177  -0.03727
  -4.06270   2.58267  -0.00536
  -4.19855   2.52539   0.12394
  -4.16009   2.54994   0.33097
  -4.09380   2.49266   0.41854
  -4.05779   2.47629   0.24505
  -4.12653   2.57449   0.59284
  -4.04879   2.55812   0.57565
  -3.94405   2.46811   0.41035
  -4.08889   2.52539   0.87025
  -4.01360   2.54176   0.89399
  -3.85157   2.45174   0.76633
  -3.86058   2.52539   0.94063
  -3.74601   2.58267   1.03556
  -3.63390   2.49266   0.90626
  -3.60608   2.50084   0.93736
  -3.56516   2.57449   1.16240
  -3.46287   2.52539   1.24669
  -3.33439   2.45174   1.22705
  -3.35567   2.49266   1.39235
  -3.31066   2.50084   1.53228
  -3.11180   2.43537   1.30724
  -3.09053   2.44356   1.48564
  -3.10853   2.49266   1.61984
  -2.90886   2.44356   1.52083
  -2.83930   2.38627   1.71641
  -2.84421   2.42719   1.72786
  -2.65108   2.37809   1.82688
  -2.65927   2.26352   1.83752
  -2.69691   2.26352   1.92263
  -2.53324   2.22261   2.09529
  -2.49478   2.07531   1.88580
  -2.42850   2.05076   2.05765
  -2.28693   2.09986   2.28597
  -2.15190   1.98529   2.13457
  -2.02670   1.87891   2.19431
  -1.99642   1.95256   2.42017
  -1.87040   1.91164   2.44390
  -1.78120   1.75616   2.40790
  -1.76974   1.77253   2.59693
  -1.53488   1.75616   2.70822
  -1.34666   1.62523   2.60266
  -1.27547   1.57613   2.71232
  -1.09789   1.58431   2.86043
  -0.92195   1.48611   2.86698
  -0.84175   1.38791   2.91690
  -0.78856   1.38791   2.99791
  -0.60689   1.33063   3.10020
  -0.42522   1.21606   3.08793
  -0.34748   1.18333   3.26223
  -0.14536   1.15878   3.42590
   0.04450   1.07694   3.30724
   0.16152   1.06876   3.42999
   0.33337   1.11786   3.59202
   0.44139   1.04421   3.48973
   0.54041   0.99511   3.49055
   0.62797   1.01966   3.77696
   0.74581   0.90509   3.85225
   0.86937   0.83144   3.79497
   0.90865   0.92146   4.00119
   1.09442   0.90509   4.03065
   1.21880   0.79871   3.93736
   1.19507   0.77416   4.06911
   1.28509   0.80689   4.26960
   1.33910   0.74143   4.18367
   1.37428   0.73325   4.10511
   1.44221   0.82326   4.35389
   1.48230   0.81508   4.32688
   1.57723   0.79053   4.30315
   1.58623   0.79053   4.55929
   1.63042   0.72506   4.69186
   1.75317   0.66778   4.57729
   1.72371   0.70870   4.55520
   1.77936   0.70870   4.77778
   1.93730   0.65141   4.61821
   1.98312   0.66778   4.68204
   1.93075   0.69233   4.94636
   2.04941   0.62686   4.83507
   2.24335   0.52866   4.80070
   2.20407   0.59413   4.85143
   2.36937   0.65141   4.96600
   2.59523   0.52866   4.78597
   2.55677   0.52048   4.76796
   2.66970   0.55321   5.07402
   2.83091   0.41410   4.86534
   2.83419   0.36500   4.71477
   2.95939   0.40591   4.93163
   3.15661   0.33226   4.78024
   3.15088   0.23406   4.57075
   3.18361   0.28316   4.74178
   3.34728   0.28316   4.71804
   3.37510   0.08676   4.54620
   3.35219   0.05403   4.48564
   3.44630   0.15223   4.54865
   3.51995   0.03766   4.43490
   3.50194  -0.06054   4.18122
   3.57478   0.02948   4.35962
   3.63697  -0.03599   4.27287
   3.60424  -0.15055   4.04129
   3.61242  -0.12600   4.24587
   3.62797  -0.15055   4.18449
   3.63206  -0.29785   3.97664
   3.55759  -0.40423   3.96600
   3.52158  -0.36332   3.99464
   3.55677  -0.39605   3.86453
   3.50767  -0.50243   3.65258
   3.54368  -0.43697   3.77860
   3.63697  -0.46152   3.69268
   3.56741  -0.64155   3.37516
   3.43811  -0.65792   3.62312
   3.46266  -0.66610   3.72705
   3.44957  -0.83795   3.41363
   3.29900  -0.87068   3.40953
   3.32191  -0.82977   3.38335
   3.33828  -0.94433   3.07565
   3.12633  -1.02617   3.03474
   3.09196  -0.98525   3.26469
   3.18525  -1.05072   3.11248
   3.03386  -1.23075   2.91526
   2.95284  -1.23893   3.14194
   2.97576  -1.21438   3.11903
   2.80964  -1.36986   2.87516
   2.66234  -1.45988   2.98237
   2.68034  -1.45170   3.05438
   2.67789  -1.56626   2.78024
   2.50031  -1.67265   2.80233
   2.37592  -1.62355   3.05274
   2.40374  -1.68083   2.85307
   2.24253  -1.84450   2.73768
   2.00194  -1.86905   3.00528
   2.00604  -1.89360   2.93408
   1.97085  -2.04908   2.79742
   1.76954  -2.13910   2.92590
   1.79572  -2.09818   3.01183
   1.86856  -2.16365   2.87435
   1.67298  -2.24548   2.81543
   1.59687  -2.20456   3.06993
   1.66479  -2.29458   2.91608
   1.49785  -2.41733   2.81461
   1.35792  -2.35186   3.05683
   1.47658  -2.39278   2.95454
   1.43239  -2.45824   2.81870
   1.25317  -2.47461   3.01346
   1.34482  -2.49916   3.15667
   1.30391  -2.51553   2.96682
   1.06823  -2.55644   2.90953
   1.15252  -2.49916   3.12230
   1.19016  -2.56463   3.05356
   0.98067  -2.67101   2.83588
   0.91602  -2.52371   3.17713
   0.88329  -2.54826   3.22623
   0.77199  -2.65464   2.94718
   0.76545  -2.53189   3.10020
   0.80063  -2.49098   3.06256
   0.69834  -2.59736   2.90872
   0.48149  -2.63828   2.89399
   0.46430  -2.55644   3.10839
   0.54941  -2.58099   2.99710
   0.36692  -2.67101   2.68695
   0.30800  -2.60554   2.86043
   0.38083  -2.54826   2.81870
   0.18280  -2.59736   2.55274
   0.04368  -2.58099   2.56747
   0.13861  -2.54826   2.72214
   0.16970  -2.58099   2.46273
   0.00031  -2.60554   2.32770
  -0.03815  -2.57281   2.49873
   0.10751  -2.58099   2.29988
   0.04122  -2.59736   2.07320
   0.00767  -2.54826   2.10839
   0.13615  -2.54826   2.20086
   0.04777  -2.67101   1.88335
  -0.06189  -2.68738   1.86043
   0.05677  -2.58918   1.94881
   0.13615  -2.63009   1.49300
   0.04368  -2.64646   1.55438
   0.04041  -2.63009   1.70741
   0.15497  -2.72011   1.44881
   0.17625  -2.79376   1.33343
   0.16561  -2.75284   1.34161
   0.25972  -2.70374   1.14194
   0.32600  -2.75284   0.95536
   0.21471  -2.84286   1.02737
   0.34237  -2.90014   0.90872
   0.52813  -2.97379   0.76796
   0.36446  -3.05563   0.62557
   0.45857  -3.00653   0.51592
   0.63615  -2.94924   0.39399
   0.60587  -3.03926   0.03474
   0.66888  -3.06381   0.11248
   0.70489  -3.08836   0.09120
   0.76708  -3.19474  -0.25004
   0.83337  -3.18656  -0.23286
   0.90865  -3.12928  -0.37115
   1.08296  -3.14564  -0.68376
   1.04368  -3.18656  -0.78359
   1.00685  -3.21929  -0.77459
   1.22617  -3.21929  -0.96608
   1.23108  -3.23566  -1.17312
   1.23026  -3.24384  -1.13875
   1.42748  -3.20293  -1.33106
   1.38820  -3.20293  -1.66166
   1.35137  -3.18656  -1.62402
   1.47330  -3.18656  -1.59210
   1.53304  -3.23566  -1.87688
   1.53222  -3.16201  -1.86624
   1.59769  -3.09654  -1.83433
   1.73190  -3.10473  -2.17394
   1.66397  -3.05563  -2.25250
   1.63533  -3.00653  -2.15266
   1.75890  -3.04744  -2.23449
   1.74417  -3.06381  -2.44317
   1.78918  -2.97379  -2.50618
   1.91438  -2.88378  -2.47099
   2.02731  -2.90014  -2.67557
   2.10096  -2.88378  -2.73122
   2.14597  -2.80194  -2.66248
   2.27281  -2.81831  -2.81878
   2.32928  -2.85104  -2.94726
   2.37347  -2.77739  -2.94480
   2.62388  -2.71193  -2.97017
   2.80718  -2.67101  -3.28277
   2.71798  -2.62191  -3.30405
   2.87510  -2.62191  -3.12565
   3.10014  -2.69556  -3.49636
   3.03304  -2.67101  -3.52091
   3.24090  -2.51553  -3.44235
   3.44139  -2.47461  -3.86870
   3.44630  -2.46643  -4.03318
   3.60669  -2.34368  -3.98818
   3.77281  -2.32731  -4.08065
   3.90211  -2.37641  -4.22222
   3.91111  -2.27003  -4.22467
   4.04941  -2.16365  -4.32042
   4.24253  -2.16365  -4.56182
   4.18361  -2.07363  -4.64284
   4.35710  -1.93451  -4.68867
   4.53795  -1.95906  -4.76968
   4.50358  -1.91815  -4.86052
   4.60915  -1.75448  -4.88507
   4.72780  -1.68083  -4.93989
   4.83828  -1.61536  -5.10110
   4.87592  -1.46806  -5.14202
   4.90374  -1.38623  -5.11502
   5.01422  -1.44351  -5.19685
   5.05595  -1.36986  -5.30160
   5.15170  -1.17347  -5.24186
   5.29900  -1.06708  -5.31714
   5.32600  -1.00162  -5.46690
   5.30145  -0.87068  -5.31551
   5.41356  -0.78067  -5.33760
   5.45448  -0.78067  -5.52582
   5.41438  -0.64973  -5.44644
   5.57396  -0.46970  -5.40798
   5.64352  -0.43697  -5.64366
   5.54204  -0.31422  -5.72140
   5.55268  -0.19147  -5.58310
   5.61160  -0.19147  -5.71649
   5.61487  -0.10964  -5.79832
   5.63533   0.04585  -5.68948
   5.71880   0.16041  -5.87443
   5.79082   0.25043  -6.02746
   5.67625   0.37318  -5.95708
   5.62469   0.47956  -5.98654
   5.72617   0.47138  -6.11993
   5.57969   0.58595  -6.18703
   5.55677   0.80689  -6.18539
   5.68934   0.85599  -6.41371
   5.57150   0.90509  -6.57001
   5.55841   1.07694  -6.44153
   5.62142   1.15059  -6.55201
   5.61160   1.13423  -6.67475
   5.51422   1.26516  -6.63466
   5.46185   1.46156  -6.72876
   5.57559   1.51066  -6.91616
   5.38410   1.56794  -6.97181
   5.27281   1.76434  -6.85642
   5.41275   1.78071  -7.00454
   5.21226   1.78071  -7.10274
   5.07723   1.96892  -6.92598
   5.11406   2.05894  -7.09538
   5.00276   2.08349  -7.22713
   4.88656   2.18169  -7.05773
   4.77445   2.22261  -7.13547
   4.67952   2.18169  -7.24022
   4.55923   2.22261  -7.08474
   4.42175   2.36172  -7.06101
   4.43648   2.40264  -7.22140
   4.27936   2.41082  -7.20912
   3.98803   2.45174  -7.08965
   3.99294   2.40264  -7.13547
   3.87019   2.32899  -7.16657
   3.62797   2.32899  -7.07574
   3.62715   2.36991  -7.11993
   3.53550   2.36991  -7.24431
   3.36446   2.38627  -7.13466
   3.24417   2.36991  -7.05773
   3.13779   2.25534  -7.17475
   2.99785   2.18987  -7.10029
   2.81864   2.18169  -7.07001
   2.84728   2.18169  -7.13302
   2.77936   2.14077  -7.14857
   2.56168   2.12441  -7.13138
   2.56496   2.10804  -7.01436
   2.48476   1.98529  -7.07165
   2.34155   1.91982  -7.02091
   2.33255   1.96074  -6.87525
   2.33091   1.94437  -6.98490
   2.27199   1.91982  -7.01191
   2.15006   1.92801  -6.89243
   2.14843   1.85436  -6.81142
   2.15006   1.78071  -6.78441
   2.04613   1.84617  -6.60929
   2.05350   1.84617  -6.52664
   2.13124   1.82981  -6.62893
   2.08378   1.84617  -6.43253
   2.01831   1.84617  -6.27132
   2.07232   1.82162  -6.25168
   2.04286   1.77253  -6.09865
   2.01749   1.78889  -5.94562
   2.09523   1.80526  -5.87525
   2.05023   1.77253  -5.82369
   1.97167   1.81344  -5.59047
   1.98067   1.78071  -5.48081
   1.99131   1.70706  -5.42926
   1.93075   1.78071  -5.10110
   1.87347   1.82162  -4.93171
   1.92093   1.73979  -4.93826
   1.89474   1.73979  -4.81796
   1.79818   1.76434  -4.60601
   1.83991   1.68251  -4.46608
   1.76954   1.60068  -4.38425
   1.64515   1.62523  -4.13056
   1.72944   1.60068  -3.98245
   1.72371   1.47793  -4.04628
   1.61324   1.47793  -3.80978
   1.59196   1.45338  -3.52173
   1.61978   1.30608  -3.55937
   1.56414   1.18333  -3.37688
   1.44957   1.11786  -3.06019
   1.50358   1.07694  -3.07737
   1.51504   1.00329  -2.96035
   1.35792   0.95419  -2.62484
   1.38492   0.89691  -2.54546
   1.45530   0.70870  -2.52991
   1.37101   0.59413  -2.20994
   1.41438   0.57776  -2.02582
   1.49622   0.46320  -2.06182
   1.41275   0.35681  -1.77868
   1.35792   0.34045  -1.56673
   1.44548   0.23406  -1.60601
   1.47985   0.05403  -1.41043
   1.41356   0.02130  -1.08310
   1.52486  -0.01144  -0.93580
   1.60833  -0.11782  -0.83597
   1.46594  -0.19147  -0.56019
   1.53631  -0.28148  -0.36215
   1.61160  -0.39605  -0.29341
   1.49376  -0.47788  -0.05855
   1.59196  -0.45333   0.17222
   1.70898  -0.45333   0.25896
   1.73762  -0.54335   0.38662
   1.74826  -0.52698   0.65503
   1.69753  -0.56790   0.85225
   1.78018  -0.68247   0.89399
   1.83337  -0.70702   1.20495
   1.81782  -0.76430   1.50610
   1.93648  -0.82977   1.46845
   1.96921  -0.82977   1.67140
   1.89474  -0.83795   2.03228
   1.91602  -0.89523   2.05601
   1.98885  -0.95252   2.14030
   2.00685  -0.91978   2.46027
   2.02486  -0.95252   2.49219
   2.11569  -0.97707   2.51674
   2.09032  -0.90342   2.80479
   2.03795  -0.91978   2.91035
   2.14352  -1.01798   2.88498
   2.13779  -0.99343   3.04374
   2.07314  -0.92797   3.20331
   2.15906  -0.96888   3.18531
   2.16643  -0.93615   3.33016
   2.09360  -0.89523   3.48155
   2.14433  -0.95252   3.42999
   2.13615  -0.98525   3.49464
   2.08460  -0.91160   3.66158
   2.16970  -0.84613   3.76060
   2.15497  -0.87887   3.61821
   2.10587  -0.82977   3.69513
   2.14924  -0.75612   3.95863
   2.06250  -0.83795   3.77205
   2.02731  -0.82977   3.75651
   2.07068  -0.71520   3.93981
   2.02404  -0.71520   3.85143
   2.04041  -0.73157   3.80888
   1.96348  -0.61700   3.86453
   1.86856  -0.55972   3.92508
   1.91847  -0.64155   3.89726
   1.80473  -0.62518   3.88089
   1.72944  -0.47788   3.94881
   1.79163  -0.46970   3.82361
   1.72617  -0.49425   3.73932
   1.61897  -0.39605   3.85880
   1.53140  -0.38787   3.80724
   1.47985  -0.50243   3.76633
   1.35792  -0.48607   3.85061
   1.22371  -0.38787   3.77860
   1.25481  -0.37968   3.66158
   1.10014  -0.37968   3.68367
   0.89638  -0.33877   3.79988
   0.89392  -0.36332   3.74669
   0.67134  -0.40423   3.66894
   0.53386  -0.36332   3.82034
   0.58787  -0.33877   3.71232
   0.42666  -0.39605   3.54210
   0.29654  -0.36332   3.69595
   0.15579  -0.30603   3.66403
  -0.00051  -0.41242   3.53638
  -0.07252  -0.42060   3.58056
  -0.22146  -0.31422   3.64767
  -0.28202  -0.33058   3.53638
  -0.34585  -0.33877   3.41199
  -0.52015  -0.27330   3.56665
  -0.59953  -0.28148   3.49055
  -0.66827  -0.34695   3.28515
  -0.84257  -0.31422   3.32770
  -0.97023  -0.22420   3.32197
  -0.95387  -0.23239   3.14767
  -1.01851  -0.19965   3.05602
  -1.19446  -0.11782   3.23932
  -1.24437  -0.19965   3.11821
  -1.28283  -0.20784   2.95700
  -1.44486  -0.10145   3.13457
  -1.50133  -0.08509   2.97991
  -1.43832  -0.10964   2.80806
  -1.56107  -0.03599   2.91854
  -1.70100   0.03766   2.91363
  -1.64699  -0.03599   2.78678
