********************************************************************************
              CENTRO DE INSTRUMENTACION Y REGISTRO SISMICO  A.C.

    Anaxagoras 814, Col. Narvarte, Benito Juarez, C.P. 03020 Mexico, D.F.
           Tels. 5687 45 42/ 5687 45  82             Fax. 5669 25 12
********************************************************************************
ARCHIVO ESTANDAR DE ACELERACION:
VERSION DEL FORMATO                    : 2.0
NOMBRE DEL ARCHIVO                     : DM1220220919180509
FECHA Y HORA DE CREACION               : 19/SEP/22, 19:43
REF. CATALOGO ACELEROGRAMAS, SMIS 1996 : REGISTRO No.     /PAG.


================================================================================
DATOS DE LA ESTACION:
NOMBRE DE LA ESTACION                  : DEPORTIVO MOCTEZUMA
CLAVE DE LA ESTACION                   : DM12
LOCALIZACION DE LA ESTACION            : Del. Venustiano Carranza,              
                                       : Col. Moctezuma 2da. Sección,           
                                       : Calle Norte 25 esq. con Oriente 160.   
                                       :                                        
                                       : 
COORDENADAS DE LA ESTACION             : 19.4312 LAT. N
                                       : 99.0963 LONG. W
ALTITUD (msnm)                         : 2232
TIPO DE SUELO                          : Arcilloso, zona lago                
                                       :                           
                                       : 
INSTITUCION RESPONSABLE                : CIRES, A. C.
                                       : 

================================================================================
DATOS DEL ACELEROGRAFO:
MODELO DEL ACELEROGRAFO                : RAD_IO14
NUMERO DE SERIE DEL ACELEROGRAFO       : 
NUMERO DE CANALES                      : 3
ORIENTACION C1-C6 (rumbo;orientacion)  : /N00E/+V/N90W
ORIENTACION C7-C12 (rumbo;orientacion) : 
VEL. DE MUESTREO, C1-C6 (muestras/s)   : /100/100/100
VEL. DE MUESTREO, C7-C12 (muestras/s)  : 
ESC. COMPLETA DE SENSORES, C1-C6, (g)  : /2.0/2.0/2.0
ESC. COMPLETA DE SENSORES, C7-C12, (g) : 
FREC. NAT. DE SENSORES, C1-C6, (Hz)    : /30/30/32
FREC. NAT. DE SENSORES, C7-C12, (Hz)   : 
AMORTIGUAMIENTO DE SENSORES, C1-C6     : /0.725/0.709/0.733
AMORTIGUAMIENTO DE SENSORES, C7-C12    : 
INTERVALO DE MUESTREO, C1-C6, (s)      : /0.01/0.01/0.01
INTERVALO DE MUESTREO, C7-C12, (s)     : 
UMBRAL DE DISPARO, C1-C6, (Gal)        : / / /
UMBRAL DE DISPARO, C7-C12, (Gal)       : 
MEMORIA DE PREEVENTO (s)               : 60
TIEMPO DE POSEVENTO (s)                : 90


================================================================================
DATOS DEL SISMO:
FECHA DEL SISMO (GMT)                  : 19/SEP/22
HORA EPICENTRO (GMT)                   : 18:05:09.0
MAGNITUD(ES)                           : /Mc=7.7
COORDENADAS DEL EPICENTRO              : 18.22 LAT. N
                                       : 103.29 LONG. W
PROFUNDIDAD FOCAL (km)                 : 15
FUENTE DE LOS DATOS EPICENTRALES       : SSN
                                       : INSTITUTO DE GEOFISICA, UNAM

================================================================================
DATOS DE ESTE REGISTRO:
HORA DE LA PRIMERA MUESTRA (GMT)       : 18:04:26.928.00
EXACTITUD DEL TIEMPO (s)               : 
DURACION DEL REGISTRO (s), C1-C6       : /563.81/563.81/563.81
DURACION DEL REGISTRO (s), C7-C12      : 
NUM. TOTAL DE MUESTRAS, C1-C6          : /56381/56381/56381
NUM. TOTAL DE MUESTRAS, C7-C12         : 
ACEL. MAX. (Gal), C1-C6                : /20.79717/4.81836/22.9478
ACEL. MAX., C1-C6, EN LA MUESTRA       : /22763/22277/21723
ACEL. MAX. (Gal), C7-C12               : 
ACEL. MAX., C7-C12, EN LA MUESTRA      : 
UNIDADES DE LOS DATOS                  : Gal (cm/s/s)
FACTOR DE DECIMACION                   : 1
FORMATO DATOS (FORTRAN,10 campos/dato) : 3F10.5


================================================================================
CALIDAD DEL ACELEROGRAMA:
REGISTRO DIGITAL COMPLETO CON TIEMPO ABSOLUTO CORRECTO.


================================================================================
COMENTARIOS:














================================================================================
DATOS DE ACELERACION:
---------+---------+---------+---------+---------+---------+---------+---------+
   CANAL-1   CANAL-2   CANAL-3   CANAL-4   CANAL-5   CANAL-6   CANAL-7   CANAL-8
      N00E        +V      N90W
---------+---------+---------+---------+---------+---------+---------+---------+
[...]
  -0.08873   1.75356   3.82430
  -0.19633   1.70356   4.04260
  -0.35923   1.71496   3.96170
  -0.43033   1.81126   4.13800
  -0.59123   1.58986   4.18270
  -0.94243   1.63856   4.22100
  -1.15543   1.64156   4.38280
  -1.37213   1.74866   4.43450
  -1.62063   1.72266   4.44900
  -1.66693   1.69346   4.45740
  -1.90123   1.69746   4.46700
  -2.25383   1.61536   4.51610
  -2.46243   1.55556   4.59230
  -2.71023   1.47506   4.36810
  -3.12963   1.60886   4.31950
  -3.42893   1.53686   4.39870
  -3.64223   1.46316   4.29630
  -4.04013   1.34816   4.16020
  -4.31303   1.46856   4.08450
  -4.64963   1.47976   3.81230
  -4.70623   1.29456   3.53900
  -5.14843   1.24786   3.07610
  -5.42593   1.34856   2.88390
  -5.83693   1.20786   2.60660
  -5.92063   1.05536   2.19720
  -6.26483   1.00186   1.83850
  -6.62633   0.87206   1.38870
  -6.77803   0.78746   1.02020
  -7.14863   0.71916   0.45300
  -7.28093   0.65486  -0.20750
  -7.65523   0.68806  -0.66020
  -7.90223   0.49796  -1.20380
  -8.12753   0.41636  -1.76260
  -8.27723   0.27336  -2.22370
  -8.42053   0.17866  -2.85920
  -8.48833   0.23146  -3.40250
  -8.60903   0.10286  -4.12360
  -8.73103   0.08116  -4.78550
  -8.74883  -0.03394  -5.37840
  -8.76373  -0.14594  -6.08270
  -8.75633  -0.15574  -6.82530
  -8.62303  -0.04354  -7.26970
  -8.37803  -0.16744  -7.93840
  -8.56133  -0.25444  -8.58330
  -8.21053  -0.33484  -9.30320
  -8.03783  -0.33764  -9.96670
  -7.54213  -0.34204 -10.36230
  -7.42873  -0.50134 -10.92440
  -7.09713  -0.35284 -11.47640
  -6.73663  -0.45244 -12.22760
  -6.25783  -0.47484 -12.57950
  -5.86433  -0.46714 -13.05230
  -5.55633  -0.40284 -13.38780
  -4.94173  -0.47794 -13.82100
  -4.61203  -0.59244 -14.08270
  -4.09483  -0.55974 -14.45230
  -3.49183  -0.62874 -14.66040
  -3.12313  -0.67404 -14.81800
  -2.56943  -0.63034 -15.08200
  -1.97743  -0.77254 -15.21590
  -1.64293  -0.88844 -15.19630
  -1.03963  -0.76204 -15.24870
  -0.69663  -0.84894 -15.30130
  -0.12803  -0.93684 -15.41520
   0.36367  -0.93104 -15.46360
   0.72117  -0.82164 -15.29500
   1.16517  -1.05964 -15.20660
   1.61147  -1.03624 -15.17810
   2.05947  -0.98924 -15.26500
   2.31757  -1.00514 -15.13460
   2.64957  -0.94114 -15.01210
   3.30867  -1.07154 -14.96880
   3.47657  -1.19244 -14.81730
   3.76857  -1.17004 -14.89350
   4.09127  -1.34744 -14.60360
   4.31157  -1.38974 -14.55190
   4.48737  -1.58244 -14.30600
   4.63977  -1.85524 -14.30740
   4.87247  -1.82934 -14.07540
   4.82217  -1.89054 -13.71050
   4.87617  -1.84924 -13.45400
   4.80907  -1.95914 -13.24240
   4.81867  -1.98874 -12.93910
   4.70057  -2.10454 -12.48020
   4.60757  -2.09194 -12.26900
   4.39497  -2.02904 -11.71330
   4.28327  -2.13654 -11.21150
   4.03677  -2.06264 -10.81640
   3.81557  -1.98714 -10.25970
   3.48877  -1.92664  -9.85070
   3.24727  -1.79234  -9.31910
   3.09497  -1.71434  -8.67610
   2.72327  -1.78604  -8.15330
   2.44807  -1.76014  -7.40510
   2.05527  -1.54294  -6.78530
   1.80107  -1.53734  -6.34270
   1.54187  -1.43324  -5.76470
   1.45837  -1.16744  -5.08600
   0.97927  -1.17144  -4.48930
   0.69897  -1.13774  -4.05390
   0.50977  -0.94854  -3.56030
   0.15697  -0.89364  -2.96760
   0.11467  -0.64604  -2.39200
  -0.07753  -0.69534  -1.87080
  -0.09063  -0.55274  -1.66230
  -0.27113  -0.54294  -1.06890
  -0.56523  -0.53984  -0.65130
  -0.64263  -0.42364  -0.24990
  -0.82833  -0.14964   0.20820
  -0.81333  -0.12584   0.39620
  -0.82153  -0.16764   0.75860
  -0.87743  -0.07764   0.86540
  -0.88583  -0.09634   0.89910
  -1.02073   0.00446   1.21450
  -0.89303   0.05956   1.43870
  -0.86173   0.05916   1.35850
  -0.72893   0.07266   1.44900
  -0.98423  -0.01004   1.55050
  -0.95083  -0.10004   1.56260
  -0.76283  -0.08534   1.63700
  -0.75343  -0.28874   1.75690
  -0.83763  -0.15244   1.49460
  -0.92163  -0.28014   1.48170
  -0.81843   0.01896   1.52590
  -0.85003  -0.04584   1.48990
  -0.77243   0.02686   1.38870
  -0.96643   0.21156   1.40130
  -0.69553   0.20856   1.44600
  -0.56363   0.21276   1.46770
  -0.53343   0.32286   1.45880
  -0.47923   0.46036   1.38960
  -0.45023   0.50076   1.52800
  -0.46773   0.50106   1.30290
  -0.49703   0.49826   1.17900
  -0.42563   0.68436   1.06280
  -0.52833   0.60086   0.90660
  -0.51943   0.62566   0.84880
  -0.36793   0.79756   0.62900
  -0.45773   0.75636   0.58530
  -0.38803   0.65186   0.57970
  -0.32163   0.52486   0.43590
  -0.32003   0.59666   0.42210
  -0.32113   0.70816   0.30470
  -0.07893   0.69296   0.08470
   0.05577   0.83026   0.15700
   0.01527   0.86246  -0.03050
   0.19927   0.86206  -0.22410
   0.18017   0.75756  -0.28450
   0.21427   0.79216  -0.50980
   0.33627   0.69416  -0.53740
   0.40037   0.67496  -0.65010
   0.58857   0.69506  -0.73640
   0.65127   0.75616  -0.85070
   0.77287   0.76756  -0.82570
   1.15067   0.56156  -0.70250
   1.33957   0.47816  -0.78950
   1.70357   0.37716  -0.94450
   1.84697   0.37576  -1.01210
   2.03287   0.07476  -1.06490
   2.42397   0.00746  -1.21950
   2.52877   0.03016  -1.17620
   2.95477  -0.00494  -1.10070
   3.34517  -0.06314  -1.09160
   3.52267  -0.12534  -1.05250
   3.70217  -0.16204  -0.96650
   4.11557  -0.14914  -0.98780
   4.36807  -0.30564  -0.90710
   4.94517  -0.33714  -0.89630
   5.05197  -0.19944  -0.71260
   5.48127  -0.27754  -0.61530
   5.65287  -0.28834  -0.57810
   5.97717  -0.15034  -0.26110
   6.41467  -0.20464  -0.06790
   6.68937  -0.24994   0.20490
   6.88647  -0.40074   0.43380
   7.13707  -0.35584   0.59070
   7.38097  -0.22424   0.78030
   7.58527  -0.01104   1.05530
   7.80997  -0.06964   1.49510
   8.18647  -0.05824   1.94190
   8.46207  -0.08744   2.14690
   8.35387   0.15076   2.40340
   8.40857   0.33736   2.77870
   8.62197   0.09326   3.02670
   8.76227   0.35636   3.20910
   8.84417   0.24806   3.91800
   9.02137   0.44916   4.15210
   9.15157   0.30836   4.67390
   9.21757   0.32196   5.14110
   9.10277   0.39416   5.26990
   9.02997   0.46336   5.69610
   9.12797   0.48416   6.18690
   9.05527   0.39026   6.64610
   8.81557   0.45896   7.08240
   8.81207   0.49026   7.52690
   8.66247   0.25106   7.71650
   8.58737   0.36286   8.08190
   8.17147   0.38086   8.73470
   8.03677   0.33406   9.15210
   7.84647   0.24406   9.28300
   7.55167   0.20596   9.77240
   7.24937  -0.00704  10.15840
   7.02187   0.13306  10.61710
   6.66387   0.18606  11.13310
   6.20517  -0.02274  11.54530
   5.89067   0.03926  11.94350
   5.46467  -0.09234  12.31530
   5.06817  -0.18984  12.80280
   4.64727  -0.44584  13.23200
   4.17987  -0.42714  13.47380
   3.61897  -0.30444  13.87780
   3.24417  -0.35564  13.95920
   2.79997  -0.46554  14.37930
   2.31737  -0.48334  14.66640
   1.93787  -0.57024  15.05130
   1.34707  -0.58224  15.25540
   1.11587  -0.67244  15.57130
   0.71247  -0.68484  15.78970
   0.27017  -0.76594  16.06230
  -0.11633  -0.85274  16.18130
  -0.29383  -0.85574  16.43190
  -0.77263  -0.83914  16.63930
  -0.95693  -0.76944  16.88300
  -1.36813  -0.73584  16.88230
  -1.71863  -0.68084  17.08590
  -1.89123  -0.79124  17.17540
  -2.28423  -0.54054  17.17080
  -2.47943  -0.49264  17.25660
  -2.68123  -0.40494  17.13360
  -2.94523  -0.44754  17.47850
  -3.07193  -0.40424  17.45720
  -3.20423  -0.29534  17.35030
  -3.27023  -0.36074  17.50000
  -3.56873  -0.33034  17.32200
  -3.57363  -0.32544  17.18040
  -3.71603  -0.25794  17.11910
  -3.88233  -0.28664  17.02000
  -3.86403  -0.25464  16.80670
  -3.91223  -0.20134  16.64070
  -3.99363  -0.21344  16.29090
  -4.16243  -0.13604  16.14600
  -4.17413  -0.11734  16.03820
  -4.23723  -0.33904  15.67930
  -4.30133  -0.32314  15.64630
  -4.39993  -0.09824  15.23480
  -4.22183  -0.29834  14.89350
  -4.26783  -0.42814  14.72890
  -4.04483  -0.43114  14.32670
  -3.77893  -0.28244  14.05810
  -3.82523  -0.33744  13.55590
  -3.80583  -0.43284  13.23090
  -3.54233  -0.62244  12.87780
  -3.47223  -0.79164  12.44430
  -3.39743  -0.78464  12.02840
  -3.11733  -0.88564  11.53710
  -2.97423  -0.82844  11.34400
  -2.88533  -0.77204  10.90030
  -2.58793  -0.76434  10.18970
  -2.35113  -0.85154   9.86870
  -2.16663  -0.82374   9.46440
  -1.82923  -0.79664   9.10180
  -1.64313  -0.74544   8.72580
  -1.47503  -0.74914   8.22360
  -1.20983  -0.86814   7.71530
  -1.00113  -0.76594   6.99730
  -1.05933  -0.76384   6.56290
  -0.82993  -0.77064   5.92920
  -0.60903  -0.85714   5.45090
  -0.50753  -0.64274   4.85820
  -0.40133  -0.64974   4.48500
  -0.40723  -0.66054   3.78640
  -0.09533  -0.60484   3.25490
  -0.00993  -0.73254   2.82150
  -0.04433  -0.69884   2.28770
   0.04237  -0.83494   1.63160
   0.16237  -0.84194   0.86640
   0.20117  -0.62964   0.29700
   0.28207  -0.78794  -0.36680
   0.28067  -0.73024  -0.91810
   0.46417  -0.90744  -1.47430
   0.48497  -0.86764  -2.12450
   0.41837  -0.81414  -2.71490
   0.44367  -0.98764  -3.31600
   0.30657  -0.79544  -3.88140
   0.11887  -0.87844  -4.50330
   0.03867  -1.01754  -5.23630
   0.04267  -0.94534  -5.67660
  -0.05063  -0.75074  -6.33990
  -0.07213  -0.81744  -6.74550
  -0.27393  -0.81274  -7.33310
  -0.49093  -0.82914  -7.78640
  -0.38613  -0.91234  -8.41140
  -0.61323  -0.82674  -8.91740
  -0.83623  -0.77954  -9.35810
  -0.96603  -0.76454  -9.80960
  -0.99103  -0.66734 -10.55610
  -1.25053  -0.68484 -10.92140
  -1.44533  -0.55714 -11.51850
  -1.60713  -0.50944 -12.06370
  -1.59733  -0.64364 -12.43880
  -1.79813  -0.35684 -12.76960
  -1.82663  -0.38184 -13.37540
  -2.02753  -0.25394 -13.93650
  -2.14883  -0.27774 -14.44460
  -2.35693  -0.18634 -14.89190
  -2.36953  -0.14404 -15.35970
  -2.47083  -0.04494 -15.87930
  -2.62493  -0.01524 -16.33170
  -2.71393   0.13976 -16.79880
  -2.64683   0.33506 -17.14110
  -2.70253   0.36336 -17.61760
  -2.80283   0.51716 -18.06560
  -2.68213   0.62166 -18.35930
  -3.00883   0.81806 -18.75750
  -3.18533   0.91766 -19.19980
  -3.20213   0.96236 -19.40720
  -3.19143   1.10096 -19.90380
  -3.20563   1.13976 -20.22720
  -3.32023   1.23826 -20.44020
  -3.30763   1.47016 -20.64660
  -3.34993   1.46616 -20.87040
  -3.17523   1.66216 -21.08500
  -3.22413   1.63526 -21.32370
  -3.22183   1.59386 -21.58470
  -3.21313   1.68196 -21.74440
  -3.17013   1.80566 -22.05420
  -3.28983   1.89666 -22.10020
  -3.21053   1.93706 -22.25690
  -3.12123   1.90086 -22.30410
  -3.32843   1.85476 -22.51590
  -3.51963   1.85456 -22.58750
  -3.53673   1.79586 -22.83130
  -3.58913   1.75866 -22.90710
  -3.67233   1.57216 -22.94780
  -3.67773   1.73086 -22.84210
  -3.82013   1.46646 -22.86410
  -3.78203   1.37596 -22.89310
  -3.82643   1.22136 -22.83060
  -4.00533   1.04766 -22.68010
  -4.12733   0.78086 -22.77550
  -4.19253   0.59966 -22.63170
  -4.20403   0.47116 -22.27160
  -4.29103   0.42736 -22.16590
  -4.34803   0.34086 -21.91430
  -4.36183   0.23306 -21.43740
  -4.33173   0.11896 -21.04810
  -4.04413  -0.06594 -20.68680
  -4.18063  -0.25044 -20.18090
  -4.16543  -0.33484 -19.72350
  -3.96603  -0.47974 -19.41800
  -4.09083  -0.69044 -18.83980
  -3.83623  -0.44844 -18.18060
  -3.67583  -0.73024 -17.76240
  -3.58303  -0.83074 -17.03830
  -3.35293  -0.84004 -16.50520
  -3.11843  -0.92054 -15.89350
  -3.05533  -1.09934 -15.21010
  -2.93773  -1.08414 -14.66020
  -2.73833  -1.19244 -13.94640
  -2.64613  -1.23734 -13.30710
  -2.32283  -1.19014 -12.45440
  -2.09203  -1.39114 -12.03850
  -1.78853  -1.29854 -11.41310
  -1.52693  -1.22774 -10.71820
  -1.30763  -1.06544 -10.23650
  -0.88133  -1.12204  -9.68890
  -0.59173  -0.92634  -8.98680
  -0.53093  -0.91934  -8.15840
  -0.20733  -0.88264  -7.62890
  -0.00343  -0.79984  -7.20010
   0.68067  -0.86674  -6.67750
   0.83497  -0.77974  -5.94030
   1.28787  -0.74474  -5.49750
   1.72907  -0.54264  -5.07960
   2.20137  -0.35124  -4.45770
   2.53197  -0.21394  -3.94820
   2.85677  -0.07434  -3.38660
   3.21517   0.17136  -3.08480
   3.45177   0.20316  -2.59240
   3.74247   0.30906  -2.15590
   4.00127   0.39816  -1.80210
   4.39217   0.45126  -1.36230
   4.63227   0.55036  -0.97610
   5.01767   0.75936  -0.56690
   5.08587   0.91516  -0.26670
   5.37817   1.09236   0.03700
   5.53087   1.30326   0.56240
   5.63347   1.43576   0.73380
   5.91567   1.63526   0.88930
   6.13197   1.82186   1.42490
   6.15557   1.98406   1.58270
   6.43427   2.05886   1.91400
   6.54887   2.27476   2.39850
   6.70667   2.23706   2.61270
   6.63257   2.55056   3.01930
   6.47987   2.60606   3.16210
   6.60287   2.67456   3.47400
   6.84207   2.70796   3.75600
   6.81487   2.66326   4.14130
   6.87987   2.75896   4.54670
   6.83267   2.90316   4.69610
   6.83427   2.66826   5.08050
   6.78267   2.59576   5.52900
   6.70717   2.49356   5.72440
   6.72517   2.46596   6.01110
   6.85397   2.40326   6.26800
   6.59517   2.48586   6.60030
   6.54677   2.45166   6.77350
   6.37937   2.36986   6.84620
   6.07167   2.26726   7.08220
   5.82197   2.20646   7.17150
   5.62387   2.06336   7.51520
   5.45107   1.91046   7.66900
   5.17477   1.93736   7.96030
   4.79547   1.88306   7.94730
   4.56897   1.75986   8.00010
   4.45837   1.59806   8.21870
   4.20867   1.44146   8.52830
   3.64587   1.28526   8.61340
   3.28607   1.01166   8.57900
   3.09287   0.90926   8.68680
   2.63227   0.73696   8.82120
   2.13007   0.74676   9.03000
   1.72487   0.68716   9.08150
   1.39357   0.53026   9.39920
   1.13777   0.27616   9.72140
   0.55867   0.02826   9.65080
   0.11277  -0.13214   9.80490
  -0.26713  -0.35074   9.90960
  -0.76023  -0.55294  10.03380
  -1.24473  -0.68484  10.17940
  -1.63373  -0.90344  10.25940
  -2.09813  -1.07504  10.28720
  -2.40113  -1.25764  10.31320
  -2.79463  -1.43934  10.56030
  -3.27163  -1.71124  10.53480
  -3.62393  -1.83514  10.77910
  -3.75933  -2.08654  10.91310
  -4.13903  -2.09284  11.00380
  -4.43873  -2.18284  11.03820
  -4.80543  -2.34064  11.22380
  -5.12313  -2.56914  11.17800
  -5.31693  -2.76224  11.05270
  -5.68053  -2.86234  11.10880
  -5.91803  -2.90044  11.22340
  -6.16473  -2.80874  11.60100
  -6.21153  -2.95274  11.36200
  -6.44413  -3.04114  11.29380
  -6.54303  -3.17024  11.31600
  -6.80543  -3.15994  11.40110
  -6.88603  -3.01494  11.73960
  -6.76793  -3.03504  11.62390
  -6.95013  -3.01404  11.74730
  -7.00953  -2.96844  11.78430
  -6.80353  -3.01984  11.85140
  -7.13883  -3.05374  11.93420
  -7.19533  -2.98484  12.08170
  -7.17523  -2.82464  12.23740
  -7.03643  -2.65864  12.35380
  -7.04553  -2.49614  12.38470
  -7.16473  -2.56724  12.39060
  -7.41843  -2.35684  12.71020
  -7.30293  -2.17534  12.79640
  -7.28193  -2.10454  12.75270
  -7.28753  -1.97644  13.03280
  -7.19603  -1.71474  13.20050
  -7.22923  -1.54314  13.41020
  -7.21153  -1.47204  13.52080
  -7.22693  -1.47514  13.55420
  -7.10933  -1.27244  13.60430
  -7.10373  -0.90694  13.69430
  -6.98493  -0.88734  13.84600
  -7.02443  -0.86954  14.03630
  -7.00063  -0.64044  14.12100
  -6.98593  -0.69234  14.25170
  -6.63613  -0.47764  14.32490
  -6.51823  -0.36804  14.39360
