********************************************************************************
              CENTRO DE INSTRUMENTACION Y REGISTRO SISMICO  A.C.

    Anaxagoras 814, Col. Narvarte, Benito Juarez, C.P. 03020 Mexico, D.F.
           Tels. 5687 45 42/ 5687 45  82             Fax. 5669 25 12
********************************************************************************
ARCHIVO ESTANDAR DE ACELERACION:
VERSION DEL FORMATO                    : 2.0
NOMBRE DEL ARCHIVO                     : DR1620220919180509
FECHA Y HORA DE CREACION               : 19/SEP/22, 19:43
REF. CATALOGO ACELEROGRAMAS, SMIS 1996 : REGISTRO No.     /PAG.


================================================================================
DATOS DE LA ESTACION:
NOMBRE DE LA ESTACION                  : DEPORTIVO REYNOSA
CLAVE DE LA ESTACION                   : DR16
LOCALIZACION DE LA ESTACION            : Del. Azcapotzalco, Col. Nueva España,  
                                       : Entre calle San Pablo y Eje 5 Norte.   
                                       :                                        
                                       :                                        
                                       : 
COORDENADAS DE LA ESTACION             : 19.5005 LAT. N
                                       : 99.1829 LONG. W
ALTITUD (msnm)                         : 2233
TIPO DE SUELO                          : Transición                          
                                       :                           
                                       : 
INSTITUCION RESPONSABLE                : CIRES, A. C.
                                       : 

================================================================================
DATOS DEL ACELEROGRAFO:
MODELO DEL ACELEROGRAFO                : RAD_IO14
NUMERO DE SERIE DEL ACELEROGRAFO       : 
NUMERO DE CANALES                      : 3
ORIENTACION C1-C6 (rumbo;orientacion)  : /N00E/+V/N90W
ORIENTACION C7-C12 (rumbo;orientacion) : 
VEL. DE MUESTREO, C1-C6 (muestras/s)   : /100/100/100
VEL. DE MUESTREO, C7-C12 (muestras/s)  : 
ESC. COMPLETA DE SENSORES, C1-C6, (g)  : /2.0/2.0/2.0
ESC. COMPLETA DE SENSORES, C7-C12, (g) : 
FREC. NAT. DE SENSORES, C1-C6, (Hz)    : /30/30/30
FREC. NAT. DE SENSORES, C7-C12, (Hz)   : 
AMORTIGUAMIENTO DE SENSORES, C1-C6     : /0.720/0.774/0.740
AMORTIGUAMIENTO DE SENSORES, C7-C12    : 
INTERVALO DE MUESTREO, C1-C6, (s)      : /0.01/0.01/0.01
INTERVALO DE MUESTREO, C7-C12, (s)     : 
UMBRAL DE DISPARO, C1-C6, (Gal)        : / / /
UMBRAL DE DISPARO, C7-C12, (Gal)       : 
MEMORIA DE PREEVENTO (s)               : 60
TIEMPO DE POSEVENTO (s)                : 90


================================================================================
DATOS DEL SISMO:
FECHA DEL SISMO (GMT)                  : 19/SEP/22
HORA EPICENTRO (GMT)                   : 18:05:09.0
MAGNITUD(ES)                           : /Mc=7.7
COORDENADAS DEL EPICENTRO              : 18.22 LAT. N
                                       : 103.29 LONG. W
PROFUNDIDAD FOCAL (km)                 : 15
FUENTE DE LOS DATOS EPICENTRALES       : SSN
                                       : INSTITUTO DE GEOFISICA, UNAM

================================================================================
DATOS DE ESTE REGISTRO:
HORA DE LA PRIMERA MUESTRA (GMT)       : 18:04:26.929.00
EXACTITUD DEL TIEMPO (s)               : 
DURACION DEL REGISTRO (s), C1-C6       : /533.01/533.01/533.01
DURACION DEL REGISTRO (s), C7-C12      : 
NUM. TOTAL DE MUESTRAS, C1-C6          : /53301/53301/53301
NUM. TOTAL DE MUESTRAS, C7-C12         : 
ACEL. MAX. (Gal), C1-C6                : /9.86095/2.7825/10.74566
ACEL. MAX., C1-C6, EN LA MUESTRA       : /19073/18962/18439
ACEL. MAX. (Gal), C7-C12               : 
ACEL. MAX., C7-C12, EN LA MUESTRA      : 
UNIDADES DE LOS DATOS                  : Gal (cm/s/s)
FACTOR DE DECIMACION                   : 1
FORMATO DATOS (FORTRAN,10 campos/dato) : 3F10.5


================================================================================
CALIDAD DEL ACELEROGRAMA:
REGISTRO DIGITAL COMPLETO CON TIEMPO ABSOLUTO CORRECTO.


================================================================================
COMENTARIOS:














================================================================================
DATOS DE ACELERACION:
---------+---------+---------+---------+---------+---------+---------+---------+
   CANAL-1   CANAL-2   CANAL-3   CANAL-4   CANAL-5   CANAL-6   CANAL-7   CANAL-8
      N00E        +V      N90W
---------+---------+---------+---------+---------+---------+---------+---------+
[...]
  -1.11885  -0.15660  -2.04216
  -0.83545  -0.07100  -1.86896
  -0.67065  -0.22950  -1.67746
  -0.30195  -0.10840  -1.39336
   0.08315  -0.06820  -1.24226
   0.38405  -0.01630  -1.19926
   0.65295   0.08430  -0.79506
   0.93935   0.20540  -0.61146
   1.39085   0.03350  -0.18036
   1.53555   0.09480   0.37194
   1.92765   0.22620   0.74014
   2.26595   0.16540   1.30014
   2.58935   0.18320   1.74714
   2.71675   0.28110   2.01794
   2.93115   0.12310   2.54984
   3.20725  -0.04250   2.92514
   3.35485  -0.05090   3.41094
   3.65645  -0.05250   3.77804
   3.80235  -0.11260   4.10354
   3.73735  -0.19070   4.64434
   3.92975  -0.25150   4.83184
   4.11095  -0.47620   5.17224
   3.95225  -0.43810   5.23184
   4.02425  -0.40160   5.40304
   4.05415  -0.36250   5.58774
   3.91385  -0.30130   5.64544
   3.81195  -0.29920   5.60734
   3.73615  -0.43900   5.58654
   3.53865  -0.39570   5.43344
   3.47505  -0.36560   5.16124
   3.09885  -0.41280   4.92834
   2.97115  -0.44600   4.65804
   2.65365  -0.46920   4.35114
   2.25265  -0.27670   4.01464
   2.11585  -0.04970   3.71074
   1.84445   0.05530   3.06814
   1.41355   0.01810   2.70814
   1.20545   0.21820   2.25524
   0.89305   0.23270   1.56834
   0.82365   0.15670   1.20614
   0.51105   0.39640   0.50354
   0.29595   0.33160   0.10514
   0.00015   0.34890  -0.57506
  -0.11485   0.35060  -0.87756
  -0.29865   0.68590  -1.26756
  -0.28375   0.75650  -1.78876
  -0.36905   0.86260  -2.14106
  -0.47285   0.92950  -2.46416
  -0.39245   0.92780  -2.90256
  -0.21335   0.92410  -3.21216
  -0.06925   0.93560  -3.37516
  -0.18035   0.92620  -3.66016
   0.19565   1.03630  -3.70806
   0.22975   1.11490  -4.05526
   0.34805   1.14460  -4.00946
   0.55735   1.08680  -3.95986
   0.73615   0.75900  -3.90376
   0.75185   0.86430  -3.91126
   1.03545   0.65310  -3.81466
   1.35815   0.69640  -3.57196
   1.32585   0.47710  -3.39196
   1.58415   0.42000  -2.97526
   1.52505   0.46960  -2.70666
   1.63165   0.47330  -2.36176
   1.51245   0.40060  -2.00876
   1.63585   0.46330  -1.73376
   1.62095   0.47170  -1.41086
   1.57625   0.28980  -0.80786
   1.42215   0.27830  -0.56546
   1.29215   0.28110   0.06114
   1.26225   0.29630   0.41614
   0.96695   0.25640   0.72594
   0.70325   0.27950   1.11194
   0.46565   0.05460   1.60714
   0.18225   0.16520   1.70344
  -0.07605   0.24260   2.13744
  -0.43825   0.06160   2.31204
  -0.77025   0.08680   2.50334
  -0.96785   0.30900   2.81174
  -1.33985   0.35500   2.65084
  -1.80295   0.38940   2.74604
  -2.08005   0.47010   2.73614
  -2.32465   0.31850   2.57274
  -2.63515   0.26760   2.61084
  -2.98185   0.33720   2.50234
  -3.16325   0.16820   2.20144
  -3.38425   0.18830   1.85634
  -3.69055   0.41390   1.59124
  -3.85485   0.36160   1.17364
  -4.03865   0.59140   0.73594
  -4.19575   0.44900   0.19094
  -4.47375   0.45860  -0.10316
  -4.66855   0.41420  -0.71156
  -4.79225   0.38000  -1.24186
  -4.79785   0.37020  -1.78616
  -4.75295   0.35810  -2.36276
  -4.81395   0.40010  -3.04266
  -4.78985   0.26430  -3.61826
  -4.69335   0.28460  -4.31666
  -4.57505   0.21360  -4.81096
  -4.36465   0.15110  -5.27106
  -4.19675   0.11680  -5.54256
  -4.26565  -0.10390  -5.91776
  -4.14785  -0.15910  -6.20376
  -3.90895  -0.33100  -6.61566
  -3.92665  -0.46660  -6.63956
  -3.72795  -0.55050  -6.98346
  -3.44315  -0.58470  -7.22056
  -3.28045  -0.81500  -7.29746
  -3.12725  -0.79250  -7.39286
  -3.11165  -1.02840  -7.15836
  -2.93835  -1.10930  -7.13546
  -2.70715  -1.12050  -7.03236
  -2.49275  -0.97210  -6.76936
  -2.49345  -1.11240  -6.52896
  -2.30425  -1.15380  -6.25096
  -2.08195  -1.20210  -5.82306
  -1.99405  -1.19770  -5.45436
  -1.76135  -1.30270  -5.08126
  -1.66415  -1.49770  -4.48776
  -1.45115  -1.39620  -4.21266
  -1.18805  -1.47030  -3.78496
  -0.94915  -1.30990  -3.34336
  -0.72485  -1.43460  -2.87356
  -0.58065  -1.29920  -2.34356
  -0.28795  -1.31480  -1.94846
  -0.04005  -1.41330  -1.37066
   0.39555  -1.29890  -1.05826
   0.56385  -1.31860  -0.66226
   0.65435  -1.29030  -0.21446
   1.00105  -1.27020   0.16734
   1.24405  -1.40210   0.57224
   1.49865  -1.35650   0.95554
   1.67935  -1.28300   1.35394
   1.81825  -1.43550   1.31224
   1.89095  -1.38620   1.39974
   2.01325  -1.40530   1.46774
   2.10395  -1.36580   1.36604
   2.23585  -1.24610   1.35814
   2.21125  -1.16050   1.21194
   2.34875  -1.10960   0.78064
   2.40885  -0.84980   0.72304
   2.30475  -0.75460   0.38314
   2.30945  -0.74510   0.05554
   2.29355  -0.77970  -0.26036
   2.16705  -0.88280  -0.79506
   2.00975  -0.77190  -1.14486
   2.04435  -0.87810  -1.62226
   2.06165  -0.75280  -2.03776
   1.93395  -0.96040  -2.61056
   1.77755  -0.81730  -2.98796
   1.76325  -0.60080  -3.24536
   1.72545  -0.55220  -3.73636
   1.77035  -0.65640  -4.06276
   1.39135  -0.64640  -4.26966
   1.35365  -0.36440  -4.50906
   1.38105  -0.52340  -4.66546
   1.16775  -0.39340  -4.86306
   0.99055  -0.16890  -4.94236
   1.10305  -0.22860  -5.10766
   0.96275  -0.16920  -5.16746
   0.93075  -0.18040  -5.04706
   0.75535   0.04360  -4.82286
   0.85865   0.01180  -4.67886
   0.91785   0.17240  -4.69426
   0.91945   0.01130  -4.33346
   0.95715   0.11610  -3.93036
   1.08925   0.06460  -3.59886
   1.25385   0.10650  -3.19106
   1.35955   0.14550  -2.58386
   1.47645  -0.03150  -2.22386
   1.55635  -0.00690  -1.62226
   1.74295   0.02000  -1.24276
   1.77965   0.05500  -0.62646
   2.08805   0.06650  -0.01336
   2.18365   0.21170   0.36024
   2.30785   0.28810   0.76654
   2.58065   0.38730   1.25754
   2.63465   0.51330   1.82904
   2.68495   0.60750   2.29404
   2.88795   0.73870   2.75604
   2.82225   0.69290   3.09484
   2.92155   0.78360   3.42104
   3.01445   0.77590   3.93324
   2.93375   0.77070   4.21574
   2.84695   0.80700   4.33314
   2.96785   0.73430   4.62234
   2.97745   0.73590   4.65174
   2.78105   0.79080   4.75184
   2.51265   0.78200   4.71984
   2.43335   0.93720   4.75484
   2.18955   0.90890   4.72944
   2.05295   0.92410   4.65274
   1.78085   0.82100   4.47614
   1.30855   0.88300   4.31934
   1.11895   0.80840   4.06864
   0.70605   0.59300   3.72374
   0.30685   0.69610   3.44014
   0.13385   0.78380   2.99364
  -0.16565   0.88690   2.64754
  -0.57435   0.63490   2.08434
  -0.85725   0.56830   1.84774
  -1.09315   0.85770   1.40934
  -1.41485   0.85190   0.82274
  -1.61925   1.05200   0.53184
  -1.79855   1.01440   0.39204
  -1.94255   0.86430   0.22954
  -2.05035   1.18810  -0.09526
  -2.16025   1.28670  -0.32156
  -2.22735   1.39730  -0.40436
  -2.19115   1.47610  -0.32696
  -2.19155   1.59540  -0.41626
  -2.21145   1.43900  -0.43756
  -1.92415   1.31410  -0.24536
  -1.90755   1.42330   0.12334
  -1.74875   1.31780   0.28444
  -1.60495   1.15250   0.52524
  -1.29845   1.07120   0.73404
  -1.02345   1.03450   1.32284
  -0.82775   0.82610   1.75704
  -0.64935   0.83340   2.27234
  -0.20725   0.73310   2.89984
   0.20335   0.79670   3.29594
   0.51215   0.89320   3.87764
   0.81215   0.73120   4.45094
   1.33775   0.45880   4.95714
   1.56805   0.37680   5.48644
   1.99805   0.22060   6.01394
   2.24795   0.06040   6.32954
   2.52085   0.05920   6.76864
   2.77615  -0.08830   7.09624
   3.03055  -0.12030   7.40484
   3.13855  -0.06580   7.71024
   3.19675  -0.38830   7.86454
   3.35505  -0.31810   8.00814
   3.44435  -0.35480   8.07824
   3.32375  -0.18300   8.23774
   3.26905  -0.23840   8.22344
   3.18115  -0.36320   8.32094
   2.92065  -0.13480   8.27834
   2.85235   0.00730   8.17484
   2.60365  -0.13340   8.09604
   2.18785  -0.17270   7.92234
   1.83435  -0.12920   7.56904
   1.50635  -0.12990   7.45234
   1.07615  -0.12360   7.15654
   0.81825   0.03310   6.74744
   0.33825   0.06980   6.57434
   0.06045   0.02070   5.96604
  -0.27835  -0.21850   5.64594
  -0.48225  -0.04550   5.19184
  -0.98535  -0.10750   4.50934
  -1.25895  -0.22670   3.99174
  -1.61245  -0.17390   3.36794
  -1.80675  -0.11870   2.78784
  -2.19185  -0.27210   2.27394
  -2.22755  -0.29120   1.74674
  -2.37165  -0.40040   0.94804
  -2.70035  -0.28750   0.37194
  -3.01575  -0.27420  -0.20796
  -2.98205  -0.11770  -0.84716
  -3.06205  -0.18670  -1.58316
  -3.14715  -0.23460  -2.11256
  -3.22735  -0.05910  -2.61336
  -3.28865  -0.00430  -3.04776
  -3.27225   0.00360  -3.63486
  -3.47495   0.08750  -4.22216
  -3.36245   0.20190  -4.48426
  -3.33845   0.24280  -4.87426
  -3.28465   0.23160  -5.06436
  -3.35035   0.17590  -5.39846
  -3.23015   0.32880  -5.66686
  -3.19155   0.41000  -5.96426
  -3.12635   0.39060  -6.09216
  -3.03425   0.59980  -6.27906
  -3.14015   0.70640  -6.34936
  -3.21985   0.82960  -6.28766
  -3.23485   0.75740  -6.22596
  -3.14205   0.90630  -6.31666
  -3.05595   1.00550  -6.03636
  -3.11095   1.02250  -5.97976
  -3.23835   1.20370  -5.70756
  -3.32045   1.04150  -5.44456
  -3.22435   0.84770  -5.12446
  -3.41375   0.78730  -4.84176
  -3.37695   0.52990  -4.50256
  -3.39825   0.37750  -4.01836
  -3.32955   0.16910  -3.66666
  -3.21875   0.04620  -2.96596
  -3.11115  -0.10300  -2.62716
  -3.18265  -0.22060  -1.94256
  -2.99145  -0.06770  -1.32786
  -2.88135  -0.14560  -0.85466
  -2.75785  -0.11870  -0.22546
  -2.76205  -0.03260   0.30504
  -2.62885   0.24560   0.92554
  -2.43525   0.23270   1.40444
  -2.28935   0.38380   1.86434
  -2.14225   0.40620   2.41614
  -2.14485   0.47570   2.70694
  -1.88385   0.56470   3.37474
  -1.76275   0.70290   3.71514
  -1.51775   0.84250   3.93284
  -1.45085   0.48850   4.11944
  -1.33355   0.52830   4.34474
  -1.27975   0.55380   4.22884
  -1.22315   0.57180   4.28114
  -1.26715   0.51280   4.19724
  -1.33115   0.51680   3.80374
  -1.04665   0.60920   3.61994
  -1.00315   0.60170   3.30974
  -1.07705   0.70500   2.80164
  -0.89905   0.72420   2.15964
  -0.94565   0.86310   1.54704
  -0.72485   0.91800   0.94614
  -0.72725   1.05360   0.26714
  -0.83405   0.83270  -0.36276
  -0.65035   1.10650  -1.20976
  -0.71785   1.08590  -1.88906
  -0.68495   0.77660  -2.71526
  -0.58065   0.88860  -3.70246
  -0.68215   0.74760  -4.50726
  -0.60545   0.73990  -5.25496
  -0.48035   0.80630  -5.93976
  -0.46275   0.69450  -6.71176
  -0.53625   0.66080  -7.29986
  -0.34705   0.54370  -8.03326
  -0.39455   0.56100  -8.69056
  -0.32625   0.48010  -9.07026
  -0.28065   0.52150  -9.55886
  -0.25145   0.48620  -9.97036
  -0.04525   0.51940 -10.35596
  -0.14205   0.46470 -10.61106
   0.06285   0.53320 -10.74566
  -0.02115   0.47710 -10.69196
  -0.00735   0.38660 -10.66716
   0.11375   0.29120 -10.48216
   0.14375   0.24860 -10.07306
   0.29385   0.19530  -9.69376
   0.22675   0.11770  -9.32676
   0.29985   0.12450  -8.84696
   0.42455  -0.09180  -8.35356
   0.58955  -0.03330  -7.57316
   0.60855  -0.13760  -6.89156
   0.80885  -0.11800  -6.25936
   0.87555  -0.03470  -5.44946
   0.85265  -0.18250  -4.68166
   0.91555  -0.09340  -3.83756
   0.92955  -0.37210  -3.23856
   1.13415  -0.36280  -2.37156
   0.99875  -0.42080  -1.52736
   0.99245  -0.57720  -0.88716
   0.92625  -0.51220  -0.13546
   1.10885  -0.70580   0.58024
   1.10275  -0.71650   1.21084
   1.15935  -0.95780   1.96364
   1.27395  -0.88910   2.50724
   1.29055  -0.98420   2.97674
   1.33825  -1.11050   3.27414
   1.44275  -1.25340   3.79934
   1.44765  -1.34990   4.09184
   1.53485  -1.30250   4.32934
   1.63985  -1.64170   4.55524
   1.77455  -1.48790   4.88374
   1.78315  -1.43200   5.03894
   1.89395  -1.57410   5.17644
   1.91995  -1.61950   5.11074
   2.06495  -1.44250   5.05014
   2.07965  -1.45020   4.81124
   2.05465  -1.37890   4.73314
   2.09745  -1.42820   4.50774
   2.19135  -1.36910   4.30364
   2.17265  -1.39060   4.17594
   2.26015  -1.42330   3.71514
   2.29965  -1.49910   3.50634
   2.55565  -1.58560   3.00904
   2.55265  -1.62280   2.74924
   2.55545  -1.63560   2.41894
   2.64875  -1.64710   2.02754
   2.85615  -1.60940   1.61644
   3.06745  -1.38690   1.34364
   3.18045  -1.52340   1.02824
   3.20055  -1.45160   0.56484
   3.46685  -1.58400   0.49204
   3.74715  -1.60450   0.13104
   3.80635  -1.61670   0.09434
   3.99315  -1.45440  -0.17656
   4.08155  -1.42150  -0.32086
   4.33685  -1.37470  -0.55206
   4.41935  -1.27320  -0.51986
   4.74765  -1.00130  -0.66526
   4.70675  -0.75280  -0.53266
   4.89915  -0.75670  -0.51026
   5.03475  -0.55010  -0.31436
   5.07585  -0.42400  -0.10996
   5.08175  -0.24680  -0.06886
   5.13575  -0.10210   0.16964
   5.13015   0.10270   0.54424
   5.15145   0.11350   0.93844
   5.03665   0.27410   1.27514
   5.05885   0.31150   1.68754
   4.86945   0.32090   2.11494
   4.89845   0.24820   2.49444
   4.86785   0.24470   2.89264
   4.37185   0.43610   3.31464
   4.37185   0.37980   3.77074
   4.26455   0.47050   4.29634
   4.10865   0.39080   4.51854
   3.74555   0.35220   5.16964
   3.50895   0.49040   5.47294
   3.28325   0.34960   5.92274
   2.86875   0.34780   6.29784
   2.52015   0.19420   6.49794
   1.93705   0.23510   6.81614
   1.57485   0.18060   7.15914
   1.50495   0.34170   7.19814
   0.90455   0.41250   7.18184
   0.52175   0.39830   7.27134
   0.10395   0.42630   7.20564
  -0.55255   0.42630   7.10724
  -0.93745   0.35900   6.90734
  -1.41415   0.36880   6.65924
  -1.80465   0.37750   6.48834
  -2.45465   0.44830   6.06144
  -2.81775   0.35270   5.58674
  -3.27525   0.62790   5.06394
  -3.81255   0.60100   4.59984
  -4.34725   0.65990   4.01954
  -4.68675   0.69990   3.42824
  -5.13455   0.72160   2.96884
  -5.45085   0.82710   2.23024
  -5.76655   0.57150   1.61504
  -5.96125   0.79570   0.88984
  -6.22175   0.92950   0.32494
  -6.41725   0.70690  -0.31996
  -6.58815   0.72300  -0.86166
  -6.70405   0.57340  -1.48946
  -6.95475   0.50140  -2.10856
  -6.91105   0.28670  -2.76326
  -6.96225   0.23980  -3.24746
  -6.94185   0.22920  -3.79106
  -6.94935   0.04550  -4.15186
  -7.06885  -0.02400  -4.53196
  -6.94425  -0.10770  -4.93066
  -6.97715  -0.09270  -5.20626
  -6.92105  -0.06050  -5.42936
  -6.74475  -0.14740  -5.53786
  -6.68285  -0.22130  -5.63486
  -6.36485  -0.03850  -5.67156
  -6.21545  -0.06090  -5.60636
  -6.08825  -0.04970  -5.38726
  -6.01175   0.01810  -5.17496
  -5.59885  -0.04550  -4.70966
  -5.34585   0.09150  -4.32226
  -4.92905   0.07400  -3.84136
  -4.65615  -0.20590  -3.40576
  -4.43565  -0.04110  -2.92156
  -4.13735  -0.22720  -2.20466
  -3.73265  -0.37240  -1.58436
  -3.42395  -0.38520  -0.96736
  -2.92055  -0.36210  -0.43336
  -2.70505  -0.57320   0.41794
  -2.18735  -0.60940   0.97024
  -1.83825  -0.63210   1.63844
  -1.62245  -0.72820   2.27414
  -1.04215  -0.84400   2.77244
  -0.60095  -0.89140   3.26364
  -0.33565  -0.94780   3.83504
  -0.12495  -0.92950   4.24564
   0.25945  -0.86430   4.50894
   0.64315  -0.94030   4.74854
   0.93605  -0.88630   5.11774
   1.28115  -0.80720   5.17504
   1.49115  -0.69970   5.19024
   1.76635  -0.68540   5.31954
   1.94195  -0.64640   5.39104
   2.18065  -0.88950   5.09344
