********************************************************************************
              CENTRO DE INSTRUMENTACION Y REGISTRO SISMICO  A.C.

    Anaxagoras 814, Col. Narvarte, Benito Juarez, C.P. 03020 Mexico, D.F.
           Tels. 5687 45 42/ 5687 45  82             Fax. 5669 25 12
********************************************************************************
ARCHIVO ESTANDAR DE ACELERACION:
VERSION DEL FORMATO                    : 2.0
NOMBRE DEL ARCHIVO                     : DX3720220919180509
FECHA Y HORA DE CREACION               : 19/SEP/22, 19:43
REF. CATALOGO ACELEROGRAMAS, SMIS 1996 : REGISTRO No.     /PAG.


================================================================================
DATOS DE LA ESTACION:
NOMBRE DE LA ESTACION                  : DGCOH XOTEPINGO
CLAVE DE LA ESTACION                   : DX37
LOCALIZACION DE LA ESTACION            : Del. Coyoacán, DGCOH Xotepingo,        
                                       : Col. Ciudad Jardín, Av. División del   
                                       : Norte esq. con calle Xotepingo.        
                                       :                                        
                                       : 
COORDENADAS DE LA ESTACION             : 19.3322 LAT. N
                                       : 99.1439 LONG. W
ALTITUD (msnm)                         : 2240
TIPO DE SUELO                          : Terreno blando, material compresible
                                       : (arcillas)                
                                       : 
INSTITUCION RESPONSABLE                : CIRES, A. C.
                                       : 

================================================================================
DATOS DEL ACELEROGRAFO:
MODELO DEL ACELEROGRAFO                : RAD_IO14
NUMERO DE SERIE DEL ACELEROGRAFO       : 
NUMERO DE CANALES                      : 3
ORIENTACION C1-C6 (rumbo;orientacion)  : /S00E/+V/N90W
ORIENTACION C7-C12 (rumbo;orientacion) : 
VEL. DE MUESTREO, C1-C6 (muestras/s)   : /100/100/100
VEL. DE MUESTREO, C7-C12 (muestras/s)  : 
ESC. COMPLETA DE SENSORES, C1-C6, (g)  : /2.0/2.0/2.0
ESC. COMPLETA DE SENSORES, C7-C12, (g) : 
FREC. NAT. DE SENSORES, C1-C6, (Hz)    : /52.88/52.56/51.64
FREC. NAT. DE SENSORES, C7-C12, (Hz)   : 
AMORTIGUAMIENTO DE SENSORES, C1-C6     : /0.5605/0.5469/0.5912
AMORTIGUAMIENTO DE SENSORES, C7-C12    : 
INTERVALO DE MUESTREO, C1-C6, (s)      : /0.01/0.01/0.01
INTERVALO DE MUESTREO, C7-C12, (s)     : 
UMBRAL DE DISPARO, C1-C6, (Gal)        : / / /
UMBRAL DE DISPARO, C7-C12, (Gal)       : 
MEMORIA DE PREEVENTO (s)               : 60
TIEMPO DE POSEVENTO (s)                : 90


================================================================================
DATOS DEL SISMO:
FECHA DEL SISMO (GMT)                  : 19/SEP/22
HORA EPICENTRO (GMT)                   : 18:05:09.0
MAGNITUD(ES)                           : /Mc=7.7
COORDENADAS DEL EPICENTRO              : 18.22 LAT. N
                                       : 103.29 LONG. W
PROFUNDIDAD FOCAL (km)                 : 15
FUENTE DE LOS DATOS EPICENTRALES       : SSN
                                       : INSTITUTO DE GEOFISICA, UNAM

================================================================================
DATOS DE ESTE REGISTRO:
HORA DE LA PRIMERA MUESTRA (GMT)       : 18:04:26.923.00
EXACTITUD DEL TIEMPO (s)               : 
DURACION DEL REGISTRO (s), C1-C6       : /491.81/491.81/491.81
DURACION DEL REGISTRO (s), C7-C12      : 
NUM. TOTAL DE MUESTRAS, C1-C6          : /49181/49181/49181
NUM. TOTAL DE MUESTRAS, C7-C12         : 
ACEL. MAX. (Gal), C1-C6                : /18.37082/3.46091/14.34504
ACEL. MAX., C1-C6, EN LA MUESTRA       : /19736/19686/19827
ACEL. MAX. (Gal), C7-C12               : 
ACEL. MAX., C7-C12, EN LA MUESTRA      : 
UNIDADES DE LOS DATOS                  : Gal (cm/s/s)
FACTOR DE DECIMACION                   : 1
FORMATO DATOS (FORTRAN,10 campos/dato) : 3F10.5


================================================================================
CALIDAD DEL ACELEROGRAMA:
REGISTRO DIGITAL COMPLETO CON TIEMPO ABSOLUTO CORRECTO.


================================================================================
COMENTARIOS:














================================================================================
DATOS DE ACELERACION:
---------+---------+---------+---------+---------+---------+---------+---------+
   CANAL-1   CANAL-2   CANAL-3   CANAL-4   CANAL-5   CANAL-6   CANAL-7   CANAL-8
      N00E        +V      N90W
---------+---------+---------+---------+---------+---------+---------+---------+
[...]
  -3.82668  -0.57271  -2.54996
  -4.07948  -0.67041  -1.85506
  -4.17698  -0.76771  -1.18176
  -4.34088  -0.92971  -0.53436
  -4.49748  -1.28651   0.24544
  -4.58398  -1.31831   0.91744
  -4.72478  -1.45631   1.68224
  -4.85428  -1.66551   2.30204
  -4.96018  -1.72681   3.12664
  -4.96018  -1.81261   3.84394
  -4.98358  -1.73331   4.32404
  -4.98758  -1.73141   5.00884
  -4.94778  -1.80651   5.80984
  -5.12318  -1.82661   6.60154
  -4.94618  -1.68311   6.96444
  -4.92118  -1.63281   7.51524
  -5.01258  -1.45441   8.08344
  -4.84118  -1.22151   8.48484
  -4.85898  -1.10861   8.88234
  -5.04278  -1.06701   9.26854
  -5.03878  -0.88741   9.59594
  -5.00138  -0.65731   9.79184
  -4.91228  -0.42491   9.90614
  -5.09588  -0.25921  10.08314
  -4.97468  -0.15391  10.28564
  -4.75938   0.02349  10.05674
  -4.90368   0.34989  10.35974
  -4.92328   0.49489  10.40654
  -4.88328   0.75909  10.45234
  -4.80658   0.83249  10.59144
  -4.60158   1.21199  10.49374
  -4.64318   1.17009  10.48674
  -4.54308   1.45609  10.30974
  -4.54058   1.52109  10.17504
  -4.64788   1.70319   9.91464
  -4.56458   1.57859   9.79864
  -4.39558   1.62699   9.73384
  -4.30998   1.80349   9.27704
  -4.13278   1.73479   9.09934
  -4.14958   1.59069   8.79814
  -4.02448   1.48899   8.70324
  -3.96138   1.48129   8.44234
  -4.13068   1.42009   7.97004
  -3.82718   1.17429   7.53794
  -3.71608   1.15629   7.28964
  -3.51898   1.22269   6.89404
  -3.26508   0.90729   6.39014
  -3.12458   0.68869   6.11614
  -3.14518   0.61129   5.67684
  -2.77058   0.48129   5.43014
  -2.61018   0.29729   4.86874
  -2.40798   0.45489   4.45844
  -2.23658   0.18369   3.94924
  -1.98548   0.17899   3.64504
  -1.67658   0.03749   3.26884
  -1.50078   0.17009   2.78954
  -1.33948  -0.04851   2.26324
  -1.32048  -0.23811   1.85634
  -0.97308  -0.12141   1.28374
  -0.80728  -0.15981   1.03874
  -0.59808  -0.18181   0.57624
  -0.21928  -0.14131   0.13414
  -0.28898  -0.19511  -0.15366
  -0.17488  -0.38491  -0.66666
  -0.05468  -0.45391  -0.76696
   0.22072  -0.44111  -1.29026
   0.21352  -0.36041  -1.46046
   0.23762  -0.24301  -1.73046
   0.60742  -0.36371  -2.24486
   0.51492  -0.44011  -2.26846
   0.53292  -0.32231  -2.50136
   0.78842  -0.39591  -2.77726
   0.75782  -0.22411  -3.04986
   0.92502  -0.08991  -3.24156
   0.81972  -0.22531  -3.24626
   0.92242  -0.19531  -3.27106
   1.07162  -0.14251  -3.43936
   1.15042   0.08829  -3.39776
   1.14222   0.08149  -3.28716
   0.94132   0.13949  -3.15886
   1.03272   0.17339  -3.10646
   0.94812   0.21779  -2.98436
   0.91212   0.28419  -2.66036
   0.92942   0.36319  -2.69046
   0.82022   0.56739  -2.53576
   0.84872   0.66459  -2.29796
   0.81412   0.74409  -2.01386
   0.78752   0.99129  -1.82826
   0.93522   1.06229  -1.65616
   0.97362   1.13599  -1.38866
   0.89832   1.12289  -1.27106
   1.03462   1.30899  -1.08566
   1.08252   1.32019  -0.86356
   1.30052   1.39079  -0.72276
   1.18332   1.49109  -0.49456
   1.26752   1.38659  -0.21566
   1.19692   1.19209   0.00644
   1.43422   1.33309   0.19164
   1.48122   1.27089   0.52064
   1.26592   1.06509   0.84074
   1.32622   1.09129   1.11034
   1.31502   1.10769   1.58424
   1.30632   0.82359   1.92204
   1.30372   1.00079   2.30834
   1.52072   0.84299   2.57814
   1.35452   0.61719   3.13784
   1.60252   0.45349   3.58374
   1.57802   0.40369   3.77054
   1.77042   0.36929   4.11774
   1.79102   0.24699   4.27304
   1.97342   0.19189   4.82524
   2.19312   0.11349   4.96624
   2.35332   0.06019   5.21874
   2.44522   0.05269   5.39994
   2.67952   0.13759   5.49584
   3.01402   0.28139   5.62864
   3.23342   0.05089   5.71234
   3.48662   0.18599   5.78574
   3.57262   0.24329   5.80374
   3.75922   0.30479   5.95364
   3.99792   0.38569   5.88394
   4.25282   0.49819   5.70394
   4.41012   0.68029   5.73594
   4.58312   0.72959   5.53134
   4.64492   0.76659   5.68174
   4.57522   0.81219   5.57604
   4.59372   0.93229   5.23534
   4.81762   1.03379   5.22934
   4.68022   1.07219   5.22724
   4.54412   0.95759   5.15404
   4.64212   1.20779   4.90124
   4.36782   0.99639   4.75024
   4.26122   0.90919   4.52084
   4.10172   0.89539   4.52504
   3.62852   0.69309   4.24384
   3.47072   0.50029   3.89614
   3.32972   0.45929   3.75444
   2.96662   0.27979   3.56714
   2.75472  -0.11541   3.25524
   2.22752  -0.30781   2.93514
   1.93592  -0.46911   2.69414
   1.86252  -0.59821   2.23814
   1.30302  -0.65921   1.93234
   1.05102  -0.91501   1.66204
   0.88942  -0.92181   1.36444
   0.60022  -0.85581   0.89684
   0.26732  -0.81841   0.67194
   0.10782  -0.89531   0.56924
  -0.12248  -0.78731   0.21524
  -0.45448  -0.69221  -0.05996
  -0.72808  -0.65661  -0.47006
  -1.09328  -0.65781  -0.56236
  -1.23498  -0.47221  -0.89436
  -1.72878  -0.46511  -0.93156
  -1.92588  -0.37231  -1.25516
  -2.08558  -0.42751  -1.55956
  -2.47058  -0.24331  -1.91846
  -2.61888  -0.39711  -2.09456
  -2.93148  -0.20821  -2.40196
  -3.21578  -0.11651  -2.60446
  -3.50898  -0.13341  -3.03376
  -3.46778  -0.12171  -3.30516
  -3.80428   0.09599  -3.52846
  -3.74998   0.01299  -3.87126
  -3.72498   0.06489  -4.25566
  -3.99408  -0.03281  -4.62126
  -4.08698  -0.15181  -4.64066
  -3.97288  -0.10251  -5.16396
  -3.86058  -0.32061  -5.50296
  -3.81548  -0.33231  -5.70846
  -3.81148  -0.42701  -5.86606
  -3.71658  -0.54251  -6.09876
  -3.59948  -0.59421  -6.52166
  -3.35818  -0.77891  -6.58996
  -3.38178  -0.86171  -6.69846
  -3.22728  -0.84721  -6.83006
  -3.12618  -0.93041  -6.73466
  -2.82838  -1.03661  -6.57756
  -2.62568  -1.14011  -6.70356
  -2.54968  -1.07801  -6.68656
  -2.43418  -1.12681  -6.45086
  -2.15238  -0.98841  -6.39216
  -1.85358  -0.93741  -6.27616
  -1.84118  -1.01011  -6.18076
  -1.70748  -0.87761  -5.92526
  -1.32428  -0.73661  -5.92476
  -1.23398  -0.73501  -6.02066
  -1.12298  -0.54511  -5.80386
  -1.01348  -0.43641  -5.51726
  -0.84188  -0.52851  -5.67556
  -0.63428  -0.36111  -5.51116
  -0.65348  -0.21031  -5.40296
  -0.68198  -0.02791  -5.32876
  -0.58258   0.06159  -5.16046
  -0.42858   0.12709  -5.07046
  -0.26508   0.40039  -4.84126
  -0.30628   0.25759  -5.00286
  -0.19188   0.28419  -4.71016
   0.06952   0.33819  -4.54716
   0.02202   0.50279  -4.02066
   0.06082   0.42889  -4.01056
   0.28152   0.42329  -3.58926
   0.41152   0.53629  -3.29186
   0.47842   0.44389  -3.07586
   0.81952   0.46519  -2.45456
   0.80482   0.43389  -2.25536
   0.80622   0.30179  -1.86046
   1.08562   0.39199  -1.49336
   1.47982   0.42709  -1.18826
   1.52732   0.33209  -0.91636
   1.66012   0.20499  -0.74826
   2.00772   0.26999  -0.33726
   2.09492   0.20519  -0.10436
   2.08792   0.20359   0.24894
   2.56612   0.16539   0.48814
   2.60392   0.19349   0.67844
   2.96562   0.38009   0.88114
   3.18962   0.44129   1.14144
   3.34892   0.49719   1.43534
   3.53502   0.69479   1.83394
   3.91332   0.80819   1.80614
   4.17072   0.84419   2.23514
   4.43772   0.93019   2.54934
   4.75852   1.35719   2.69244
   4.80032   1.46449   2.91814
   5.26522   1.52039   3.07354
   5.27012   1.77969   3.19404
   5.40872   1.88069   3.19194
   5.60652   1.98139   3.50984
   5.48402   2.04289   3.55174
   5.65982   2.09669   3.62674
   5.62762   2.20469   3.54474
   5.63692   1.89889   3.59804
   5.65632   1.81259   3.55504
   5.52512   1.77239   3.58844
   5.51862   1.82809   3.52274
   5.31032   1.57979   3.40604
   5.26442   1.57409   3.41684
   5.01052   1.56739   3.00324
   4.65472   1.29149   3.01004
   4.40192   1.21549   2.85314
   4.02482   1.24979   2.42824
   3.62222   0.95429   2.23324
   3.07162   1.04669   2.17744
   2.54222   1.14039   1.94734
   1.97762   1.06469   1.78134
   1.46742   1.00269   1.33854
   1.02692   0.88629   1.32544
   0.28292   0.98609   1.25194
  -0.06008   0.78739   0.94854
  -0.50358   0.90469   0.93194
  -1.04228   0.95129   0.45864
  -1.59268   1.02069   0.34174
  -2.12038   0.99779   0.15004
  -2.46458   1.02379  -0.17426
  -3.07898   1.04409  -0.45206
  -3.34858   0.85609  -0.69026
  -3.99548   1.07309  -0.89836
  -4.61418   1.06649  -1.41366
  -5.18448   0.89019  -1.60046
  -5.64578   0.85379  -1.74196
  -6.24008   0.91149  -2.34586
  -6.74068   0.60899  -2.63886
  -7.26958   0.52689  -2.78966
  -7.77038   0.43339  -3.13216
  -8.44348   0.15189  -3.56356
  -8.82978   0.15629  -3.60516
  -9.44188   0.03149  -4.00196
  -9.92748  -0.11841  -4.01856
 -10.27278  -0.27651  -4.32996
 -10.91348  -0.64961  -4.49126
 -11.27068  -0.89751  -4.91146
 -11.59358  -1.10911  -4.90586
 -12.02658  -1.53931  -4.98156
 -12.30858  -1.80391  -5.04146
 -12.65418  -2.15391  -5.11156
 -12.95578  -2.36951  -5.27196
 -13.21178  -2.39521  -5.18706
 -13.36538  -2.86171  -5.27366
 -13.34438  -3.05271  -5.26286
 -13.55948  -2.94301  -5.27856
 -13.57448  -3.12611  -4.97316
 -13.38718  -3.29351  -4.90066
 -13.29368  -3.46091  -4.61216
 -13.14418  -3.32931  -4.46956
 -12.93638  -3.44411  -4.16346
 -12.53118  -3.30431  -3.94536
 -12.11248  -3.20301  -3.78936
 -11.65278  -3.12991  -3.45506
 -11.26678  -2.88601  -3.16026
 -10.76478  -2.83531  -2.81626
 -10.26468  -2.59051  -2.55906
  -9.58798  -2.32741  -2.09406
  -9.01538  -2.14391  -1.56896
  -8.25228  -1.94401  -1.12136
  -7.42038  -1.63001  -0.67626
  -6.72948  -1.41631  -0.01806
  -5.85338  -1.22741   0.49004
  -5.00978  -1.02891   1.22974
  -4.16718  -0.81121   1.87974
  -3.14588  -0.74061   2.43274
  -2.20598  -0.74851   2.90824
  -1.38618  -0.65061   3.60904
  -0.31698  -0.57461   4.12364
   0.67342  -0.57131   4.84514
   1.65632  -0.50141   5.29994
   2.51952  -0.49881   5.70934
   3.37082  -0.51381   6.43064
   4.21142  -0.65271   6.82834
   5.04582  -0.75691   7.33144
   5.88612  -0.76631   7.78224
   6.67342  -0.54841   7.97164
   7.46442  -0.71861   8.20384
   8.30842  -0.88131   8.44724
   9.18242  -0.70041   8.68404
   9.97292  -0.64471   9.00624
  10.72692  -0.45721   8.99664
  11.50012  -0.39711   9.13854
  12.35702  -0.19111   9.16054
  13.12462  -0.10091   9.09834
  13.88972   0.06049   8.88444
  14.61632   0.16119   8.98664
  15.27032   0.23769   8.44584
  15.78792   0.65199   8.41584
  16.33552   0.75279   8.10494
  16.71502   0.99569   7.82014
  17.23832   1.03449   7.62254
  17.52582   1.17199   7.17644
  17.85672   1.22109   6.94214
  18.02812   1.42939   6.49424
  18.13592   1.55959   6.30604
  18.32642   1.46259   5.76634
  18.36592   1.47759   5.38974
  18.37082   1.38729   5.09134
  18.21372   1.41679   4.78644
  18.15742   1.32579   4.33494
  17.96892   1.24699   3.81434
  17.76622   1.17359   3.56524
  17.38352   1.03259   3.18864
  16.90042   0.76819   2.70464
  16.51562   0.64029   2.33314
  15.77532   0.68569   1.92794
  15.26522   0.42709   1.57554
  14.53542   0.44739   1.11004
  13.94202   0.24589   0.55824
  13.28222   0.29709   0.16174
  12.70332   0.32539  -0.41926
  11.98552   0.40789  -0.87736
  11.19202   0.35999  -1.45876
  10.42622   0.44249  -2.12936
   9.65302   0.51759  -2.70736
   8.85292   0.56199  -3.27996
   8.13542   0.57809  -3.79856
   7.35262   0.67369  -4.60496
   6.34682   0.83669  -5.11716
   5.54082   0.61619  -5.69706
   4.72112   0.69989  -6.55376
   3.80762   0.77029  -7.11716
   3.01432   0.81869  -7.50466
   2.30352   0.82219  -8.05946
   1.37152   0.72659  -8.41346
   0.68462   0.77689  -8.82096
   0.02392   0.82599  -9.34356
  -0.57678   0.81779  -9.54416
  -1.13208   0.81119 -10.01736
  -1.80518   0.75509 -10.28246
  -2.36568   0.74879 -10.59366
  -2.94638   0.78529 -10.73636
  -3.19938   0.67939 -11.07136
  -3.53818   0.82669 -11.23196
  -3.80688   0.71279 -11.45386
  -4.22508   0.52809 -11.55976
  -4.39978   0.60079 -11.61776
  -4.69788   0.55379 -11.66826
  -4.80338   0.40929 -11.82536
  -5.12298   0.44599 -11.87616
  -5.20708   0.32349 -11.76696
  -5.09258   0.32019 -11.71016
  -5.03038   0.02399 -11.79576
  -5.12198   0.09899 -11.56396
  -5.09208   0.00359 -11.39406
  -4.75818  -0.03311 -11.05896
  -4.66168  -0.29491 -10.95746
  -4.42288  -0.32091 -10.53896
  -4.30088  -0.54091 -10.30566
  -4.01748  -0.59561  -9.87916
  -3.72358  -0.73221  -9.39126
  -3.50478  -0.73311  -9.00126
  -3.19358  -0.79791  -8.42486
  -2.85198  -0.99121  -8.04796
  -2.46198  -1.14831  -7.41316
  -1.99298  -1.20071  -6.81696
  -1.56698  -1.20191  -5.98436
  -1.35188  -1.20331  -5.28066
  -0.85548  -1.11441  -4.53666
  -0.48788  -1.20281  -3.67666
   0.07022  -1.41321  -2.76786
   0.49482  -1.33891  -1.84646
   0.72762  -1.45631  -0.90986
   0.98482  -1.32391  -0.04166
   1.35072  -1.33561   0.77664
   1.66782  -1.32721   1.72214
   1.92052  -1.18011   2.47154
   2.09962  -1.24931   3.10604
   2.33552  -1.08871   4.13114
   2.56282  -1.17361   4.80894
   2.77272  -1.10181   5.47364
   2.99182  -1.12451   6.30344
   2.99512  -0.92811   6.99714
   3.33512  -1.11161   7.69504
   3.39122  -1.26011   8.35394
   3.65962  -1.32931   8.91644
   3.58432  -1.41701   9.57904
   3.65912  -1.35411  10.22064
   3.78492  -1.75721  10.78064
   3.81442  -1.88691  11.34714
   3.87682  -1.95991  11.86644
   3.80082  -2.13291  12.56674
   4.08162  -2.01831  12.88774
   4.00122  -2.28841  13.11874
   3.99352  -2.44951  13.51834
   3.94272  -2.21781  13.88844
   3.78962  -2.35921  14.02444
   3.95042  -2.26381  14.27704
   3.82092  -2.17101  14.34504
   3.75242  -2.25401  14.25804
   3.62102  -2.26201  14.14424
   3.30022  -2.10811  14.25334
   3.30402  -2.15391  14.08154
   3.25652  -2.06281  13.69644
   2.99162  -1.94611  13.53774
   2.84272  -1.87081  13.29314
   2.51562  -1.58421  12.97074
   2.48402  -1.60681  12.50804
   2.38392  -1.58511  12.18064
   2.11572  -1.55381  11.73834
   1.86602  -1.51381  11.15944
   1.72182  -1.65171  10.73294
   1.50502  -1.57971  10.21414
   1.16442  -1.59231   9.75794
   0.95822  -1.55661   9.28024
   0.72272  -1.45161   8.90574
   0.35142  -1.67511   8.45684
  -0.07428  -1.43261   8.02664
  -0.17068  -1.50401   7.50404
  -0.55108  -1.33511   7.10844
  -0.88428  -1.37581   6.58354
  -1.21368  -1.31431   6.11844
  -1.72058  -1.04551   5.61974
  -1.93078  -1.02931   5.00884
  -2.25438  -0.98701   4.48224
  -2.69698  -0.87411   3.88634
  -3.10988  -0.58881   3.46544
  -3.55478  -0.54721   2.70064
  -4.00158  -0.18501   2.05934
  -4.30438   0.09229   1.65154
  -4.88068   0.09019   1.00134
  -5.15798   0.48859   0.32284
  -5.81618   0.82199  -0.27616
  -6.28058   0.88719  -0.81796
  -6.73628   1.07939  -1.57006
  -7.10848   1.47199  -2.21256
  -7.50898   1.71959  -2.75056
  -7.88028   1.88349  -3.42236
  -8.40048   2.29429  -3.89396
  -8.81358   2.27299  -4.55936
  -9.10288   2.64359  -4.98646
  -9.39858   2.78499  -5.73166
  -9.85428   2.84439  -6.06156
 -10.29738   2.90329  -6.92336
 -10.64928   2.81169  -7.42976
 -10.72478   2.91499  -7.75226
 -10.90668   3.07469  -8.21496
 -11.31328   3.23559  -8.66966
 -11.16718   2.99849  -9.02746
 -11.28618   2.91109  -9.27436
 -11.26208   2.88629  -9.66076
