********************************************************************************
              CENTRO DE INSTRUMENTACION Y REGISTRO SISMICO  A.C.

    Anaxagoras 814, Col. Narvarte, Benito Juarez, C.P. 03020 Mexico, D.F.
           Tels. 5687 45 42/ 5687 45  82             Fax. 5669 25 12
********************************************************************************
ARCHIVO ESTANDAR DE ACELERACION:
VERSION DEL FORMATO                    : 2.0
NOMBRE DEL ARCHIVO                     : EO3020220919180509
FECHA Y HORA DE CREACION               : 19/SEP/22, 19:44
REF. CATALOGO ACELEROGRAMAS, SMIS 1996 : REGISTRO No.     /PAG.


================================================================================
DATOS DE LA ESTACION:
NOMBRE DE LA ESTACION                  : JARDÍN "ESPARZA OTEO"
CLAVE DE LA ESTACION                   : EO30
LOCALIZACION DE LA ESTACION            : Del. Benito Juárez, Col. Napoles,      
                                       : Pensylvania entre Georgia y Alabama.   
                                       :                                        
                                       :                                        
                                       : 
COORDENADAS DE LA ESTACION             : 19.3885 LAT. N
                                       : 99.1772 LONG. W
ALTITUD (msnm)                         : 2236
TIPO DE SUELO                          : Transición                          
                                       :                           
                                       : 
INSTITUCION RESPONSABLE                : CIRES, A. C.
                                       : 

================================================================================
DATOS DEL ACELEROGRAFO:
MODELO DEL ACELEROGRAFO                : RAD_IO14
NUMERO DE SERIE DEL ACELEROGRAFO       : 
NUMERO DE CANALES                      : 3
ORIENTACION C1-C6 (rumbo;orientacion)  : /N00E/+V/N90W
ORIENTACION C7-C12 (rumbo;orientacion) : 
VEL. DE MUESTREO, C1-C6 (muestras/s)   : /100/100/100
VEL. DE MUESTREO, C7-C12 (muestras/s)  : 
ESC. COMPLETA DE SENSORES, C1-C6, (g)  : /2.0/2.0/2.0
ESC. COMPLETA DE SENSORES, C7-C12, (g) : 
FREC. NAT. DE SENSORES, C1-C6, (Hz)    : /30/33/30
FREC. NAT. DE SENSORES, C7-C12, (Hz)   : 
AMORTIGUAMIENTO DE SENSORES, C1-C6     : /0.733/0.790/0.733
AMORTIGUAMIENTO DE SENSORES, C7-C12    : 
INTERVALO DE MUESTREO, C1-C6, (s)      : /0.01/0.01/0.01
INTERVALO DE MUESTREO, C7-C12, (s)     : 
UMBRAL DE DISPARO, C1-C6, (Gal)        : / / /
UMBRAL DE DISPARO, C7-C12, (Gal)       : 
MEMORIA DE PREEVENTO (s)               : 60
TIEMPO DE POSEVENTO (s)                : 90


================================================================================
DATOS DEL SISMO:
FECHA DEL SISMO (GMT)                  : 19/SEP/22
HORA EPICENTRO (GMT)                   : 18:05:09.0
MAGNITUD(ES)                           : /Mc=7.7
COORDENADAS DEL EPICENTRO              : 18.22 LAT. N
                                       : 103.29 LONG. W
PROFUNDIDAD FOCAL (km)                 : 15
FUENTE DE LOS DATOS EPICENTRALES       : SSN
                                       : INSTITUTO DE GEOFISICA, UNAM

================================================================================
DATOS DE ESTE REGISTRO:
HORA DE LA PRIMERA MUESTRA (GMT)       : 18:04:26.892.00
EXACTITUD DEL TIEMPO (s)               : 
DURACION DEL REGISTRO (s), C1-C6       : /551.61/551.61/551.61
DURACION DEL REGISTRO (s), C7-C12      : 
NUM. TOTAL DE MUESTRAS, C1-C6          : /55161/55161/55161
NUM. TOTAL DE MUESTRAS, C7-C12         : 
ACEL. MAX. (Gal), C1-C6                : /7.21797/3.5358/8.06748
ACEL. MAX., C1-C6, EN LA MUESTRA       : /20284/19378/19451
ACEL. MAX. (Gal), C7-C12               : 
ACEL. MAX., C7-C12, EN LA MUESTRA      : 
UNIDADES DE LOS DATOS                  : Gal (cm/s/s)
FACTOR DE DECIMACION                   : 1
FORMATO DATOS (FORTRAN,10 campos/dato) : 3F10.5


================================================================================
CALIDAD DEL ACELEROGRAMA:
REGISTRO DIGITAL COMPLETO CON TIEMPO ABSOLUTO CORRECTO.


================================================================================
COMENTARIOS:














================================================================================
DATOS DE ACELERACION:
---------+---------+---------+---------+---------+---------+---------+---------+
   CANAL-1   CANAL-2   CANAL-3   CANAL-4   CANAL-5   CANAL-6   CANAL-7   CANAL-8
      N00E        +V      N90W
---------+---------+---------+---------+---------+---------+---------+---------+
[...]
   4.11977  -0.09360   6.32368
   4.21007   0.14950   6.33068
   4.06767   0.03310   6.44528
   3.84227  -0.06110   6.43288
   3.58577   0.15540   6.13498
   3.46847   0.12030   5.89858
   2.99847   0.11520   5.80438
   2.78427   0.31950   5.65078
   2.50727   0.51400   5.44438
   1.98067   0.43710   5.40788
   1.52687   0.61690   5.23978
   1.01737   0.56570   4.95638
   0.70787   0.59590   4.78688
   0.33027   0.48390   4.57528
  -0.26503   0.46140   4.25008
  -0.56943   0.37870   4.12308
  -0.89913   0.47780   3.87758
  -1.17013   0.35570   3.36528
  -1.35103   0.54070   3.18968
  -1.64753   0.37090   2.99988
  -1.77423   0.32250   2.88628
  -1.87573   0.26110   2.57928
  -2.00153   0.13990   2.50888
  -2.11053  -0.12450   2.46068
  -2.19743  -0.15630   2.25238
  -1.94263  -0.11540   2.03258
  -1.98303  -0.14580   1.81728
  -1.92813  -0.32720   1.80228
  -1.84863  -0.62460   1.73968
  -1.46983  -0.60730   1.74148
  -1.17053  -0.67320   1.40228
  -1.19513  -0.66230   1.27508
  -1.11983  -0.87430   1.19648
  -0.96323  -1.11770   1.11728
  -0.63653  -1.07070   1.10628
  -0.16663  -1.00640   1.17378
   0.32367  -0.92320   1.35898
   0.69847  -0.70950   1.44508
   1.09457  -0.63070   1.58858
   1.23527  -0.46560   1.58718
   1.59697  -0.48200   1.95028
   1.75597  -0.53320   2.01058
   2.14367  -0.66090   2.03868
   2.59417  -0.44720   1.98608
   2.79417  -0.11980   1.97418
   3.06887   0.13990   2.04198
   3.28557  -0.01760   2.44758
   3.40647  -0.26970   2.61358
   3.75577  -0.22360   2.58668
   3.92717  -0.69010   2.61008
   3.89187  -0.70320   2.66828
   4.30897  -0.73330   2.79948
   4.49767  -0.58700   2.69848
   4.68467  -0.39200   2.78988
   4.86707  -0.28280   2.88348
   4.84227  -0.65970   3.16728
   4.70597  -1.00220   3.20418
   4.67207  -1.22670   3.10698
   4.90117  -1.04570   3.07538
   4.88177  -0.96040   3.14108
   4.80577  -0.78170   3.18128
   4.70407  -0.42310   3.13878
   4.68377  -0.45140   3.34288
   4.63557  -0.41770   3.49178
   4.43947  -0.58020   3.61968
   4.20987  -0.50260   3.68098
   3.83087  -0.62650   3.39878
   3.85557  -0.38850   3.08758
   3.70787  -0.21360   2.97228
   3.21377  -0.12050   2.89888
   2.62877  -0.10740   2.84278
   2.51377  -0.44570   2.90328
   2.11887  -0.50680   2.62878
   1.63307  -0.43550   2.73448
   1.34477  -0.46050   2.64378
   0.91107  -0.19300   2.44758
   0.48507  -0.29070   2.54818
  -0.17223  -0.30920   2.40228
  -0.66113  -0.33310   2.32768
  -0.95593  -0.47240   2.19608
  -1.33423  -0.37540   2.05948
  -1.86643  -0.47150   2.07728
  -2.31063  -0.43870   1.96128
  -2.76473  -0.63090   1.87528
  -2.92393  -0.59940   1.97698
  -3.43263  -0.68910   2.00498
  -3.80533  -0.64430   2.14628
  -4.21223  -0.56640   2.15628
  -4.49163  -0.36250   2.00218
  -4.74383  -0.27270   2.06178
  -5.05463  -0.19770   2.18408
  -5.28823  -0.45020   2.43288
  -5.69683  -0.32230   2.64428
  -5.89233  -0.37020   2.61408
  -5.83483  -0.39410   2.54438
  -5.98003  -0.35110   2.57458
  -6.06463  -0.38050   2.57128
  -6.27463  -0.33240   2.77568
  -6.03753  -0.51120   2.83058
  -5.91223  -0.34680   2.62508
  -5.85653  -0.20540   2.46908
  -5.81453   0.00970   2.41118
  -5.75463   0.09900   2.06278
  -5.75933  -0.03100   1.86448
  -5.47593  -0.00900   1.61688
  -5.21613   0.22930   1.35338
  -4.95333   0.47270   1.05478
  -4.48643   0.59450   0.65008
  -4.42843   0.61360   0.13288
  -4.07443   0.73830  -0.22852
  -3.79133   0.99100  -0.71532
  -3.51003   0.91600  -1.07522
  -3.08313   0.81540  -1.50492
  -2.82803   0.78060  -2.07032
  -2.42263   0.63910  -2.29522
  -1.74643   0.70200  -2.99102
  -1.38103   0.84860  -3.55352
  -1.12683   0.95410  -3.76002
  -0.74153   0.89560  -4.25522
  -0.30333   1.01040  -4.69102
   0.18017   0.95830  -5.06092
   0.63237   0.90730  -5.50212
   0.98397   1.12570  -5.81752
   1.54257   1.02840  -5.93722
   1.61667   1.07490  -6.24612
   2.06977   1.27440  -6.17452
   2.57087   1.16050  -6.36792
   2.73707   1.18020  -6.26152
   2.69777   1.05880  -6.19772
   2.86307   1.08430  -6.42682
   3.27977   1.19180  -6.30132
   3.47727   1.35550  -6.23982
   3.69847   1.44880  -5.91312
   3.83717   1.34900  -5.80582
   3.97997   1.23210  -5.47052
   4.10367   1.21870  -5.27162
   4.24187   1.47730  -5.28072
   4.08127   1.49700  -5.15472
   3.79417   1.71770  -4.99752
   3.54677   1.89910  -4.63442
   3.23157   1.93860  -4.41932
   2.97607   1.88600  -4.28912
   2.72767   1.84070  -3.99712
   2.45557   1.80090  -4.06462
   2.17947   1.80720  -3.86452
   1.83617   1.88950  -3.77572
   1.71207   1.90470  -3.61112
   1.05597   1.95240  -3.53722
   0.83267   1.95730  -3.31062
   0.74317   1.89120  -3.22712
   0.52427   2.09740  -3.16122
   0.22177   2.23280  -3.15282
   0.07427   2.19860  -3.11072
   0.00387   2.46120  -3.04572
  -0.28603   2.34380  -3.00222
  -0.56573   2.57250  -3.04922
  -0.72843   2.61220  -3.26102
  -0.68613   2.53390  -3.35132
  -0.71373   2.72870  -3.24232
  -0.76773   2.80300  -3.49372
  -0.47453   2.85490  -3.53722
  -0.46543   2.78130  -3.70692
  -0.35813   2.76540  -3.68632
  -0.15233   2.79720  -3.80792
  -0.02843   3.02630  -3.74132
   0.08407   2.70930  -3.89142
   0.13337   2.66130  -3.95052
   0.43337   2.64870  -3.98842
   0.60757   2.41510  -4.10422
   0.63257   2.54050  -4.11022
   0.70367   2.29710  -4.02192
   0.66347   2.23860  -4.00322
   0.80677   1.98330  -3.78132
   0.85487   1.85660  -3.62862
   0.91287   1.61930  -3.37912
   0.76117   1.39320  -3.09062
   0.95517   1.21030  -3.06422
   0.87177   0.97580  -2.95522
   0.92557   0.78320  -2.55052
   0.68727   0.50020  -2.19092
   0.70787   0.40790  -2.02792
   0.72697   0.34030  -1.78502
   0.86777   0.11770  -1.67162
   0.73847  -0.04220  -1.72632
   0.89417  -0.14160  -1.39382
   0.90747  -0.14270  -1.31462
   0.72587  -0.27130  -1.25662
   0.90747  -0.33450  -1.03642
   0.94817  -0.38610  -0.97442
   1.07917  -0.40020  -1.03032
   1.04527  -0.37680  -0.94822
   1.04457  -0.47100  -0.75232
   1.28487  -0.69800  -0.89792
   1.09477  -0.86500  -0.69082
   1.28467  -0.91870  -0.57252
   1.29567  -0.96850  -0.67042
   1.18197  -1.14460  -0.75062
   1.03147  -1.37230  -0.69572
   1.17057  -1.31900  -0.87202
   1.24487  -1.40740  -0.75842
   1.02837  -1.49700  -0.68052
   0.87007  -1.55960  -0.46542
   0.65667  -1.73400  -0.39972
   0.38257  -1.81470  -0.68942
   0.34027  -1.68240  -0.69922
   0.15257  -1.77280  -0.65952
  -0.19813  -1.68520  -0.65452
  -0.48713  -1.74640  -0.58932
  -0.75583  -1.59450  -0.66552
  -0.98583  -1.57250  -0.75602
  -1.35313  -1.71210  -0.62162
  -1.56083  -1.61740  -0.73662
  -1.59423  -1.56310  -0.57532
  -1.92813  -1.55910  -0.51172
  -2.11843  -1.53550  -0.29122
  -2.19653  -1.41140  -0.38122
  -2.35743  -1.49530  -0.53272
  -2.50423  -1.38870  -0.53792
  -2.72723  -1.27160  -0.66482
  -2.55683  -1.22830  -0.76772
  -2.48273  -1.28300  -0.78242
  -2.51753  -1.38870  -0.90682
  -2.42943  -1.31010  -0.98752
  -2.20983  -1.45510  -1.07982
  -1.97953  -1.41580  -1.02122
  -1.67773  -1.40320  -1.14652
  -1.57603  -1.28840  -1.12542
  -1.37793  -1.55660  -1.11192
  -1.10913  -1.78940  -1.17872
  -0.78523  -1.77170  -1.36672
  -0.40743  -1.54460  -1.61292
  -0.20233  -1.64990  -1.54492
   0.00357  -1.95550  -1.50092
   0.20347  -1.96110  -1.80002
   0.58627  -2.08150  -1.98802
   0.72747  -2.19630  -2.23232
   1.09617  -2.36410  -2.66622
   1.11727  -2.55800  -2.83462
   1.36647  -2.71390  -2.78242
   1.55097  -2.70950  -2.73752
   1.71437  -2.80890  -2.96322
   1.76327  -2.87200  -3.15262
   1.68237  -3.20240  -3.23092
   1.77167  -3.20070  -3.62342
   1.86967  -3.05810  -3.61762
   2.09437  -3.03680  -3.81422
   2.10437  -3.06560  -4.09972
   1.99827  -3.15000  -4.10142
   1.97067  -3.11140  -4.00062
   2.08757  -3.07540  -3.90992
   1.99587  -2.86640  -3.83462
   1.89487  -2.95830  -3.70552
   1.79297  -2.97790  -3.29922
   1.80927  -3.15070  -2.89282
   1.88947  -3.09830  -2.85682
   1.95267  -3.02610  -2.41542
   1.70577  -2.83900  -2.17872
   1.20777  -3.11190  -1.51472
   1.11797  -3.21030  -1.29002
   1.15297  -3.39850  -1.00152
   1.01577  -3.53580  -0.51872
   0.99847  -3.46490  -0.20002
   0.93297  -3.18250   0.41488
   0.71177  -2.85940   0.88058
   0.38637  -2.76120   1.37838
   0.26687  -2.95900   1.85188
  -0.16963  -3.11400   2.37418
  -0.23583  -3.12890   2.78688
  -0.10463  -2.94030   3.06748
  -0.20733  -2.44340   3.37468
  -0.39453  -2.27440   3.81048
  -0.72333  -2.36370   4.20558
  -0.84563  -2.45650   4.49558
  -0.92013  -2.45140   4.62038
  -0.98513  -2.58770   4.80788
  -1.12403  -2.47400   4.84068
  -1.05463  -2.33630   4.99358
  -1.07443  -2.28840   5.03048
  -1.34943  -2.31880   4.95358
  -1.31413  -2.24050   4.94188
  -1.35083  -2.17380   4.99118
  -1.34123  -2.11980   4.72068
  -1.34803  -1.96110   4.52058
  -1.51753  -1.97510   4.20748
  -1.38873  -1.81240   3.79128
  -1.35063  -1.80840   3.33068
  -1.46703  -1.83320   3.05438
  -1.48453  -1.74290   2.36858
  -1.28823  -1.84210   1.93178
  -0.89633  -1.69190   1.38678
  -1.03213  -1.57320   0.89418
  -1.23373  -1.55770   0.42068
  -1.39243  -1.68470  -0.31582
  -1.42893  -1.58630  -0.95032
  -1.31903  -1.42560  -1.52032
  -1.24583  -1.29260  -2.00132
  -1.45093  -1.39100  -2.50752
  -1.58183  -1.49630  -2.90612
  -1.51243  -1.24680  -3.46542
  -1.53063  -1.06210  -4.01342
  -1.73543  -0.85120  -4.45042
  -2.05973  -0.95290  -4.37722
  -2.27393  -0.71370  -4.48432
  -2.48533  -0.74620  -4.69942
  -2.51103  -0.67000  -4.71982
  -2.41093  -0.25990  -4.74902
  -2.60433   0.11490  -4.68172
  -2.97913   0.41720  -4.22362
  -3.15143   0.50980  -3.92722
  -3.44483   0.78220  -3.73122
  -3.39873   0.99450  -3.32112
  -3.26853   1.22340  -2.70062
  -3.58023   1.37540  -2.18722
  -3.57183   1.51030  -1.78152
  -3.69473   1.78500  -1.26672
  -3.88203   1.80020  -0.50302
  -4.01553   2.02540   0.22058
  -3.95433   1.92440   1.02838
  -4.14043   2.01040   1.47638
  -3.91273   1.97980   2.23858
  -3.90333   1.97110   2.95778
  -3.92483   2.02330   3.57368
  -3.96343   1.87410   4.48758
  -3.91083   1.82690   5.03888
  -3.98473   1.86780   5.44648
  -3.79153   1.71650   5.97368
  -3.56193   1.72120   6.45978
  -3.78523   1.64960   6.87288
  -3.80043   1.49110   7.19608
  -3.78623   1.25310   7.42138
  -3.72793   1.31760   7.63508
  -3.35203   1.45210   7.88838
  -3.38383   1.48390   7.99358
  -3.59093   1.53090   8.06748
  -3.32933   1.38360   7.97488
  -3.32863   1.57930   7.97598
  -3.46963   1.51940   7.82358
  -3.32443   1.39410   7.64498
  -3.16983   1.30710   7.08658
  -3.19843   1.61410   6.86758
  -3.27083   1.48250   6.40478
  -3.53203   1.47640   5.80648
  -3.44203   1.58980   5.23488
  -3.19113   1.60050   4.83178
  -2.98303   1.59190   4.28788
  -2.99283   1.90730   3.74778
  -2.80583   2.19000   3.00218
  -2.96953   2.15070   2.39498
  -2.62743   2.13530   1.85658
  -2.58533   2.33800   1.33518
  -2.19093   2.18860   0.69688
  -2.08713   2.10160   0.21198
  -2.01183   1.98770  -0.33892
  -1.84163   2.11890  -0.86222
  -1.60853   2.01460  -1.11092
  -1.40413   1.93960  -1.41842
  -1.14303   1.74570  -1.56922
  -0.84913   1.92250  -1.82012
  -0.79013   1.75790  -2.02232
  -0.55053   1.67560  -2.16242
  -0.35363   1.71650  -2.17762
  -0.10883   1.51500  -2.25262
   0.06347   1.54000  -2.06002
   0.17757   1.40320  -2.10282
   0.42607   1.39010  -1.87362
   0.76307   1.60620  -1.85372
   1.09507   1.76000  -1.71812
   1.22017   1.63120  -1.55632
   1.33847   1.97790  -1.36702
   1.53227   2.10560  -1.11072
   1.60727   2.13950  -0.88022
   1.83577   2.27340  -0.69712
   1.83687   2.23560  -0.29172
   2.01697   2.23300  -0.11702
   2.13567   2.28930   0.06398
   2.03377   2.14110   0.16068
   2.29307   2.06650   0.43918
   2.41627   2.26040   0.71668
   2.33277   1.93400   0.75158
   2.19017   2.07680   1.01088
   2.00427   2.10560   1.08938
   2.07917   1.93400   0.99728
   1.86097   1.85890   0.96998
   2.02747   1.82340   0.95218
   2.11887   1.83300   0.93258
   1.89867   1.96130   0.83578
   1.92697   1.87290   0.58718
   1.74687   1.69920   0.51938
   1.79737   1.54630   0.32528
   1.61177   1.55140   0.06088
   1.41957   1.44160  -0.10442
   1.19997   1.34310  -0.32142
   1.06067   1.49090  -0.35972
   0.87737   1.41890  -0.39712
   0.65217   1.38640  -0.74392
   0.33847   1.38260  -0.87112
   0.06837   1.22580  -0.82342
  -0.05083   1.20820  -0.93562
  -0.44293   1.38570  -0.89962
  -0.75813   1.49350  -0.86082
  -1.05953   1.46750  -0.99122
  -1.38663   1.53410  -1.16262
  -1.71133   1.51520  -1.19302
  -1.82803   1.41230  -1.29452
  -1.86453   1.45750  -1.25032
  -2.28353   1.40090  -1.17272
  -2.70503   1.56100  -1.11872
  -2.92133   1.32160  -1.09042
  -2.94633   1.26150  -1.18442
  -2.98073   1.21200  -1.12432
  -3.21243   1.23250  -1.12052
  -3.06143   1.26740  -1.20982
  -3.36673   1.36320  -1.07982
  -3.34823   1.20210  -1.02862
  -3.56923   1.26200  -1.15792
  -3.54493   1.16190  -1.17412
  -3.50683   1.03240  -1.18832
  -3.57153   1.07730  -1.06512
  -3.46893   0.86010  -1.00762
  -3.43943   0.72940  -0.95782
  -3.24583   0.42120  -1.03072
  -2.94523   0.58820  -1.08312
  -2.84203   0.50800  -1.28842
  -2.66883   0.36510  -1.40042
  -2.45743   0.32720  -1.60032
  -2.19743   0.54630  -1.63052
  -2.11403   0.48530  -1.49512
  -1.93813   0.38380  -1.65222
  -1.76113   0.49790  -1.73802
  -1.46583   0.42190  -1.66832
  -1.21663   0.17780  -1.64542
  -1.02183   0.36770  -1.79952
  -0.91083   0.29570  -1.83692
  -0.68563   0.22720  -1.40832
  -0.40883   0.15790  -1.59072
  -0.31853   0.10040  -1.36632
   0.09107  -0.07870  -1.30802
   0.22997  -0.17620  -1.32742
   0.48687  -0.33980  -1.07472
   0.68727  -0.23130  -0.82852
   0.92667  -0.35690  -0.75252
   1.05507  -0.54140  -0.56942
   1.10457  -0.56940  -0.46092
   1.32277  -0.70640  -0.42262
   1.46097  -0.67510  -0.17762
   1.71277  -0.64850  -0.14622
   1.80787  -0.52380   0.03258
   2.08867  -0.49550   0.22898
   2.28557  -0.31900   0.33308
   2.41907  -0.30920   0.47028
   2.58207  -0.31250   0.63018
   2.89067  -0.34780   0.89608
   2.78057  -0.32980   0.91358
   2.94607  -0.11610   0.96828
   3.24027  -0.02700   1.01108
   3.51757   0.06750   0.85138
   3.44407   0.06090   0.92578
   3.61037  -0.01620   0.70878
   3.49157  -0.19580   0.52898
   3.61267  -0.13450   0.36298
   3.99657  -0.03560   0.42818
   4.13997  -0.00130   0.00268
   4.11487   0.01020  -0.02472
   4.04847  -0.10510   0.00948
   4.12937  -0.26410  -0.41702
   4.15137  -0.40620  -0.39102
   4.21357  -0.48180  -0.37562
   4.36317  -0.35690  -0.53252
   4.15937  -0.34900  -0.68352
   3.93677  -0.62040  -0.77432
   3.72307  -0.84000  -0.73802
   3.63957  -0.95310  -0.74132
   3.62907  -0.86150  -0.68522
   3.56217  -0.79620  -0.53882
   3.60007  -0.93180  -0.32142
   3.28087  -0.77050  -0.26922
   3.24347  -0.95640  -0.12962
