********************************************************************************
              CENTRO DE INSTRUMENTACION Y REGISTRO SISMICO  A.C.

    Anaxagoras 814, Col. Narvarte, Benito Juarez, C.P. 03020 Mexico, D.F.
           Tels. 5687 45 42/ 5687 45  82             Fax. 5669 25 12
********************************************************************************
ARCHIVO ESTANDAR DE ACELERACION:
VERSION DEL FORMATO                    : 2.0
NOMBRE DEL ARCHIVO                     : ES5720220919180509
FECHA Y HORA DE CREACION               : 19/SEP/22, 19:44
REF. CATALOGO ACELEROGRAMAS, SMIS 1996 : REGISTRO No.     /PAG.


================================================================================
DATOS DE LA ESTACION:
NOMBRE DE LA ESTACION                  : ESCANDÓN
CLAVE DE LA ESTACION                   : ES57
LOCALIZACION DE LA ESTACION            : Del. Miguel Hidalgo, Col. Escandón,    
                                       : Calle Comercio esq. con                
                                       : Calle José Martí.                      
                                       :                                        
                                       : 
COORDENADAS DE LA ESTACION             : 19.4017 LAT. N
                                       : 99.1775 LONG. W
ALTITUD (msnm)                         : 2242
TIPO DE SUELO                          : Terreno estratificado               
                                       : (arcillas, limos, arenas) 
                                       : 
INSTITUCION RESPONSABLE                : CIRES, A. C.
                                       : 

================================================================================
DATOS DEL ACELEROGRAFO:
MODELO DEL ACELEROGRAFO                : RAD_IO14
NUMERO DE SERIE DEL ACELEROGRAFO       : 
NUMERO DE CANALES                      : 3
ORIENTACION C1-C6 (rumbo;orientacion)  : /S00E/+V/N90W
ORIENTACION C7-C12 (rumbo;orientacion) : 
VEL. DE MUESTREO, C1-C6 (muestras/s)   : /100/100/100
VEL. DE MUESTREO, C7-C12 (muestras/s)  : 
ESC. COMPLETA DE SENSORES, C1-C6, (g)  : /2.0/2.0/2.0
ESC. COMPLETA DE SENSORES, C7-C12, (g) : 
FREC. NAT. DE SENSORES, C1-C6, (Hz)    : /53.32/54.34/52.35
FREC. NAT. DE SENSORES, C7-C12, (Hz)   : 
AMORTIGUAMIENTO DE SENSORES, C1-C6     : /0.5865/0.5715/0.5715
AMORTIGUAMIENTO DE SENSORES, C7-C12    : 
INTERVALO DE MUESTREO, C1-C6, (s)      : /0.01/0.01/0.01
INTERVALO DE MUESTREO, C7-C12, (s)     : 
UMBRAL DE DISPARO, C1-C6, (Gal)        : / / /
UMBRAL DE DISPARO, C7-C12, (Gal)       : 
MEMORIA DE PREEVENTO (s)               : 60
TIEMPO DE POSEVENTO (s)                : 90


================================================================================
DATOS DEL SISMO:
FECHA DEL SISMO (GMT)                  : 19/SEP/22
HORA EPICENTRO (GMT)                   : 18:05:09.0
MAGNITUD(ES)                           : /Mc=7.7
COORDENADAS DEL EPICENTRO              : 18.22 LAT. N
                                       : 103.29 LONG. W
PROFUNDIDAD FOCAL (km)                 : 15
FUENTE DE LOS DATOS EPICENTRALES       : SSN
                                       : INSTITUTO DE GEOFISICA, UNAM

================================================================================
DATOS DE ESTE REGISTRO:
HORA DE LA PRIMERA MUESTRA (GMT)       : 18:04:26.874.00
EXACTITUD DEL TIEMPO (s)               : 
DURACION DEL REGISTRO (s), C1-C6       : /529.01/529.01/529.01
DURACION DEL REGISTRO (s), C7-C12      : 
NUM. TOTAL DE MUESTRAS, C1-C6          : /52901/52901/52901
NUM. TOTAL DE MUESTRAS, C7-C12         : 
ACEL. MAX. (Gal), C1-C6                : /9.88381/4.15696/9.27213
ACEL. MAX., C1-C6, EN LA MUESTRA       : /19895/19386/20169
ACEL. MAX. (Gal), C7-C12               : 
ACEL. MAX., C7-C12, EN LA MUESTRA      : 
UNIDADES DE LOS DATOS                  : Gal (cm/s/s)
FACTOR DE DECIMACION                   : 1
FORMATO DATOS (FORTRAN,10 campos/dato) : 3F10.5


================================================================================
CALIDAD DEL ACELEROGRAMA:
REGISTRO DIGITAL COMPLETO CON TIEMPO ABSOLUTO CORRECTO.


================================================================================
COMENTARIOS:














================================================================================
DATOS DE ACELERACION:
---------+---------+---------+---------+---------+---------+---------+---------+
   CANAL-1   CANAL-2   CANAL-3   CANAL-4   CANAL-5   CANAL-6   CANAL-7   CANAL-8
      N00E        +V      N90W
---------+---------+---------+---------+---------+---------+---------+---------+
[...]
   5.12341  -0.26806   3.73863
   5.18801  -0.41226   3.76413
   5.26791  -0.32046   3.70703
   5.38201  -0.32016   3.75383
   5.25551  -0.37276   3.62073
   5.44051  -0.25406   3.62313
   5.58171  -0.01976   3.42273
   5.59811   0.21454   3.25903
   5.72271  -0.08146   3.15243
   5.68251   0.00454   3.05803
   5.74121   0.05324   2.84573
   5.76431   0.20514   2.71593
   5.89171   0.41074   2.44313
   5.80871   0.55594   2.26003
   5.59781   0.63474   1.80173
   5.70051   0.79254   1.78493
   5.71591   0.67164   1.56513
   5.56601   0.74504   1.39703
   5.64831   0.83224   1.24553
   5.43701   0.95384   1.22073
   5.33501   1.21104   1.09053
   5.36431   1.00294   0.98813
   5.37711   0.98304   0.92633
   5.08601   0.69664   0.81813
   5.03091   0.59684   0.76103
   4.85921   0.55524   0.59293
   4.65021   0.49744   0.55113
   4.68831   0.43244   0.34373
   4.52091   0.55594   0.31683
   4.46671   0.32954   0.19403
   4.17841   0.03914   0.08233
   4.12581   0.09994   0.12833
   3.92211  -0.09156  -0.17257
   3.65651  -0.14486  -0.41897
   3.54451   0.00014  -0.51627
   3.41411  -0.03676  -0.59387
   3.31351  -0.14456  -0.71267
   3.04841  -0.21236  -1.06197
   2.74581  -0.12516  -1.07787
   2.70561  -0.26406  -1.22907
   2.74541  -0.26666  -1.45587
   2.56421  -0.15046  -1.69677
   2.36291  -0.23486  -1.98927
   2.31771  -0.25896  -2.14167
   2.18311  -0.10556  -2.19147
   2.03531  -0.24206  -2.49617
   1.97851  -0.56916  -2.59477
   1.77461  -0.62506  -2.76217
   1.71831  -0.70786  -2.90527
   1.48731  -0.69846  -2.91137
   1.32591  -0.89376  -3.02707
   1.35281  -0.87006  -3.00817
   1.17251  -1.31056  -3.18307
   0.96001  -1.52406  -3.32447
   0.88331  -1.58046  -3.20967
   0.57191  -1.66366  -2.97077
   0.35021  -1.96996  -3.02077
   0.07341  -1.75066  -2.98147
  -0.01239  -1.94396  -2.73877
  -0.28499  -1.84556  -2.58167
  -0.47739  -1.68146  -2.45687
  -0.65019  -1.81466  -2.49587
  -1.15479  -1.86686  -2.36827
  -1.44749  -1.74646  -2.25347
  -1.46759  -1.58716  -2.02457
  -1.69839  -1.28886  -1.74727
  -1.80359  -1.21726  -1.73487
  -2.04049  -1.06606  -1.62917
  -2.22379  -0.96736  -1.42577
  -2.41569  -0.82446  -1.43607
  -2.54639  -0.72606  -1.44417
  -2.63219  -0.32746  -1.24877
  -2.58549  -0.37446  -1.19407
  -2.66569  -0.11326  -1.15317
  -2.70869   0.19134  -1.08627
  -2.45919   0.11054  -1.16477
  -2.76389   0.34734  -1.04487
  -2.63219   0.37304  -0.93267
  -2.58869   0.40344  -0.91747
  -2.54969   0.43994  -0.89177
  -2.37409   0.60004  -0.87187
  -2.32729   0.65294  -0.93757
  -2.21069   0.47784  -0.82157
  -2.04719   0.31574  -0.76877
  -1.88919   0.31904  -0.69787
  -1.86419   0.21404  -0.73737
  -1.51599   0.06184  -0.59597
  -1.35489   0.01814  -0.54317
  -1.33879  -0.10856  -0.66077
  -1.19099  -0.17266  -0.60457
  -0.81159  -0.27576  -0.59127
  -0.74799  -0.41766  -0.55547
  -0.51529  -0.59586  -0.49637
  -0.34559  -0.92996  -0.43227
   0.12511  -1.15696  -0.42807
   0.40351  -1.22016  -0.28987
   0.67691  -1.44946  -0.20857
   0.96161  -1.25986  -0.15567
   1.30561  -1.39616  -0.12647
   1.65091  -1.37276   0.07533
   2.03161  -1.26216   0.07183
   2.46081  -1.42676   0.02153
   2.77461  -1.41676   0.15413
   3.10611  -1.60406   0.31733
   3.56721  -1.38166   0.38463
   3.91771  -1.37746   0.39233
   4.24831  -1.37836   0.59343
   4.51091  -1.49596   0.84943
   4.81931  -1.46726   0.79633
   5.16181  -1.19626   1.02993
   5.52651  -1.23956   1.10433
   5.80901  -1.26856   1.40193
   5.79141  -1.45556   1.49753
   6.15481  -1.41206   1.71853
   6.23191  -1.50446   1.78863
   6.19381  -1.43266   1.94933
   6.49361  -1.42466   1.99933
   6.44191  -1.51306   2.28033
   6.39821  -1.28256   2.33783
   6.35751  -1.33866   2.40663
   6.27891  -1.38306   2.61353
   6.23571  -1.42536   2.69813
   6.09001  -1.37416   2.93853
   5.91471  -1.09786   2.89363
   5.65231  -1.07326   3.13683
   5.51881  -0.99936   2.95423
   5.32221  -1.05576   2.87003
   5.11321  -0.89096   2.95793
   4.76881  -0.70756   2.89643
   4.49921  -0.58976   2.84613
   4.39161  -0.57176   2.89363
   4.07861  -0.64026   2.77813
   3.85201  -0.38216   2.68153
   3.51581  -0.26106   2.79053
   3.38321  -0.03186   2.58223
   3.23961   0.07334   2.74233
   3.00561   0.03474   2.64273
   2.98901  -0.04876   2.40333
   2.53991  -0.14156   2.41243
   2.33321  -0.11906   2.27173
   2.42441  -0.15726   2.05823
   2.19451   0.09134   1.91303
   2.11741  -0.01596   1.84363
   2.14941  -0.00106   1.46363
   2.00161  -0.15836   1.34813
   1.77811   0.04554   1.10593
   1.61441   0.07614   0.88433
   1.72571   0.01654   0.44193
   1.47951   0.07054   0.32223
   1.60371   0.14864   0.08143
   1.28851   0.24194  -0.37497
   1.49221   0.30334  -0.41897
   1.33061   0.56664  -0.80097
   1.16901   0.56664  -1.29717
   1.23571   0.55754  -1.50147
   0.95001   0.77804  -1.73767
   0.90581   0.64074  -2.02147
   0.46621   0.62164  -2.21927
   0.42041   0.84094  -2.47417
   0.23851   0.86804  -2.97777
   0.00281   0.90494  -3.35347
  -0.14589   0.93774  -3.59967
  -0.32449   0.77894  -4.07297
  -0.64389   0.68704  -4.32777
  -0.84289   0.75884  -4.74517
  -0.94899   0.63354  -4.95417
  -1.25719   0.72354  -5.18517
  -1.46829   0.58654  -5.62237
  -1.57069   0.66294  -5.67097
  -1.89339   0.53974  -5.95417
  -2.12299   0.57344  -5.99157
  -2.32129   0.70994  -6.03507
  -2.65559   0.60684  -6.14147
  -2.80099   0.54004  -6.12787
  -3.06689   0.26154  -6.12717
  -3.12389   0.49654  -5.90787
  -3.48909   0.43194  -5.91957
  -3.60599   0.50774  -5.81927
  -4.00489   0.33074  -5.74277
  -4.29039   0.17554  -5.48487
  -4.38349   0.26314  -5.34507
  -4.58899   0.42964  -5.16507
  -4.90979   0.39204  -4.75377
  -5.02709   0.35244  -4.58687
  -5.33289   0.33264  -4.26327
  -5.47369   0.19884  -3.98217
  -5.68529   0.05714  -3.74277
  -5.97919   0.22104  -3.31097
  -6.07179   0.09904  -3.10567
  -6.39719   0.00694  -2.78507
  -6.74189  -0.26176  -2.43977
  -6.94319  -0.56126  -2.04977
  -7.19029  -0.57056  -1.75897
  -7.48309  -0.66366  -1.21087
  -7.86319  -0.84436  -0.73387
  -8.07789  -1.19156  -0.23587
  -8.17469  -1.40996   0.15203
  -8.21999  -1.43336   0.42933
  -8.41499  -1.68026   0.83773
  -8.45079  -1.71786   1.18563
  -8.49639  -1.91736   1.47933
  -8.40919  -2.14996   1.98153
  -8.31309  -2.37626   2.27033
  -8.23939  -2.45486   2.51043
  -7.96839  -2.45116   2.90973
  -7.95349  -2.22596   3.06333
  -7.74189  -2.07026   3.29533
  -7.52719  -2.14626   3.71173
  -7.19129  -2.22456   3.90093
  -6.97799  -2.11676   4.24293
  -6.58589  -1.90656   4.36383
  -6.00369  -1.79646   4.75943
  -5.60739  -1.77896   4.93433
  -5.07719  -1.51986   5.09633
  -4.63009  -1.18056   5.20503
  -3.90179  -1.03326   5.41083
  -3.30839  -0.77726   5.41483
  -2.70349  -0.64916   5.52543
  -1.95439  -0.63906   5.67503
  -1.30509  -0.20586   5.55463
  -0.69539  -0.13826   5.52893
   0.02411   0.14884   5.44263
   0.58241   0.39064   5.34323
   1.41571   0.52594   5.22213
   2.10611   0.64454   5.00793
   2.68271   0.84864   4.99953
   3.30861   0.84724   4.65253
   3.97681   0.96064   4.44423
   4.51621   1.22274   4.15483
   5.08001   1.32204   4.17963
   5.72221   1.50964   3.75523
   6.07831   1.33824   3.39703
   6.52001   1.36904   3.18803
   6.80131   1.43264   3.03373
   7.23171   1.52294   2.70093
   7.52191   1.46724   2.54523
   7.98131   1.47964   2.08163
   8.00751   1.48714   1.89483
   8.20201   1.44554   1.57073
   8.30091   1.39574   1.11293
   8.35161   1.18674   0.84363
   8.32051   1.12264   0.50883
   8.31451   1.10204   0.24553
   8.36501   1.27224   0.06833
   8.14591   1.21824  -0.23587
   8.03461   1.09224  -0.40117
   7.74511   0.91344  -0.66237
   7.39721   0.81964  -0.80737
   7.12161   0.66814  -1.01077
   6.89521   0.41844  -1.17957
   6.46881   0.54094  -1.21997
   6.07571   0.49864  -1.34227
   5.73091   0.44324  -1.40427
   5.34091   0.38144  -1.57117
   5.13141   0.17554  -1.54897
   4.83681   0.13854  -1.75867
   4.32761  -0.11136  -1.70987
   3.88801  -0.04616  -1.57327
   3.39441  -0.08266  -1.53887
   2.94081  -0.41326  -1.56087
   2.56161  -0.51326  -1.65297
   2.09311  -0.31546  -1.36967
   1.60581  -0.42586  -1.35867
   1.16931  -0.35546  -1.17207
   0.65701  -0.60796  -1.20457
   0.05771  -0.65526  -1.17397
  -0.26399  -0.65036  -0.96307
  -0.72319  -0.53736  -0.85357
  -1.05309  -0.39476  -0.65297
  -1.44349  -0.13456  -0.57307
  -1.89569  -0.07496  -0.49427
  -2.28689  -0.07776  -0.23727
  -2.67149   0.07444  -0.12277
  -3.22259  -0.05506   0.08163
  -3.51039   0.11914   0.25133
  -3.74699   0.24024   0.35283
  -3.96279   0.55024   0.51533
  -4.02389   0.81754   0.50763
  -4.45129   1.19494   0.64813
  -4.52019   1.17504   0.77093
  -4.63289   1.23094   1.03013
  -4.97219   1.41814   1.08863
  -5.03719   1.47034   1.16603
  -5.23779   1.52454   1.38463
  -5.26679   1.60054   1.34933
  -5.50529   1.57154   1.41153
  -5.57119   1.67534   1.63813
  -5.50669   1.95644   1.48893
  -5.50039   1.94894   1.76223
  -5.48139   1.95034   1.86723
  -5.50459   1.84304   2.08863
  -5.38699   1.82754   1.94413
  -5.36169   1.79324   2.19033
  -5.03369   1.65994   2.16063
  -4.87659   1.87504   2.21393
  -4.61159   1.87524   2.43983
  -4.48469   1.86854   2.34063
  -4.16979   1.85964   2.43743
  -3.63809   1.76444   2.60443
  -3.50549   1.84884   2.51603
  -3.09449   1.77404   2.65303
  -2.82749   1.78694   2.48683
  -2.38649   1.94914   2.70543
  -1.80079   1.98474   2.54083
  -1.52929   1.92534   2.63083
  -1.20829   1.87224   2.70213
  -0.52049   1.95854   2.62383
  -0.14449   1.61974   2.65773
   0.22121   1.59634   2.42973
   0.78611   1.30104   2.43563
   1.40921   1.54564   2.47203
   1.87961   1.50824   2.31073
   2.50171   1.44464   2.28153
   2.98181   1.34154   2.19453
   3.48401   0.92254   2.10613
   3.85831   0.79554   1.97263
   4.49031   0.71584   1.81953
   4.93361   0.58724   1.55793
   5.53591   0.44294   1.36383
   5.90811   0.42774   1.10333
   6.47911   0.44814   0.96513
   7.04931   0.37584   0.60793
   7.33971   0.08174   0.45613
   7.85481   0.12104   0.05073
   8.10611  -0.09296  -0.08537
   8.38461  -0.06326  -0.40357
   8.84261  -0.00316  -0.62727
   9.31871   0.06324  -0.88567
   9.43671   0.16004  -1.11637
   9.51111  -0.04546  -1.39627
   9.77271  -0.07586  -1.62167
   9.75291  -0.23386  -1.73947
   9.78071  -0.24346  -1.93057
   9.88381  -0.35966  -2.12087
   9.68761  -0.17336  -2.36567
   9.55951   0.02424  -2.30977
   9.51931   0.17014  -2.60387
   9.36191   0.12524  -2.88707
   9.06361   0.25524  -2.96487
   8.60021   0.05604  -3.10337
   8.47321  -0.05576  -3.09307
   7.99441  -0.22996  -3.34997
   7.69251  -0.02626  -3.23847
   7.27591   0.00204  -3.50987
   6.68151   0.16634  -3.83397
   6.20621   0.17574  -3.80687
   5.75471  -0.07256  -4.00907
   5.13651  -0.17666  -4.02737
   4.53051  -0.27766  -4.23267
   3.92421  -0.18906  -4.20477
   3.20761  -0.38566  -4.40957
   2.61631  -0.39706  -4.48347
   2.14401  -0.20286  -4.57867
   1.38321  -0.27296  -4.73297
   0.56961  -0.30266  -4.85857
   0.08091  -0.42706  -5.19477
  -0.72179  -0.57526  -5.25347
  -1.35769  -0.56966  -5.35097
  -2.10479  -0.50696  -5.31497
  -2.65979  -0.67766  -5.37407
  -3.37269  -0.52176  -5.50427
  -3.85269  -0.49856  -5.62307
  -4.45099  -0.66386  -5.78577
  -5.00229  -0.75666  -5.79917
  -5.32549  -0.82756  -5.81227
  -5.87909  -0.78566  -5.94157
  -6.25949  -0.58256  -5.81227
  -6.61839  -0.41256  -5.71337
  -7.00439  -0.13496  -5.74447
  -7.18379  -0.20886  -5.58007
  -7.62099  -0.23206  -5.54477
  -7.75309  -0.28906  -5.49867
  -7.82999  -0.20676  -5.37547
  -7.85429  -0.22666  -5.12367
  -7.93939   0.13064  -4.85407
  -8.06099   0.47434  -4.58057
  -7.99109   0.59654  -4.41917
  -8.07529   0.71344  -4.11547
  -7.91329   0.84884  -3.94687
  -8.02099   0.85564  -3.67987
  -7.77459   0.90664  -3.44257
  -7.61629   0.99944  -2.95107
  -7.40169   0.94214  -2.42337
  -7.08749   0.94094  -2.42597
  -7.12789   1.12524  -2.11497
  -6.96749   1.07214  -1.57307
  -6.66429   0.89634  -1.36377
  -6.53779   0.96034  -1.00307
  -6.16929   0.79114  -0.73137
  -6.07859   0.71414  -0.15987
  -5.95599   0.71464   0.00143
  -5.72199   0.74104   0.28973
  -5.38949   0.76284   0.68203
  -5.31519   0.84024   1.07083
  -5.01779   0.50234   1.51043
  -4.87329   0.59074   1.70843
  -4.44749   0.80604   2.19873
  -4.22979   0.77054   2.24173
  -4.04259   0.99454   2.65583
  -3.61559   1.05534   2.72973
  -3.42859   1.30224   3.02993
  -3.10569   1.21594   3.10103
  -2.93869   1.20584   3.26863
  -2.50809   1.32534   3.56393
  -2.33249   1.47544   3.69183
  -2.14519   1.71844   3.98813
  -1.73419   2.03054   3.96163
  -1.39489   2.07164   3.93693
  -1.08959   2.08664   4.05963
  -0.56209   2.10184   4.25443
  -0.32169   1.98194   4.38253
   0.04931   1.81634   4.59063
   0.41641   1.71484   4.67083
   0.71831   1.90804   4.75073
   1.26511   1.87694   4.62053
   1.73491   1.82594   4.74493
   2.10871   1.72894   4.58123
   2.53191   1.52944   4.50453
   3.02641   1.17364   4.73583
   3.46601   1.11494   4.68533
   3.79701   0.78624   4.54943
   4.15951   0.88694   4.68293
   4.59761   0.72934   4.60133
   4.80011   0.58844   4.59953
   5.36521   0.72164   4.47163
   5.46011   0.52944   4.40003
   5.64971   0.48154   4.20973
   6.00121   0.22924   4.11273
   6.13351   0.10114   3.93013
   6.40681   0.08684   3.70213
   6.46691  -0.03536   3.43563
   6.55061  -0.00736   3.34113
   6.68081   0.26244   3.11323
   6.72251   0.21614   2.85463
   6.62711   0.30364   2.60043
   6.79681   0.35904   2.26123
   6.77831   0.33754   2.20553
   6.55581   0.15634   1.74543
   6.29061   0.12964   1.57563
   6.09471   0.17384   1.09873
   5.99321   0.06374   0.99203
   5.75241   0.26554   0.83543
   5.34911   0.28494   0.64533
   5.23501   0.35364   0.32973
   4.94011   0.23444  -0.10727
   4.54521   0.27294  -0.43487
   4.23661   0.07804  -0.51347
   3.81621   0.28074  -0.69487
   3.42461   0.55564  -0.86807
   2.97241   0.45934  -1.16437
   2.71901   0.75374  -1.17627
   2.12741   0.68354  -1.36167
   1.77411   0.60664  -1.47157
   1.46811   0.80374  -1.52117
   0.97971   0.91054  -1.67407
   0.47141   0.86994  -1.61447
  -0.07339   0.89704  -1.58707
  -0.64489   0.93794  -1.68807
  -1.04769   0.89584  -1.76357
  -1.43649   0.94094  -1.85737
  -1.76479   0.69734  -1.96887
  -2.19479   0.77634  -1.84077
  -2.73439   0.86384  -1.88307
  -3.18469   0.76654  -1.65397
  -3.57309   0.90824  -1.64577
  -3.95369   0.90804  -1.70467
  -4.27499   0.80654  -1.70377
  -4.65559   0.58044  -1.55687
  -4.77339   0.66504  -1.71217
  -5.20339   0.37334  -1.47387
  -5.60109   0.40154  -1.33317
  -5.93099   0.26174  -1.31237
  -6.28779   0.22954  -1.13867
  -6.57589   0.15724  -1.09117
  -6.83659   0.21034  -0.97657
  -7.00589   0.11144  -0.93197
  -7.41949  -0.09686  -0.70657
