********************************************************************************
              CENTRO DE INSTRUMENTACION Y REGISTRO SISMICO  A.C.

    Anaxagoras 814, Col. Narvarte, Benito Juarez, C.P. 03020 Mexico, D.F.
           Tels. 5687 45 42/ 5687 45  82             Fax. 5669 25 12
********************************************************************************
ARCHIVO ESTANDAR DE ACELERACION:
VERSION DEL FORMATO                    : 2.0
NOMBRE DEL ARCHIVO                     : EX0820220919180509
FECHA Y HORA DE CREACION               : 19/SEP/22, 19:44
REF. CATALOGO ACELEROGRAMAS, SMIS 1996 : REGISTRO No.     /PAG.


================================================================================
DATOS DE LA ESTACION:
NOMBRE DE LA ESTACION                  : ESC. SEC. NO. 3, AZOTEA - CENTRO EDIF.1
CLAVE DE LA ESTACION                   : EX08
LOCALIZACION DE LA ESTACION            : Del. Cuauhtémoc, Col. Juárez,          
                                       : Av. Chapultepec, entre Venecia         
                                       : y Niza.                                
                                       :                                        
                                       : 
COORDENADAS DE LA ESTACION             : 19.4236 LAT. N
                                       : 99.1602 LONG. W
ALTITUD (msnm)                         : 2233
TIPO DE SUELO                          : Alto riesgo sísmico                 
                                       :                           
                                       : 
INSTITUCION RESPONSABLE                : CIRES, A. C.
                                       : 

================================================================================
DATOS DEL ACELEROGRAFO:
MODELO DEL ACELEROGRAFO                : RAD_IO14
NUMERO DE SERIE DEL ACELEROGRAFO       : 
NUMERO DE CANALES                      : 3
ORIENTACION C1-C6 (rumbo;orientacion)  : /N00E/+V/N90W
ORIENTACION C7-C12 (rumbo;orientacion) : 
VEL. DE MUESTREO, C1-C6 (muestras/s)   : /100/100/100
VEL. DE MUESTREO, C7-C12 (muestras/s)  : 
ESC. COMPLETA DE SENSORES, C1-C6, (g)  : /2.0/2.0/2.0
ESC. COMPLETA DE SENSORES, C7-C12, (g) : 
FREC. NAT. DE SENSORES, C1-C6, (Hz)    : /30/30/30
FREC. NAT. DE SENSORES, C7-C12, (Hz)   : 
AMORTIGUAMIENTO DE SENSORES, C1-C6     : /0.700/0.700/0.700
AMORTIGUAMIENTO DE SENSORES, C7-C12    : 
INTERVALO DE MUESTREO, C1-C6, (s)      : /0.01/0.01/0.01
INTERVALO DE MUESTREO, C7-C12, (s)     : 
UMBRAL DE DISPARO, C1-C6, (Gal)        : / / /
UMBRAL DE DISPARO, C7-C12, (Gal)       : 
MEMORIA DE PREEVENTO (s)               : 60
TIEMPO DE POSEVENTO (s)                : 90


================================================================================
DATOS DEL SISMO:
FECHA DEL SISMO (GMT)                  : 19/SEP/22
HORA EPICENTRO (GMT)                   : 18:05:09.0
MAGNITUD(ES)                           : /Mc=7.7
COORDENADAS DEL EPICENTRO              : 18.22 LAT. N
                                       : 103.29 LONG. W
PROFUNDIDAD FOCAL (km)                 : 15
FUENTE DE LOS DATOS EPICENTRALES       : SSN
                                       : INSTITUTO DE GEOFISICA, UNAM

================================================================================
DATOS DE ESTE REGISTRO:
HORA DE LA PRIMERA MUESTRA (GMT)       : 13:04:27.165.00
EXACTITUD DEL TIEMPO (s)               : 
DURACION DEL REGISTRO (s), C1-C6       : /599.87/599.87/599.87
DURACION DEL REGISTRO (s), C7-C12      : 
NUM. TOTAL DE MUESTRAS, C1-C6          : /59987/59987/59987
NUM. TOTAL DE MUESTRAS, C7-C12         : 
ACEL. MAX. (Gal), C1-C6                : /32.40984/12.87126/30.89761
ACEL. MAX., C1-C6, EN LA MUESTRA       : /21367/7134/19314
ACEL. MAX. (Gal), C7-C12               : 
ACEL. MAX., C7-C12, EN LA MUESTRA      : 
UNIDADES DE LOS DATOS                  : Gal (cm/s/s)
FACTOR DE DECIMACION                   : 1
FORMATO DATOS (FORTRAN,10 campos/dato) : 3F10.5


================================================================================
CALIDAD DEL ACELEROGRAMA:
REGISTRO DIGITAL COMPLETO CON TIEMPO ABSOLUTO CORRECTO.


================================================================================
COMENTARIOS:














================================================================================
DATOS DE ACELERACION:
---------+---------+---------+---------+---------+---------+---------+---------+
   CANAL-1   CANAL-2   CANAL-3   CANAL-4   CANAL-5   CANAL-6   CANAL-7   CANAL-8
      N00E        +V      N90W
---------+---------+---------+---------+---------+---------+---------+---------+
[...]
 -11.70196   1.93214   0.08179
 -12.42956   1.99014   0.23029
 -13.21936   2.23494   0.34229
 -13.95816   2.04134   0.31869
 -14.90236   2.09374   0.26699
 -15.79056   1.98454   0.47299
 -16.67036   2.07854   0.48489
 -17.54036   2.02194   0.31239
 -18.62756   1.75954   0.39469
 -19.37466   1.96094   0.25059
 -20.26236   1.88844   0.20529
 -21.06486   1.61974   0.07619
 -21.97926   0.99204   0.20009
 -22.50576   1.29314   0.15149
 -23.13916   0.94174   0.23099
 -23.77276   0.56674   0.35659
 -24.39336   0.18444   0.44889
 -25.02176   0.12624   0.54339
 -25.62506   0.02544   0.69789
 -26.14126  -0.62946   0.82159
 -26.80066  -0.75896   0.80269
 -27.06456  -1.15836   0.74509
 -27.56986  -1.34516   0.64929
 -27.96006  -1.72606   0.87959
 -28.37046  -2.02576   1.05959
 -28.79036  -2.07226   0.88449
 -29.02676  -2.45176   0.93149
 -29.53456  -2.41716   0.96309
 -29.56826  -2.75456   0.85779
 -29.81976  -2.88826   0.73419
 -30.02156  -3.26376   0.88309
 -30.17406  -3.21636   0.95179
 -30.12796  -3.23946   0.84689
 -30.25496  -3.21376   0.98149
 -30.38446  -3.38566   1.25489
 -30.42796  -3.41596   1.49169
 -30.43546  -3.05426   1.62009
 -30.60356  -2.92146   1.95179
 -31.02346  -3.04896   2.27919
 -31.13216  -2.84596   2.63569
 -31.26546  -2.61636   2.82019
 -31.24646  -2.86796   3.14569
 -31.48126  -2.53266   3.38909
 -31.57776  -2.31596   3.54919
 -31.49976  -1.71036   3.64199
 -31.59296  -2.07536   3.72919
 -31.47426  -1.55886   3.88499
 -31.37696  -1.28926   4.05049
 -31.29306  -1.08776   3.96139
 -31.31566  -1.14106   4.09699
 -31.10546  -0.73236   4.16039
 -30.87446  -0.56966   4.15899
 -30.51866  -0.52656   4.48609
 -30.28696  -0.33226   4.52349
 -29.78936   0.03574   4.76689
 -29.39566  -0.02016   4.85179
 -28.59366   0.06444   4.90999
 -27.91756   0.46704   4.92639
 -27.38796   0.44934   4.94599
 -26.72136   0.44654   5.02639
 -26.26406   0.55994   4.82019
 -25.38816   0.76774   4.80799
 -24.44216   0.91884   4.71009
 -23.67226   0.79564   4.44379
 -22.58906   0.21854   4.10899
 -21.91896   0.21994   4.15009
 -20.64066   0.07284   3.55319
 -19.67946   0.19794   3.17349
 -18.77376  -0.11626   3.06989
 -17.31776  -0.33796   2.33949
 -16.24296  -0.21166   2.14079
 -15.08676  -0.79476   1.27609
 -14.11116  -1.19316   1.20879
 -12.85396  -0.78266   0.42479
 -11.86396  -1.28066  -0.03481
 -10.72256  -1.38676  -0.35681
  -9.86396  -1.53576  -0.37531
  -8.64816  -1.34446  -0.70311
  -7.43256  -1.91426  -0.93311
  -6.42186  -1.65266  -0.96561
  -5.25816  -1.82236  -0.93731
  -4.02346  -1.99796  -0.91861
  -2.88526  -2.11366  -0.73041
  -1.85276  -2.33086  -0.55131
  -0.72046  -1.89956  -0.55531
   0.44024  -2.04916  -0.42131
   1.62494  -2.06856  -0.29341
   2.53024  -2.00076  -0.32151
   3.43174  -1.84156  -0.48611
   4.60414  -2.06246  -0.38861
   5.49724  -1.30306  -0.78681
   6.31274  -1.63296  -0.69351
   7.18984  -1.31966  -1.10471
   7.89494  -0.98956  -1.25321
   8.83554  -0.91426  -1.73321
   9.41754  -0.69866  -1.91681
  10.53444  -0.56166  -2.45151
  11.25054  -0.53266  -2.89171
  11.86944  -0.44216  -3.01451
  12.40704  -0.51776  -3.34041
  13.08904  -0.43026  -3.62121
  13.74724  -0.26146  -3.71411
  14.11684  -0.17006  -3.88171
  14.63664   0.05604  -4.04491
  15.22764   0.06164  -3.90741
  15.60434   0.13624  -3.94761
  16.00954   0.22834  -3.69211
  16.48694   0.27864  -3.71641
  16.82574   0.34834  -3.42791
  17.29174   0.30814  -3.43911
  17.61444   0.53604  -3.43231
  18.10824   0.97544  -3.49541
  18.61254   0.63844  -3.45991
  19.10684   0.80074  -3.46081
  19.88654   1.04254  -3.49261
  20.42944   1.21874  -4.05561
  21.00324   1.10144  -4.09121
  21.62044   1.30644  -4.44631
  22.47734   1.34294  -4.92961
  23.17504   1.46214  -5.14591
  23.89824   1.06984  -5.31991
  24.56954   1.35464  -5.81411
  25.48584   1.40984  -5.87301
  26.19824   1.27954  -6.08181
  26.85734   0.93474  -6.33931
  27.18984   0.97464  -6.32131
  27.97844   0.85244  -6.55161
  28.70514   0.86014  -6.48631
  29.03924   0.86804  -6.20951
  29.67374   0.74364  -6.09561
  29.97914   0.91254  -6.00941
  30.39044   0.81804  -5.86461
  30.61934   0.65534  -5.53661
  30.82624   0.56834  -5.40361
  31.35464   0.58614  -5.39721
  31.35654   0.45934  -5.50761
  31.54514   0.40424  -5.27471
  31.78014   0.49254  -5.06381
  32.00504   0.51874  -5.35521
  31.84234   0.14324  -5.34231
  31.62704   0.30884  -5.46251
  31.66114   0.31934  -5.37011
  31.56294   0.33784  -5.63831
  31.47244   0.22794  -5.60021
  31.26554   0.21064  -5.89571
  30.96654   0.48274  -5.92871
  30.69344   0.23724  -6.02031
  30.41984   0.11244  -6.09491
  30.16404   0.30414  -6.11481
  29.76524  -0.03886  -6.46881
  29.38454   0.01094  -6.54921
  28.82664  -0.25916  -6.27471
  28.41894   0.15844  -6.42971
  27.93474  -0.12676  -6.41691
  27.39744   0.01814  -6.46571
  26.92274   0.00784  -6.31121
  26.43294   0.29224  -6.12581
  25.81924   0.38054  -6.26561
  25.28774   0.22084  -6.10831
  24.79634   0.40584  -5.86881
  24.00134   0.66234  -5.42741
  23.31044   0.33614  -5.29901
  22.41684   0.19284  -4.78841
  21.49724   0.50664  -4.34651
  20.75984   0.48464  -4.05311
  19.98804   0.45404  -3.59621
  19.16174   0.64054  -3.14311
  18.31954   0.92674  -2.56981
  17.40444   0.40674  -2.11291
  16.23844   0.58114  -1.57521
  15.48794   0.73134  -1.24571
  14.70794   0.82174  -0.76901
  13.53464   0.78324  -0.20151
  12.59144   0.37964   0.22189
  11.56674   0.67634   0.73159
  10.58514   0.86594   1.22799
   9.51624   0.24034   1.57889
   8.23774   0.37054   1.76219
   7.22274   0.85454   2.19479
   6.04274   0.56834   2.09559
   4.83254   0.28024   2.25019
   3.61584   0.05134   2.22869
   2.47944   0.30694   2.20459
   1.36324  -0.04656   2.07009
   0.21344  -0.35496   1.94969
  -0.82006  -0.38846   1.63919
  -2.00796  -0.26216   1.56649
  -3.06156  -0.46416   1.19689
  -4.37836  -0.88086   1.41099
  -5.60746  -0.60606   1.38929
  -6.51256  -0.87706   1.38439
  -7.50396  -1.05616   1.71149
  -8.59366  -1.15226   1.96819
  -9.33726  -1.13006   2.52349
 -10.22216  -1.00476   2.65679
 -11.07936  -1.46016   3.24269
 -11.97596  -1.26796   3.53379
 -12.69606  -1.22876   3.96399
 -13.42026  -1.49736   4.23219
 -14.23786  -1.64586   4.48259
 -14.92006  -1.57826   4.76779
 -15.63436  -1.71836   4.61839
 -16.51486  -1.89716   4.77249
 -17.16516  -1.84996   4.60139
 -17.89536  -1.83616   4.46789
 -18.50326  -1.79646   4.31419
 -19.05076  -2.01596   4.17889
 -19.82566  -2.07536   3.84239
 -20.37116  -2.06786   3.74369
 -20.86726  -2.20656   3.55059
 -21.45136  -2.42626   3.31799
 -22.07886  -2.42416   3.45269
 -22.40176  -2.03676   3.48539
 -22.89396  -2.15136   3.58009
 -23.44106  -2.30446   3.67099
 -23.68976  -2.03816   3.99319
 -24.09286  -2.17846   4.21069
 -24.39376  -2.12606   4.38389
 -24.83546  -1.96826   4.56959
 -25.21676  -1.76606   5.08349
 -25.03936  -1.47236   5.40379
 -25.43356  -1.85676   5.86319
 -25.47656  -1.76816   6.13419
 -25.70106  -1.61096   6.46569
 -25.80486  -1.99026   6.59739
 -25.57686  -1.95116   6.73209
 -25.66076  -1.60846   6.97799
 -25.38166  -1.44916   7.14189
 -25.04546  -1.86726   7.58079
 -25.22636  -1.76766   7.60229
 -24.78286  -1.63926   7.95669
 -24.58106  -1.39266   8.04159
 -24.06906  -1.31476   8.00159
 -23.86376  -1.22526   8.36659
 -23.58226  -1.36266   8.45129
 -23.25536  -1.63976   8.79399
 -23.07906  -1.74426   8.95229
 -23.04236  -1.61736   9.27149
 -22.67246  -1.63836   9.46999
 -22.76066  -1.50996   9.46879
 -22.50346  -1.67436   9.58969
 -22.59256  -1.73566   9.51339
 -22.67226  -1.58106   9.59249
 -22.78706  -1.33366   9.29089
 -22.82396  -1.33796   9.12229
 -22.88666  -0.92566   8.71589
 -22.91616  -0.91126   8.34719
 -23.10196  -1.31546   8.16669
 -23.38676  -1.11366   7.73839
 -23.46506  -1.26706   7.64879
 -23.51936  -0.74636   7.16129
 -23.56166  -0.68936   7.00349
 -23.76626  -0.81726   6.79589
 -23.52846  -0.54176   6.34299
 -23.58176  -0.82306   6.30699
 -23.58736  -0.53686   6.42059
 -23.38726  -0.44596   6.41289
 -23.36266  -0.33696   6.49289
 -23.10056  -0.41346   6.42199
 -23.06736  -0.35126   6.54639
 -22.44846  -0.24086   6.83049
 -21.98696  -0.05856   6.89429
 -21.45436   0.11734   7.08879
 -21.04166  -0.04236   7.43629
 -20.27596  -0.02036   7.42899
 -19.53106  -0.04706   7.59859
 -18.75476  -0.02456   7.92989
 -17.76716   0.01144   8.09399
 -16.59066  -0.03446   8.30469
 -15.65026   0.12804   8.13489
 -14.61476   0.05134   8.12929
 -13.75716   0.04574   8.05799
 -12.47816   0.52784   7.98599
 -11.32856   0.29434   7.47979
 -10.54316   0.42754   7.24599
  -9.34256   0.17364   7.05029
  -8.51516   0.31444   6.46899
  -7.72646  -0.01106   6.21839
  -6.49126   0.20284   5.69249
  -5.57846   0.58964   4.94269
  -4.63926   0.81454   4.36819
  -3.55066   0.75114   3.62289
  -2.64136   0.93724   3.14919
  -1.75666   1.24494   2.56489
  -0.78846   1.30974   1.76499
   0.01424   0.94434   1.36899
   0.85424   1.45894   0.49049
   1.63754   1.65364  -0.03861
   2.75374   1.63614  -0.48981
   3.57584   1.36234  -0.80031
   4.35014   1.65694  -1.06221
   5.04674   1.89804  -1.24711
   5.81574   1.72734  -1.62661
   6.57134   1.82694  -1.74771
   7.15804   1.93564  -1.97831
   8.01004   1.95974  -2.24431
   8.69504   1.54894  -2.44941
   9.25644   1.71774  -2.62641
   9.73834   1.86104  -2.76201
  10.25484   1.82854  -2.97971
  10.96974   1.64264  -3.23031
  11.75304   1.63124  -3.56701
  12.55244   1.75794  -3.69821
  13.30974   1.57624  -4.05381
  13.89524   1.82414  -4.34071
  14.66634   1.91184  -4.72271
  15.37074   1.63634  -5.06691
  16.00624   1.07614  -5.33221
  16.91504   1.02944  -5.77511
  17.40744   1.48974  -6.10331
  18.15964   1.41914  -6.25201
  18.92274   1.23424  -6.44451
  19.63824   1.09374  -6.44801
  20.35624   0.80824  -6.74561
  21.18674   0.91834  -6.72811
  22.05394   0.84254  -7.07411
  22.98544   0.57414  -7.13941
  23.82854   1.02404  -7.20881
  24.54614   1.02124  -7.59971
  25.29264   0.90334  -7.87611
  26.16504   0.84984  -8.20651
  26.97094   1.01884  -8.70611
  27.72594   1.08644  -9.11201
  28.41684   1.07054  -9.57211
  29.18044   1.11564 -10.02601
  29.64434   1.17924 -10.57031
  30.23704   1.48344 -11.21911
  30.70414   1.68314 -11.86791
  31.41144   1.83534 -12.80341
  31.65484   2.07784 -13.25041
  32.05484   1.89454 -13.70821
  32.34624   1.93614 -14.15431
  32.39064   2.33124 -14.62011
  32.40984   2.11474 -14.86701
  32.21224   2.69784 -15.05451
  32.21974   2.90244 -15.04261
  31.73344   2.73574 -15.01291
  31.19124   2.89594 -14.86251
  31.01514   3.01304 -14.29691
  30.39924   2.86624 -14.03811
  30.03524   3.09164 -13.69321
  29.44744   3.23534 -13.20581
  28.68294   3.47134 -12.59531
  28.21204   3.66744 -12.11551
  27.23984   3.54494 -11.61331
  26.46054   3.72034 -10.86351
  25.68544   3.68614 -10.29831
  24.97964   3.59474  -9.78141
  24.19094   3.88094  -9.36151
  23.63004   3.67304  -8.91821
  22.85004   3.94594  -8.57611
  22.29194   3.82344  -8.14291
  21.36584   3.59924  -7.82441
  20.70024   3.74584  -7.58731
  20.19284   3.71794  -7.32571
  19.52994   3.58164  -7.32201
  18.81804   3.68734  -7.29161
  18.16404   3.78854  -7.10571
  17.67304   3.63664  -6.87051
  16.80024   3.27844  -6.58691
  16.27094   3.11404  -6.40031
  15.85194   2.78114  -6.03271
  15.11334   2.80494  -5.81271
  14.61864   2.68004  -5.53961
  14.03784   2.59144  -5.32971
  13.46314   2.50684  -4.78981
  13.17604   2.05814  -4.31491
  12.28164   1.91224  -3.78751
  12.05024   1.28654  -3.06501
  11.40634   1.09254  -2.60531
  11.07804   1.26884  -2.08701
  10.71634   0.86924  -1.17491
  10.05254   0.84654  -0.64131
   9.74414   0.28704   0.03929
   9.22764   0.04744   0.43489
   8.74764  -0.21256   0.85669
   8.40514  -0.20936   1.18889
   8.06754  -0.54206   1.26749
   7.80094  -0.51936   1.30629
   7.29544  -1.06736   1.49399
   7.00274  -1.26376   1.49539
   6.83654  -1.52166   1.19429
   6.29804  -1.50956   0.88049
   5.89474  -1.81866   0.65139
   5.19634  -1.87826   0.41879
   4.88254  -1.88456   0.04609
   4.27744  -1.96706   0.07619
   3.56814  -2.19436  -0.01541
   3.01914  -2.08426  -0.17331
   2.10964  -2.23806  -0.21371
   1.40424  -2.18926  -0.10851
   0.47014  -2.08706   0.15619
  -0.23736  -2.07586   0.47789
  -1.13796  -1.82606   0.76029
  -2.12376  -1.97366   1.07879
  -2.94906  -1.90816   1.63689
  -3.75876  -2.12206   2.00419
  -4.65356  -1.86676   2.49819
  -5.55026  -1.63856   2.71759
  -6.49036  -1.59976   3.11479
  -7.24816  -1.60306   3.37759
  -7.99676  -1.42516   3.77179
  -8.93996  -1.54296   3.76809
  -9.79506  -1.56986   3.99929
 -10.54856  -1.48946   4.06359
 -11.25376  -1.52446   3.99999
 -12.09876  -1.32456   3.99809
 -12.80576  -1.37116   4.14869
 -13.54626  -1.23596   4.21909
 -14.35896  -1.37156   4.28149
 -15.09336  -1.42046   4.26749
 -15.67066  -1.60006   4.47649
 -16.28696  -1.55556   4.64879
 -16.91076  -1.25606   4.95509
 -17.50466  -1.31406   5.08489
 -18.21636  -1.49526   5.30629
 -18.72226  -1.79106   5.72039
 -19.25986  -1.79426   6.05399
 -20.12886  -1.88926   6.45569
 -20.76206  -1.89246   6.83469
 -21.33226  -1.81886   7.24219
 -21.90956  -1.93156   7.50619
 -22.42676  -2.09546   7.92939
 -23.06366  -1.94676   8.21629
 -23.54836  -2.04566   8.78369
 -24.60076  -2.54646   9.16949
 -25.29466  -2.47116   9.48839
 -26.12026  -2.48966   9.89809
 -26.65966  -2.48946  10.05489
 -27.11396  -2.98956  10.44419
 -27.54506  -2.83336  10.56979
 -27.82846  -3.10616  10.97779
 -28.19176  -2.74496  11.33479
 -28.30336  -2.95396  11.49399
 -28.65406  -3.09426  11.61369
 -28.66756  -3.24346  12.03859
 -28.65336  -3.14226  11.93849
 -28.61666  -3.24646  11.96939
 -28.49106  -3.42466  12.07079
 -28.32416  -3.26266  12.05889
 -28.01106  -3.31806  11.73459
 -27.54346  -3.23056  11.61439
 -27.18196  -3.34656  11.46269
 -26.58056  -3.39126  11.04509
 -26.27616  -3.19176  10.62779
 -25.67486  -3.38936  10.10539
 -25.25206  -3.34776   9.68949
 -24.62386  -3.25466   8.86299
 -24.06136  -3.21146   8.33789
 -23.34496  -3.30636   7.78229
 -22.89506  -3.19946   6.98149
 -22.13286  -3.06206   6.25649
 -21.69826  -3.33606   5.43249
 -21.21466  -3.09596   4.92729
 -20.24156  -2.98906   4.07269
 -19.85576  -2.60816   3.17509
 -19.26656  -2.74446   2.63499
 -18.31876  -2.91336   1.96449
 -17.69396  -2.74666   1.29759
 -17.03136  -2.60656   0.41059
 -16.63226  -2.46716  -0.25231
 -15.95286  -1.99026  -0.80061
 -15.47676  -1.92646  -1.66431
 -14.85486  -2.19226  -1.89991
 -14.18216  -1.97996  -2.09001
 -13.86466  -1.89906  -2.74891
 -13.37486  -1.69166  -2.87511
 -12.97526  -1.68626  -3.10381
 -12.85576  -1.36906  -3.22981
 -12.32316  -1.07136  -3.04211
 -12.03276  -1.05896  -3.20721
 -11.58206  -0.88406  -3.21811
 -11.16656  -0.65846  -3.07151
 -10.76016  -0.68676  -3.12561
 -10.60446  -0.73146  -3.08951
 -10.24556  -0.47606  -2.69091
  -9.43516  -0.21536  -2.43231
