********************************************************************************
              CENTRO DE INSTRUMENTACION Y REGISTRO SISMICO  A.C.

    Anaxagoras 814, Col. Narvarte, Benito Juarez, C.P. 03020 Mexico, D.F.
           Tels. 5687 45 42/ 5687 45  82             Fax. 5669 25 12
********************************************************************************
ARCHIVO ESTANDAR DE ACELERACION:
VERSION DEL FORMATO                    : 2.0
NOMBRE DEL ARCHIVO                     : EX0920220919180509
FECHA Y HORA DE CREACION               : 19/SEP/22, 19:44
REF. CATALOGO ACELEROGRAMAS, SMIS 1996 : REGISTRO No.     /PAG.


================================================================================
DATOS DE LA ESTACION:
NOMBRE DE LA ESTACION                  : ESC. SEC. NO. 3, BIBLIOTECA
CLAVE DE LA ESTACION                   : EX09
LOCALIZACION DE LA ESTACION            : Del. Cuauhtémoc, Col. Juárez,          
                                       : Av. Chapultepec, entre Venecia         
                                       : y Niza.                                
                                       :                                        
                                       : 
COORDENADAS DE LA ESTACION             : 19.4236 LAT. N
                                       : 99.1602 LONG. W
ALTITUD (msnm)                         : 2233
TIPO DE SUELO                          : Alto riesgo sísmico                 
                                       :                           
                                       : 
INSTITUCION RESPONSABLE                : CIRES, A. C.
                                       : 

================================================================================
DATOS DEL ACELEROGRAFO:
MODELO DEL ACELEROGRAFO                : RAD_IO14
NUMERO DE SERIE DEL ACELEROGRAFO       : 
NUMERO DE CANALES                      : 3
ORIENTACION C1-C6 (rumbo;orientacion)  : /N00E/+V/N90W
ORIENTACION C7-C12 (rumbo;orientacion) : 
VEL. DE MUESTREO, C1-C6 (muestras/s)   : /100/100/100
VEL. DE MUESTREO, C7-C12 (muestras/s)  : 
ESC. COMPLETA DE SENSORES, C1-C6, (g)  : /2.0/2.0/2.0
ESC. COMPLETA DE SENSORES, C7-C12, (g) : 
FREC. NAT. DE SENSORES, C1-C6, (Hz)    : /30/30/30
FREC. NAT. DE SENSORES, C7-C12, (Hz)   : 
AMORTIGUAMIENTO DE SENSORES, C1-C6     : /0.700/0.700/0.700
AMORTIGUAMIENTO DE SENSORES, C7-C12    : 
INTERVALO DE MUESTREO, C1-C6, (s)      : /0.01/0.01/0.01
INTERVALO DE MUESTREO, C7-C12, (s)     : 
UMBRAL DE DISPARO, C1-C6, (Gal)        : / / /
UMBRAL DE DISPARO, C7-C12, (Gal)       : 
MEMORIA DE PREEVENTO (s)               : 60
TIEMPO DE POSEVENTO (s)                : 90


================================================================================
DATOS DEL SISMO:
FECHA DEL SISMO (GMT)                  : 19/SEP/22
HORA EPICENTRO (GMT)                   : 18:05:09.0
MAGNITUD(ES)                           : /Mc=7.7
COORDENADAS DEL EPICENTRO              : 18.22 LAT. N
                                       : 103.29 LONG. W
PROFUNDIDAD FOCAL (km)                 : 15
FUENTE DE LOS DATOS EPICENTRALES       : SSN
                                       : INSTITUTO DE GEOFISICA, UNAM

================================================================================
DATOS DE ESTE REGISTRO:
HORA DE LA PRIMERA MUESTRA (GMT)       : 13:04:27.165.00
EXACTITUD DEL TIEMPO (s)               : 
DURACION DEL REGISTRO (s), C1-C6       : /599.74/599.74/599.74
DURACION DEL REGISTRO (s), C7-C12      : 
NUM. TOTAL DE MUESTRAS, C1-C6          : /59974/59974/59974
NUM. TOTAL DE MUESTRAS, C7-C12         : 
ACEL. MAX. (Gal), C1-C6                : /32.07311/4.82038/27.34879
ACEL. MAX., C1-C6, EN LA MUESTRA       : /21080/20501/19332
ACEL. MAX. (Gal), C7-C12               : 
ACEL. MAX., C7-C12, EN LA MUESTRA      : 
UNIDADES DE LOS DATOS                  : Gal (cm/s/s)
FACTOR DE DECIMACION                   : 1
FORMATO DATOS (FORTRAN,10 campos/dato) : 3F10.5


================================================================================
CALIDAD DEL ACELEROGRAMA:
REGISTRO DIGITAL COMPLETO CON TIEMPO ABSOLUTO CORRECTO.


================================================================================
COMENTARIOS:














================================================================================
DATOS DE ACELERACION:
---------+---------+---------+---------+---------+---------+---------+---------+
   CANAL-1   CANAL-2   CANAL-3   CANAL-4   CANAL-5   CANAL-6   CANAL-7   CANAL-8
      N00E        +V      N90W
---------+---------+---------+---------+---------+---------+---------+---------+
[...]
   6.79949   0.33932   8.74821
   6.94279   0.33832   8.44071
   7.02349   0.73492   8.38391
   6.99729   0.91932   8.09871
   7.30939   1.14892   7.89711
   7.44809   1.32942   7.54921
   7.43549   1.42232   7.08021
   7.71699   1.54382   6.82891
   7.88389   1.82722   6.40591
   8.06769   1.87142   5.95181
   8.33439   1.94442   5.52301
   8.56759   1.96032   5.07691
   8.80389   1.99632   4.47301
   8.93649   2.08912   4.01031
   9.28389   2.17182   3.45431
   9.55099   2.22752   2.79311
   9.96809   2.34392   2.17911
  10.18999   2.07272   1.62661
  10.58389   1.86812   1.01821
  11.02749   1.97102   0.35351
  10.96479   1.81042  -0.40379
  11.45069   1.97522  -1.09029
  11.81699   2.00632  -1.89219
  12.03769   1.82462  -2.60419
  12.34259   1.76712  -3.38909
  12.59209   1.84192  -4.24529
  13.07399   1.60372  -4.98109
  13.34749   1.90372  -5.53919
  13.60659   1.70942  -6.01429
  13.91759   1.61052  -6.81269
  14.31849   1.60372  -7.34019
  14.53619   1.58762  -7.95699
  14.83109   1.63032  -8.48539
  15.17429   1.67172  -8.95529
  15.42069   1.65582  -9.37709
  15.64489   1.52792  -9.68249
  15.80389   1.52442 -10.03969
  16.05129   1.59042 -10.27749
  16.12569   1.60302 -10.37179
  16.10199   1.68202 -10.41099
  16.15819   1.57612 -10.43469
  16.09919   1.71172 -10.52559
  15.76749   1.60792 -10.56929
  15.60939   1.49472 -10.30179
  15.41959   1.29092 -10.18069
  15.23019   1.25492 -10.03759
  14.68699   1.14752  -9.86809
  14.31479   1.06342  -9.48119
  13.85859   1.21392  -9.33669
  13.27529   0.88712  -9.23729
  12.93809   0.80622  -8.97219
  12.41299   0.86722  -8.90549
  11.81169   0.58662  -8.70419
  11.32419   0.54992  -8.68929
  10.74009   0.49682  -8.69139
  10.11539   0.36992  -8.60369
   9.52659   0.50622  -8.61799
   8.86659   0.22262  -8.65769
   8.39939   0.33902  -8.81339
   7.90819   0.22912  -8.91349
   7.40859   0.26982  -8.88819
   6.87099   0.02622  -9.08389
   6.16959   0.01172  -9.38089
   5.52919  -0.10468  -9.52399
   4.69429  -0.03548  -9.58639
   4.24279  -0.05988  -9.86139
   3.50679   0.11012  -9.97689
   2.85929  -0.05728 -10.07509
   2.19789   0.20902 -10.20579
   1.56639   0.31452 -10.32379
   0.93629   0.43352 -10.34489
   0.36039   0.87752 -10.40069
  -0.26971   0.70352 -10.52019
  -0.80631   1.13682 -10.39839
  -1.54941   1.22612 -10.64599
  -2.01001   1.32802 -10.50129
  -2.50421   1.57872 -10.46529
  -3.13321   1.53002 -10.53469
  -3.63421   1.54782 -10.44769
  -4.14231   1.68652 -10.51039
  -4.64501   1.46432 -10.48519
  -5.07641   1.52282 -10.43349
  -5.68751   1.54432 -10.23009
  -6.09251   1.37882 -10.25369
  -6.55051   1.23172 -10.31099
  -7.09741   1.14612 -10.25999
  -7.61201   0.98362 -10.26369
  -8.06911   0.85112 -10.17769
  -8.64611   0.79542 -10.02409
  -9.21171   0.63482 -10.16129
  -9.73361   0.49642 -10.23289
 -10.14771   0.30352 -10.14659
 -10.81591   0.18472  -9.80939
 -11.45091  -0.11568  -9.94759
 -12.11121  -0.24078  -9.73769
 -12.73521  -0.15408  -9.45009
 -13.35411  -0.45548  -9.21789
 -13.99361  -0.60948  -8.96309
 -14.56011  -0.35768  -8.66279
 -15.23911  -0.40048  -8.44049
 -15.89261  -0.43578  -8.07739
 -16.62141  -0.49148  -7.63149
 -17.03171  -0.45848  -6.96239
 -17.46401  -0.30018  -6.56299
 -18.11561  -0.38408  -5.94479
 -18.70951  -0.33858  -5.15429
 -19.19861  -0.49118  -4.61699
 -19.57461  -0.40538  -3.96869
 -20.12011  -0.44938  -3.29899
 -20.63681  -0.47978  -2.50219
 -20.97391  -0.51948  -1.82739
 -21.41871  -0.45198  -1.00229
 -21.72561  -0.57518  -0.19659
 -21.80161  -0.37568   0.44381
 -22.05111  -0.50758   1.14081
 -22.38641  -0.55198   1.93451
 -22.50701  -0.58898   2.62101
 -22.63051  -0.39158   3.43541
 -22.76191  -0.38038   4.16251
 -22.59521  -0.20388   4.73931
 -22.71651  -0.22068   5.41591
 -22.55871  -0.21718   5.88711
 -22.32931  -0.14288   6.37621
 -22.09461  -0.11078   6.92171
 -22.02071  -0.31818   7.27781
 -21.69971  -0.12058   7.64201
 -21.37981   0.03602   8.10921
 -21.08361   0.02922   8.26701
 -20.75581   0.20582   8.67061
 -20.36391   0.21022   8.85851
 -19.93581   0.20112   8.96941
 -19.33031   0.06242   9.13021
 -18.66201   0.24252   9.20361
 -18.20801   0.22802   9.23451
 -17.49721   0.15242   9.27151
 -16.93841  -0.10028   9.31471
 -16.34851  -0.08698   9.27821
 -15.72211  -0.38458   9.14821
 -14.97771  -0.39258   8.93851
 -14.16891  -0.57238   8.95301
 -13.54911  -0.74468   8.85831
 -12.59941  -0.67308   8.56821
 -11.99121  -0.80288   8.37011
 -11.35761  -0.76848   8.22591
 -10.49491  -0.80218   8.02361
  -9.73431  -0.93588   7.65021
  -9.04291  -1.01748   7.50431
  -8.33471  -0.92278   7.26931
  -7.50421  -1.21228   7.14261
  -6.79721  -1.13508   6.72881
  -5.98261  -1.23358   6.55831
  -5.37631  -1.22838   6.28951
  -4.67371  -1.24128   5.85571
  -3.99151  -1.18588   5.62051
  -3.24561  -1.15408   5.38231
  -2.62601  -1.19588   5.00681
  -1.91991  -1.33928   4.66851
  -1.17991  -1.49358   4.50341
  -0.63491  -1.50318   4.23191
   0.12779  -1.49888   4.07741
   0.64139  -1.78488   3.81761
   1.34399  -1.69388   3.72341
   1.86329  -1.84168   3.42341
   2.59209  -1.92278   3.22871
   3.21449  -1.74398   3.02481
   3.86029  -1.87398   2.96911
   4.46159  -1.92558   2.78211
   5.04869  -1.99768   2.45851
   5.58459  -1.81998   2.29441
   6.18389  -1.81038   2.26631
   6.74879  -1.89618   1.91681
   7.25379  -1.64438   1.92781
   7.90279  -1.48228   1.70421
   8.21989  -1.52468   1.51271
   8.79039  -1.28518   1.42761
   9.20279  -1.27288   1.23661
   9.54649  -1.12198   0.83001
  10.13799  -0.95368   0.74421
  10.42239  -0.77108   0.58411
  10.91569  -0.57558   0.38601
  11.31319  -0.51998   0.17701
  11.88649  -0.43978  -0.02829
  12.39339  -0.28008  -0.34249
  12.67579  -0.15378  -0.44749
  13.26269  -0.16248  -0.56859
  13.53789  -0.03318  -0.69179
  13.93089   0.02782  -0.72059
  14.26779   0.19342  -0.75519
  14.64849   0.47562  -0.70589
  15.06599   0.49192  -0.70609
  15.37789   0.51532  -0.72739
  15.86609   0.78142  -0.61229
  16.04549   1.00562  -0.48089
  16.24929   0.94372  -0.36289
  16.75929   1.01642  -0.09939
  17.10109   1.02952  -0.01779
  17.34639   1.08932   0.16691
  17.68819   1.08492   0.19011
  18.09849   1.01502   0.52371
  18.46259   1.01852   0.72741
  18.64419   1.01572   0.95161
  18.95079   1.21252   1.04211
  18.85929   1.08182   1.46131
  19.24419   0.90462   1.58481
  19.39639   1.09732   1.86981
  19.49249   0.94082   2.05071
  19.74879   1.00632   2.28201
  19.66859   0.65492   2.35351
  19.88789   0.72292   2.56931
  19.73029   0.53242   2.85361
  19.94399   0.57212   3.03201
  19.95079   0.50852   3.33811
  19.94469   0.61282   3.38321
  20.07399   0.75992   3.53381
  20.01949   0.65372   3.73071
  19.94469   0.81442   3.83141
  20.06999   1.01032   3.78981
  19.93629   1.13862   3.72901
  19.77819   1.19382   3.80481
  19.62529   1.19712   3.78751
  19.66689   1.39722   3.57071
  19.45879   1.55582   3.49641
  19.44459   1.61682   3.37571
  19.42939   1.71802   3.06221
  19.39829   1.84622   2.95811
  19.32389   1.98432   2.74561
  19.29959   2.16322   2.44241
  19.09389   2.12462   2.03741
  19.07209   2.26682   1.88851
  18.98329   2.29512   1.69751
  18.93629   2.42202   1.42111
  18.83389   2.43232   1.24181
  18.49039   2.42932   0.99021
  18.47589   2.50292   0.80431
  18.35339   2.57422   0.57191
  18.37069   2.51252   0.27941
  18.22339   2.64132   0.19731
  18.13309   2.68622  -0.01469
  17.96809   2.45102  -0.31729
  17.78479   2.39302  -0.54339
  17.64279   2.25272  -0.59549
  17.45949   2.16722  -0.63029
  17.23619   1.85952  -0.71099
  16.93039   1.81162  -0.79959
  16.75789   1.68012  -0.66119
  16.48169   1.64412  -0.80359
  16.19839   1.73442  -0.49749
  15.93579   1.71192  -0.45709
  15.58129   1.66002  -0.40399
  15.07539   1.69142  -0.31609
  14.69799   1.78302  -0.36589
  14.32419   1.74512  -0.07389
  14.02279   1.60352  -0.07129
  13.32159   1.67902   0.01081
  13.03399   1.65582   0.16061
  12.44599   1.61492   0.25131
  11.95379   1.67102   0.26191
  11.37279   1.61962   0.32711
  10.98259   1.82842   0.32411
  10.46049   1.83262   0.28991
   9.98119   1.84052   0.32101
   9.44639   1.95512   0.23381
   9.06629   1.96842   0.14541
   8.53929   2.06762  -0.10169
   7.88179   1.91982  -0.04399
   7.34289   2.16022  -0.22679
   6.82399   2.06802  -0.54799
   6.13949   2.12672  -0.78119
   5.76069   2.15152  -0.81809
   5.24189   2.12672  -1.16969
   4.45649   2.04982  -1.32429
   4.05129   1.85572  -1.66869
   3.29049   1.80502  -1.86039
   2.69709   1.68652  -2.24079
   1.89469   1.55042  -2.41659
   1.03119   1.57312  -2.73599
   0.50579   1.56632  -2.88469
  -0.35481   1.37502  -2.95769
  -1.17531   1.22842  -3.21069
  -1.80931   1.12372  -3.13979
  -2.58191   0.95652  -3.18139
  -3.51921   0.81162  -3.23969
  -4.31551   0.46322  -3.12249
  -5.14881   0.53852  -3.08999
  -6.04671   0.32202  -3.04719
  -6.87691   0.15382  -3.00419
  -7.85071  -0.23118  -2.85949
  -8.76891  -0.22698  -2.42369
  -9.67931  -0.45338  -2.17539
 -10.59961  -0.67658  -1.94879
 -11.53931  -0.72128  -1.63029
 -12.55121  -0.89618  -1.26539
 -13.50031  -1.05488  -0.93269
 -14.32121  -1.19238  -0.41339
 -15.31551  -1.17648  -0.15479
 -16.37001  -1.26348   0.19031
 -17.21081  -1.42618   0.37971
 -18.27071  -1.64338   0.77531
 -19.24751  -1.58408   1.11481
 -20.22041  -1.72708   1.26541
 -21.21481  -1.64978   1.36121
 -22.08431  -1.73668   1.65681
 -22.82781  -1.70698   1.74771
 -23.53321  -1.68668   1.83871
 -24.09181  -1.55268   1.94441
 -24.83231  -1.50478   1.86911
 -25.23021  -1.44608   2.03021
 -25.67331  -1.43818   1.76221
 -26.21731  -1.26398   1.81161
 -26.50981  -1.22728   1.91371
 -26.73311  -0.99698   1.98901
 -27.23001  -0.86208   1.99741
 -27.32491  -0.61678   1.93311
 -27.70861  -0.31798   1.97551
 -27.91391  -0.23448   1.90581
 -28.07381  -0.03808   1.74631
 -28.30481   0.13092   1.71481
 -28.31231   0.28242   1.88921
 -28.58701   0.32342   1.72501
 -28.59731   0.28362   1.67971
 -28.93681   0.42272   1.75661
 -29.34311   0.37852   1.79941
 -29.39971   0.52142   1.70261
 -29.63611   0.42742   1.79281
 -29.82311   0.56982   1.70191
 -30.20471   0.59762   1.93801
 -30.44041   0.64322   1.73951
 -30.68711   0.61542   1.84781
 -30.82551   0.69252   1.88941
 -31.15331   0.53682   1.97941
 -31.36601   0.49152   2.07151
 -31.50001   0.56092   2.16201
 -31.79721   0.38632   2.23241
 -32.07311   0.23192   2.23291
 -32.03751   0.19872   2.48751
 -32.05951  -0.08208   2.36361
 -32.07101  -0.24988   2.46151
 -32.04811  -0.57488   2.57911
 -31.90471  -0.63828   2.70241
 -31.81921  -0.85598   2.80831
 -31.60431  -1.21808   2.90581
 -31.33921  -1.31958   2.90441
 -31.14631  -1.56928   2.81461
 -30.73361  -1.90528   3.06291
 -30.43601  -2.13788   3.03671
 -29.80071  -2.37848   3.16601
 -29.26601  -2.21228   3.07721
 -28.56601  -2.24218   3.04821
 -28.03191  -2.22728   2.99701
 -27.18811  -2.19518   3.01431
 -26.51661  -2.11828   2.91051
 -25.63821  -1.69508   2.82821
 -24.55051  -2.08838   2.59081
 -23.78951  -1.85198   2.47111
 -22.77261  -1.45358   2.34281
 -21.93911  -1.70888   1.97591
 -20.75231  -1.51408   1.92311
 -19.77221  -1.26928   1.83421
 -18.63071  -0.99698   1.62941
 -17.49601  -0.66748   1.46461
 -16.51451  -0.67008   1.27221
 -15.34831  -0.10428   1.34321
 -14.15371  -0.03578   1.07971
 -13.10701  -0.00768   1.05101
 -11.99341   0.09962   0.93361
 -11.03221   0.07792   0.83561
  -9.95381   0.10362   0.80131
  -8.73901   0.21912   0.47021
  -7.63751   0.22312   0.78021
  -6.69591   0.44772   0.82771
  -5.65781   0.62332   0.82581
  -4.70201   0.32242   0.71711
  -3.79271   0.47022   0.74631
  -2.83061   0.37202   0.86441
  -1.85961   0.43022   0.79401
  -0.92721   0.48142   0.68231
   0.10809  -0.08668   0.66451
   1.08939  -0.01428   0.72291
   1.92269  -0.10218   0.79281
   3.06229  -0.27148   0.70171
   3.91409  -0.64908   0.68201
   4.83129  -0.48838   0.49011
   5.54649  -0.76778   0.78141
   6.27509  -0.94858   0.73001
   7.30569  -1.06408   0.76081
   8.20439  -1.06708   0.53591
   8.95779  -1.16088   0.57031
   9.70709  -1.35488   0.45711
  10.40269  -1.55228   0.33651
  11.39359  -1.64878   0.44471
  11.88269  -1.75008   0.16301
  12.75459  -1.79468   0.10151
  13.62319  -1.95528  -0.11619
  14.26799  -2.02028  -0.38669
  14.95849  -1.90878  -0.36189
  15.66529  -1.84568  -0.67309
  16.27789  -1.71098  -0.93499
  16.92599  -1.55598  -1.17999
  17.62929  -1.23498  -1.49919
  18.44569  -1.13398  -1.94219
  19.08359  -0.87748  -2.34699
  19.67019  -0.67518  -2.70399
  20.36249  -0.39088  -3.22609
  21.04029  -0.36288  -3.54169
  21.51189  -0.11458  -3.97259
  22.06999  -0.00608  -4.30179
  22.56659   0.10692  -4.70099
  23.04659   0.29812  -5.03059
  23.32739   0.45592  -5.38649
  23.87009   0.46882  -5.55479
  24.34589   0.72222  -5.70749
  24.73379   0.64602  -6.14119
  25.11329   0.59762  -6.17069
  25.64799   0.65932  -6.39889
  26.02819   0.58522  -6.56749
  26.28139   0.55602  -6.73559
  26.66219   0.64952  -6.84049
  26.99289   0.52492  -6.95839
  27.25869   0.51182  -6.81079
  27.43499   0.65562  -6.81129
  28.05969   0.64442  -6.89099
  28.31479   0.71242  -6.94949
  28.58159   0.51272  -6.96729
  28.87739   0.58942  -6.90019
  29.28819   0.53292  -6.82369
  29.41629   0.56512  -6.77439
  29.66809   0.56392  -6.62709
  29.96039   0.59902  -6.51719
  30.11299   0.80992  -6.53259
  30.41579   0.80802  -6.40399
  30.47359   0.79102  -6.36099
  30.45419   0.78612  -6.34719
  30.54279   0.74122  -6.15449
  30.48059   0.81182  -6.15029
  30.44479   0.48872  -6.09139
  30.27809   0.51482  -6.00089
  30.18619   0.63812  -5.87699
  30.16659   0.60842  -6.01779
  30.06739   0.91892  -5.99439
  29.82119   0.78822  -6.05699
  29.65029   1.27172  -6.07579
  29.58369   0.97642  -6.28219
  29.36389   0.96682  -6.41409
  29.32139   0.81742  -6.50429
  28.90609   0.63882  -6.41079
  28.59539   0.56252  -6.42649
  28.18409   0.48702  -6.25949
  27.76399   0.45622  -6.01329
  27.19669   0.38272  -5.77089
  26.78219   0.25912  -5.54359
  26.16119   0.39192  -5.34789
  25.39779   0.34002  -5.09259
  24.51989   0.30112  -4.64509
  23.71979   0.22472  -4.37599
  22.88809   0.21372  -4.07359
  21.93159   0.08212  -3.68299
  20.97459   0.08162  -3.47809
  20.14649  -0.04538  -3.21559
  19.00099  -0.06968  -2.83699
  18.19299  -0.27448  -2.52089
  17.16449  -0.17908  -2.30629
  16.01199  -0.34368  -2.13699
  15.02349  -0.65818  -1.54129
  13.84109  -0.51838  -1.32169
  12.67069  -0.73318  -1.22729
  11.46439  -0.63148  -1.04889
  10.48359  -0.56418  -0.70399
   9.25919  -0.53638  -0.65889
   8.12749  -0.51298  -0.53449
   7.05479  -0.63738  -0.16929
   5.90489  -0.76598  -0.12019
   4.54959  -0.77248  -0.05099
   3.28299  -0.79328  -0.14079
   2.15859  -0.66118   0.03651
   0.90869  -0.83208   0.15011
  -0.33001  -0.71408  -0.02949
  -1.34361  -0.72708   0.17351
