********************************************************************************
              CENTRO DE INSTRUMENTACION Y REGISTRO SISMICO  A.C.

    Anaxagoras 814, Col. Narvarte, Benito Juarez, C.P. 03020 Mexico, D.F.
           Tels. 5687 45 42/ 5687 45  82             Fax. 5669 25 12
********************************************************************************
ARCHIVO ESTANDAR DE ACELERACION:
VERSION DEL FORMATO                    : 2.0
NOMBRE DEL ARCHIVO                     : EX1220220919180509
FECHA Y HORA DE CREACION               : 19/SEP/22, 19:44
REF. CATALOGO ACELEROGRAMAS, SMIS 1996 : REGISTRO No.     /PAG.


================================================================================
DATOS DE LA ESTACION:
NOMBRE DE LA ESTACION                  : ESC. SEC. NO. 3, P. B. - CENTRO EDIF.
CLAVE DE LA ESTACION                   : EX12
LOCALIZACION DE LA ESTACION            : Del. Cuauhtémoc, Col. Juárez,          
                                       : Av. Chapultepec, entre Venecia         
                                       : y Niza.                                
                                       :                                        
                                       : 
COORDENADAS DE LA ESTACION             : 19.4236 LAT. N
                                       : 99.1602 LONG. W
ALTITUD (msnm)                         : 2232
TIPO DE SUELO                          : Alto riesgo sísmico                 
                                       :                           
                                       : 
INSTITUCION RESPONSABLE                : CIRES, A. C.
                                       : 

================================================================================
DATOS DEL ACELEROGRAFO:
MODELO DEL ACELEROGRAFO                : RAD_IO14
NUMERO DE SERIE DEL ACELEROGRAFO       : 
NUMERO DE CANALES                      : 3
ORIENTACION C1-C6 (rumbo;orientacion)  : /N00E/+V/N90W
ORIENTACION C7-C12 (rumbo;orientacion) : 
VEL. DE MUESTREO, C1-C6 (muestras/s)   : /100/100/100
VEL. DE MUESTREO, C7-C12 (muestras/s)  : 
ESC. COMPLETA DE SENSORES, C1-C6, (g)  : /2.0/2.0/2.0
ESC. COMPLETA DE SENSORES, C7-C12, (g) : 
FREC. NAT. DE SENSORES, C1-C6, (Hz)    : /30/30/30
FREC. NAT. DE SENSORES, C7-C12, (Hz)   : 
AMORTIGUAMIENTO DE SENSORES, C1-C6     : /0.700/0.700/0.700
AMORTIGUAMIENTO DE SENSORES, C7-C12    : 
INTERVALO DE MUESTREO, C1-C6, (s)      : /0.01/0.01/0.01
INTERVALO DE MUESTREO, C7-C12, (s)     : 
UMBRAL DE DISPARO, C1-C6, (Gal)        : / / /
UMBRAL DE DISPARO, C7-C12, (Gal)       : 
MEMORIA DE PREEVENTO (s)               : 60
TIEMPO DE POSEVENTO (s)                : 90


================================================================================
DATOS DEL SISMO:
FECHA DEL SISMO (GMT)                  : 19/SEP/22
HORA EPICENTRO (GMT)                   : 18:05:09.0
MAGNITUD(ES)                           : /Mc=7.7
COORDENADAS DEL EPICENTRO              : 18.22 LAT. N
                                       : 103.29 LONG. W
PROFUNDIDAD FOCAL (km)                 : 15
FUENTE DE LOS DATOS EPICENTRALES       : SSN
                                       : INSTITUTO DE GEOFISICA, UNAM

================================================================================
DATOS DE ESTE REGISTRO:
HORA DE LA PRIMERA MUESTRA (GMT)       : 13:04:27.165.00
EXACTITUD DEL TIEMPO (s)               : 
DURACION DEL REGISTRO (s), C1-C6       : /599.81/599.81/599.81
DURACION DEL REGISTRO (s), C7-C12      : 
NUM. TOTAL DE MUESTRAS, C1-C6          : /59981/59981/59981
NUM. TOTAL DE MUESTRAS, C7-C12         : 
ACEL. MAX. (Gal), C1-C6                : /31.22775/10.965/29.44678
ACEL. MAX., C1-C6, EN LA MUESTRA       : /21077/7335/19325
ACEL. MAX. (Gal), C7-C12               : 
ACEL. MAX., C7-C12, EN LA MUESTRA      : 
UNIDADES DE LOS DATOS                  : Gal (cm/s/s)
FACTOR DE DECIMACION                   : 1
FORMATO DATOS (FORTRAN,10 campos/dato) : 3F10.5


================================================================================
CALIDAD DEL ACELEROGRAMA:
REGISTRO DIGITAL COMPLETO CON TIEMPO ABSOLUTO CORRECTO.


================================================================================
COMENTARIOS:














================================================================================
DATOS DE ACELERACION:
---------+---------+---------+---------+---------+---------+---------+---------+
   CANAL-1   CANAL-2   CANAL-3   CANAL-4   CANAL-5   CANAL-6   CANAL-7   CANAL-8
      N00E        +V      N90W
---------+---------+---------+---------+---------+---------+---------+---------+
[...]
   8.00395   0.57480   9.56282
   8.23165   0.35290   9.39212
   8.61435   0.34190   8.89712
   8.91885   0.12400   8.55162
   9.03505   0.11540   8.11972
   9.29995  -0.14160   7.72322
   9.69765  -0.26550   7.38812
  10.04955  -0.29540   6.98222
  10.32895  -0.20590   6.52822
  10.60245  -0.42940   6.05732
  10.74885  -0.42030   5.64932
  11.05885  -0.57970   5.09542
  11.34485  -0.78060   4.61912
  11.67265  -0.68960   4.26002
  11.79395  -0.85240   3.67622
  12.08835  -0.78920   3.39352
  12.29575  -0.83950   2.86772
  12.64085  -0.62840   2.51532
  12.72195  -0.60590   1.83032
  12.85215  -0.52850   1.31452
  12.97635  -0.32190   0.97692
  13.11335  -0.25010   0.20932
  13.32095   0.09900  -0.36678
  13.40675   0.04550  -0.79708
  13.40425   0.12590  -1.52768
  13.41875   0.50090  -2.05448
  13.46315   0.61850  -2.74958
  13.48725   0.85160  -3.29338
  13.29525   1.13640  -3.84798
  13.46005   1.31270  -4.30298
  13.31555   1.48060  -4.91928
  13.24355   1.93390  -5.23638
  13.16365   1.86680  -5.69068
  13.10185   2.25310  -6.23028
  13.03595   2.34050  -6.60248
  12.71335   2.58880  -7.04438
  12.63285   2.93720  -7.22768
  12.38175   2.94840  -7.50968
  12.13835   3.10480  -7.69598
  11.88325   3.47520  -7.86178
  11.53115   3.65620  -8.30888
  11.31985   3.83060  -8.56608
  11.44095   4.08150  -8.97098
  11.18725   4.06740  -9.18028
  10.84895   4.18900  -9.42718
  10.75215   4.00570  -9.57118
  10.51105   4.18320  -9.69558
  10.16785   4.20050  -9.74048
   9.93025   4.10840  -9.68368
   9.49515   3.89210  -9.85968
   9.31725   4.07750  -9.99348
   8.86875   3.76180  -9.73038
   8.42525   3.68700  -9.96348
   8.02235   3.75460  -9.95248
   7.77455   3.40410  -9.95228
   7.43855   3.54300 -10.02408
   6.90155   3.24230  -9.98878
   6.46335   3.14370 -10.08108
   6.08925   2.98190 -10.39608
   5.77385   2.83220 -10.36568
   5.32075   2.42750 -10.64668
   4.73785   2.47120 -10.81228
   4.30555   1.94770 -10.97828
   3.84145   1.63370 -11.22088
   3.17815   1.31430 -11.37738
   2.90455   0.94540 -11.43818
   2.33595   0.39780 -11.85408
   1.78225   0.17940 -11.89388
   1.21455  -0.18760 -12.04158
   0.73295  -0.42430 -12.10428
   0.20755  -0.80980 -12.32938
  -0.35495  -1.13080 -12.41238
  -0.94695  -1.42120 -12.58938
  -1.60045  -1.37350 -12.58848
  -2.26685  -2.03470 -12.64318
  -2.84665  -1.91320 -12.78888
  -3.39635  -2.04880 -12.66518
  -3.80715  -2.33660 -12.56178
  -4.41435  -2.29870 -12.59738
  -5.15885  -2.35370 -12.64368
  -5.51775  -2.50350 -12.42088
  -6.12675  -2.35010 -12.37808
  -6.59115  -2.30320 -12.24918
  -6.92035  -2.60710 -12.13188
  -7.38865  -2.33280 -11.79588
  -7.84785  -2.24310 -11.48748
  -8.01195  -2.16220 -11.33078
  -8.71345  -1.82570 -11.04818
  -8.98695  -1.62250 -10.73858
  -9.34285  -1.70340 -10.60858
  -9.71665  -1.15490 -10.40988
  -9.88925  -1.22060 -10.09658
 -10.14455  -1.05200  -9.88048
 -10.64515  -0.36390  -9.57378
 -11.06455  -0.29520  -9.09588
 -11.41995  -0.05600  -8.80098
 -12.01945   0.38660  -8.42158
 -12.26775   0.47660  -8.00418
 -12.71555   0.81190  -7.84288
 -13.35245   1.33230  -7.46928
 -13.75035   1.21310  -7.02218
 -14.25445   1.68260  -6.72878
 -14.86235   1.84060  -6.27868
 -15.16375   1.73310  -5.83728
 -15.85605   2.11350  -5.41288
 -16.44665   2.34940  -4.95158
 -16.80415   2.31430  -4.59338
 -17.47885   2.36980  -4.20198
 -17.71365   2.57830  -3.82998
 -18.21515   2.26340  -3.10238
 -18.70055   2.70270  -2.60138
 -18.97195   2.36230  -2.15078
 -19.27785   2.30120  -1.50548
 -19.50255   2.35460  -1.06168
 -19.79665   2.30480  -0.23798
 -20.04425   2.00640   0.14082
 -20.09945   2.03980   0.59322
 -20.30025   1.64730   1.18772
 -20.27265   1.31460   1.70872
 -20.37485   1.24420   1.95742
 -20.34585   0.93250   2.49312
 -20.13305   0.51850   3.07722
 -20.27475   0.64120   3.38652
 -20.16095  -0.02960   3.78932
 -19.93105  -0.13340   4.25202
 -19.83125  -0.24330   4.59182
 -19.55065  -0.76470   5.17752
 -19.27175  -0.67700   5.56632
 -19.15015  -0.84280   5.70262
 -18.84555  -1.21340   6.17002
 -18.52075  -1.40490   6.48382
 -18.23685  -1.43810   6.88892
 -17.96285  -1.72400   7.25232
 -17.60635  -1.88460   7.53332
 -17.20655  -1.93560   7.87942
 -16.71715  -1.92300   8.22092
 -16.37715  -1.93070   8.48822
 -15.98815  -1.90030   8.69212
 -15.59255  -1.94850   8.91632
 -15.20225  -1.66390   9.19902
 -14.71925  -1.81520   9.30182
 -14.07555  -1.72240   9.73042
 -13.58085  -1.43950   9.72392
 -13.11785  -1.69430   9.83472
 -12.59505  -1.55680   9.98762
 -11.92825  -1.45020   9.96192
 -11.21465  -1.44810   9.95092
 -10.63765  -1.58070   9.84412
  -9.72255  -1.35900   9.68602
  -8.97665  -1.44460   9.60162
  -8.30615  -1.29190   9.35192
  -7.49245  -1.09620   9.04912
  -6.59325  -1.15050   8.97012
  -5.65195  -1.21900   8.69212
  -4.82825  -1.06540   8.42342
  -3.88055  -1.30150   8.15622
  -3.19575  -1.07750   7.84312
  -2.35945  -1.29120   7.60492
  -1.38865  -1.47830   7.21512
  -0.59185  -1.11870   6.82772
   0.24245  -1.44250   6.40872
   1.03405  -1.59630   6.15922
   1.62005  -1.66270   5.82462
   2.50005  -1.66270   5.59862
   3.13575  -1.92860   5.21882
   3.81035  -1.76820   5.04722
   4.45725  -1.95480   4.86602
   5.04205  -1.98050   4.71592
   5.73945  -2.06070   4.48072
   6.41265  -2.13530   4.15362
   6.96975  -2.14160   3.89172
   7.57165  -2.18620   3.74302
   8.11985  -2.21870   3.52702
   8.52815  -2.20660   3.24502
   9.05775  -2.26500   2.82652
   9.68265  -2.20590   2.65752
  10.08105  -2.22110   2.27502
  10.43085  -2.17150   2.04612
  11.14185  -2.22110   1.65512
  11.28165  -2.07960   1.20012
  11.71775  -1.92390   0.94372
  12.16575  -2.03780   0.74422
  12.50245  -1.93160   0.65162
  12.73665  -1.85330   0.13862
  13.30885  -1.86520   0.11482
  13.67895  -1.66560  -0.13298
  13.93655  -1.50960  -0.28948
  14.16505  -1.69780  -0.39258
  14.51695  -1.40930  -0.63948
  14.87485  -1.38240  -0.93198
  15.15805  -1.16080  -0.87558
  15.46175  -1.18930  -0.89668
  15.76895  -0.90380  -1.11568
  16.11315  -0.85610  -1.02708
  16.24335  -0.71610  -1.16898
  16.65415  -0.45040  -1.12318
  16.90825  -0.16570  -1.20288
  17.29785  -0.09300  -1.09418
  17.57655   0.12730  -0.96348
  17.89895   0.55770  -0.90038
  18.19125   0.45810  -0.68618
  18.38105   0.73030  -0.71938
  18.72355   0.76510  -0.56178
  19.06215   1.05550  -0.23328
  19.38105   0.96530  -0.15218
  19.90615   1.28580   0.12062
  20.07475   1.58980   0.07832
  20.49285   1.58650   0.34042
  20.65415   1.88250   0.35662
  21.00465   2.06160   0.83452
  21.11215   2.36020   0.91492
  21.47275   2.59720   1.10832
  21.68335   2.83570   1.43682
  21.85075   3.15070   1.54782
  22.05535   3.33050   1.63392
  22.17035   3.37560   1.68062
  22.22065   3.25380   1.82602
  22.25085   3.51330   1.91652
  22.26225   3.27510   2.04702
  22.18235   3.58440   1.91842
  22.11455   3.27440   2.03132
  21.94245   3.69260   2.02672
  21.71185   3.31220   1.85132
  21.67985   3.63820   1.76902
  21.23255   3.42890   1.77372
  21.19075   3.77310   1.61442
  20.86205   3.34310   1.52472
  20.72895   3.66440   1.11342
  20.34485   3.59700   0.93482
  20.10795   3.60360   0.81082
  19.89025   3.35950   0.53052
  19.74325   3.33210   0.40432
  19.37335   3.46910   0.26212
  19.06655   3.38750  -0.04578
  18.83275   3.17050  -0.04888
  18.45005   3.31640  -0.33528
  18.11175   2.99190  -0.52048
  17.80005   2.96150  -0.72668
  17.35795   2.73540  -0.74908
  16.81225   2.80670  -1.11568
  16.39395   2.66270  -0.97588
  16.04065   2.66930  -1.11288
  15.65045   2.34450  -1.36518
  15.32375   2.45460  -1.32988
  14.85685   2.31550  -1.25298
  14.48255   2.36880  -1.38718
  13.94335   2.15650  -1.12738
  13.70275   2.12940  -1.16968
  13.22345   1.89680  -1.10218
  12.89355   1.72700  -0.94458
  12.58445   1.77750  -0.86628
  12.09975   1.59630  -0.68408
  11.68365   1.41980  -0.38248
  11.43855   1.19020   0.08162
  11.03645   1.03520   0.15712
  10.72285   0.92650   0.54202
  10.27395   0.71770   0.88942
   9.86715   0.54560   0.98532
   9.50805   0.28670   1.43282
   9.13365   0.19020   1.29902
   8.84545  -0.02350   1.61192
   8.31675  -0.03960   1.73512
   7.87555  -0.19820   1.66732
   7.38195  -0.47360   1.63952
   6.82715  -0.64010   1.62612
   6.36045  -0.55640   1.64882
   5.74605  -0.77310   1.57892
   5.32795  -0.59990   1.46292
   4.77615  -0.66110   1.53922
   4.00745  -0.53250   1.21092
   3.69835  -0.41280   1.11292
   2.95835  -0.25330   1.17632
   2.40495   0.07300   0.82042
   1.72615  -0.05230   0.50222
   1.11145   0.34100   0.36822
   0.35275   0.32280   0.17302
  -0.23875   0.62760  -0.15128
  -0.94045   0.77990  -0.36518
  -1.50505   1.06530  -0.69858
  -2.17095   0.89650  -0.72458
  -2.89175   1.44850  -0.90878
  -3.60865   1.46540  -1.11988
  -4.35965   1.58460  -1.20508
  -5.16045   1.54210  -1.19058
  -5.81395   1.76070  -1.18678
  -6.59645   1.84340  -1.26698
  -7.44005   2.05200  -1.26818
  -8.11465   1.91690  -1.17178
  -8.83825   2.08120  -1.13858
  -9.66805   2.00780  -1.12878
 -10.40735   1.96360  -0.96188
 -11.16345   1.96290  -1.02218
 -12.07415   1.99500  -0.79028
 -12.69495   2.31810  -0.53428
 -13.56115   2.11370  -0.52068
 -14.21815   2.08290  -0.49308
 -15.17865   2.20260  -0.36188
 -15.99845   2.20680  -0.11708
 -16.71835   2.07350   0.11992
 -17.49575   2.09740   0.23592
 -18.28855   1.92010   0.43932
 -19.09845   1.78170   0.56022
 -19.93295   1.60940   0.92142
 -20.74615   1.36270   1.06382
 -21.66005   1.06110   1.26722
 -22.31475   0.91920   1.33222
 -22.96545   0.60990   1.45292
 -23.77485   0.33490   1.58712
 -24.45485  -0.12850   1.66782
 -24.96635  -0.42710   1.97262
 -25.71455  -0.67630   1.87892
 -26.39095  -0.99780   1.99492
 -27.08745  -1.48290   2.26232
 -27.57685  -1.59050   2.23802
 -28.13635  -1.92200   2.14782
 -28.59675  -2.34270   2.36572
 -28.92805  -2.52290   2.45712
 -29.46365  -2.63800   2.37712
 -29.65495  -2.88930   2.48492
 -30.02505  -3.00600   2.44452
 -30.22805  -3.30740   2.57332
 -30.41225  -3.42010   2.48982
 -30.69325  -3.38170   2.43772
 -30.49155  -3.52430   2.42832
 -30.91305  -3.78410   2.46342
 -30.95565  -3.46210   2.35702
 -30.98365  -3.46540   2.31802
 -31.01995  -3.35510   2.36192
 -30.99705  -3.36650   2.55132
 -31.00965  -3.20050   2.36242
 -31.09245  -3.13200   2.39472
 -31.21585  -2.76490   2.50692
 -31.13215  -2.75670   2.55932
 -31.22775  -2.34710   2.40612
 -31.21025  -2.23700   2.54732
 -31.03135  -1.95340   2.67802
 -30.96735  -1.76310   2.63132
 -30.96525  -1.36490   2.67412
 -30.74495  -1.27950   2.70612
 -30.71435  -0.93890   2.77442
 -30.50205  -0.75650   2.94112
 -30.11415  -0.65970   2.87632
 -29.86185  -0.30030   3.06522
 -29.53335  -0.20000   3.02462
 -29.15905   0.00060   3.13052
 -28.63155   0.17800   3.18262
 -28.27055   0.15070   3.28952
 -27.59835   0.41230   3.19202
 -27.24015   0.41580   3.09522
 -26.62665   0.57710   3.15132
 -25.83825   0.67790   3.06102
 -24.98575   0.94260   2.88242
 -23.46155   1.00030   2.82462
 -23.92895   0.72490   2.85082
 -22.45015   1.35290   2.31592
 -21.10365   0.27320   2.45242
 -20.35985   0.90840   2.13682
 -19.43045   1.18390   1.79002
 -17.81045   0.00010   1.83312
 -17.22945   0.46750   1.35562
 -15.98625   0.48100   1.16622
 -14.56395  -0.68150   1.16232
 -13.97855   0.00150   0.75192
 -12.80525  -0.24240   0.58082
 -11.34845  -1.17830   0.58082
 -10.80805  -0.57690   0.16392
  -9.81695  -1.05670   0.05452
  -8.56165  -1.65080   0.19732
  -7.94745  -0.91500  -0.09048
  -6.64985  -1.41750   0.06502
  -5.68535  -1.86170   0.08812
  -5.18385  -1.33120  -0.25458
  -3.89785  -2.09160  -0.22068
  -2.86675  -2.27300   0.08282
  -2.45175  -1.70320  -0.35518
  -1.11365  -2.65990  -0.16878
  -0.30585  -2.57720  -0.30718
  -0.01175  -2.03920  -0.40918
   1.30745  -2.58930  -0.22868
   1.88075  -2.53840  -0.42688
   2.33175  -1.97490  -0.49868
   3.54305  -2.47270  -0.41898
   4.22205  -1.94750  -0.55108
   4.82645  -1.60620  -0.69418
   5.93075  -2.17850  -0.72458
   6.55995  -1.43550  -0.96278
   7.31025  -1.25410  -1.04748
   8.48185  -1.49790  -0.91998
   8.96955  -0.96440  -1.25648
   9.71145  -0.92440  -1.37898
  10.74655  -1.39500  -1.41898
  11.39955  -0.60940  -1.65188
  12.37355  -0.61950  -1.67448
  13.05695  -0.88510  -1.82768
  13.48415  -0.26780  -2.00368
  14.45585  -0.24890  -2.14658
  15.03125  -0.27350  -2.25908
  15.67055   0.19720  -2.64478
  16.44485   0.14160  -2.72058
  17.12945   0.38120  -2.97548
  17.65295   0.86820  -3.36188
  18.50665   0.48290  -3.52978
  19.15735   0.91730  -3.69458
  19.69695   1.35170  -4.09698
  20.63195   1.07610  -4.23028
  21.05705   1.32210  -4.60928
  21.70955   1.69190  -4.98148
  22.42265   1.32320  -5.12248
  23.02355   1.74570  -5.51618
  23.62725   1.88370  -5.54798
  24.34995   1.50140  -5.86718
  24.65695   1.75130  -6.10118
  25.23005   1.78220  -6.39888
  25.92515   1.45630  -6.31328
  26.36585   1.56570  -6.58868
  26.87905   1.50610  -6.70588
  27.44205   1.22920  -6.66868
  27.69035   1.19810  -6.98078
  28.21365   1.17240  -6.95458
  28.74955   1.06770  -7.09728
  28.93655   0.95450  -7.11898
  29.17645   0.77030  -7.08788
  29.52505   0.74590  -7.25998
  29.66135   0.80580  -7.21878
  29.79185   0.74080  -7.26068
  29.83745   0.41530  -6.98128
  29.90085   0.53370  -7.10988
  30.00905   0.28280  -6.79048
  30.01795   0.34710  -6.75098
  29.93215   0.24190  -6.53538
  29.95925  -0.06070  -6.44098
  29.87655   0.12330  -6.18918
  29.95975   0.18950  -6.11038
  29.83465  -0.17760  -5.88818
  29.70485   0.18850  -5.96768
  29.55335  -0.20100  -5.86928
  29.64855  -0.06720  -5.61698
  29.28195  -0.10110  -5.69208
  29.11405  -0.05740  -5.61418
  28.95575  -0.50050  -5.39648
  28.58795   0.07890  -5.38718
  28.33315  -0.52740  -5.49798
  28.11755  -0.18790  -5.23898
  27.64455  -0.12850  -5.11898
  27.43155  -0.10320  -4.93308
  26.89095  -0.31830  -4.80498
  26.33855   0.19510  -4.82578
  26.06965  -0.25240  -4.52608
  25.43535   0.19000  -4.48278
  24.67685   0.04480  -4.23828
  24.17505   0.17990  -3.93638
  23.35835  -0.04850  -3.70238
  22.52765   0.29070  -3.65698
  21.95645  -0.11120  -3.16878
  21.09445   0.34450  -3.06358
  20.10255   0.11090  -2.62358
  19.41025   0.33770  -2.47718
  18.40285   0.37020  -1.96588
  17.58655   0.49200  -1.67638
  16.77105   0.20000  -1.23568
  15.81195   0.54280  -0.99248
  14.91085   0.51890  -0.55108
  14.08035   0.39830  -0.36568
  12.99455   0.53270  -0.05258
  12.06145   0.57150   0.11012
  11.11805   0.24140   0.52892
  10.02125   0.53620   0.53502
   9.13535   0.43900   0.72292
   8.29035   0.41820   0.75682
   7.15985   0.54160   0.94062
   6.24755   0.57850   1.12632
   5.31695   0.31110   1.12912
   4.16805   0.28820   1.06902
   3.30625   0.16140   1.29302
   2.22955   0.16050   1.38182
   1.00695   0.14620   1.28642
   0.04885  -0.06960   1.54552
