********************************************************************************
              CENTRO DE INSTRUMENTACION Y REGISTRO SISMICO  A.C.

    Anaxagoras 814, Col. Narvarte, Benito Juarez, C.P. 03020 Mexico, D.F.
           Tels. 5687 45 42/ 5687 45  82             Fax. 5669 25 12
********************************************************************************
ARCHIVO ESTANDAR DE ACELERACION:
VERSION DEL FORMATO                    : 2.0
NOMBRE DEL ARCHIVO                     : FJ7420220919180509
FECHA Y HORA DE CREACION               : 19/SEP/22, 19:44
REF. CATALOGO ACELEROGRAMAS, SMIS 1996 : REGISTRO No.     /PAG.


================================================================================
DATOS DE LA ESTACION:
NOMBRE DE LA ESTACION                  : FUNDACIÓN JAVIER BARROS SIERRA
CLAVE DE LA ESTACION                   : FJ74
LOCALIZACION DE LA ESTACION            : Del. Tlalpan, Col. Jardines en la      
                                       : Montaña, Carretera al Ajusco, No.203   
                                       :                                        
                                       :                                        
                                       : 
COORDENADAS DE LA ESTACION             : 19.2990 LAT. N
                                       : 99.2100 LONG. W
ALTITUD (msnm)                         : 2240
TIPO DE SUELO                          : Arenoso, limoso, compacto           
                                       :                           
                                       : 
INSTITUCION RESPONSABLE                : CIRES, A. C.
                                       : 

================================================================================
DATOS DEL ACELEROGRAFO:
MODELO DEL ACELEROGRAFO                : RAD_IO14
NUMERO DE SERIE DEL ACELEROGRAFO       : 
NUMERO DE CANALES                      : 3
ORIENTACION C1-C6 (rumbo;orientacion)  : /N00E/+V/N90W
ORIENTACION C7-C12 (rumbo;orientacion) : 
VEL. DE MUESTREO, C1-C6 (muestras/s)   : /100/100/100
VEL. DE MUESTREO, C7-C12 (muestras/s)  : 
ESC. COMPLETA DE SENSORES, C1-C6, (g)  : /2.0/2.0/2.0
ESC. COMPLETA DE SENSORES, C7-C12, (g) : 
FREC. NAT. DE SENSORES, C1-C6, (Hz)    : /30/30/30
FREC. NAT. DE SENSORES, C7-C12, (Hz)   : 
AMORTIGUAMIENTO DE SENSORES, C1-C6     : /0.700/0.700/0.700
AMORTIGUAMIENTO DE SENSORES, C7-C12    : 
INTERVALO DE MUESTREO, C1-C6, (s)      : /0.01/0.01/0.01
INTERVALO DE MUESTREO, C7-C12, (s)     : 
UMBRAL DE DISPARO, C1-C6, (Gal)        : / / /
UMBRAL DE DISPARO, C7-C12, (Gal)       : 
MEMORIA DE PREEVENTO (s)               : 60
TIEMPO DE POSEVENTO (s)                : 90


================================================================================
DATOS DEL SISMO:
FECHA DEL SISMO (GMT)                  : 19/SEP/22
HORA EPICENTRO (GMT)                   : 18:05:09.0
MAGNITUD(ES)                           : /Mc=7.7
COORDENADAS DEL EPICENTRO              : 18.22 LAT. N
                                       : 103.29 LONG. W
PROFUNDIDAD FOCAL (km)                 : 15
FUENTE DE LOS DATOS EPICENTRALES       : SSN
                                       : INSTITUTO DE GEOFISICA, UNAM

================================================================================
DATOS DE ESTE REGISTRO:
HORA DE LA PRIMERA MUESTRA (GMT)       : 18:04:26.931.00
EXACTITUD DEL TIEMPO (s)               : 
DURACION DEL REGISTRO (s), C1-C6       : /573.01/573.01/573.01
DURACION DEL REGISTRO (s), C7-C12      : 
NUM. TOTAL DE MUESTRAS, C1-C6          : /57301/57301/57301
NUM. TOTAL DE MUESTRAS, C7-C12         : 
ACEL. MAX. (Gal), C1-C6                : /6.83826/3.02294/5.36075
ACEL. MAX., C1-C6, EN LA MUESTRA       : /19530/18395/18609
ACEL. MAX. (Gal), C7-C12               : 
ACEL. MAX., C7-C12, EN LA MUESTRA      : 
UNIDADES DE LOS DATOS                  : Gal (cm/s/s)
FACTOR DE DECIMACION                   : 1
FORMATO DATOS (FORTRAN,10 campos/dato) : 3F10.5


================================================================================
CALIDAD DEL ACELEROGRAMA:
REGISTRO DIGITAL COMPLETO CON TIEMPO ABSOLUTO CORRECTO.


================================================================================
COMENTARIOS:














================================================================================
DATOS DE ACELERACION:
---------+---------+---------+---------+---------+---------+---------+---------+
   CANAL-1   CANAL-2   CANAL-3   CANAL-4   CANAL-5   CANAL-6   CANAL-7   CANAL-8
      N00E        +V      N90W
---------+---------+---------+---------+---------+---------+---------+---------+
[...]
  -0.06374   0.60786   4.68555
   0.15046   0.66396   4.74915
   0.42706   0.70366   4.87605
   0.61146   0.86736   4.81385
   0.85586   0.86996   4.59575
   1.06506   0.76636   4.64295
   1.12426   0.98966   4.36195
   1.14276   0.89656   4.13635
   1.15746   1.02756   3.96685
   1.00056   1.12316   3.63855
   0.80276   1.27536   3.36545
   0.69196   1.45356   3.13305
   0.42376   1.42456   2.68555
   0.16306   1.46196   2.63715
  -0.18254   1.48036   2.31685
  -0.47944   1.37866   2.14265
  -0.62274   1.52596   1.85855
  -1.04314   1.50936   1.55035
  -1.25574   1.52156   1.42555
  -1.48504   1.40976   1.08275
  -1.55494   1.47716   0.92125
  -1.91974   1.32286   0.54755
  -2.19884   1.32426   0.15925
  -2.21504   1.26506  -0.22025
  -2.44974   1.18716  -0.65555
  -2.57434   1.29736  -0.96865
  -2.68984   1.06916  -1.29015
  -3.02894   1.02966  -1.80425
  -3.20054   0.88066  -1.93475
  -3.16174   0.97656  -2.31235
  -3.37704   0.89006  -2.68905
  -3.30554   0.77356  -2.84495
  -3.67424   0.65016  -3.12905
  -3.56944   0.73756  -3.36265
  -3.62814   0.78156  -3.71145
  -3.67794   0.47336  -3.86835
  -3.70744   0.54096  -4.16085
  -3.74384   0.59496  -4.37965
  -3.62394   0.50426  -4.45845
  -3.67954   0.35036  -4.47815
  -3.35434   0.51196  -4.67755
  -3.27724   0.29216  -4.77815
  -3.19884   0.17576  -4.61655
  -3.03384   0.19466  -4.65675
  -2.96924   0.21176  -4.71825
  -2.79184  -0.10734  -4.55975
  -2.61484  -0.00964  -4.55105
  -2.67794  -0.13404  -4.41615
  -2.69244  -0.36784  -4.35565
  -2.47404  -0.53764  -4.36545
  -2.33354  -0.51144  -4.12535
  -2.37544  -0.55184  -3.99905
  -2.40484  -0.69404  -3.96655
  -2.26644  -0.73234  -3.77085
  -2.34664  -0.67274  -3.82695
  -2.31064  -0.68744  -3.67145
  -2.09764  -0.58814  -3.43395
  -2.15074  -0.56874  -3.42765
  -2.08314  -0.59484  -3.18775
  -2.13174  -0.35784  -3.09145
  -2.00524  -0.25234  -2.85835
  -1.97374  -0.22334  -2.74425
  -1.84234  -0.14224  -2.48255
  -1.78504  -0.09124  -2.27655
  -1.55384  -0.02364  -1.95395
  -1.31414  -0.15744  -1.65045
  -1.13574  -0.11094  -1.49655
  -0.81964  -0.21234  -1.14545
  -0.78624  -0.12144  -0.84285
  -0.51004  -0.40694  -0.50995
  -0.30314  -0.45034  -0.07105
  -0.10374  -0.35544   0.22095
   0.19136  -0.46324   0.71455
   0.34266  -0.44504   1.00465
   0.66506  -0.40104   1.37575
   0.82216  -0.51234   1.73765
   1.08356  -0.59584   2.15595
   1.32856  -0.50254   2.57965
   1.63046  -0.52244   2.74965
   1.67046  -0.36294   2.99415
   1.89976  -0.45364   3.19995
   2.03236  -0.28134   3.25135
   2.04176  -0.38424   3.24525
   2.25756  -0.18944   3.17725
   2.28646  -0.21514   3.12745
   2.35806  -0.21894   2.77225
   2.30986  -0.03004   2.52705
   2.23106  -0.14694   2.11135
   2.15956  -0.20394   2.00145
   2.00386  -0.14504   1.76645
   1.86846  -0.04284   1.42465
   1.72236  -0.07094   1.22025
   1.68746  -0.01524   0.86905
   1.65916  -0.26944   0.71475
   1.45786  -0.03704   0.81105
   1.10816  -0.51774   0.49545
   1.00946  -0.48824   0.41105
   0.88086  -0.20044   0.40025
   0.73966  -0.52334   0.51115
   0.69056  -0.51774   0.37995
   0.54576  -0.40154   0.51535
   0.50796  -0.49204   0.72905
   0.57806  -0.36204   0.80245
   0.41676  -0.43824   1.00465
   0.34026  -0.48124   1.15475
   0.15886  -0.43914   1.25765
   0.34476  -0.61214   1.42905
   0.43076  -0.51934   1.54665
   0.44456  -0.59254   1.42255
   0.58506  -0.71974   1.71455
   0.64606  -0.62134   1.65325
   0.80626  -0.62084   1.63555
   1.02226  -0.73354   1.67825
   1.11026  -0.64894   1.52705
   1.25726  -0.62414   1.60325
   1.53226  -0.60164   1.36125
   1.67136  -0.54014   1.10755
   1.96646  -0.37674   1.00885
   2.22526  -0.35054   0.63595
   2.43566  -0.27174   0.40445
   2.41276  -0.21264   0.02835
   2.77286  -0.06954  -0.33155
   2.86936   0.06446  -0.78025
   2.89766   0.07356  -0.98335
   3.04006   0.17806  -1.31825
   3.20326   0.08506  -1.51715
   3.30196   0.14066  -1.73835
   3.46626   0.29176  -1.67125
   3.66486   0.18016  -1.82415
   3.75296   0.00836  -1.93845
   3.87546   0.06986  -1.91975
   4.11256  -0.00334  -2.04585
   4.06906  -0.20304  -1.86555
   4.26986  -0.05974  -1.78795
   4.42536  -0.28364  -1.74725
   4.66366  -0.32274  -1.49265
   4.79786  -0.23084  -1.22535
   4.83756  -0.46534  -1.38135
   5.03726  -0.52754  -1.12115
   5.04546  -0.46984  -0.92655
   5.20656  -0.39564  -0.96655
   5.25496  -0.36734  -0.86575
   5.42886  -0.18684  -0.66335
   5.41256  -0.17824  -0.65325
   5.54746   0.01746  -0.64225
   5.39176  -0.09614  -0.52065
   5.30076   0.29286  -0.40405
   5.18856   0.51196  -0.37755
   4.98396   0.53676  -0.35495
   4.67256   0.82016  -0.08435
   4.53416   0.80466   0.00745
   4.21406   0.78786   0.14265
   3.90356   0.90526   0.19405
   3.37956   0.96976   0.26915
   3.03146   1.07896   0.49405
   2.79316   1.13716   0.78745
   2.36526   1.23046   0.73065
   1.84316   1.13246   0.87005
   1.36976   1.17736   0.79775
   1.01036   1.11166   0.90675
   0.67816   1.15496   0.82905
   0.26356   1.09996   0.90505
  -0.05554   1.26036   0.95165
  -0.24424   1.31626   0.90485
  -0.53374   1.16806   0.79405
  -0.81194   1.41396   0.88825
  -1.21664   1.47736   0.98555
  -1.34504   1.45026   0.84685
  -1.50214   1.46706   0.85275
  -1.56554   1.37986   0.84125
  -1.66464   1.37266   0.74865
  -1.73334   1.38596   0.89365
  -1.74574   1.23936   0.93105
  -1.50754   1.22996   0.89335
  -1.43874   1.17856   1.15615
  -1.34334   1.13036   1.06575
  -1.06074   0.93166   1.21765
  -0.82014   0.91856   1.23175
  -0.63354   0.68176   1.53095
  -0.45534   0.54726   1.74325
  -0.27864   0.30366   1.89295
   0.05176   0.19986   2.02175
   0.24656   0.03106   2.41475
   0.47006  -0.01924   2.72575
   0.64536  -0.12144   2.96405
   0.95196   0.03246   3.21535
   1.14576  -0.14064   3.54945
   1.36716  -0.01224   3.77675
   1.46956   0.06726   3.91725
   1.53856   0.02006   4.18545
   1.64216  -0.05034   4.21585
   1.60306  -0.11584   4.25325
   1.64446  -0.01294   4.33905
   1.52126   0.08876   4.37415
   1.45066  -0.18524   4.12205
   1.26456  -0.21684   3.97315
   1.12406   0.00086   3.74375
   0.90076  -0.12654   3.33275
   0.63086  -0.01974   3.05405
   0.53856  -0.04244   2.80315
   0.22826  -0.06414   2.51395
  -0.06004  -0.08754   2.13115
  -0.34314  -0.15884   1.83265
  -0.51404  -0.06604   1.56915
  -0.75554  -0.10884   1.21205
  -0.93724  -0.05264   0.93475
  -1.19444  -0.00034   0.51855
  -1.33734  -0.00074   0.22565
  -1.39944   0.05136   0.06875
  -1.43334   0.26766  -0.38765
  -1.52104   0.27976  -0.62965
  -1.65804   0.43836  -0.88265
  -1.74204   0.53276  -1.03975
  -1.78104   0.41446  -1.23495
  -1.93794   0.35136  -1.55345
  -2.00224   0.33566  -1.72925
  -1.98564   0.52086  -1.76805
  -1.90804   0.40446  -1.87955
  -1.88024   0.20776  -1.92685
  -2.04694   0.22556  -1.86885
  -1.91364   0.18866  -1.84005
  -1.98934   0.04416  -1.95295
  -1.87034  -0.03444  -1.92405
  -1.71984  -0.21934  -1.84665
  -1.62694  -0.25794  -1.82975
  -1.79514  -0.47964  -1.80875
  -1.74384  -0.45674  -1.74675
  -1.86664  -0.51534  -1.88985
  -1.89934  -0.64164  -1.92355
  -2.09624  -0.64534  -1.84385
  -2.12314  -0.88504  -2.11405
  -2.26244  -0.71994  -2.04375
  -2.15584  -0.78424  -2.09845
  -2.33634  -0.80784  -2.40125
  -2.58354  -0.75854  -2.40965
  -2.70674  -0.94794  -2.49585
  -2.82854  -0.77494  -2.70095
  -2.91154  -0.92474  -2.83395
  -2.98984  -1.10204  -3.07695
  -3.05724  -1.17804  -3.34605
  -3.10554  -1.26664  -3.39885
  -3.25474  -1.38864  -3.50755
  -3.32164  -1.51774  -3.66565
  -3.24774  -1.57384  -3.75755
  -3.08404  -1.88834  -3.55995
  -2.88234  -1.92994  -3.52605
  -2.72684  -1.98204  -3.40705
  -2.61414  -1.95264  -3.48885
  -2.40764  -1.94514  -3.49375
  -2.15464  -2.06834  -3.38225
  -2.00664  -1.97834  -3.42315
  -1.85544  -1.91024  -3.40655
  -1.53014  -2.03564  -3.30445
  -1.19354  -1.82194  -3.40375
  -1.00814  -2.01594  -3.15195
  -0.80374  -1.96714  -2.94715
  -0.74064  -1.92194  -2.83395
  -0.39014  -2.00334  -2.68105
  -0.08224  -2.01804  -2.46335
   0.01506  -2.08774  -2.28435
   0.25566  -2.17234  -1.97285
   0.33026  -2.14244  -1.75495
   0.46206  -2.21164  -1.33485
   0.45036  -2.26634  -1.18075
   0.47166  -2.01734  -0.81175
   0.70686  -2.06904  -0.60135
   0.86616  -2.08234  -0.32595
   0.88366  -2.04804   0.05615
   0.89186  -1.96754   0.31375
   1.02766  -1.98724   0.50665
   1.05836  -1.71744   0.75105
   1.05856  -1.71224   1.00285
   1.12216  -1.42074   1.10805
   0.97696  -1.40034   1.27075
   1.02746  -1.26264   1.37905
   1.02606  -1.38424   1.49985
   1.11956  -1.28764   1.61215
   1.16376  -1.06764   1.75425
   1.02976  -1.00944   1.78465
   1.21126  -1.02274   1.93125
   1.15206  -1.10454   2.00495
   1.12776  -0.89764   1.93755
   1.06856  -0.97274   2.23565
   0.92336  -0.92974   2.08025
   0.82376  -0.97694   1.96425
   0.68076  -0.97084   2.08515
   0.41156  -0.89324   2.04115
   0.50726  -1.03984   1.86135
   0.28796  -1.03004   1.95865
   0.17776  -1.01714   1.89155
   0.11696  -1.07164   1.83265
  -0.08574  -0.90024   1.85995
  -0.12054  -0.77534   1.73935
  -0.03104  -0.90564   1.62875
  -0.22814  -0.75904   1.79355
   0.00036  -0.60194   1.59835
  -0.00524  -0.65264   1.68065
  -0.06674  -0.51794   1.47065
   0.16586  -0.28294   1.35515
   0.37446  -0.20514   1.28575
   0.92016   0.04696   1.21765
   0.90256   0.12786   1.03155
   1.34776   0.20806   0.83915
   1.61126   0.26526   0.86795
   1.80366   0.39786   0.45945
   2.05596   0.43366   0.30935
   2.67486   0.49236   0.24035
   2.80416   0.53606   0.17815
   3.19206   0.55916   0.05305
   3.49016   0.65176   0.13185
   3.83476   0.60296   0.05335
   4.22126   0.58216   0.05515
   4.38446   0.59546   0.11855
   4.70296   0.47036   0.13495
   4.79876   0.42316   0.38715
   5.09896   0.39716   0.33595
   5.10886   0.25736   0.36545
   5.31716   0.17276   0.48445
   5.30666   0.10276   0.58495
   5.57036   0.11056   0.53215
   5.42426   0.02076   0.70775
   5.43756  -0.00684   0.88145
   5.63416   0.12036   0.85455
   5.65826   0.30126   0.86345
   5.77656   0.18906   1.08625
   5.88156   0.00696   1.21305
   6.01136   0.19166   1.38275
   6.23716   0.30226   1.42255
   6.34196   0.48246   1.46415
   6.36296   0.24776   1.53355
   6.54786   0.50986   1.76435
   6.52826   0.53136   1.76875
   6.68936   0.67096   1.88915
   6.83826   0.82576   1.96475
   6.67046   0.95336   1.82095
   6.63866   1.02656   2.00235
   6.60656   1.08456   1.97595
   6.68566   1.28706   1.98905
   6.51566   1.47736   2.06105
   6.46046   1.53116   2.12395
   6.10366   1.53376   2.11665
   6.14736   1.54076   1.88965
   5.85166   1.83626   1.85765
   5.64916   2.02426   1.89545
   5.41646   2.04856   1.68925
   5.01276   2.12616   1.63155
   4.47896   2.20126   1.32245
   4.03466   2.40066   1.20415
   3.35036   2.53726   1.01665
   2.88086   2.54516   0.71425
   2.34096   2.50796   0.43115
   1.64896   2.56016   0.42765
   1.18386   2.45096   0.05915
   0.67696   2.31256  -0.24335
   0.01036   2.32986  -0.19405
  -0.41724   2.17156  -0.47395
  -0.76654   2.12076  -0.84985
  -1.20264   2.00416  -0.89505
  -1.62324   1.73826  -1.14285
  -1.93044   1.57646  -1.47695
  -2.16424   1.58956  -1.64205
  -2.57184   1.42336  -1.83305
  -2.65924   1.15916  -1.96885
  -2.76984   0.98566  -2.22775
  -2.93464   0.73476  -2.40545
  -2.96504   0.75486  -2.49825
  -3.02544   0.58066  -2.58915
  -3.17554   0.44436  -2.64365
  -3.19914   0.40696  -2.68645
  -3.21244   0.55036  -2.75025
  -3.17224   0.29666  -2.90455
  -3.31014   0.30876  -2.99855
  -3.27344   0.28726  -3.03065
  -3.25924   0.14206  -3.14895
  -3.41234  -0.02744  -3.06195
  -3.29334   0.17766  -3.23025
  -3.04904   0.13156  -3.18825
  -3.17624   0.09676  -3.34085
  -3.05364   0.04696  -3.01985
  -3.01744   0.04806  -2.93105
  -2.79514   0.17346  -2.72175
  -2.64684   0.07916  -2.56185
  -2.54374   0.23536  -2.55695
  -2.43384   0.04346  -2.31655
  -2.48224   0.21646  -2.20975
  -2.44604   0.19426  -1.81765
  -2.32934   0.19026  -1.72435
  -2.36554   0.23236  -1.54285
  -2.25964   0.10566  -1.32455
  -2.28894   0.16076  -1.21605
  -2.16244  -0.05154  -1.16385
  -2.14514   0.08996  -1.09305
  -2.13434   0.02566  -0.97495
  -1.93424   0.01866  -0.95675
  -1.95364  -0.07534  -1.02195
  -1.92884   0.09136  -0.88845
  -2.12574  -0.03144  -0.95185
  -2.11234  -0.03304  -0.97025
  -1.96504  -0.11204  -0.93005
  -1.91624  -0.25844  -1.09255
  -1.85404  -0.23154  -1.04745
  -1.95294  -0.44054  -1.37785
  -1.92554  -0.50864  -1.48795
  -1.78554  -0.41884  -1.53165
  -1.59704  -0.55774  -1.60505
  -1.43624  -0.59864  -1.84665
  -1.29174  -0.77424  -1.84285
  -1.02424  -0.81464  -1.64135
  -0.71254  -0.71904  -1.74255
  -0.46894  -0.75064  -1.47205
  -0.16034  -0.75944  -1.30815
   0.22736  -0.80624  -1.02595
   0.48286  -0.84434  -0.81975
   0.88206  -0.61594  -0.63475
   1.10596  -0.62874  -0.34345
   1.51726  -0.69584   0.03485
   1.64826  -0.50554   0.27895
   1.75976  -0.57784   0.65325
   2.09666  -0.65354   0.93035
   2.27456  -0.55744   1.09075
   2.35366  -0.59764   1.75475
   2.36136  -0.81444   1.90325
   2.39566  -0.76324   2.02085
   2.36506  -0.66994   2.36035
   2.17056  -0.77254   2.36685
   2.07206  -0.80184   2.53005
   1.70896  -0.85674   2.69725
   1.46516  -0.82334   2.59135
   1.25286  -0.83454   2.72485
   0.93276  -0.60934   2.57685
   0.82896  -0.67814   2.62895
   0.72606  -0.65914   2.69815
   0.29816  -0.51114   2.66025
   0.14786  -0.59484   2.55715
   0.16656  -0.52944   2.52145
  -0.12524  -0.57664   2.39815
   0.07846  -0.58064   2.54455
   0.04146  -0.54784   2.37905
   0.01036  -0.58574   2.41085
  -0.00624  -0.42744   2.41665
   0.15046  -0.42934   2.38815
   0.29566  -0.33184   2.56095
   0.23176  -0.21214   2.25325
   0.07536  -0.22194   2.24555
   0.26036  -0.02364   2.43045
   0.19786  -0.10664   2.38575
   0.00056  -0.10554   2.33765
   0.00876   0.00956   2.25465
  -0.21664   0.15986   1.82835
  -0.20024   0.20826   1.85975
  -0.36984   0.25686   1.64765
  -0.49094   0.25386   1.55155
  -0.62444   0.18326   1.52605
  -0.70554   0.28986   1.51045
  -1.18294   0.28586   1.37715
  -1.17454   0.33356   1.24455
  -1.34754   0.45656   1.20665
  -1.41214   0.44396   1.19385
  -1.54144   0.55986   1.36035
  -1.57604   0.52456   1.33435
  -1.72864   0.66256   1.32545
  -1.66694   0.65806   1.14985
  -1.83294   0.79726   1.19435
  -1.78434   0.70676   0.98785
  -1.91804   0.72516   1.02975
  -1.73824   0.77266   0.77045
  -1.64874   0.81806   0.65185
  -1.71114   0.67376   0.45355
  -1.44644   0.75746   0.18845
  -1.42944   0.62626   0.06105
  -1.17784   0.65906  -0.15685
  -1.06514   0.80186  -0.16925
  -1.03334   0.80236  -0.51885
  -0.82314   0.77706  -0.71285
  -0.77244   0.87346  -0.88285
  -0.63094   0.98146  -0.93385
  -0.44224   0.85336  -0.92495
