********************************************************************************
              CENTRO DE INSTRUMENTACION Y REGISTRO SISMICO  A.C.

    Anaxagoras 814, Col. Narvarte, Benito Juarez, C.P. 03020 Mexico, D.F.
           Tels. 5687 45 42/ 5687 45  82             Fax. 5669 25 12
********************************************************************************
ARCHIVO ESTANDAR DE ACELERACION:
VERSION DEL FORMATO                    : 2.0
NOMBRE DEL ARCHIVO                     : GA6220220919180509
FECHA Y HORA DE CREACION               : 19/SEP/22, 19:44
REF. CATALOGO ACELEROGRAMAS, SMIS 1996 : REGISTRO No.     /PAG.


================================================================================
DATOS DE LA ESTACION:
NOMBRE DE LA ESTACION                  : ESC. SEC. TÉC. NO. 2
CLAVE DE LA ESTACION                   : GA62
LOCALIZACION DE LA ESTACION            : Del. Cuauhtémoc, Col.  Guerrero,       
                                       : Calle 2 de Abril entre Pensador        
                                       : Mexicano y Mina.                       
                                       :                                        
                                       : 
COORDENADAS DE LA ESTACION             : 19.4385 LAT. N
                                       : 99.1401 LONG. W
ALTITUD (msnm)                         : 2232
TIPO DE SUELO                          : Arcilloso, zona lago                
                                       :                           
                                       : 
INSTITUCION RESPONSABLE                : CIRES, A. C.
                                       : 

================================================================================
DATOS DEL ACELEROGRAFO:
MODELO DEL ACELEROGRAFO                : RAD_IO14
NUMERO DE SERIE DEL ACELEROGRAFO       : 
NUMERO DE CANALES                      : 3
ORIENTACION C1-C6 (rumbo;orientacion)  : /N00E/+V/N90W
ORIENTACION C7-C12 (rumbo;orientacion) : 
VEL. DE MUESTREO, C1-C6 (muestras/s)   : /100/100/100
VEL. DE MUESTREO, C7-C12 (muestras/s)  : 
ESC. COMPLETA DE SENSORES, C1-C6, (g)  : /2.0/2.0/2.0
ESC. COMPLETA DE SENSORES, C7-C12, (g) : 
FREC. NAT. DE SENSORES, C1-C6, (Hz)    : /30/30/33
FREC. NAT. DE SENSORES, C7-C12, (Hz)   : 
AMORTIGUAMIENTO DE SENSORES, C1-C6     : /0.795/0.733/0.790
AMORTIGUAMIENTO DE SENSORES, C7-C12    : 
INTERVALO DE MUESTREO, C1-C6, (s)      : /0.01/0.01/0.01
INTERVALO DE MUESTREO, C7-C12, (s)     : 
UMBRAL DE DISPARO, C1-C6, (Gal)        : / / /
UMBRAL DE DISPARO, C7-C12, (Gal)       : 
MEMORIA DE PREEVENTO (s)               : 60
TIEMPO DE POSEVENTO (s)                : 90


================================================================================
DATOS DEL SISMO:
FECHA DEL SISMO (GMT)                  : 19/SEP/22
HORA EPICENTRO (GMT)                   : 18:05:09.0
MAGNITUD(ES)                           : /Mc=7.7
COORDENADAS DEL EPICENTRO              : 18.22 LAT. N
                                       : 103.29 LONG. W
PROFUNDIDAD FOCAL (km)                 : 15
FUENTE DE LOS DATOS EPICENTRALES       : SSN
                                       : INSTITUTO DE GEOFISICA, UNAM

================================================================================
DATOS DE ESTE REGISTRO:
HORA DE LA PRIMERA MUESTRA (GMT)       : 18:04:26.904.00
EXACTITUD DEL TIEMPO (s)               : 
DURACION DEL REGISTRO (s), C1-C6       : /599.81/599.81/599.81
DURACION DEL REGISTRO (s), C7-C12      : 
NUM. TOTAL DE MUESTRAS, C1-C6          : /59981/59981/59981
NUM. TOTAL DE MUESTRAS, C7-C12         : 
ACEL. MAX. (Gal), C1-C6                : /28.21203/5.32007/25.69045
ACEL. MAX., C1-C6, EN LA MUESTRA       : /23136/19853/20127
ACEL. MAX. (Gal), C7-C12               : 
ACEL. MAX., C7-C12, EN LA MUESTRA      : 
UNIDADES DE LOS DATOS                  : Gal (cm/s/s)
FACTOR DE DECIMACION                   : 1
FORMATO DATOS (FORTRAN,10 campos/dato) : 3F10.5


================================================================================
CALIDAD DEL ACELEROGRAMA:
REGISTRO DIGITAL COMPLETO CON TIEMPO ABSOLUTO CORRECTO.


================================================================================
COMENTARIOS:














================================================================================
DATOS DE ACELERACION:
---------+---------+---------+---------+---------+---------+---------+---------+
   CANAL-1   CANAL-2   CANAL-3   CANAL-4   CANAL-5   CANAL-6   CANAL-7   CANAL-8
      N00E        +V      N90W
---------+---------+---------+---------+---------+---------+---------+---------+
[...]
  -7.83843  -1.36543   2.94735
  -7.56113  -1.40473   2.97595
  -7.02683  -1.37523   3.06075
  -6.76173  -1.32843   3.17205
  -6.21153  -1.46033   3.16175
  -5.80473  -1.36873   3.25205
  -5.32593  -1.34183   3.31915
  -4.88353  -1.50803   3.53125
  -4.53143  -1.49123   3.49735
  -4.10943  -1.27613   3.53515
  -3.46593  -1.26863   3.64085
  -3.03713  -1.43133   3.70565
  -2.30133  -1.38243   3.80195
  -1.76473  -1.35043   3.91555
  -1.35563  -1.40683   3.81665
  -0.66233  -1.43833   3.75195
   0.00937  -1.24543   3.95515
   0.56957  -1.21783   3.99295
   1.21587  -1.34503   4.10705
   2.03697  -1.40513   3.97455
   2.49667  -1.38133   4.00745
   3.28547  -1.43763   4.13865
   3.83847  -1.37853   4.09045
   4.76367  -1.26813   4.11975
   5.63367  -1.26203   3.90015
   6.24177  -1.43323   3.94155
   6.94717  -1.31373   4.07225
   7.74077  -1.27513   3.95205
   8.65117  -1.11873   4.13935
   9.43767  -1.18073   4.07225
  10.08467  -1.04883   4.01595
  10.83237  -1.15893   3.87025
  11.46877  -1.20363   4.09375
  12.40057  -1.11963   4.02595
  12.98247  -1.21603   4.09045
  13.63737  -1.13483   4.05195
  14.29647  -1.21743   3.97145
  15.12817  -1.03083   3.99015
  15.71947  -1.14143   4.12955
  16.30097  -1.04113   4.09325
  16.88567  -0.87023   4.07595
  17.33387  -0.66493   4.05305
  18.01217  -0.60153   3.95515
  18.52777  -0.43343   3.85715
  18.92237  -0.26413   3.86645
  19.36387  -0.19453   3.68765
  19.72627  -0.12013   3.71495
  20.22867   0.01847   3.53265
  20.69747   0.23247   3.45735
  21.01407   0.31007   3.33205
  21.22687   0.32717   3.08655
  21.68507   0.57267   2.94975
  22.04237   0.72387   2.79635
  22.39357   0.88477   2.60255
  22.63857   1.06507   2.38085
  23.01687   1.15947   2.01825
  23.23197   1.21657   1.87395
  23.41897   1.34397   1.68955
  23.63977   1.26357   1.43885
  23.67087   1.32807   1.12605
  23.84547   1.48287   0.68715
  24.24087   1.55837   0.37665
  24.32667   1.64867  -0.00745
  24.23637   1.74847  -0.20975
  24.49527   1.81487  -0.65515
  24.58737   1.66337  -1.04185
  24.49247   1.70987  -1.32175
  24.58897   1.70427  -1.62265
  24.59697   1.75777  -1.96565
  24.43207   1.73727  -2.24175
  24.48147   1.70447  -2.58405
  24.34817   1.61797  -2.88585
  24.07837   1.81347  -3.33595
  23.91797   1.66707  -3.58315
  23.86367   1.68487  -3.93245
  23.40027   1.61327  -4.22075
  23.10177   1.49407  -4.65065
  22.92027   1.43777  -4.77605
  22.62357   1.55557  -5.14145
  22.20277   1.44357  -5.41315
  21.82867   1.36827  -5.68975
  21.45457   1.40807  -5.84635
  21.10617   1.17677  -6.10875
  20.74987   1.16607  -6.41005
  20.13377   1.00707  -6.62985
  19.68457   0.85437  -7.03435
  19.33947   0.85067  -7.14145
  18.71197   0.83307  -7.37805
  18.21977   0.63037  -7.39865
  17.65047   0.50807  -7.58615
  17.08397   0.53667  -7.70635
  16.59577   0.36637  -7.84355
  15.75897   0.15997  -7.94645
  15.31337   0.23927  -8.13395
  14.60417   0.09287  -8.11105
  13.86297   0.08727  -8.20315
  13.08347  -0.00023  -8.36005
  12.46227  -0.02453  -8.27565
  11.58457  -0.03623  -8.28225
  10.62407  -0.11923  -8.44545
   9.78747  -0.10943  -8.31355
   8.98277  -0.09213  -8.28895
   8.06577  -0.01473  -8.19475
   7.13917   0.07297  -8.20175
   6.28387   0.26937  -7.99715
   5.08677   0.15057  -7.89965
   4.19547   0.37457  -7.67245
   3.25907   0.64137  -7.57185
   2.11787   0.68257  -7.44145
   1.01897   0.70827  -7.20455
  -0.06313   0.84177  -7.04445
  -0.93823   0.86677  -6.75895
  -2.14423   1.02697  -6.76195
  -3.10913   1.16227  -6.22495
  -4.19823   1.13427  -6.18865
  -5.31563   1.23407  -6.01425
  -6.34573   1.39587  -5.74235
  -7.40843   1.46157  -5.43025
  -8.30183   1.46177  -5.22605
  -9.56903   1.45687  -5.11385
 -10.50593   1.58877  -4.87705
 -11.53003   1.53637  -4.79565
 -12.45073   1.67407  -4.37825
 -13.35603   1.68577  -4.26495
 -14.18793   1.54807  -4.10545
 -14.94483   1.58667  -3.84635
 -15.84983   1.44967  -3.62915
 -16.74143   1.49737  -3.57165
 -17.53123   1.32437  -3.34765
 -18.38853   1.29817  -3.11105
 -18.94413   1.26957  -2.99435
 -19.66913   1.36807  -2.76805
 -20.24593   1.22357  -2.70185
 -20.87513   1.07207  -2.38535
 -21.40613   1.21487  -2.07645
 -21.95693   0.94017  -1.72295
 -22.37123   1.02977  -1.54265
 -22.84353   0.79377  -1.40655
 -23.35303   0.83127  -1.22535
 -23.73273   0.64977  -0.93895
 -24.07693   0.56517  -0.59125
 -24.25253   0.64257  -0.14215
 -24.59803   0.41737   0.30535
 -24.89223   0.34397   0.51345
 -25.11453   0.19897   0.83655
 -25.29643  -0.02993   1.09465
 -25.44353   0.06337   1.25535
 -25.66233  -0.05323   1.68765
 -25.55243  -0.11223   2.12015
 -25.70423  -0.15333   2.40825
 -25.84193  -0.25243   2.65955
 -25.88963  -0.31653   2.77465
 -25.75583  -0.37313   3.12365
 -25.86573  -0.61163   3.23355
 -25.71403  -0.65833   3.52865
 -25.47253  -0.66723   3.72785
 -25.33083  -0.77363   4.02825
 -25.34503  -0.84383   4.06875
 -25.20223  -0.97703   4.29975
 -24.98153  -1.28803   4.58245
 -24.72173  -1.33873   4.66195
 -24.48463  -1.25173   4.85855
 -24.18823  -1.50293   5.10685
 -23.90573  -1.59223   5.41875
 -23.61703  -1.57303   5.60465
 -23.14143  -1.78623   5.78485
 -22.92633  -1.79283   5.96615
 -22.41713  -1.96183   6.27515
 -22.17323  -1.99553   6.23805
 -21.56163  -2.02193   6.70325
 -21.18863  -2.14473   6.85135
 -20.57023  -2.22163   6.91605
 -20.10213  -2.37083   7.26305
 -19.57563  -2.23983   7.24735
 -18.97663  -2.25643   7.53585
 -18.40193  -2.10263   7.47815
 -17.86833  -2.18073   7.58285
 -17.15523  -2.03483   7.76825
 -16.50523  -1.88353   7.86415
 -15.83493  -1.85193   7.87305
 -15.10423  -1.84893   8.04325
 -14.42173  -1.67053   8.12255
 -13.67783  -1.70143   8.00005
 -13.19123  -1.51383   8.02945
 -12.38343  -1.42593   8.03485
 -11.48793  -1.36213   8.02825
 -10.85973  -1.20193   7.96825
 -10.13563  -0.93493   7.90885
  -9.15993  -0.89683   7.86555
  -8.35913  -0.79023   7.77785
  -7.70183  -0.62983   7.78235
  -6.84663  -0.60533   7.61775
  -6.16993  -0.36753   7.58685
  -5.21723  -0.32423   7.63645
  -4.56413  -0.11103   7.58475
  -3.73203  -0.15103   7.54615
  -2.81483  -0.03293   7.38505
  -2.14423   0.12397   7.44475
  -1.26463   0.23927   7.25785
  -0.61303   0.44547   6.95395
   0.30797   0.49967   7.06195
   0.97777   0.75897   7.05545
   1.94417   0.70377   6.91255
   2.87377   0.79547   6.73795
   3.67647   0.92567   6.79375
   4.49147   0.95207   6.63055
   5.24857   0.90537   6.53725
   6.11737   1.06017   6.47015
   6.95677   0.90047   6.54405
   7.95517   0.94247   6.53865
   8.76157   0.87377   6.40775
   9.57447   0.87257   6.26565
  10.36687   0.89667   6.42225
  11.24247   0.81787   6.27635
  11.96117   0.74917   6.20925
  12.91327   0.76037   6.19245
  13.79407   0.59437   6.28755
  14.46347   0.72667   6.14735
  15.17237   0.59907   6.12225
  15.96327   0.54387   5.92915
  16.69207   0.63837   6.02685
  17.41597   0.34327   6.06715
  17.99157   0.45687   5.65465
  18.70547   0.44547   5.67435
  19.34487   0.29017   5.63295
  19.86697   0.16437   5.34375
  20.55177   0.29417   5.35025
  21.05307   0.14617   5.16255
  21.64607   0.24207   4.86345
  22.13567   0.13117   4.68785
  22.77697   0.11037   4.52165
  23.09827   0.01897   4.23265
  23.55697   0.12117   3.86715
  23.94717   0.16137   3.59785
  24.40217  -0.07993   3.25535
  24.68887  -0.04973   2.90395
  25.00327  -0.08183   2.65255
  25.15157  -0.03523   2.42695
  25.48747   0.08397   1.94785
  25.60837   0.10527   1.54545
  25.79097   0.01147   1.15435
  25.95817  -0.04863   0.69655
  25.98857   0.11087   0.42995
  26.15037   0.24417   0.01425
  26.12647   0.29557  -0.37995
  25.96897   0.37137  -0.58405
  26.05847   0.57617  -1.02685
  26.00797   0.58857  -1.39565
  25.93807   0.59507  -1.78185
  25.86417   0.83777  -2.08815
  25.59767   0.93827  -2.49165
  25.43397   0.96167  -2.78165
  25.19617   1.15787  -3.22235
  25.07017   1.12537  -3.53615
  24.76127   1.08907  -3.88665
  24.53127   1.23077  -4.29925
  24.12367   1.26937  -4.43045
  23.71247   1.55957  -4.75475
  23.35607   1.49527  -5.28755
  23.01427   1.36317  -5.65165
  22.42347   1.49457  -5.77605
  22.09727   1.45737  -6.08625
  21.65567   1.32197  -6.35705
  21.15437   1.39007  -6.57215
  20.66307   1.52027  -6.86785
  19.98697   1.28947  -7.00515
  19.44587   1.28407  -7.15545
  18.82187   1.36037  -7.25555
  18.24837   1.16137  -7.46645
  17.63647   1.32547  -7.62055
  17.16117   1.10357  -7.51045
  16.55817   1.10787  -7.58635
  15.77487   1.01177  -7.56795
  15.11737   0.91067  -7.71075
  14.39957   0.66567  -7.54825
  13.72977   0.84107  -7.70495
  12.95867   0.73467  -7.53825
  12.35467   0.60167  -7.56975
  11.62527   0.44167  -7.34675
  10.88687   0.54877  -7.32355
   9.97917   0.47117  -7.27165
   9.28107   0.24667  -7.10335
   8.37527   0.08887  -7.07295
   7.47487   0.04137  -7.05615
   6.64067  -0.10983  -6.87425
   5.67087  -0.19593  -6.66635
   4.61517  -0.28823  -6.47365
   3.83617  -0.44983  -6.34955
   3.03697  -0.42153  -6.24125
   1.87567  -0.50593  -5.85125
   0.90367  -0.67333  -5.82085
  -0.06753  -0.81623  -5.64535
  -1.07643  -0.85823  -5.47045
  -2.12993  -0.97893  -5.30345
  -3.19383  -1.04273  -5.09215
  -4.33733  -1.16873  -4.85085
  -5.26413  -1.24753  -4.67335
  -6.29363  -1.34083  -4.65235
  -7.38183  -1.43393  -4.39345
  -8.45683  -1.42923  -4.29885
  -9.42133  -1.49003  -4.10105
 -10.48373  -1.65483  -3.99435
 -11.48423  -1.61913  -3.96025
 -12.62373  -1.80403  -3.80455
 -13.57043  -1.79253  -3.58545
 -14.43553  -1.63503  -3.37755
 -15.43623  -1.61953  -3.38045
 -16.23633  -1.65203  -3.39445
 -17.20063  -1.41383  -3.00025
 -18.11173  -1.45663  -3.14445
 -19.03013  -1.44913  -2.69465
 -19.64603  -1.42733  -2.75875
 -20.50853  -1.26483  -2.72485
 -21.18443  -1.16343  -2.51975
 -21.78253  -1.20483  -2.47365
 -22.42733  -1.07623  -2.32705
 -22.98223  -0.94453  -2.18895
 -23.57773  -0.78183  -1.96185
 -24.22673  -0.71633  -1.93335
 -24.61773  -0.47223  -1.81105
 -25.13443  -0.45073  -1.77105
 -25.56133  -0.32963  -1.60255
 -25.99223  -0.19123  -1.67145
 -26.44163  -0.03523  -1.55435
 -26.70673   0.08677  -1.53075
 -26.93563   0.16697  -1.24055
 -27.21433   0.32967  -1.26305
 -27.58353   0.58127  -1.25855
 -27.62983   0.54997  -1.13165
 -27.77743   0.69097  -1.10545
 -27.95653   0.83897  -1.01005
 -27.99573   1.02437  -0.88235
 -27.96793   1.01807  -0.89525
 -28.21203   0.95167  -0.81945
 -28.04743   1.08347  -0.65695
 -27.82343   1.10387  -0.59295
 -27.78553   1.10247  -0.62145
 -27.47503   1.04777  -0.61675
 -27.38133   1.00967  -0.45635
 -27.29383   0.96007  -0.61495
 -27.03523   0.84967  -0.57655
 -26.59343   0.75847  -0.61005
 -26.13743   0.89737  -0.38085
 -25.87563   0.67737  -0.40335
 -25.57183   0.56887  -0.32035
 -25.05983   0.44707  -0.32845
 -24.75583   0.33107  -0.17025
 -24.22673   0.22797  -0.05685
 -23.88473   0.00077  -0.07855
 -23.23663  -0.02963   0.03605
 -22.84943  -0.19473   0.13515
 -22.26253  -0.36753   0.20835
 -21.80523  -0.54213   0.36805
 -21.21973  -0.55103   0.41085
 -20.64973  -0.83933   0.43865
 -19.99343  -0.94783   0.63475
 -19.32173  -1.22423   0.59275
 -18.73363  -1.43553   0.68645
 -17.94833  -1.55483   0.87095
 -17.27123  -1.79863   0.92915
 -16.53143  -1.95743   0.84355
 -15.71473  -2.17793   0.90785
 -15.02713  -2.11543   0.91865
 -14.23593  -2.35303   1.12505
 -13.46523  -2.41593   1.23145
 -12.48583  -2.48183   1.22005
 -11.70303  -2.54563   1.36665
 -10.80523  -2.67213   1.49285
 -10.00393  -2.67593   1.51415
  -9.14753  -2.55593   1.53915
  -8.11683  -2.62513   1.61025
  -7.13513  -2.45173   1.59275
  -6.13603  -2.44233   1.80035
  -5.23193  -2.40473   1.64745
  -4.22393  -2.42903   1.75985
  -3.28993  -2.18163   1.72995
  -2.29713  -2.11103   1.82375
  -1.41593  -2.00063   1.84945
  -0.31963  -1.88683   1.72175
   0.64137  -1.66653   1.83545
   1.75617  -1.52623   1.79095
   2.69167  -1.48323   1.84665
   3.63247  -1.24363   1.94695
   4.61257  -1.14073   1.91585
   5.38207  -0.98193   1.97265
   6.34627  -0.66753   1.88755
   7.34817  -0.45423   1.97075
   8.10357  -0.28593   1.99745
   8.99747  -0.14303   2.04165
   9.77767   0.11627   2.02335
  10.74817   0.26937   2.09865
  11.27737   0.52427   2.13515
  12.13637   0.64697   2.30045
  12.68067   0.57937   2.37595
  13.33927   0.79057   2.32405
  14.15617   0.89317   2.30975
  14.70027   0.94747   2.43515
  15.45337   0.84427   2.47485
  15.92377   0.90997   2.74815
  16.40357   1.00217   2.82325
  16.99817   1.04467   2.89315
  17.60227   1.18267   3.12065
  18.11927   1.14707   3.13165
  18.68977   1.21117   3.20525
  19.05987   1.01287   3.42455
  19.50837   1.10197   3.54525
  20.07177   1.02927   3.61145
  20.46207   0.98017   3.57565
  20.84317   1.24037   3.59205
  21.40077   0.90067   3.53915
  21.81977   1.00677   3.68525
  22.09617   1.04027   3.56725
  22.43817   1.13847   3.53285
  22.95937   1.01387   3.47935
  23.12907   0.91957   3.32785
  23.43837   1.03817   3.07555
  23.78797   0.92477   3.16505
  24.13147   0.91497   3.01875
  24.35827   0.84427   2.71775
  24.69697   0.90297   2.52915
  24.87937   0.85907   2.26815
  24.97107   0.75687   2.05195
  25.14097   0.82837   1.98415
  25.18797   0.78187   1.73605
  25.38187   0.74937   1.56765
  25.35517   0.90577   1.43975
  25.36947   0.87257   1.31705
  25.24037   0.91377   1.16395
  25.07557   1.09757   1.09495
  24.93407   1.26987   0.79125
  24.87777   1.32827   0.84545
  24.67037   1.31127   0.67965
  24.18687   1.41247   0.44005
  24.01567   1.38347   0.44195
  23.69207   1.56707   0.36635
  23.27097   1.61047   0.28895
  22.95467   1.36897   0.16535
  22.47817   1.38537   0.30395
  22.19297   1.36337   0.17465
  21.75457   1.31617   0.10145
  21.18827   1.30887   0.10525
  20.52637   1.09657   0.07175
  20.14427   1.06547  -0.00775
  19.55087   0.87897  -0.10755
  18.98487   0.67547  -0.24405
  18.35397   0.46697  -0.32215
  17.89457   0.38347  -0.23215
  17.13657   0.25067  -0.44935
  16.47157   0.09587  -0.66025
  15.90417  -0.05003  -0.75215
  15.18027  -0.10073  -0.91465
  14.46347  -0.23093  -0.94805
  13.74167  -0.35533  -1.09185
  13.09097  -0.35183  -1.26565
  12.30377  -0.56393  -1.35935
  11.45477  -0.49403  -1.59715
  10.53237  -0.55083  -1.89575
   9.77017  -0.65413  -1.77225
   9.01457  -0.71613  -2.16745
   8.19547  -0.56293  -2.21625
   7.15967  -0.75823  -2.61985
   6.45757  -0.91163  -2.76715
   5.48447  -0.94943  -3.00745
   4.83077  -0.86763  -3.14195
   3.70407  -0.81623  -3.24265
   2.88337  -0.91793  -3.44475
   1.95817  -0.78583  -3.50035
   1.04587  -0.93243  -3.45685
   0.04637  -0.86463  -3.61375
  -0.94363  -0.85713  -3.63455
  -1.93053  -0.81643  -3.60365
  -2.74773  -0.74533  -3.74515
  -3.76803  -0.88753  -3.65485
  -4.68413  -0.74113  -3.70585
  -5.71403  -0.78813  -3.52985
  -6.67123  -0.71283  -3.50315
  -7.44533  -0.63013  -3.57755
