********************************************************************************
              CENTRO DE INSTRUMENTACION Y REGISTRO SISMICO  A.C.

    Anaxagoras 814, Col. Narvarte, Benito Juarez, C.P. 03020 Mexico, D.F.
           Tels. 5687 45 42/ 5687 45  82             Fax. 5669 25 12
********************************************************************************
ARCHIVO ESTANDAR DE ACELERACION:
VERSION DEL FORMATO                    : 2.0
NOMBRE DEL ARCHIVO                     : GR2720220919180509
FECHA Y HORA DE CREACION               : 19/SEP/22, 19:44
REF. CATALOGO ACELEROGRAMAS, SMIS 1996 : REGISTRO No.     /PAG.


================================================================================
DATOS DE LA ESTACION:
NOMBRE DE LA ESTACION                  : GRANJAS
CLAVE DE LA ESTACION                   : GR27
LOCALIZACION DE LA ESTACION            : Del. Azcapotzalco, Col. Sindicato      
                                       : Mexicano de Electricistas, calle       
                                       : Norte 87 esq. calle Aspiros.           
                                       :                                        
                                       : 
COORDENADAS DE LA ESTACION             : 19.4747 LAT. N
                                       : 99.1797 LONG. W
ALTITUD (msnm)                         : 2238
TIPO DE SUELO                          : Terreno estratificado               
                                       : (arcillas, limos, arenas) 
                                       : 
INSTITUCION RESPONSABLE                : CIRES, A. C.
                                       : 

================================================================================
DATOS DEL ACELEROGRAFO:
MODELO DEL ACELEROGRAFO                : RAD_IO14
NUMERO DE SERIE DEL ACELEROGRAFO       : 
NUMERO DE CANALES                      : 3
ORIENTACION C1-C6 (rumbo;orientacion)  : /S00E/+V/N90W
ORIENTACION C7-C12 (rumbo;orientacion) : 
VEL. DE MUESTREO, C1-C6 (muestras/s)   : /100/100/100
VEL. DE MUESTREO, C7-C12 (muestras/s)  : 
ESC. COMPLETA DE SENSORES, C1-C6, (g)  : /2.0/2.0/2.0
ESC. COMPLETA DE SENSORES, C7-C12, (g) : 
FREC. NAT. DE SENSORES, C1-C6, (Hz)    : /53.52/54.77/55.09
FREC. NAT. DE SENSORES, C7-C12, (Hz)   : 
AMORTIGUAMIENTO DE SENSORES, C1-C6     : /0.5966/0.4954/0.5266
AMORTIGUAMIENTO DE SENSORES, C7-C12    : 
INTERVALO DE MUESTREO, C1-C6, (s)      : /0.01/0.01/0.01
INTERVALO DE MUESTREO, C7-C12, (s)     : 
UMBRAL DE DISPARO, C1-C6, (Gal)        : / / /
UMBRAL DE DISPARO, C7-C12, (Gal)       : 
MEMORIA DE PREEVENTO (s)               : 60
TIEMPO DE POSEVENTO (s)                : 90


================================================================================
DATOS DEL SISMO:
FECHA DEL SISMO (GMT)                  : 19/SEP/22
HORA EPICENTRO (GMT)                   : 18:05:09.0
MAGNITUD(ES)                           : /Mc=7.7
COORDENADAS DEL EPICENTRO              : 18.22 LAT. N
                                       : 103.29 LONG. W
PROFUNDIDAD FOCAL (km)                 : 15
FUENTE DE LOS DATOS EPICENTRALES       : SSN
                                       : INSTITUTO DE GEOFISICA, UNAM

================================================================================
DATOS DE ESTE REGISTRO:
HORA DE LA PRIMERA MUESTRA (GMT)       : 18:04:27.487.00
EXACTITUD DEL TIEMPO (s)               : 
DURACION DEL REGISTRO (s), C1-C6       : /481.61/481.61/481.61
DURACION DEL REGISTRO (s), C7-C12      : 
NUM. TOTAL DE MUESTRAS, C1-C6          : /48161/48161/48161
NUM. TOTAL DE MUESTRAS, C7-C12         : 
ACEL. MAX. (Gal), C1-C6                : /12.26292/3.89084/17.14394
ACEL. MAX., C1-C6, EN LA MUESTRA       : /19127/19226/19391
ACEL. MAX. (Gal), C7-C12               : 
ACEL. MAX., C7-C12, EN LA MUESTRA      : 
UNIDADES DE LOS DATOS                  : Gal (cm/s/s)
FACTOR DE DECIMACION                   : 1
FORMATO DATOS (FORTRAN,10 campos/dato) : 3F10.5


================================================================================
CALIDAD DEL ACELEROGRAMA:
REGISTRO DIGITAL COMPLETO CON TIEMPO ABSOLUTO CORRECTO.


================================================================================
COMENTARIOS:














================================================================================
DATOS DE ACELERACION:
---------+---------+---------+---------+---------+---------+---------+---------+
   CANAL-1   CANAL-2   CANAL-3   CANAL-4   CANAL-5   CANAL-6   CANAL-7   CANAL-8
      N00E        +V      N90W
---------+---------+---------+---------+---------+---------+---------+---------+
[...]
  -1.50542  -0.23424   8.55326
  -1.14132  -0.12764   8.71086
  -0.72242   0.01656   8.21396
  -0.37632   0.24266   7.88926
   0.02438   0.19196   7.77306
   0.35598   0.30906   7.58926
   0.55488   0.68786   7.00946
   0.82548   0.79936   6.76276
   1.37718   1.01846   6.47466
   1.59678   1.28246   6.19366
   1.88978   1.34326   5.73396
   2.28628   1.49566   5.33516
   2.70778   1.67286   5.04616
   3.14948   1.96426   4.70146
   3.44618   2.16766   4.25796
   3.72608   2.26276   3.77236
   4.08798   2.23286   3.28816
   4.57528   2.17206   3.04336
   4.69098   2.15126   2.57056
   4.98348   2.26346   2.18876
   5.58018   2.16296   1.74096
   5.84768   2.09706   1.25186
   6.24278   1.97706   0.82166
   6.64288   1.91866   0.11136
   7.19228   1.82016  -0.44974
   7.36648   1.52796  -1.09274
   7.77918   1.45056  -1.59284
   8.20258   1.22326  -2.00694
   8.58908   1.06056  -2.50964
   8.90588   0.86176  -3.12104
   9.06788   0.70306  -3.51944
   9.39218   0.48326  -4.21174
   9.41468   0.24436  -4.65604
   9.48848   0.07836  -4.94214
   9.45228  -0.06614  -5.36654
   9.36668  -0.14354  -5.66024
   9.09948  -0.15054  -6.09254
   8.97068  -0.26984  -6.27514
   8.47518  -0.52794  -6.47064
   7.99468  -0.41224  -6.55544
   7.29818  -0.49264  -6.88494
   6.78408  -0.42014  -6.99034
   6.07628  -0.28244  -6.93584
   5.27528  -0.26144  -6.86574
   4.44878  -0.20784  -6.86084
   3.51608  -0.21254  -6.75814
   2.65218  -0.05984  -6.42454
   1.93768   0.21576  -6.32984
   0.90638   0.26396  -6.09324
  -0.09862   0.29366  -5.52574
  -1.07172   0.68576  -5.20684
  -2.01842   0.62126  -4.44514
  -3.10232   0.83096  -3.81924
  -3.91462   0.81836  -3.25594
  -5.02982   0.95276  -2.31344
  -6.06892   1.02776  -1.66094
  -6.60762   1.14096  -0.73694
  -7.58002   1.25246   0.23296
  -8.36492   1.29876   0.90746
  -9.23842   1.16996   1.74496
  -9.79862   1.20506   2.53616
 -10.33562   1.14866   3.09216
 -10.91762   1.17226   3.90136
 -11.36602   1.17726   4.59906
 -11.71722   1.34746   5.08726
 -11.92272   1.28596   5.62366
 -12.11072   1.16736   6.10696
 -12.12122   1.27356   6.40926
 -12.17852   1.31236   6.76506
 -12.26292   1.45376   7.30406
 -12.05902   1.55416   7.65076
 -11.80912   1.79396   7.89816
 -11.64852   1.72266   8.14526
 -11.16782   1.72716   8.22706
 -10.87182   1.78206   8.37576
 -10.23632   1.86956   8.62826
  -9.76942   1.86836   8.60656
  -9.15752   1.82536   8.68536
  -8.54442   1.95996   8.72366
  -7.84982   2.02756   8.49056
  -7.13692   2.24786   8.50956
  -6.60482   2.18006   8.18176
  -5.74222   2.22206   7.83406
  -4.98262   2.28736   7.54816
  -4.38992   2.24156   7.08516
  -3.68962   2.26766   6.65376
  -2.86242   2.22536   6.11226
  -2.49112   2.18796   5.58086
  -1.81452   2.19896   5.04476
  -1.06722   2.23586   4.23596
  -0.38032   2.22206   3.60046
   0.24278   1.99696   2.72696
   0.77538   2.01496   2.02646
   1.56238   2.05326   1.22216
   2.27438   1.97026   0.39826
   2.97458   1.73346  -0.61064
   3.65708   1.58076  -1.30644
   4.28088   1.64156  -1.92134
   4.74598   1.55456  -2.81434
   5.45368   1.54406  -3.48394
   5.76228   1.51736  -4.24914
   6.20118   1.59176  -4.69904
   6.68068   1.50336  -5.34504
   6.90498   1.52306  -5.99624
   7.20068   1.56606  -6.40304
   7.23578   1.64666  -6.91324
   7.27738   1.43016  -7.44674
   7.23278   1.24526  -7.75514
   7.27948   1.24546  -8.28264
   7.16418   1.19526  -8.45494
   7.09078   1.07836  -8.68784
   7.30778   1.03506  -8.96974
   7.10838   0.91936  -9.28894
   7.01058   0.56226  -9.36534
   6.96458   0.67216  -9.46704
   6.59978   0.41106  -9.46004
   6.49928   0.38596  -9.19214
   6.30128   0.19336  -9.21454
   6.03328   0.14726  -9.06444
   5.70638  -0.13844  -8.45984
   5.50718  -0.30374  -8.07544
   5.02578  -0.23524  -7.65694
   4.81308  -0.37874  -6.91954
   4.24938  -0.45684  -6.32634
   3.89628  -0.72344  -5.62724
   3.36318  -0.91984  -4.68194
   3.06648  -1.01174  -4.07644
   2.76698  -1.17114  -3.39504
   2.28788  -1.41434  -2.29644
   2.00078  -1.33464  -1.47014
   1.51468  -1.56324  -0.59334
   1.16518  -1.67924   0.10196
   0.86538  -1.65674   0.90486
   0.31338  -1.66914   1.48546
   0.31058  -1.71364   2.22286
   0.00168  -1.88984   2.75876
  -0.23092  -1.93644   3.40896
  -0.30662  -2.03814   3.83546
  -0.39712  -2.11804   4.19626
  -0.43572  -2.20624   4.67836
  -0.38822  -2.19544   5.08466
  -0.31462  -2.13754   5.47026
  -0.33262  -2.18354   5.72906
  -0.37842  -2.10144   6.02746
  -0.17692  -2.00564   6.28036
  -0.08592  -2.00284   6.50206
  -0.11912  -2.10804   6.53476
  -0.15752  -2.16414   6.54816
  -0.08132  -2.29064   6.54816
  -0.23582  -2.25344   6.48896
  -0.21452  -2.37384   6.22406
  -0.22152  -2.33324   6.11836
  -0.06582  -2.38204   5.80646
  -0.11962  -2.39074   5.57686
   0.03068  -2.34414   5.08896
   0.00758  -2.39304   4.68276
   0.17008  -2.49174   4.22216
   0.07958  -2.50244   3.68136
   0.18578  -2.70934   3.17096
   0.21308  -2.77064   2.61666
   0.26308  -2.91984   1.99426
   0.32838  -3.12974   1.31146
   0.25098  -3.24524   0.66246
   0.27878  -3.55814   0.08256
   0.36438  -3.70894  -0.73574
   0.57038  -3.71734  -1.54514
   0.20958  -3.82704  -2.12034
   0.13918  -3.85294  -3.12404
   0.16308  -3.89084  -3.88324
  -0.16712  -3.77654  -4.75354
  -0.34552  -3.68784  -5.62234
  -0.80982  -3.34344  -6.37174
  -1.13692  -3.37504  -7.11704
  -1.44972  -3.12514  -8.10074
  -1.73642  -2.79984  -8.88814
  -2.15162  -2.49074  -9.50024
  -2.56032  -2.18094 -10.20104
  -2.80282  -2.10454 -10.78414
  -3.25032  -1.92894 -11.30244
  -3.52362  -1.66024 -11.56454
  -3.99102  -1.52724 -11.92234
  -4.36652  -1.33084 -11.86054
  -4.53342  -1.29324 -12.07644
  -5.06092  -1.25064 -11.79654
  -5.34502  -1.38114 -11.73224
  -5.55962  -1.22424 -11.45284
  -5.81942  -1.22494 -11.05234
  -6.08272  -1.33464 -10.71494
  -6.12732  -1.20744 -10.10704
  -6.20282  -1.12934  -9.57624
  -6.54702  -1.22144  -8.64804
  -6.55452  -1.09164  -8.25644
  -6.73362  -0.99834  -7.49284
  -6.50752  -0.89944  -6.76874
  -6.64732  -0.86204  -6.15094
  -6.66862  -0.61794  -5.29594
  -6.71652  -0.62454  -4.54654
  -6.72962  -0.41784  -3.59214
  -6.57832  -0.30044  -2.95694
  -6.36912  -0.18404  -2.11494
  -6.02192  -0.05334  -1.31794
  -5.95062  -0.03604  -0.41564
  -5.54282  -0.02764   0.32696
  -5.17152  -0.05524   1.02696
  -4.82802  -0.11314   2.00266
  -4.19072  -0.00654   2.96036
  -3.67142   0.06546   3.55866
  -3.09622   0.02736   4.35756
  -2.52952  -0.16504   4.90866
  -1.93142  -0.00794   5.60166
  -1.22792  -0.00234   6.05126
  -0.69082  -0.01824   6.42696
  -0.19932  -0.04234   6.99726
   0.25818  -0.13254   7.27476
   0.91078  -0.11434   7.34566
   1.30078  -0.32124   7.49246
   1.56048  -0.38324   7.71786
   2.06598  -0.39254   7.78406
   2.38608  -0.36424   7.68796
   2.54388  -0.61374   7.62596
   3.03588  -0.57724   7.66946
   3.12288  -0.64974   7.48686
   3.30238  -0.62924   7.30966
   3.41368  -0.63384   7.02396
   3.68518  -0.39254   6.75576
   3.97738  -0.51374   6.46536
   4.33278  -0.51374   6.30726
   4.53548  -0.45084   5.72676
   4.75928  -0.35074   5.28836
   5.07888  -0.19684   4.77256
   5.36368   0.12156   4.23546
   5.76018   0.20506   3.68586
   6.13238   0.41006   2.91966
   6.15648   0.61346   2.21656
   6.30448   0.78466   1.28296
   6.44948   0.99676   0.67506
   6.49018   1.34576  -0.13134
   6.49788   1.52886  -1.11984
   6.40808   1.69046  -1.85054
   6.23668   1.86836  -2.62094
   6.23178   1.88166  -3.33944
   5.85798   2.16136  -4.11634
   5.81188   1.95836  -4.83884
   5.60678   2.05726  -5.27374
   5.11228   2.00656  -5.79094
   4.93158   1.92536  -6.05604
   4.43518   1.97796  -6.45724
   3.99538   1.94976  -6.69314
   3.50558   1.69256  -6.77754
   2.87878   1.65236  -6.96694
   2.33398   1.36916  -6.79724
   1.59518   1.30016  -6.76424
   1.00528   1.37716  -6.69414
   0.50418   1.32076  -6.26414
  -0.00322   1.23446  -5.95364
  -0.62562   1.02996  -5.55544
  -1.31552   1.19146  -5.10964
  -1.87832   0.92656  -4.56924
  -2.42142   0.95646  -4.31234
  -2.97212   0.97096  -3.66984
  -3.63192   1.08786  -3.19864
  -4.11092   0.91656  -2.61324
  -4.50262   0.85156  -2.21064
  -4.89562   0.74166  -1.53914
  -5.65972   0.82116  -0.93774
  -5.98492   0.50946  -0.47154
  -6.58092   0.38996   0.08096
  -7.10162   0.45056   0.85576
  -7.63612   0.36236   1.71176
  -8.08572   0.09536   2.15246
  -8.37472  -0.16464   3.06316
  -8.76442  -0.11454   3.95116
  -9.17742  -0.33244   4.59626
  -9.47902  -0.64184   5.65896
  -9.59802  -0.93784   6.60676
  -9.83462  -0.95344   7.50506
  -9.96342  -0.84524   8.33866
  -9.90572  -0.94044   9.39056
  -9.83742  -0.70334  10.36926
  -9.84252  -0.67574  11.37646
  -9.78312  -0.48824  12.20466
  -9.45982  -0.38904  13.08726
  -9.08972  -0.36824  13.89696
  -8.64222  -0.26634  14.52286
  -8.38242  -0.15054  15.02906
  -7.89402  -0.17144  15.37576
  -7.36812  -0.08534  15.81206
  -6.90892  -0.10524  15.93366
  -6.25292   0.04066  16.03046
  -5.56712   0.01546  16.15676
  -5.08872   0.07806  15.98296
  -4.47762   0.00656  15.63536
  -3.74152   0.23496  15.53176
  -2.82782   0.19146  15.04356
  -2.22112   0.22236  14.70056
  -1.49392   0.17436  14.22406
  -0.64802   0.15106  13.79786
   0.00338   0.09046  13.42136
   0.81678  -0.11694  12.82116
   1.55558  -0.18474  12.17306
   2.31058  -0.20534  11.58976
   3.14668  -0.11034  10.94326
   3.86778  -0.04744  10.20536
   4.60588  -0.26754   9.32976
   5.14898  -0.22754   8.56046
   5.74218  -0.08704   7.54816
   6.59978   0.11436   6.44756
   7.30078   0.28616   5.53546
   7.86188   0.46966   4.44946
   8.51398   0.59946   3.27226
   9.09808   0.78346   1.94326
   9.45738   1.07526   0.81326
   9.73448   1.01376  -0.36094
  10.01178   1.16716  -1.73594
  10.12538   1.04256  -3.08104
  10.27878   1.02496  -4.38644
  10.34658   0.97196  -5.64644
  10.17218   1.06876  -6.79184
  10.17568   0.97826  -8.03804
  10.07258   0.92966  -9.27394
   9.84698   0.88026 -10.32304
   9.51678   0.74416 -11.24494
   9.19858   0.67776 -12.13274
   8.92298   0.39206 -13.00154
   8.53318   0.24036 -13.75604
   8.11048   0.04836 -14.48204
   7.51658  -0.38344 -15.15354
   7.04588  -0.48824 -15.55964
   6.65588  -0.67574 -16.12764
   6.04798  -0.82814 -16.35224
   5.31148  -1.13094 -16.63494
   4.65968  -1.07924 -17.02214
   4.11328  -1.19944 -17.06964
   3.48738  -0.98714 -17.14394
   2.78478  -1.03484 -16.85824
   2.37188  -1.00984 -16.49004
   1.56498  -0.79144 -16.36094
   0.86658  -0.52724 -15.90434
   0.20448  -0.37414 -15.47734
  -0.35412   0.02146 -15.06894
  -1.15652   0.17816 -14.39784
  -1.60852   0.43886 -13.93444
  -2.20472   0.61346 -13.35814
  -2.68592   0.54266 -12.50564
  -3.10932   0.63786 -11.84724
  -3.50372   0.72896 -11.18344
  -3.96622   0.47256 -10.49494
  -4.34012   0.40896  -9.65744
  -4.57092   0.33226  -9.12014
  -4.79692   0.02266  -8.31954
  -4.79932  -0.25814  -7.58684
  -4.86152  -0.21184  -6.90434
  -4.79132  -0.29694  -6.05414
  -4.87832  -0.55224  -5.37024
  -4.58582  -0.57494  -4.69594
  -4.57132  -0.63414  -3.81004
  -4.20992  -0.43884  -3.06564
  -4.09432  -0.56814  -2.39394
  -3.63262  -0.61494  -1.76774
  -3.29502  -0.60274  -0.88094
  -3.02192  -0.48824  -0.25454
  -2.63002  -0.36894   0.20726
  -2.32932  -0.29504   0.73146
  -1.96692   0.00676   1.25186
  -1.64432  -0.01984   1.76746
  -1.24912   0.23866   2.11956
  -0.81592   0.37876   2.54366
  -0.21172   0.49146   2.78966
   0.11118   0.47016   3.30166
   0.51028   0.30956   3.50016
   0.79718   0.22066   3.86166
   1.27928   0.24366   4.00306
   1.59888  -0.02124   4.27086
   2.04148  -0.18894   4.57476
   2.48108  -0.42364   4.73356
   2.79998  -0.79774   4.89976
   2.91098  -0.85554   5.09426
   3.19808  -1.17604   5.30776
   3.41858  -1.31424   5.50016
   3.48128  -1.49734   5.48126
   3.63538  -1.48054   5.48216
   3.85658  -1.31424   5.42816
   3.97948  -1.21884   5.43896
   3.99498  -0.91584   5.31476
   4.05108  -0.70264   5.24976
   4.08688  -0.42744   4.96386
   3.88858  -0.31124   4.71106
   3.87358  -0.04094   4.66316
   3.71908   0.26396   4.36766
   3.54088   0.49686   3.87496
   3.42768   0.63736   3.59766
   3.18078   0.94156   3.30776
   2.98538   1.19026   2.89326
   2.81958   1.03246   2.45346
   2.59588   1.35556   2.09196
   2.44038   1.34276   1.87756
   2.05668   1.30746   1.50676
   1.73028   1.36336   1.20676
   1.40618   1.24406   0.96106
   1.02538   1.13886   0.64446
   0.62088   0.97426   0.26986
   0.33398   1.04086   0.12606
  -0.09622   0.90016   0.00496
  -0.69972   0.56116  -0.41144
  -1.13502   0.44466  -0.40794
  -1.66322   0.45986  -0.60414
  -2.26532   0.39836  -0.76024
  -2.65292   0.32916  -0.90644
  -3.24522   0.53446  -1.13344
  -3.65222   0.64996  -1.29434
  -4.18812   0.88376  -1.50564
  -4.26712   1.14826  -1.64294
  -4.64052   1.13236  -1.87254
  -4.84722   1.15636  -1.88744
  -4.86012   1.61306  -2.27844
  -5.10562   1.88636  -2.22954
  -5.05062   2.08626  -2.40494
  -5.08292   2.17226  -2.35884
  -5.06002   2.18746  -2.38194
  -4.81282   2.29086  -2.06614
  -4.63542   2.25746  -2.11244
  -4.31112   2.22746  -1.94244
  -4.16082   2.05076  -1.61794
  -3.82272   1.78046  -1.28774
  -3.60312   1.96356  -0.94664
  -3.18902   1.62356  -0.48864
  -3.01202   1.32496   0.07556
  -2.73832   1.24826   0.67346
  -2.48432   1.08326   1.21606
  -2.42682   1.01266   1.39476
  -2.33172   0.94906   2.08326
  -2.25612   1.01046   2.22336
  -2.22362   0.83706   2.71246
  -1.98892   0.95086   3.03626
  -1.93792   0.71546   3.22756
  -1.95622   0.71376   3.66246
  -1.55732   0.85246   3.65546
  -1.46242   0.68056   3.80956
  -1.00322   0.66896   4.10996
  -0.87392   0.75166   4.09706
  -0.65272   0.71776   4.23996
  -0.43202   0.69956   4.41836
  -0.19862   0.43956   4.72906
   0.16778   0.42806   4.70106
   0.45278   0.38036   4.87376
   0.84788   0.23006   5.18036
   1.14388  -0.00774   5.27616
   1.24788  -0.13844   5.40646
   1.55588  -0.16044   5.54156
   1.72348  -0.33714   5.81136
   1.86818  -0.13494   5.94186
   1.70948  -0.36994   5.84346
   1.77428  -0.36474   5.87096
   1.57878  -0.52324   5.77886
   1.38868  -0.60094   5.66266
   1.38448  -0.49544   5.71136
   1.27058  -0.63274   5.58666
   0.96458  -0.57864   5.39196
   0.79108  -0.60974   5.30286
   0.60498  -0.58644   5.39006
   0.48758  -0.52884   5.10696
   0.33378  -0.43044   4.81136
  -0.04292  -0.33744   4.60866
  -0.00672  -0.32944   4.30496
  -0.03172  -0.26464   3.95166
  -0.16432  -0.51534   3.88176
  -0.08662  -0.58104   3.58856
  -0.19002  -0.74424   3.47536
  -0.26642  -0.88074   3.19576
  -0.15442  -0.69634   2.87826
  -0.20662  -0.90644   2.53666
  -0.14842  -0.99344   2.09426
  -0.10952  -1.13864   1.89086
  -0.21902  -0.87894   1.60586
  -0.45772  -0.89064   1.18216
  -0.53482  -0.83544   0.75686
  -0.63842  -0.81554   0.57596
