********************************************************************************
              CENTRO DE INSTRUMENTACION Y REGISTRO SISMICO  A.C.

    Anaxagoras 814, Col. Narvarte, Benito Juarez, C.P. 03020 Mexico, D.F.
           Tels. 5687 45 42/ 5687 45  82             Fax. 5669 25 12
********************************************************************************
ARCHIVO ESTANDAR DE ACELERACION:
VERSION DEL FORMATO                    : 2.0
NOMBRE DEL ARCHIVO                     : IB2220220919180509
FECHA Y HORA DE CREACION               : 19/SEP/22, 19:45
REF. CATALOGO ACELEROGRAMAS, SMIS 1996 : REGISTRO No.     /PAG.


================================================================================
DATOS DE LA ESTACION:
NOMBRE DE LA ESTACION                  : ESC. SEC. TÉC. NO. 95
CLAVE DE LA ESTACION                   : IB22
LOCALIZACION DE LA ESTACION            : Del. Coyoacán, Col. Campestre          
                                       : Churubusco entre Cerro del Crestón     
                                       : y Cerro Mezontepec.                    
                                       :                                        
                                       : 
COORDENADAS DE LA ESTACION             : 19.3450 LAT. N
                                       : 99.1297 LONG. W
ALTITUD (msnm)                         : 2234
TIPO DE SUELO                          : Alto riesgo sísmico                 
                                       :                           
                                       : 
INSTITUCION RESPONSABLE                : CIRES, A. C.
                                       : 

================================================================================
DATOS DEL ACELEROGRAFO:
MODELO DEL ACELEROGRAFO                : RAD_IO14
NUMERO DE SERIE DEL ACELEROGRAFO       : 
NUMERO DE CANALES                      : 3
ORIENTACION C1-C6 (rumbo;orientacion)  : /N00E/+V/N90W
ORIENTACION C7-C12 (rumbo;orientacion) : 
VEL. DE MUESTREO, C1-C6 (muestras/s)   : /100/100/100
VEL. DE MUESTREO, C7-C12 (muestras/s)  : 
ESC. COMPLETA DE SENSORES, C1-C6, (g)  : /2.0/2.0/2.0
ESC. COMPLETA DE SENSORES, C7-C12, (g) : 
FREC. NAT. DE SENSORES, C1-C6, (Hz)    : /30/30/30
FREC. NAT. DE SENSORES, C7-C12, (Hz)   : 
AMORTIGUAMIENTO DE SENSORES, C1-C6     : /0.700/0.700/0.695
AMORTIGUAMIENTO DE SENSORES, C7-C12    : 
INTERVALO DE MUESTREO, C1-C6, (s)      : /0.01/0.01/0.01
INTERVALO DE MUESTREO, C7-C12, (s)     : 
UMBRAL DE DISPARO, C1-C6, (Gal)        : / / /
UMBRAL DE DISPARO, C7-C12, (Gal)       : 
MEMORIA DE PREEVENTO (s)               : 60
TIEMPO DE POSEVENTO (s)                : 90


================================================================================
DATOS DEL SISMO:
FECHA DEL SISMO (GMT)                  : 19/SEP/22
HORA EPICENTRO (GMT)                   : 18:05:09.0
MAGNITUD(ES)                           : /Mc=7.7
COORDENADAS DEL EPICENTRO              : 18.22 LAT. N
                                       : 103.29 LONG. W
PROFUNDIDAD FOCAL (km)                 : 15
FUENTE DE LOS DATOS EPICENTRALES       : SSN
                                       : INSTITUTO DE GEOFISICA, UNAM

================================================================================
DATOS DE ESTE REGISTRO:
HORA DE LA PRIMERA MUESTRA (GMT)       : 18:04:27.007.00
EXACTITUD DEL TIEMPO (s)               : 
DURACION DEL REGISTRO (s), C1-C6       : /420.01/420.01/420.01
DURACION DEL REGISTRO (s), C7-C12      : 
NUM. TOTAL DE MUESTRAS, C1-C6          : /42001/42001/42001
NUM. TOTAL DE MUESTRAS, C7-C12         : 
ACEL. MAX. (Gal), C1-C6                : /20.73113/5.12362/20.17154
ACEL. MAX., C1-C6, EN LA MUESTRA       : /20105/19815/20625
ACEL. MAX. (Gal), C7-C12               : 
ACEL. MAX., C7-C12, EN LA MUESTRA      : 
UNIDADES DE LOS DATOS                  : Gal (cm/s/s)
FACTOR DE DECIMACION                   : 1
FORMATO DATOS (FORTRAN,10 campos/dato) : 3F10.5


================================================================================
CALIDAD DEL ACELEROGRAMA:
REGISTRO DIGITAL COMPLETO CON TIEMPO ABSOLUTO CORRECTO.


================================================================================
COMENTARIOS:














================================================================================
DATOS DE ACELERACION:
---------+---------+---------+---------+---------+---------+---------+---------+
   CANAL-1   CANAL-2   CANAL-3   CANAL-4   CANAL-5   CANAL-6   CANAL-7   CANAL-8
      N00E        +V      N90W
---------+---------+---------+---------+---------+---------+---------+---------+
[...]
  -9.93477   1.62438 -14.89374
 -10.03787   1.65518 -14.98164
 -10.46037   1.78498 -15.17034
 -10.47087   1.74988 -15.40064
 -10.88967   1.92778 -15.35084
 -11.01637   1.80878 -15.23064
 -11.23547   1.80698 -15.27834
 -11.50627   1.77418 -15.28354
 -11.53127   1.49598 -15.08574
 -11.70377   1.51938 -14.90994
 -11.62687   1.26828 -14.82644
 -11.65887   1.15228 -14.66794
 -11.60887   0.93908 -14.52384
 -11.57477   0.66688 -14.28074
 -11.79567   0.41528 -14.20384
 -11.41247   0.20768 -13.93704
 -11.36287  -0.12012 -13.64474
 -11.22587  -0.42262 -13.38614
 -11.06647  -0.70722 -13.14184
 -10.90767  -1.11052 -12.73404
 -10.62827  -1.36632 -12.49164
 -10.51297  -1.64712 -12.17784
  -9.97267  -1.97652 -11.76564
 -10.07487  -2.23542 -11.49674
  -9.54597  -2.45332 -11.17244
  -9.26707  -2.46172 -10.89124
  -9.04747  -2.84702 -10.38854
  -8.67407  -2.90342 -10.04344
  -8.25787  -3.13812  -9.57784
  -8.06877  -3.38032  -9.08244
  -7.73087  -3.41632  -8.64284
  -7.50857  -3.58472  -8.09924
  -7.06077  -3.66882  -7.74174
  -6.79127  -3.94312  -7.24404
  -6.53777  -3.89212  -6.78944
  -6.13077  -4.08392  -6.06584
  -5.69377  -4.22162  -5.56344
  -5.32217  -4.27722  -4.90784
  -5.10037  -4.45892  -4.38334
  -4.47207  -4.69362  -3.77684
  -4.22777  -4.81362  -3.05324
  -3.09867  -4.92772  -2.71534
  -3.05967  -4.93212  -2.06654
  -2.92097  -5.12362  -1.72284
  -2.20457  -5.04812  -0.99944
  -1.51047  -5.07332  -0.55424
  -0.87327  -5.00042   0.16846
  -0.24767  -5.05232   0.80606
   0.18613  -4.84912   1.44196
   0.84943  -4.91622   2.06326
   1.61933  -4.88162   2.15786
   2.34153  -4.63592   2.64216
   3.04693  -4.44702   2.91776
   3.68383  -4.23792   3.32646
   4.49963  -4.09392   3.67396
   5.12363  -3.94962   3.91476
   5.62633  -3.75182   4.33626
   6.55383  -3.29172   4.73356
   7.14703  -3.06352   4.91596
   7.76403  -2.88682   5.52526
   8.25293  -2.81572   5.77866
   9.13563  -2.44042   6.34916
   9.81523  -2.21062   6.67646
  10.32383  -1.90052   7.18406
  10.89333  -1.63942   7.59766
  11.34953  -1.31862   7.91966
  11.88333  -1.16312   8.42396
  12.23333  -0.92602   8.77796
  12.74073  -0.90222   9.06486
  12.89573  -0.72172   9.31016
  13.32983  -0.65292   9.56006
  13.50123  -0.64312   9.84156
  13.69253  -0.52152  10.12586
  13.71193  -0.66952  10.41276
  13.92703  -0.54872  10.75276
  13.92773  -0.54262  10.91826
  14.09373  -0.43622  11.15906
  14.00583  -0.69362  11.12426
  14.16993  -0.56832  11.25606
  14.21183  -0.62302  11.21966
  14.41173  -0.53092  11.30806
  14.49123  -0.45422  11.43216
  14.48883  -0.56782  11.38116
  14.59053  -0.22302  11.25146
  14.60903  -0.13742  11.21966
  14.37923   0.02668  11.07846
  14.41783   0.11748  10.80976
  14.40513   0.33438  10.53316
  14.19823   0.37888  10.35826
  13.87513   0.58858  10.13386
  13.81503   0.85138   9.85936
  13.44023   0.96168   9.63086
  12.94803   1.05528   9.54416
  12.86413   1.30868   9.24086
  12.37013   1.32618   9.13666
  12.00933   1.58478   9.05546
  11.61793   1.65428   8.79106
  11.20783   1.74828   8.59766
  10.76013   1.73658   8.31546
  10.19003   1.80108   8.26826
   9.82343   1.83078   8.18086
   9.19843   1.89628   8.11536
   8.73693   1.94978   8.00546
   8.18753   1.78608   7.88316
   7.60203   1.90768   7.78286
   7.17863   1.90588   7.57756
   6.47763   2.07208   7.51306
   5.94993   1.95428   7.36456
   5.35633   1.89698   7.19366
   4.68413   1.79898   7.10806
   4.29953   1.78328   6.88906
   3.67593   1.65658   6.65806
   2.87283   1.48078   6.52826
   2.23423   1.41528   6.51706
   1.42503   1.21398   6.21846
   0.74603   1.24648   6.05756
  -0.00377   1.12278   5.93186
  -0.70567   0.99348   5.63486
  -1.50927   0.78428   5.39476
  -2.18867   0.81228   5.22476
  -2.99797   0.69308   4.91476
  -3.73327   0.66008   4.48036
  -4.34447   0.58878   4.36576
  -5.07577   0.48308   3.86496
  -5.66617   0.58998   3.66576
  -6.08537   0.41138   3.41366
  -6.80407   0.59678   3.05176
  -7.50057   0.49758   2.77796
  -7.95467   0.61128   2.39076
  -8.69447   0.63718   2.15436
  -9.23597   0.62928   1.93716
  -9.87777   0.81188   1.78166
 -10.25697   0.83448   1.32106
 -10.75637   0.94788   1.11346
 -11.44637   1.03348   0.97036
 -11.89087   1.11088   0.55746
 -12.21977   1.29298   0.38426
 -12.63977   1.36088   0.21096
 -12.91397   1.46278   0.17376
 -13.15757   1.67158  -0.12714
 -13.52777   1.73588  -0.25684
 -13.64397   1.76278  -0.18554
 -13.67877   1.73608  -0.14534
 -13.90117   1.92968  -0.24194
 -13.77747   1.79808  -0.34974
 -13.77697   1.97548  -0.41774
 -13.77907   1.99278  -0.37564
 -13.55017   1.87308  -0.51454
 -13.41477   1.95468  -0.22484
 -13.20067   1.83478  -0.21124
 -13.10707   1.96288  -0.04924
 -12.79307   2.02928  -0.02914
 -12.59227   2.08538   0.12466
 -12.34067   1.94978   0.10736
 -11.96967   1.90448   0.21616
 -11.49917   1.91498   0.26776
 -11.28597   1.86348   0.11606
 -10.87607   1.80878   0.12256
 -10.39587   1.92898   0.17446
  -9.77767   1.97108   0.00356
  -9.42317   1.97948  -0.25664
  -8.92167   2.03768  -0.35534
  -8.50437   1.95798  -0.57044
  -7.88407   1.90678  -0.90404
  -7.41437   1.86098  -1.08694
  -6.90137   1.81858  -1.40044
  -6.33207   1.78968  -1.73174
  -5.84567   1.87548  -2.06984
  -5.26887   1.75548  -2.23534
  -4.80127   1.80788  -2.76004
  -4.20807   1.80788  -3.00314
  -3.56517   1.76508  -3.35694
  -2.91047   1.61868  -3.53114
  -2.37627   1.58128  -3.83624
  -1.82557   1.46158  -4.05654
  -1.09937   1.58248  -4.26344
  -0.36737   1.47728  -4.65104
   0.33763   1.62528  -4.85444
   1.26413   1.59048  -4.92374
   1.93803   1.63278  -5.14744
   2.71103   1.60098  -5.25454
   3.57303   1.44428  -5.37894
   4.40423   1.64818  -5.32214
   5.05143   1.56188  -5.49414
   5.72263   1.59138  -5.44504
   6.57143   1.56918  -5.38034
   7.10403   1.67858  -5.29264
   7.76853   1.84318  -5.25084
   8.26793   1.80088  -5.19444
   8.98363   1.97948  -4.98634
   9.28313   2.18758  -4.49464
   9.72523   2.19618  -4.33074
  10.08743   2.23478  -4.12504
  10.18283   2.22568  -3.77804
  10.49943   2.40878  -3.65244
  10.56863   2.43238  -3.29914
  10.80423   2.66498  -3.03144
  10.91883   2.52148  -2.82924
  10.87093   2.59678  -2.63844
  10.88963   2.66808  -2.39484
  10.97473   2.67318  -2.10534
  10.88683   2.63598  -1.85444
  10.88163   2.63668  -1.79374
  10.84103   2.46208  -1.79934
  10.53583   2.45038  -1.74624
  10.44373   2.22618  -1.68874
  10.39743   2.08468  -1.59164
  10.24543   1.85838  -1.61924
   9.96163   1.55818  -1.65664
   9.83393   1.40388  -1.60404
   9.55383   1.05988  -1.60294
   9.31633   0.70548  -1.60684
   9.16383   0.41628  -1.68034
   8.83423   0.40688  -1.75134
   8.69113   0.05638  -1.89514
   8.17603  -0.10842  -1.85634
   7.85153  -0.40352  -1.78154
   7.57513  -0.60102  -1.82174
   7.33803  -0.86762  -1.90924
   6.92233  -1.06562  -1.85054
   6.38013  -1.16552  -2.00994
   6.05233  -1.22582  -2.09204
   5.62983  -1.63802  -1.90924
   5.24313  -1.70882  -1.99154
   4.72803  -1.54142  -2.10814
   4.08183  -1.67702  -2.00134
   3.78413  -1.68052  -2.08874
   3.14563  -1.70722  -2.18554
   2.50873  -1.57232  -2.13974
   1.91763  -1.53912  -2.18324
   1.33153  -1.45072  -2.17244
   0.87393  -1.41732  -2.07334
   0.07133  -1.30782  -2.05884
  -0.40567  -1.17692  -2.09624
  -1.02647  -1.04152  -1.95854
  -1.81557  -0.83952  -1.81074
  -2.36777  -0.69132  -1.87134
  -3.12137  -0.64522  -1.82454
  -3.71637  -0.46332  -1.68034
  -4.25467  -0.37262  -1.64644
  -4.92967  -0.35462  -1.59404
  -5.48447  -0.33942  -1.52574
  -5.96847  -0.16992  -1.56034
  -6.68457  -0.08742  -1.57744
  -6.98387  -0.02172  -1.56714
  -7.45567  -0.01042  -1.57864
  -8.05547  -0.24992  -1.67964
  -8.43397  -0.21062  -1.77314
  -8.89737  -0.34922  -1.86474
  -9.23357  -0.51152  -1.88834
  -9.63457  -0.72362  -1.80304
 -10.09027  -0.78762  -1.77804
 -10.41787  -1.04342  -1.84984
 -10.71287  -1.17642  -1.77684
 -10.94207  -1.32722  -1.60874
 -11.13867  -1.58682  -1.54184
 -11.45127  -1.57952  -1.47384
 -11.63477  -1.61722  -1.39084
 -11.88757  -1.62442  -1.36984
 -11.88057  -1.92422  -1.08904
 -12.10547  -1.71702  -0.97654
 -12.32547  -1.70302  -0.77314
 -12.31057  -1.87722  -0.63214
 -12.38067  -1.71772  -0.61184
 -12.57357  -1.63912  -0.62164
 -12.61287  -1.83932  -0.37404
 -12.65497  -1.69152  -0.35394
 -12.70217  -1.69182  -0.46334
 -12.66447  -1.54312  -0.29174
 -12.65887  -1.61742  -0.23254
 -12.82817  -1.45332  -0.26524
 -12.79847  -1.39012  -0.31184
 -12.53167  -1.28772  -0.35854
 -12.48777  -1.36262  -0.38224
 -12.23497  -1.33452  -0.34874
 -12.12227  -1.43712  -0.24614
 -11.98807  -1.46382  -0.31504
 -11.70847  -1.41802  -0.29454
 -11.52307  -1.41802  -0.43224
 -11.15437  -1.49912  -0.46594
 -10.91517  -1.58702  -0.56174
 -10.51467  -1.64482  -0.70554
  -9.85297  -1.80702  -0.73334
  -9.52137  -1.93892  -0.76404
  -9.09917  -1.84212  -0.73404
  -8.59837  -1.97652  -0.82484
  -7.90417  -2.23632  -0.81244
  -7.27057  -2.23052  -1.00904
  -6.71967  -2.29242  -1.26764
  -5.75897  -2.36402  -1.40304
  -5.37997  -2.44792  -1.48784
  -5.02927  -2.55682  -1.37304
  -4.23547  -2.55122  -1.60384
  -3.66237  -2.66982  -1.73544
  -2.73727  -2.54522  -1.84984
  -1.96397  -2.55902  -1.75134
  -1.33577  -2.49542  -1.95554
  -0.38857  -2.37632  -2.28184
   0.42383  -2.33312  -2.46164
   0.97873  -2.15262  -2.39904
   2.22253  -2.12622  -2.47804
   2.92543  -2.14212  -2.73594
   3.85123  -2.00832  -2.71184
   4.13983  -1.73432  -2.80864
   5.02053  -1.75682  -2.94564
   6.12813  -1.67942  -3.11024
   7.11683  -1.40982  -3.32724
   7.86923  -1.22582  -3.35254
   8.60763  -1.10932  -3.45564
   9.58843  -0.85242  -3.68004
  10.51203  -0.69922  -3.76754
  11.09773  -0.47882  -3.93164
  11.85663  -0.31322  -3.96134
  12.84613  -0.20192  -3.90384
  13.40443  -0.03972  -4.06044
  14.17883   0.04468  -4.10774
  14.88563   0.16228  -4.21714
  15.42433   0.20978  -4.18084
  15.80103   0.18668  -4.04764
  16.32003   0.35518  -3.89404
  16.89783   0.66758  -3.88814
  17.57633   0.87268  -3.93634
  18.02103   1.05898  -3.78834
  18.49283   1.09218  -3.65504
  19.08673   1.28038  -3.47874
  19.49873   1.36368  -3.58144
  19.89503   1.40918  -3.29264
  20.11173   1.35568  -3.09084
  20.22793   1.76438  -3.05724
  20.45423   1.83148  -2.92584
  20.64743   1.87358  -2.74014
  20.56813   1.93018  -2.71534
  20.68623   1.91008  -2.56204
  20.73113   2.13898  -2.32464
  20.54103   2.18178  -2.28704
  20.36683   2.19788  -2.07894
  19.99783   2.22798  -2.11334
  19.74723   2.19808  -1.77144
  19.28573   2.28488  -1.77874
  18.85973   2.42398  -1.53694
  18.25343   2.37508  -1.42244
  17.71263   2.24928  -1.21504
  17.21583   2.27968  -0.90644
  16.67473   2.24278  -0.68524
  15.96253   2.14618  -0.41254
  15.18213   1.95798   0.00356
  14.54593   1.77908   0.23716
  13.63803   1.70918   0.48856
  12.64763   1.77188   0.93486
  11.73253   1.55608   1.16656
  10.68063   1.30638   1.66156
   9.65463   1.27618   2.04286
   8.69533   1.05338   2.45296
   7.48253   0.86798   2.80906
   6.34413   1.06248   3.29326
   5.26043   0.83548   3.58856
   4.19213   0.88928   4.08566
   2.79213   0.84878   4.53156
   1.69343   1.01808   4.74036
   0.54663   1.01668   5.08406
  -0.68037   0.95188   5.46796
  -1.74077   0.94488   5.67716
  -3.07837   1.10088   6.00266
  -3.93857   1.10948   6.60776
  -5.03507   1.39118   6.70476
  -6.07787   1.45578   7.11346
  -7.14687   1.67348   7.59206
  -8.05827   1.86958   7.82656
  -8.95627   1.84108   8.30026
  -9.69237   1.98038   8.58856
 -10.64067   2.21728   8.98836
 -11.43277   2.50668   9.14156
 -12.07697   2.69848   9.35246
 -13.00957   2.80908   9.81866
 -13.70637   2.87758  10.00336
 -14.17307   2.97508  10.16936
 -14.72787   3.00008  10.30876
 -15.39377   3.22338  10.54976
 -15.91327   3.23438  10.71036
 -16.43237   3.21818  10.79646
 -16.96707   3.30428  10.79906
 -17.40807   3.26688  11.00756
 -17.60907   3.35618  10.89936
 -18.03697   3.37668  11.04966
 -18.10637   3.25258  11.14056
 -18.24037   3.19318  11.17336
 -18.50697   3.12628  11.35896
 -18.57287   3.23178  11.22946
 -18.56657   3.19178  11.14416
 -18.70237   3.15018  11.24586
 -18.76877   3.24958  11.07306
 -18.44917   3.18128  10.95586
 -18.39097   3.07858  10.71136
 -18.36877   3.26618  10.39286
 -18.28667   3.34348  10.34056
 -18.07627   3.29678  10.06276
 -17.64207   3.32198   9.88016
 -17.44237   3.36478   9.54746
 -17.19077   3.32718   9.30636
 -16.79477   3.19738   8.91896
 -16.32507   3.39028   8.65386
 -16.02297   3.23298   8.42816
 -15.45337   3.04518   8.15436
 -14.92217   3.11138   7.66336
 -14.41947   2.96078   7.28136
 -13.66447   2.81578   6.89186
 -13.17277   2.80248   6.48526
 -12.51417   2.45978   5.92736
 -11.87147   2.39008   5.38676
 -11.18197   2.37578   4.91806
 -10.46387   2.36228   4.36946
  -9.80477   2.30048   3.96386
  -9.30937   2.11888   3.33096
  -8.57407   1.89178   2.87876
  -7.80897   1.83618   2.39266
  -7.11017   1.84158   1.78246
  -6.38627   1.76348   1.45466
  -5.63017   1.60728   0.85306
  -4.69347   1.38798   0.13426
  -3.83217   1.20088  -0.38754
  -3.22537   1.19178  -1.11684
  -2.28177   1.13478  -1.67774
  -1.29627   1.13028  -2.21404
  -0.79447   1.00358  -2.69994
   0.19453   0.85908  -3.30924
   0.67503   0.79338  -3.70834
   1.09703   0.62858  -4.26644
   1.86503   0.53058  -4.64894
   2.32353   0.19598  -5.08404
   2.94273  -0.00132  -5.64004
   3.36233  -0.07592  -6.08154
   3.75423  -0.28682  -6.56384
   4.39203  -0.45962  -6.94804
   4.79653  -0.53792  -7.36374
   5.08013  -0.81152  -7.83154
   5.38083  -1.05282  -8.16404
   5.73783  -1.14742  -8.61294
   6.26493  -1.31812  -8.95904
   6.43093  -1.41312  -9.50264
   6.76503  -1.49282  -9.86404
   7.13723  -1.64342 -10.30154
   7.32963  -1.86412 -10.54824
   7.86433  -1.97822 -10.98724
   8.13513  -2.03852 -11.25384
   8.36073  -2.16292 -11.52034
   8.46923  -2.07612 -11.81034
   8.76223  -2.26202 -12.26784
   8.95203  -2.47132 -12.54984
   9.14723  -2.42972 -12.73154
   9.13043  -2.51712 -13.06024
   9.32353  -2.59122 -13.15164
   9.23803  -2.46682 -13.33384
   9.30513  -2.56342 -13.53934
   9.37103  -2.52152 -13.55074
   9.46383  -2.55362 -13.70714
   9.57233  -2.36232 -13.81894
   9.62913  -2.46262 -14.02724
  10.00233  -2.70162 -13.89124
  10.17863  -2.67912 -13.94984
  10.36593  -2.73202 -13.85404
  10.46203  -2.84212 -13.72844
  10.46243  -2.86452 -13.51894
  10.35463  -2.91532 -13.49094
  10.18843  -2.94262 -13.44794
  10.21953  -3.06302 -13.42684
  10.12853  -3.25222 -13.00994
  10.02853  -3.29122 -12.89304
   9.84073  -3.44772 -12.51294
   9.61583  -3.43742 -12.22644
   9.45003  -3.36932 -11.87764
   9.04393  -3.42592 -11.31974
   8.88123  -3.42292 -11.01484
   8.44323  -3.35952 -10.46494
   8.18303  -3.48022  -9.91694
   7.69583  -3.49072  -9.52274
   7.19593  -3.26442  -8.85654
   6.68413  -3.12202  -8.27114
