********************************************************************************
              CENTRO DE INSTRUMENTACION Y REGISTRO SISMICO  A.C.

    Anaxagoras 814, Col. Narvarte, Benito Juarez, C.P. 03020 Mexico, D.F.
           Tels. 5687 45 42/ 5687 45  82             Fax. 5669 25 12
********************************************************************************
ARCHIVO ESTANDAR DE ACELERACION:
VERSION DEL FORMATO                    : 2.0
NOMBRE DEL ARCHIVO                     : JA4320220919180509
FECHA Y HORA DE CREACION               : 19/SEP/22, 19:45
REF. CATALOGO ACELEROGRAMAS, SMIS 1996 : REGISTRO No.     /PAG.


================================================================================
DATOS DE LA ESTACION:
NOMBRE DE LA ESTACION                  : JAMAICA
CLAVE DE LA ESTACION                   : JA43
LOCALIZACION DE LA ESTACION            : Del. Venustiano Carranza, Col. Jamaica,
                                       : Calzada de la Viga esq. con            
                                       : Calle Guillermo Prieto.                
                                       :                                        
                                       : 
COORDENADAS DE LA ESTACION             : 19.4053 LAT. N
                                       : 99.1250 LONG. W
ALTITUD (msnm)                         : 2234
TIPO DE SUELO                          : Terreno blando, material compresible
                                       : (arcillas)                
                                       : 
INSTITUCION RESPONSABLE                : CIRES, A. C.
                                       : 

================================================================================
DATOS DEL ACELEROGRAFO:
MODELO DEL ACELEROGRAFO                : RAD_IO14
NUMERO DE SERIE DEL ACELEROGRAFO       : 
NUMERO DE CANALES                      : 3
ORIENTACION C1-C6 (rumbo;orientacion)  : /S00E/+V/N90W
ORIENTACION C7-C12 (rumbo;orientacion) : 
VEL. DE MUESTREO, C1-C6 (muestras/s)   : /100/100/100
VEL. DE MUESTREO, C7-C12 (muestras/s)  : 
ESC. COMPLETA DE SENSORES, C1-C6, (g)  : /2.0/2.0/2.0
ESC. COMPLETA DE SENSORES, C7-C12, (g) : 
FREC. NAT. DE SENSORES, C1-C6, (Hz)    : /52.47/55.39/55.39
FREC. NAT. DE SENSORES, C7-C12, (Hz)   : 
AMORTIGUAMIENTO DE SENSORES, C1-C6     : /0.5698/0.5589/0.5715
AMORTIGUAMIENTO DE SENSORES, C7-C12    : 
INTERVALO DE MUESTREO, C1-C6, (s)      : /0.01/0.01/0.01
INTERVALO DE MUESTREO, C7-C12, (s)     : 
UMBRAL DE DISPARO, C1-C6, (Gal)        : / / /
UMBRAL DE DISPARO, C7-C12, (Gal)       : 
MEMORIA DE PREEVENTO (s)               : 60
TIEMPO DE POSEVENTO (s)                : 90


================================================================================
DATOS DEL SISMO:
FECHA DEL SISMO (GMT)                  : 19/SEP/22
HORA EPICENTRO (GMT)                   : 18:05:09.0
MAGNITUD(ES)                           : /Mc=7.7
COORDENADAS DEL EPICENTRO              : 18.22 LAT. N
                                       : 103.29 LONG. W
PROFUNDIDAD FOCAL (km)                 : 15
FUENTE DE LOS DATOS EPICENTRALES       : SSN
                                       : INSTITUTO DE GEOFISICA, UNAM

================================================================================
DATOS DE ESTE REGISTRO:
HORA DE LA PRIMERA MUESTRA (GMT)       : 18:04:26.949.00
EXACTITUD DEL TIEMPO (s)               : 
DURACION DEL REGISTRO (s), C1-C6       : /566.61/566.61/566.61
DURACION DEL REGISTRO (s), C7-C12      : 
NUM. TOTAL DE MUESTRAS, C1-C6          : /56661/56661/56661
NUM. TOTAL DE MUESTRAS, C7-C12         : 
ACEL. MAX. (Gal), C1-C6                : /35.72812/6.54053/39.876
ACEL. MAX., C1-C6, EN LA MUESTRA       : /20246/19193/21953
ACEL. MAX. (Gal), C7-C12               : 
ACEL. MAX., C7-C12, EN LA MUESTRA      : 
UNIDADES DE LOS DATOS                  : Gal (cm/s/s)
FACTOR DE DECIMACION                   : 1
FORMATO DATOS (FORTRAN,10 campos/dato) : 3F10.5


================================================================================
CALIDAD DEL ACELEROGRAMA:
REGISTRO DIGITAL COMPLETO CON TIEMPO ABSOLUTO CORRECTO.


================================================================================
COMENTARIOS:














================================================================================
DATOS DE ACELERACION:
---------+---------+---------+---------+---------+---------+---------+---------+
   CANAL-1   CANAL-2   CANAL-3   CANAL-4   CANAL-5   CANAL-6   CANAL-7   CANAL-8
      N00E        +V      N90W
---------+---------+---------+---------+---------+---------+---------+---------+
[...]
  -1.92122  -0.16647 -16.10980
  -2.63732   0.08913 -15.73710
  -3.35542   0.31423 -15.25380
  -4.19472   0.47743 -14.79010
  -4.84472   0.69373 -14.42750
  -5.26462   0.74423 -13.92970
  -5.81392   0.95513 -13.55730
  -6.47252   1.00703 -13.11580
  -6.88142   1.14073 -12.74200
  -7.42672   1.24433 -12.38490
  -7.71452   1.31513 -11.89230
  -8.21302   1.34603 -11.28320
  -8.58402   1.22163 -10.93560
  -8.94762   1.15643 -10.45980
  -9.45262   1.34723 -10.04500
  -9.61232   1.26703  -9.62530
  -9.87562   1.17863  -8.93840
 -10.07252   1.04303  -8.74780
 -10.36382   1.29623  -8.31430
 -10.62172   1.15663  -7.87640
 -10.75542   1.10423  -7.41560
 -11.30702   0.96283  -7.07680
 -11.49522   0.81993  -6.58720
 -11.72292   0.81343  -6.14150
 -11.93502   0.66963  -5.51420
 -12.20252   0.64553  -4.95500
 -12.38302   0.60323  -4.32390
 -12.73062   0.54593  -3.68300
 -12.75382   0.68113  -3.05760
 -13.07762   0.68993  -2.22600
 -13.16222   0.66873  -1.56310
 -13.27352   0.62943  -0.79290
 -13.17912   0.67433  -0.11140
 -13.29672   0.70793   0.72120
 -13.34792   0.76343   1.39360
 -13.51622   0.67853   2.18630
 -13.70262   0.69063   3.02260
 -13.84012   0.66703   3.89660
 -13.94532   0.49943   4.69880
 -13.77862   0.66073   5.59660
 -13.91882   0.65393   6.54980
 -13.92592   0.50943   7.39010
 -13.96212   0.37203   8.24840
 -13.87072   0.19313   9.25730
 -13.83072   0.22143  10.06280
 -13.90692   0.13753  11.07470
 -14.08772  -0.12577  11.83580
 -14.20692  -0.24857  12.70300
 -14.16832  -0.21207  13.39500
 -14.25482  -0.44587  14.29610
 -14.46202  -0.32317  15.12410
 -14.48862  -0.67527  15.75210
 -14.73132  -0.71597  16.55360
 -14.70442  -0.77457  17.25760
 -14.82862  -0.67127  17.97300
 -15.01282  -0.79167  18.54750
 -15.06382  -0.86327  19.25870
 -15.35002  -0.95467  19.65410
 -15.40052  -1.02737  20.40250
 -15.57562  -1.04747  20.96550
 -15.68972  -1.13627  21.41440
 -15.85032  -1.17557  21.99360
 -16.01802  -1.12717  22.36790
 -16.12372  -1.33717  22.90290
 -16.47112  -1.29487  23.22480
 -16.51162  -1.36867  23.59960
 -16.69932  -1.38347  24.04710
 -16.79942  -1.34227  24.28540
 -16.95702  -1.31567  24.84280
 -17.16482  -1.42457  25.27110
 -17.22652  -1.44007  25.60710
 -17.20922  -1.37687  25.84330
 -17.21882  -1.53517  26.29290
 -17.22232  -1.37387  26.48130
 -17.04602  -1.63387  26.93840
 -17.04652  -1.51087  27.39950
 -16.87232  -1.51067  27.67650
 -16.61542  -1.72877  28.09830
 -16.49242  -1.66047  28.37820
 -16.07432  -1.79847  28.83550
 -15.90482  -1.76197  29.21730
 -15.69212  -1.72877  29.56500
 -15.35892  -1.73187  29.89820
 -14.98502  -1.91257  30.34380
 -14.83232  -1.87767  30.68080
 -14.41922  -1.78417  31.09250
 -13.90832  -1.89427  31.55920
 -13.51552  -1.83607  31.85560
 -13.11922  -1.90877  32.09510
 -12.56022  -1.86927  32.36630
 -12.15922  -1.93917  32.54680
 -11.77512  -2.06497  32.80070
 -11.47322  -1.95437  32.94940
 -11.15362  -2.02547  33.28020
 -10.67382  -2.12607  33.49700
 -10.18492  -2.07267  33.66510
  -9.90622  -1.99317  33.64690
  -9.43072  -1.75447  33.66580
  -9.13442  -1.74347  33.70650
  -8.65632  -1.65047  33.64640
  -8.28502  -1.48347  33.64920
  -7.74472  -1.55487  33.44980
  -7.36592  -1.38507  33.29100
  -7.09582  -1.04447  33.32860
  -6.56742  -1.00887  33.12660
  -6.03362  -0.83677  32.72640
  -5.77722  -0.69327  32.53490
  -5.27892  -0.48207  32.10680
  -4.75922  -0.21257  31.59990
  -4.21722  -0.13937  31.35300
  -3.71892   0.20533  30.99380
  -3.23102   0.29783  30.31480
  -2.64582   0.35073  29.69270
  -2.15762   0.61003  29.20070
  -1.75142   0.81763  28.45440
  -1.11012   0.89453  27.94750
  -0.61752   1.12863  27.13950
   0.02568   1.13323  26.42240
   0.76008   1.24523  25.62670
   1.38698   1.48093  24.92880
   1.92678   1.45873  24.06330
   2.76858   1.52723  23.35040
   3.31918   1.49073  22.56600
   3.87798   1.45263  21.73710
   4.43418   1.35823  21.15630
   5.05588   1.27633  20.28190
   5.69018   1.37803  19.62790
   6.32988   1.30143  18.76280
   6.93528   1.20273  17.96600
   7.37948   1.00843  17.36630
   8.01868   0.76383  16.82640
   8.68908   0.86883  16.33400
   9.37758   0.44583  15.65970
   9.82838   0.50203  15.08550
  10.49938   0.48513  14.70620
  11.07548   0.26003  14.15560
  11.69858   0.29553  13.79280
  12.22168   0.32383  13.45020
  12.86348   0.19123  12.81590
  13.42038   0.02273  12.29170
  14.08018   0.17233  11.88650
  14.72128   0.04303  11.13060
  15.13628  -0.03317  10.60660
  15.49638   0.06523  10.22670
  15.89688   0.15293   9.83180
  16.46038  -0.04227   9.10230
  16.90208  -0.07367   8.62210
  17.35818  -0.06827   7.87790
  17.53028  -0.05567   7.17220
  17.82468   0.04373   6.72140
  18.05848   0.15333   5.95010
  18.15248   0.14313   5.05770
  18.24528   0.41803   4.22040
  18.18358   0.58363   3.24520
  18.00208   0.58013   2.35790
  18.14148   0.57093   1.50540
  18.33438   0.74893   0.44090
  18.33948   1.14453  -0.37040
  18.19528   1.36543  -1.28440
  18.20268   1.40313  -2.29050
  18.20318   1.56863  -3.37540
  17.94508   1.76803  -4.53550
  17.88118   2.04493  -5.62900
  17.84778   2.14753  -6.68560
  17.77368   2.26843  -7.67630
  17.56468   2.51063  -8.73750
  17.30648   2.62423  -9.99030
  17.22818   2.59013 -11.18430
  16.88078   2.69493 -12.24840
  16.66008   2.80403 -13.42140
  16.51948   2.91323 -14.25750
  16.33718   2.97053 -15.51560
  15.91438   2.89923 -16.45860
  15.66378   3.10893 -17.56260
  15.40098   2.91093 -18.59020
  15.06758   2.70823 -19.70110
  14.73068   2.47513 -20.81370
  14.41688   2.34693 -21.80490
  13.97708   2.21303 -22.82400
  13.70888   2.11523 -23.88810
  13.46898   2.09493 -24.80840
  13.12318   1.80683 -25.76390
  12.75268   1.70683 -26.66320
  12.31658   1.63763 -27.55630
  12.17838   1.43303 -28.47170
  11.82138   1.41543 -29.42870
  11.61908   1.22893 -30.28440
  11.16978   1.14243 -30.99710
  10.86488   1.07013 -31.73570
  10.66468   1.00493 -32.47540
  10.39448   0.89693 -33.08890
  10.16058   0.63313 -33.59490
  10.08858   0.78583 -34.12120
   9.87538   0.52813 -34.61410
   9.43048   0.62803 -35.19980
   9.18168   0.57963 -35.48130
   8.93008   0.44263 -35.86470
   8.79988   0.48043 -36.29310
   8.52698   0.62733 -36.51350
   8.21958   0.59743 -36.77400
   7.96708   0.71053 -37.11190
   7.92098   0.66803 -37.47310
   7.32918   0.72413 -37.68940
   7.07878   0.84523 -37.91360
   7.04438   0.86693 -38.09550
   6.57118   0.87633 -38.05900
   6.30328   0.90903 -38.25850
   6.10028   0.76523 -38.25590
   5.59178   0.76623 -38.32250
   5.03738   0.69983 -38.36480
   4.87818   0.76343 -38.24370
   4.38838   0.63713 -38.30430
   3.89618   0.74233 -37.97300
   3.51718   0.86973 -37.81140
   3.27028   0.66123 -37.69360
   2.69928   0.54763 -37.56080
   2.38458   0.48263 -37.34430
   1.93828   0.23073 -37.11160
   1.61258   0.11103 -36.78100
   1.34508  -0.02077 -36.48620
   0.96308  -0.41967 -36.29420
   0.55698  -0.52697 -36.02300
   0.05728  -0.67287 -35.69100
  -0.15762  -0.91837 -35.38540
  -0.53752  -1.16577 -35.16870
  -0.85672  -1.36427 -34.79900
  -1.27682  -1.36847 -34.36930
  -1.69772  -1.40897 -34.08960
  -2.06682  -1.65187 -33.74620
  -2.27032  -1.64277 -33.40200
  -2.66472  -1.59597 -32.96430
  -3.00792  -1.81317 -32.52640
  -3.27522  -1.73857 -31.87870
  -3.60392  -1.66447 -31.48900
  -3.70542  -1.55487 -30.91920
  -4.08022  -1.64997 -30.46680
  -4.45852  -1.66357 -29.89530
  -4.62052  -1.51457 -29.32530
  -4.59782  -1.48187 -28.74520
  -4.83512  -1.29227 -28.11490
  -4.95162  -1.25347 -27.58370
  -5.21772  -1.17557 -27.12730
  -5.31002  -1.04227 -26.46210
  -5.69392  -1.06287 -26.02370
  -5.91632  -0.99207 -25.18600
  -5.87162  -0.83747 -24.69470
  -6.18122  -0.72387 -24.15110
  -6.46882  -0.53257 -23.45860
  -6.69252  -0.39907 -22.76610
  -6.83372  -0.23617 -21.91310
  -7.26982  -0.08047 -21.35130
  -7.20902   0.01823 -20.59580
  -7.51672   0.10003 -20.13030
  -7.80122   0.40633 -19.45810
  -8.03182   0.62193 -18.96780
  -8.38812   0.76103 -18.32560
  -8.48932   0.77253 -17.88230
  -8.94902   0.94763 -17.37790
  -9.18142   0.96403 -16.93510
  -9.37832   1.08763 -16.24580
  -9.74512   1.42433 -15.71300
  -9.84802   1.32433 -14.92810
 -10.17882   1.64953 -14.20090
 -10.71572   1.70443 -13.59090
 -11.03832   1.86863 -12.84040
 -11.32222   1.78443 -12.05010
 -11.72572   1.95653 -11.31080
 -12.21272   1.87963 -10.56610
 -12.63522   2.05493  -9.75860
 -13.12392   2.02453  -8.88830
 -13.46972   1.99133  -8.04730
 -13.83562   2.25743  -7.18410
 -14.08912   2.31983  -6.35340
 -14.43652   2.40633  -5.48100
 -14.85082   2.44873  -4.57200
 -14.94922   2.39843  -3.77960
 -15.23872   2.59243  -2.64100
 -15.32732   2.53593  -1.68940
 -15.53072   2.54433  -0.75760
 -15.73272   2.53943   0.14490
 -15.58522   2.74023   1.04710
 -15.82652   2.67683   2.12170
 -15.73972   2.61863   3.02730
 -15.55812   2.59673   3.68640
 -15.36642   2.42063   4.54160
 -15.33742   1.97243   5.36370
 -15.23822   1.78163   6.38800
 -15.30022   1.44143   7.31160
 -14.97502   1.30813   8.28280
 -14.90652   1.01983   9.17810
 -14.82812   0.65583  10.07400
 -14.99972   0.62243  11.02020
 -14.84292   0.56653  11.83130
 -14.76452   0.40053  12.76840
 -14.48542   0.26773  13.74950
 -14.15592  -0.00537  14.79770
 -13.86862  -0.16717  15.68780
 -13.55602  -0.54147  16.58890
 -13.24152  -1.06127  17.57390
 -13.14352  -1.29507  18.62320
 -12.88352  -1.83607  19.73920
 -12.70422  -2.09587  20.95170
 -12.71662  -2.35347  21.97210
 -12.42602  -2.67477  22.95620
 -12.16812  -2.81177  24.15090
 -12.01942  -2.99017  25.08240
 -11.58032  -3.18777  26.02400
 -11.40562  -3.33617  26.99010
 -10.97542  -3.24997  27.95270
 -10.49262  -3.41247  28.87080
 -10.20322  -3.67337  29.68400
  -9.93992  -3.87187  30.66580
  -9.49682  -4.07667  31.25620
  -9.26282  -4.14617  32.23280
  -8.87402  -4.50267  33.04080
  -8.74822  -4.58027  33.68710
  -8.50172  -4.78467  34.27810
  -8.09892  -4.82627  34.97140
  -7.78162  -4.94057  35.68990
  -7.26392  -4.95697  36.13580
  -7.01732  -4.98437  36.56080
  -6.71802  -4.97337  36.97720
  -6.39212  -5.10637  37.36020
  -6.02412  -5.03317  37.93720
  -5.78532  -5.05727  38.27420
  -5.35162  -5.08557  38.64150
  -5.09542  -4.99157  38.81780
  -4.51652  -5.05007  38.97680
  -4.12022  -4.90997  39.15590
  -3.86412  -4.91587  39.28420
  -3.48652  -4.78867  39.42960
  -3.05162  -4.64177  39.45960
  -2.57212  -4.56137  39.61760
  -2.41832  -4.15007  39.87600
  -1.93872  -4.07247  39.85190
  -1.68252  -4.00727  39.82430
  -1.27592  -3.87587  39.51050
  -0.81552  -3.70957  39.08030
  -0.38952  -3.45847  38.65500
  -0.09842  -3.43837  38.08360
   0.44398  -3.42807  37.58090
   0.82508  -3.30907  37.82620
   1.20458  -2.80947  38.30010
   1.15778  -2.48167  38.48880
   1.74888  -2.20157  38.21360
   2.56958  -2.27407  37.74530
   3.34648  -2.33477  37.36420
   4.12388  -2.27007  37.01440
   4.59898  -2.54497  36.87460
   4.63688  -2.44147  36.29450
   4.51878  -2.03697  35.58580
   4.84198  -1.48817  35.14140
   5.58498  -1.11037  34.86340
   7.00698  -0.93147  35.01250
   8.20948  -0.64367  35.00110
   8.99698  -0.18167  35.28120
   9.10898  -0.05237  35.23160
   8.82278   0.03183  34.82830
   8.70308   0.35703  34.10470
   9.00678   0.81533  33.17290
   9.69978   1.48423  32.54560
  10.55598   1.75123  31.83740
  11.50578   2.12203  31.33680
  12.46018   2.17003  31.07820
  12.79078   2.28853  30.74830
  12.58268   2.43253  30.25620
  12.45948   2.34903  29.17620
  12.51228   2.26443  27.85730
  13.19308   2.41383  26.90850
  13.51808   2.54313  26.28050
  13.59058   2.65143  25.76630
  13.57588   2.98503  25.12520
  13.48028   2.99623  24.40580
  13.23428   2.99483  23.23980
  13.31398   3.04883  22.49930
  13.60838   3.11973  21.74930
  13.95278   3.57163  20.88370
  13.75758   3.73393  19.94850
  13.56908   3.70493  19.05650
  13.42038   3.88703  18.51050
  13.49008   3.98783  18.18840
  13.35258   3.98803  17.55120
  13.20688   3.84543  16.50380
  13.15248   3.85203  15.51640
  13.10028   3.81693  14.57200
  13.32598   3.83333  13.71050
  13.38928   4.04283  13.27580
  13.38508   3.92333  12.61040
  12.97918   3.71293  11.68400
  12.54918   3.54683  10.84750
  12.16228   3.30723   9.53810
  12.13958   2.94223   8.30850
  12.21858   2.70403   7.18950
  12.41358   2.60693   6.24890
  12.24408   2.38113   5.22460
  11.56928   2.24383   4.31410
  11.32618   1.86673   3.16220
  10.95578   1.61513   2.16570
  10.57218   1.33813   1.11470
  10.42178   1.19433   0.01930
  10.19358   0.81713  -1.02040
  10.07508   0.77393  -2.14550
   9.90928   0.54053  -3.10930
   9.72738   0.40733  -4.18530
   9.53518   0.41713  -5.26690
   9.35398   0.31613  -6.67530
   9.06738   0.26493  -7.79010
   8.80968   0.17583  -8.83030
   8.63128   0.08743 -10.01830
   8.66148  -0.02827 -11.38920
   8.58238   0.12813 -12.50980
   8.32268   0.02553 -13.73920
   7.96518   0.02763 -15.02440
   7.59828   0.00983 -16.20700
   7.07438   0.10963 -17.40320
   6.87558   0.27893 -18.74990
   6.49918   0.45403 -20.20400
   6.02428   0.69043 -21.46370
   5.79008   0.96213 -22.72930
   5.35028   1.32993 -23.96760
   4.88448   1.38273 -25.08380
   4.42528   1.53753 -26.26010
   3.76808   1.53353 -27.12050
   3.37548   1.71363 -28.21220
   2.90438   2.07973 -29.32210
   2.39768   2.18873 -30.33650
   1.82628   2.40053 -31.21030
   1.45148   2.59343 -32.17920
   0.94528   2.77623 -32.82710
   0.32448   2.90293 -33.76610
  -0.27102   3.10033 -34.50000
  -0.70092   3.00253 -35.20770
  -1.01332   3.19963 -35.74340
  -1.34442   3.10643 -36.16000
  -1.35442   3.24993 -36.34330
  -1.52932   3.15853 -36.52150
  -1.96842   3.23193 -36.43570
  -1.96632   3.33643 -36.58250
  -2.39932   3.24663 -36.55540
  -2.48632   3.19243 -36.18430
  -2.61862   3.05373 -36.34570
  -2.50592   2.94883 -35.99070
  -2.62102   2.66773 -35.81680
  -2.67082   2.69633 -35.61430
  -2.75682   2.60373 -35.39010
  -2.95202   2.57933 -35.04780
  -3.07062   2.41693 -34.69170
  -3.13752   2.40773 -34.53360
  -3.24032   2.26843 -34.26010
  -3.37922   2.16623 -34.08360
  -3.27312   2.20993 -34.00290
  -3.77552   1.91953 -33.64540
  -3.89622   2.01983 -33.49480
  -4.17702   2.31653 -33.06250
  -4.24762   2.39813 -32.91780
  -4.54012   2.63013 -32.75550
  -4.63222   2.71173 -32.61430
  -4.52602   2.86623 -32.40110
  -4.29762   2.97213 -32.38960
  -4.24782   3.02433 -32.42380
  -4.26462   3.04513 -32.41510
  -4.34412   2.91353 -32.14670
  -4.34552   2.96543 -31.97460
  -4.54872   2.86393 -31.59020
  -4.71102   3.12933 -31.15420
  -5.03482   3.18733 -30.60470
  -5.12622   2.99623 -30.11120
  -5.27242   2.71263 -29.70410
  -5.22982   2.47413 -29.24160
  -5.27052   2.29363 -28.72750
  -5.57352   1.97523 -28.18850
  -5.44892   1.65953 -27.58770
  -5.39112   1.46953 -26.84460
  -5.39862   1.14703 -26.35150
  -5.32382   0.98483 -25.93300
  -5.14212   0.66733 -25.34780
  -5.07222   0.41713 -24.74760
