********************************************************************************
              CENTRO DE INSTRUMENTACION Y REGISTRO SISMICO  A.C.

    Anaxagoras 814, Col. Narvarte, Benito Juarez, C.P. 03020 Mexico, D.F.
           Tels. 5687 45 42/ 5687 45  82             Fax. 5669 25 12
********************************************************************************
ARCHIVO ESTANDAR DE ACELERACION:
VERSION DEL FORMATO                    : 2.0
NOMBRE DEL ARCHIVO                     : JC5420220919180509
FECHA Y HORA DE CREACION               : 19/SEP/22, 19:45
REF. CATALOGO ACELEROGRAMAS, SMIS 1996 : REGISTRO No.     /PAG.


================================================================================
DATOS DE LA ESTACION:
NOMBRE DE LA ESTACION                  : PARQUE JARDINES DE COYOACÁN
CLAVE DE LA ESTACION                   : JC54
LOCALIZACION DE LA ESTACION            : Del. Coyoacán, Col. Jardines de        
                                       : Coyoacán, entre calles Dalias e Iris.  
                                       :                                        
                                       :                                        
                                       : 
COORDENADAS DE LA ESTACION             : 19.3130 LAT. N
                                       : 99.1272 LONG. W
ALTITUD (msnm)                         : 2237
TIPO DE SUELO                          : Arcilloso, zona lago                
                                       :                           
                                       : 
INSTITUCION RESPONSABLE                : CIRES, A. C.
                                       : 

================================================================================
DATOS DEL ACELEROGRAFO:
MODELO DEL ACELEROGRAFO                : RAD_IO14
NUMERO DE SERIE DEL ACELEROGRAFO       : 
NUMERO DE CANALES                      : 3
ORIENTACION C1-C6 (rumbo;orientacion)  : /N00E/+V/N90W
ORIENTACION C7-C12 (rumbo;orientacion) : 
VEL. DE MUESTREO, C1-C6 (muestras/s)   : /100/100/100
VEL. DE MUESTREO, C7-C12 (muestras/s)  : 
ESC. COMPLETA DE SENSORES, C1-C6, (g)  : /2.0/2.0/2.0
ESC. COMPLETA DE SENSORES, C7-C12, (g) : 
FREC. NAT. DE SENSORES, C1-C6, (Hz)    : /30/30/30
FREC. NAT. DE SENSORES, C7-C12, (Hz)   : 
AMORTIGUAMIENTO DE SENSORES, C1-C6     : /0.733/0.733/0.733
AMORTIGUAMIENTO DE SENSORES, C7-C12    : 
INTERVALO DE MUESTREO, C1-C6, (s)      : /0.01/0.01/0.01
INTERVALO DE MUESTREO, C7-C12, (s)     : 
UMBRAL DE DISPARO, C1-C6, (Gal)        : / / /
UMBRAL DE DISPARO, C7-C12, (Gal)       : 
MEMORIA DE PREEVENTO (s)               : 60
TIEMPO DE POSEVENTO (s)                : 90


================================================================================
DATOS DEL SISMO:
FECHA DEL SISMO (GMT)                  : 19/SEP/22
HORA EPICENTRO (GMT)                   : 18:05:09.0
MAGNITUD(ES)                           : /Mc=7.7
COORDENADAS DEL EPICENTRO              : 18.22 LAT. N
                                       : 103.29 LONG. W
PROFUNDIDAD FOCAL (km)                 : 15
FUENTE DE LOS DATOS EPICENTRALES       : SSN
                                       : INSTITUTO DE GEOFISICA, UNAM

================================================================================
DATOS DE ESTE REGISTRO:
HORA DE LA PRIMERA MUESTRA (GMT)       : 18:04:27.039.00
EXACTITUD DEL TIEMPO (s)               : 
DURACION DEL REGISTRO (s), C1-C6       : /424.81/424.81/424.81
DURACION DEL REGISTRO (s), C7-C12      : 
NUM. TOTAL DE MUESTRAS, C1-C6          : /42481/42481/42481
NUM. TOTAL DE MUESTRAS, C7-C12         : 
ACEL. MAX. (Gal), C1-C6                : /22.50665/3.82698/18.1295
ACEL. MAX., C1-C6, EN LA MUESTRA       : /20888/18714/19834
ACEL. MAX. (Gal), C7-C12               : 
ACEL. MAX., C7-C12, EN LA MUESTRA      : 
UNIDADES DE LOS DATOS                  : Gal (cm/s/s)
FACTOR DE DECIMACION                   : 1
FORMATO DATOS (FORTRAN,10 campos/dato) : 3F10.5


================================================================================
CALIDAD DEL ACELEROGRAMA:
REGISTRO DIGITAL COMPLETO CON TIEMPO ABSOLUTO CORRECTO.


================================================================================
COMENTARIOS:














================================================================================
DATOS DE ACELERACION:
---------+---------+---------+---------+---------+---------+---------+---------+
   CANAL-1   CANAL-2   CANAL-3   CANAL-4   CANAL-5   CANAL-6   CANAL-7   CANAL-8
      N00E        +V      N90W
---------+---------+---------+---------+---------+---------+---------+---------+
[...]
   9.54555  -0.64298  -5.60350
   9.86625  -0.52558  -5.59350
  10.27845  -0.50058  -5.57800
  10.78145  -0.46478  -5.49110
  11.15905  -0.40818  -5.34330
  11.49575  -0.29318  -5.31940
  11.92145  -0.22678  -5.24390
  12.25865  -0.08628  -5.02300
  12.65375  -0.01328  -4.92550
  12.82865  -0.04628  -4.89770
  13.19735   0.07832  -4.84760
  13.47205   0.09912  -4.58860
  13.60935   0.11692  -4.33020
  13.80195   0.17652  -4.08050
  13.91635   0.16532  -3.94350
  14.06335   0.24552  -3.55560
  14.03065   0.24902  -3.25140
  14.16065   0.33692  -2.80620
  14.15975   0.34422  -2.50600
  14.10525   0.43112  -2.20580
  14.02555   0.35442  -1.71440
  13.94675   0.22822  -1.28600
  13.81675   0.11502  -0.96340
  13.57775   0.17042  -0.50020
  13.40665  -0.02708   0.07310
  13.11365   0.04512   0.35860
  12.84965   0.21512   0.79390
  12.52585   0.03132   1.17010
  12.15905  -0.02848   1.45700
  11.72065   0.02012   1.85240
  11.12885   0.05242   2.16080
  10.73585  -0.09378   2.45610
  10.09705   0.10542   2.74200
   9.52935   0.04422   2.89450
   8.81765  -0.00258   2.83630
   8.17675  -0.03318   3.21110
   7.43425  -0.06588   3.25640
   6.76695  -0.24618   3.26690
   5.99255  -0.29388   3.23120
   5.08305  -0.15408   3.27140
   4.54875  -0.27428   3.30390
   3.73305  -0.28848   3.15780
   2.99305  -0.39558   2.98800
   2.21885  -0.45588   3.04740
   1.43305  -0.47298   2.77360
   0.76365  -0.60348   2.74510
  -0.06635  -0.60948   2.51970
  -1.07295  -0.54498   2.53790
  -1.62845  -0.73368   2.38670
  -2.61445  -0.63808   2.26300
  -3.32475  -0.61068   1.93490
  -4.02125  -0.60298   1.85660
  -4.71495  -0.51738   1.77060
  -5.50145  -0.38738   1.61020
  -6.43395  -0.36258   1.77480
  -6.91185  -0.29388   1.54920
  -7.73955  -0.10638   1.53040
  -8.40725  -0.06728   1.45980
  -8.94595   0.23452   1.41610
  -9.58075   0.37152   1.41450
 -10.14545   0.52092   1.43360
 -10.73365   0.75382   1.14020
 -11.20015   1.01712   1.24290
 -11.49055   1.32832   1.20850
 -11.86465   1.55862   0.93680
 -12.23005   1.56532   1.01140
 -12.67615   1.59642   0.88350
 -12.79215   1.90022   0.72660
 -13.06965   2.02592   0.81450
 -13.21785   2.27262   0.68730
 -13.46715   2.10732   0.59990
 -13.40145   2.32482   0.43720
 -13.55665   2.33112   0.30620
 -13.55875   2.39352   0.10300
 -13.58665   2.38162   0.19070
 -13.49285   2.38512   0.15190
 -13.39095   2.24462   0.01750
 -13.32945   2.18542  -0.09830
 -13.07835   2.28942  -0.00190
 -12.67545   2.15152  -0.19720
 -12.34115   2.20182  -0.22410
 -12.00165   2.02062  -0.41620
 -11.43345   1.92682  -0.51770
 -10.99295   1.95372  -0.67090
 -10.21885   1.89062  -0.76840
  -9.60695   1.82982  -0.79880
  -8.89335   1.64832  -1.00190
  -8.22325   1.73182  -1.27340
  -7.45965   1.69442  -1.53430
  -6.71095   1.42672  -1.58930
  -5.86505   1.50382  -2.00290
  -5.07245   1.33532  -2.39890
  -4.31255   1.31142  -2.70290
  -3.51085   1.31492  -2.84830
  -2.61305   1.23082  -3.40150
  -2.01145   1.24152  -3.74430
  -1.28285   1.07292  -3.90910
  -0.30625   1.09092  -4.21350
   0.45995   0.95182  -4.42470
   1.24105   0.76922  -4.57550
   1.99415   0.71312  -4.75740
   2.84005   0.68132  -4.85090
   3.48545   0.65112  -5.07630
   4.32295   0.53312  -5.08940
   5.07255   0.49472  -5.19580
   5.57375   0.35472  -5.26120
   6.16275   0.16812  -5.21380
   6.99235   0.10082  -5.26330
   7.48145  -0.10918  -5.18620
   8.14595  -0.14428  -5.32230
   8.78095  -0.29758  -5.33280
   9.11925  -0.46738  -5.19790
   9.57445  -0.57278  -5.13730
   9.81045  -0.58378  -5.10150
   9.96335  -0.91928  -4.93720
  10.36125  -0.97798  -4.96060
  10.44825  -1.01638  -4.77160
  10.35845  -1.19568  -4.60680
  10.54625  -1.26368  -4.37860
  10.22915  -1.28198  -4.29560
  10.27285  -1.43398  -3.95730
  10.06685  -1.47958  -3.64630
  10.03435  -1.49638  -3.50770
   9.67335  -1.75678  -3.03680
   9.38835  -1.72808  -2.77140
   9.19195  -1.87978  -2.66570
   8.83305  -1.95698  -2.23830
   8.32715  -2.14358  -1.87400
   8.10715  -2.20648  -1.53710
   7.57805  -2.41708  -1.24280
   7.26005  -2.31188  -0.92520
   6.86835  -2.37198  -0.83240
   6.52495  -2.67148  -0.55540
   6.03365  -2.57488  -0.26730
   5.57095  -2.42668   0.03620
   5.24555  -2.60698   0.32980
   4.69725  -2.58288   0.47900
   4.27895  -2.43578   0.77640
   3.90695  -2.53588   1.01790
   3.38375  -2.37038   1.23230
   2.98525  -2.08718   1.34620
   2.43235  -2.08928   1.60550
   1.95275  -1.90928   1.69500
   1.44475  -1.75028   1.99570
   1.07085  -1.59408   2.23120
   0.49315  -1.34958   2.33640
   0.12795  -1.18608   2.48180
  -0.35815  -1.07858   2.59830
  -0.58475  -0.82718   2.77760
  -0.98525  -0.61748   2.81850
  -1.46365  -0.29198   3.11150
  -1.71705  -0.31728   3.29480
  -2.17115  -0.02738   3.21600
  -2.45335   0.02642   3.41960
  -2.82205   0.11712   3.64270
  -2.97825   0.14612   3.57510
  -3.26975   0.28292   3.53770
  -3.66795   0.33082   3.61530
  -3.99505   0.37412   3.55900
  -4.32405   0.38742   3.60600
  -4.64435   0.29372   3.57350
  -5.06755   0.20222   3.58350
  -5.43435   0.13002   3.53750
  -5.95855  -0.02358   3.42730
  -6.37995  -0.16458   3.35460
  -6.94455  -0.32848   3.27770
  -7.34325  -0.62098   3.22950
  -7.85015  -0.70418   3.16010
  -8.51085  -0.65698   3.06870
  -8.95045  -1.01098   3.02100
  -9.37475  -1.09838   3.16310
  -9.82715  -1.18778   2.92420
 -10.20945  -1.24058   2.88490
 -10.75125  -1.34928   2.79180
 -11.08605  -1.43698   2.79610
 -11.41895  -1.24248   2.82010
 -11.92675  -1.24108   2.70350
 -12.10635  -1.31708   2.50820
 -12.21155  -1.21458   2.55900
 -12.49095  -1.25998   2.55030
 -12.55645  -1.08368   2.28350
 -12.77205  -0.91678   2.30180
 -12.86785  -0.71218   2.13760
 -12.77155  -0.50548   1.94080
 -12.68385  -0.44238   1.82220
 -12.47225  -0.30348   1.53540
 -12.29905  -0.13868   1.45660
 -11.99225  -0.05118   1.24570
 -11.81695   0.24642   1.07990
 -11.33475   0.35492   0.97520
 -10.76615   0.51902   0.64270
 -10.25295   0.62262   0.62840
  -9.71195   0.67852   0.34570
  -8.85245   0.78442   0.25220
  -8.28685   0.63342   0.30790
  -7.45685   0.73722   0.06400
  -6.65695   0.74542   0.01650
  -5.74905   0.73442  -0.14570
  -4.70285   0.82982  -0.11000
  -3.79305   0.71192  -0.24000
  -2.90175   0.67062  -0.20110
  -1.78955   0.51692  -0.35050
  -0.82625   0.51972  -0.33390
   0.31805   0.47352  -0.41550
   1.26305   0.32292  -0.28840
   2.30145   0.23082  -0.40100
   3.31845   0.17002  -0.49320
   4.33105  -0.02318  -0.36690
   5.41995  -0.14468  -0.17310
   6.44705  -0.13398  -0.35150
   7.43325  -0.32798  -0.35900
   8.52045  -0.41898   0.04010
   9.45615  -0.35938   0.13300
  10.32965  -0.43768   0.21270
  11.26025  -0.49048   0.50750
  12.13585  -0.39558   0.79140
  13.09265  -0.30698   1.00930
  13.75335  -0.35888   1.33970
  14.45875  -0.37478   1.56410
  15.02415  -0.11688   1.80310
  15.57215  -0.18068   2.12810
  16.07185   0.01072   2.39790
  16.39915   0.09472   2.78580
  16.74195   0.19222   2.82600
  17.01125   0.34042   3.14330
  17.18735   0.36082   3.50540
  17.30215   0.57262   3.61390
  17.32015   0.71382   3.59850
  17.20605   0.90252   3.74340
  17.02945   0.96232   3.84630
  17.03065   1.26982   4.05910
  16.88525   1.37552   3.85380
  16.57825   1.63902   3.78270
  16.16115   1.75642   3.66210
  15.90655   2.00422   3.56010
  15.55765   1.96612   3.36540
  15.18075   2.10242   3.30320
  14.77415   2.35212   3.08780
  14.18285   2.32032   2.98890
  13.66735   2.48892   2.68970
  12.94535   2.55932   2.53160
  12.36965   2.64812   2.54210
  11.65235   2.69302   2.34360
  10.84315   2.65092   2.18210
  10.13655   2.65402   1.96650
   9.28085   2.72342   2.01560
   8.33855   2.67782   1.49190
   7.48565   2.62892   1.47710
   6.46105   2.50882   1.12460
   5.47135   2.58222   0.90500
   4.48145   2.61612   0.74320
   3.29625   2.40662   0.29480
   2.42785   2.33112  -0.11000
   1.23335   2.43862  -0.47070
   0.13635   2.33762  -0.96060
  -0.94015   2.23332  -1.27010
  -1.88895   2.02782  -1.64560
  -2.92845   1.96332  -2.10600
  -3.89705   1.95162  -2.57030
  -4.93105   1.83732  -2.94860
  -5.95415   1.82532  -3.48570
  -6.85715   1.75472  -3.79450
  -8.01235   1.82932  -4.27430
  -8.82295   1.72412  -4.68210
  -9.76315   1.58242  -5.07020
 -10.64525   1.66002  -5.28790
 -11.54775   1.64672  -5.71600
 -12.34085   1.62822  -5.91520
 -13.17465   1.67762  -6.20370
 -13.90785   1.76032  -6.40250
 -14.59735   1.66822  -6.73610
 -15.16875   1.79632  -6.97830
 -15.87275   1.76882  -6.99520
 -16.28315   1.81292  -7.24140
 -16.68625   1.87792  -7.58060
 -17.07525   1.76692  -7.67160
 -17.48725   1.80412  -7.78080
 -17.79465   1.92492  -8.08380
 -17.81365   1.92262  -8.11180
 -17.90275   1.85062  -8.25910
 -17.84685   1.80482  -8.26500
 -17.79845   1.88612  -8.41410
 -17.71495   1.89992  -8.57830
 -17.44635   1.84592  -8.77300
 -17.23025   1.83612  -8.65450
 -16.96205   1.71262  -8.74260
 -16.40985   1.63992  -8.59860
 -15.92515   1.69532  -8.67300
 -15.33295   1.61352  -8.62900
 -14.69855   1.39892  -8.47050
 -14.13485   1.32152  -8.30430
 -13.46315   1.24552  -8.15090
 -12.70585   1.02712  -7.92570
 -11.89245   0.74122  -7.68090
 -11.06315   0.55952  -7.40880
 -10.07125   0.32262  -7.00450
  -9.08975   0.13962  -6.61780
  -8.11965  -0.03158  -6.05270
  -7.12905  -0.13328  -5.51370
  -5.91225  -0.43998  -5.05620
  -4.84005  -0.59618  -4.18220
  -3.86975  -0.75098  -3.71620
  -2.59265  -0.92588  -2.89630
  -1.35445  -1.11898  -2.18950
  -0.37455  -1.21928  -1.48760
   1.03975  -1.39798  -0.49410
   1.99935  -1.60928   0.35910
   3.35005  -1.75118   1.17620
   4.52145  -1.73718   1.95480
   5.61615  -1.71128   2.92790
   6.65075  -1.76918   3.77780
   7.83965  -1.81198   4.63120
   9.00895  -1.81508   5.43830
  10.02105  -1.76478   6.36440
  11.00475  -1.64808   7.21600
  11.95205  -1.64108   8.04410
  12.82165  -1.53918   8.67240
  13.76365  -1.52398   9.33760
  14.79545  -1.39048  10.05140
  15.68015  -1.33688  10.58980
  16.45455  -1.48538  11.11430
  17.40945  -1.37708  11.63310
  18.03905  -1.24008  12.07100
  18.82495  -1.09678  12.41450
  19.48845  -0.98008  12.85120
  19.94835  -0.90668  13.05630
  20.53335  -0.80988  13.30970
  21.01355  -0.76478  13.57280
  21.37715  -0.76038  13.63260
  21.79845  -0.44098  13.88890
  22.00755  -0.50688  13.90410
  22.32265  -0.45168  13.91510
  22.46275  -0.37878  14.03870
  22.50665  -0.37148  13.82860
  22.37625  -0.39068  13.89120
  22.36035  -0.37058  13.92300
  22.19175  -0.29858  13.85260
  22.00825  -0.46368  13.60900
  21.63385  -0.34528  13.35160
  20.96755  -0.40148  13.26320
  20.59485  -0.40868  13.00690
  19.95565  -0.44118  12.69360
  19.12655  -0.47318  12.46470
  18.43935  -0.57348  12.11240
  17.58225  -0.71848  11.63800
  16.58875  -0.62988  11.22460
  15.64935  -0.64248  10.72050
  14.43585  -0.76898  10.22230
  13.30955  -0.82088   9.74980
  12.12025  -0.81858   9.12900
  10.96355  -0.97098   8.62680
   9.71825  -0.98688   7.92020
   8.50035  -1.10828   7.36580
   7.19295  -0.99908   6.71070
   5.86445  -0.88258   6.05560
   4.54245  -0.85718   5.35860
   3.24905  -0.91488   4.62210
   1.93105  -0.66428   4.03940
   0.62245  -0.76898   3.38690
  -0.72335  -0.51668   2.68830
  -1.85085  -0.44048   1.93870
  -3.21675  -0.47038   1.18370
  -4.44605  -0.19518   0.49330
  -5.52515  -0.18678  -0.23620
  -6.82325  -0.05518  -0.80900
  -7.80665  -0.05048  -1.44780
  -8.91115   0.08702  -2.06650
 -10.04295   0.28012  -2.66530
 -10.91065   0.29552  -3.18130
 -11.78085   0.23402  -3.82100
 -12.80035   0.22052  -4.40600
 -13.62985   0.13072  -4.90930
 -14.48375   0.11992  -5.60700
 -15.11965   0.10122  -6.11700
 -15.74205   0.04652  -6.66460
 -16.61915  -0.01148  -7.14570
 -17.14095  -0.00888  -7.72300
 -17.76005  -0.28778  -8.23460
 -18.21115  -0.42788  -8.71320
 -18.68415  -0.72218  -9.19760
 -18.84725  -0.67918  -9.71900
 -19.24005  -0.79398 -10.20300
 -19.33645  -0.86368 -10.64090
 -19.54285  -1.10898 -11.09240
 -19.54035  -1.21748 -11.39990
 -19.76615  -1.23078 -11.94790
 -19.71405  -1.30558 -12.35830
 -19.68385  -1.39398 -12.63090
 -19.71825  -1.44988 -13.05780
 -19.49165  -1.50598 -13.14150
 -19.24595  -1.46038 -13.38120
 -19.20405  -1.60138 -13.60260
 -18.86905  -1.46128 -13.78220
 -18.51805  -1.41878 -13.69070
 -18.19455  -1.36548 -13.80160
 -17.84375  -1.26468 -13.76790
 -17.36195  -1.15778 -13.77890
 -16.86465  -0.92818 -13.76040
 -16.22255  -1.00328 -13.53920
 -15.58875  -0.83728 -13.30780
 -14.84615  -0.84448 -13.27920
 -14.07295  -0.46368 -12.86980
 -13.41965  -0.46898 -12.58480
 -12.56225  -0.17678 -12.14460
 -11.54685  -0.06478 -11.86090
 -10.57655   0.05172 -11.31870
  -9.75335   0.00142 -10.76110
  -8.72595   0.17722 -10.26010
  -7.54175   0.27072  -9.70900
  -6.46875   0.15172  -9.05430
  -5.33475   0.28342  -8.30570
  -4.17485   0.43042  -7.64980
  -3.09845   0.49522  -6.80060
  -1.87655   0.40122  -6.13920
  -0.93405   0.37292  -5.20980
   0.25485   0.59152  -4.41440
   1.38275   0.53422  -3.44690
   2.56375   0.53612  -2.60280
   3.68115   0.70072  -1.74100
   4.76365   0.84172  -1.02530
   5.92125   0.93172  -0.12350
   6.84435   1.06342   0.84120
   7.85785   1.06622   1.62190
   8.87185   1.30422   2.37190
   9.70475   1.27172   3.22460
  10.64765   1.35492   3.96110
  11.55205   1.40662   4.70320
  12.28105   1.42372   5.54660
  12.95275   1.43162   6.06310
  13.64395   1.47772   6.69650
  14.34135   1.60022   7.32590
  14.96615   1.60772   7.76100
  15.22865   1.59202   8.47500
  15.81765   1.51022   8.85820
  16.15105   1.50972   9.35320
  16.35895   1.54312   9.86830
  16.67925   1.48982  10.17620
  16.67315   1.58452  10.60640
  16.83335   1.46952  10.93610
  16.70125   1.47092  11.35300
  16.67995   1.35752  11.45770
  16.68955   1.26332  11.69110
  16.50855   1.47442  11.81990
  16.51445   1.38792  11.77760
  16.08815   1.33062  11.79070
  15.75455   1.37062  11.62230
  15.44145   1.41552  11.39900
  15.08235   1.15662  11.30390
  14.71665   1.24082  11.00370
  14.17705   1.37172  10.44000
  13.59925   1.22542  10.12480
  12.97455   1.20482   9.63080
  12.31515   1.33852   9.10630
  11.65915   1.16512   8.73130
  10.84685   1.17282   8.13060
  10.03085   1.32382   7.49580
   9.31635   1.15992   6.83020
   8.49335   1.10102   6.17670
   7.62145   1.07742   5.36750
   6.87375   0.99652   4.71310
   5.89875   0.90602   4.12080
   5.00775   0.86412   3.47850
   4.02315   0.89642   2.71680
   3.28385   0.68722   1.96700
   2.16605   0.64062   1.27540
   1.10945   0.48512   0.54890
   0.16295   0.59952  -0.19130
  -0.71685   0.42302  -0.79760
  -1.78745   0.44212  -1.66620
  -2.89105   0.28732  -2.20960
  -3.89355   0.16372  -3.00750
  -4.92095   0.07622  -3.74850
  -6.02245  -0.07018  -4.27410
  -7.07155   0.03112  -5.13920
  -8.10145  -0.04188  -5.82960
  -9.13625  -0.34388  -6.40290
 -10.03035  -0.31098  -6.95170
