********************************************************************************
              CENTRO DE INSTRUMENTACION Y REGISTRO SISMICO  A.C.

    Anaxagoras 814, Col. Narvarte, Benito Juarez, C.P. 03020 Mexico, D.F.
           Tels. 5687 45 42/ 5687 45  82             Fax. 5669 25 12
********************************************************************************
ARCHIVO ESTANDAR DE ACELERACION:
VERSION DEL FORMATO                    : 2.0
NOMBRE DEL ARCHIVO                     : LI5820220919180509
FECHA Y HORA DE CREACION               : 19/SEP/22, 19:45
REF. CATALOGO ACELEROGRAMAS, SMIS 1996 : REGISTRO No.     /PAG.


================================================================================
DATOS DE LA ESTACION:
NOMBRE DE LA ESTACION                  : ESC. SEC. DNA. NO. 23
CLAVE DE LA ESTACION                   : LI58
LOCALIZACION DE LA ESTACION            : Del. Cuauhtémoc, Col. Juárez,          
                                       : Calle Liverpool entre Génova           
                                       : y Amberes.                             
                                       :                                        
                                       : 
COORDENADAS DE LA ESTACION             : 19.4263 LAT. N
                                       : 99.1569 LONG. W
ALTITUD (msnm)                         : 2233
TIPO DE SUELO                          : Alto riesgo sísmico                 
                                       :                           
                                       : 
INSTITUCION RESPONSABLE                : CIRES, A. C.
                                       : 

================================================================================
DATOS DEL ACELEROGRAFO:
MODELO DEL ACELEROGRAFO                : RAD_IO14
NUMERO DE SERIE DEL ACELEROGRAFO       : 
NUMERO DE CANALES                      : 3
ORIENTACION C1-C6 (rumbo;orientacion)  : /N00E/+V/N90W
ORIENTACION C7-C12 (rumbo;orientacion) : 
VEL. DE MUESTREO, C1-C6 (muestras/s)   : /100/100/100
VEL. DE MUESTREO, C7-C12 (muestras/s)  : 
ESC. COMPLETA DE SENSORES, C1-C6, (g)  : /2.0/2.0/2.0
ESC. COMPLETA DE SENSORES, C7-C12, (g) : 
FREC. NAT. DE SENSORES, C1-C6, (Hz)    : /30/32/32
FREC. NAT. DE SENSORES, C7-C12, (Hz)   : 
AMORTIGUAMIENTO DE SENSORES, C1-C6     : /0.741/0.795/0.745
AMORTIGUAMIENTO DE SENSORES, C7-C12    : 
INTERVALO DE MUESTREO, C1-C6, (s)      : /0.01/0.01/0.01
INTERVALO DE MUESTREO, C7-C12, (s)     : 
UMBRAL DE DISPARO, C1-C6, (Gal)        : / / /
UMBRAL DE DISPARO, C7-C12, (Gal)       : 
MEMORIA DE PREEVENTO (s)               : 60
TIEMPO DE POSEVENTO (s)                : 90


================================================================================
DATOS DEL SISMO:
FECHA DEL SISMO (GMT)                  : 19/SEP/22
HORA EPICENTRO (GMT)                   : 18:05:09.0
MAGNITUD(ES)                           : /Mc=7.7
COORDENADAS DEL EPICENTRO              : 18.22 LAT. N
                                       : 103.29 LONG. W
PROFUNDIDAD FOCAL (km)                 : 15
FUENTE DE LOS DATOS EPICENTRALES       : SSN
                                       : INSTITUTO DE GEOFISICA, UNAM

================================================================================
DATOS DE ESTE REGISTRO:
HORA DE LA PRIMERA MUESTRA (GMT)       : 18:04:27.006.00
EXACTITUD DEL TIEMPO (s)               : 
DURACION DEL REGISTRO (s), C1-C6       : /521.41/521.41/521.41
DURACION DEL REGISTRO (s), C7-C12      : 
NUM. TOTAL DE MUESTRAS, C1-C6          : /52141/52141/52141
NUM. TOTAL DE MUESTRAS, C7-C12         : 
ACEL. MAX. (Gal), C1-C6                : /26.59057/8.69948/33.88521
ACEL. MAX., C1-C6, EN LA MUESTRA       : /21415/20648/20152
ACEL. MAX. (Gal), C7-C12               : 
ACEL. MAX., C7-C12, EN LA MUESTRA      : 
UNIDADES DE LOS DATOS                  : Gal (cm/s/s)
FACTOR DE DECIMACION                   : 1
FORMATO DATOS (FORTRAN,10 campos/dato) : 3F10.5


================================================================================
CALIDAD DEL ACELEROGRAMA:
REGISTRO DIGITAL COMPLETO CON TIEMPO ABSOLUTO CORRECTO.


================================================================================
COMENTARIOS:














================================================================================
DATOS DE ACELERACION:
---------+---------+---------+---------+---------+---------+---------+---------+
   CANAL-1   CANAL-2   CANAL-3   CANAL-4   CANAL-5   CANAL-6   CANAL-7   CANAL-8
      N00E        +V      N90W
---------+---------+---------+---------+---------+---------+---------+---------+
[...]
  15.12743   2.42822 -19.18469
  15.49483   2.22222 -19.62429
  15.91793   2.20162 -19.98339
  16.16513   2.00242 -20.29509
  16.51163   1.94982 -20.51929
  16.92683   1.57972 -20.82819
  17.29043   1.38332 -20.96979
  17.48683   1.10792 -21.32289
  17.80923   0.52852 -21.10029
  17.91073   0.03422 -21.24389
  18.08893  -0.56058 -21.10119
  18.10343  -1.12338 -21.13839
  18.17913  -1.98068 -21.18379
  18.19063  -2.43108 -21.03509
  18.32033  -3.10818 -20.86929
  18.25303  -3.56598 -20.75679
  18.21213  -4.16548 -20.40569
  18.12253  -4.61108 -20.26369
  18.02903  -5.16168 -20.05659
  17.81343  -5.40318 -19.87839
  17.64063  -5.60808 -19.50599
  17.39193  -5.83458 -19.43859
  16.90983  -5.98468 -19.15899
  16.61773  -6.04928 -18.75469
  16.26613  -6.22198 -18.41269
  15.83423  -6.03828 -18.24269
  15.15013  -5.88368 -18.30159
  14.63483  -5.98258 -17.53239
  13.98763  -5.66858 -17.00139
  13.28923  -5.41188 -16.74699
  12.41993  -5.29988 -16.21789
  11.77493  -4.96908 -15.90529
  10.97363  -4.89448 -15.40309
  10.05523  -4.67378 -14.86599
   9.26193  -4.47338 -14.41759
   8.52983  -4.13368 -13.75309
   7.69963  -3.88468 -13.40329
   6.86673  -3.94568 -12.80939
   5.85763  -3.71938 -12.27609
   5.08253  -3.26898 -11.67149
   4.23293  -2.88108 -10.90859
   3.38633  -2.60708 -10.49609
   2.51023  -2.36018  -9.97379
   1.68273  -2.29918  -9.42719
   0.80593  -1.83598  -8.87279
   0.26803  -1.59048  -8.34769
  -0.65467  -1.20358  -7.85879
  -1.25337  -0.91218  -7.50199
  -2.02147  -0.54488  -6.93659
  -2.78577  -0.33538  -6.48659
  -3.55197  -0.04268  -6.10829
  -4.05557   0.33792  -5.79779
  -4.78137   0.79272  -5.28619
  -5.45567   0.93062  -4.86459
  -6.07777   1.37422  -4.47629
  -6.69457   1.52222  -4.17159
  -7.20777   1.76952  -4.02879
  -7.69137   1.97972  -3.55809
  -8.31607   1.91032  -3.34629
  -8.70587   2.10972  -3.11919
  -9.35697   2.16662  -2.75469
  -9.80147   2.16052  -2.42299
 -10.22507   2.03942  -2.27589
 -10.66537   2.17592  -1.79539
 -11.20597   2.08852  -1.62819
 -11.64457   1.87782  -1.36329
 -12.04647   1.89302  -1.11429
 -12.56247   1.77662  -0.78699
 -12.99667   1.67022  -0.50989
 -13.38577   1.52032  -0.29299
 -13.60197   1.52802  -0.04069
 -14.26017   1.51892   0.07761
 -14.45287   1.74432   0.49471
 -15.05817   1.89792   0.71481
 -15.27047   1.84812   0.89741
 -15.50167   1.64262   1.08491
 -16.09137   1.65732   1.36521
 -16.20807   1.71952   1.68251
 -16.56597   1.56472   2.04181
 -16.85077   1.50002   2.47861
 -16.90457   1.20352   2.72111
 -17.22257   1.03162   2.96001
 -17.56857   0.98022   3.47841
 -17.56627   0.77982   3.93451
 -17.91417   0.53832   4.35091
 -18.24197   0.32622   4.78771
 -18.33077   0.00082   5.32051
 -18.24057  -0.10978   5.64721
 -18.52537  -0.41678   6.19691
 -18.60107  -0.64238   6.71171
 -18.93217  -1.04598   7.08161
 -18.77437  -1.26758   7.53681
 -18.82417  -1.48018   7.99321
 -18.84677  -1.60148   8.47321
 -18.68647  -1.45538   8.99491
 -18.88097  -1.58508   9.41431
 -18.77317  -1.58018   9.78091
 -18.67147  -1.57558  10.20621
 -18.70087  -1.51548  10.56461
 -18.67197  -1.32438  10.92351
 -18.46247  -1.09908  11.25391
 -18.42107  -0.96438  11.66171
 -18.22157  -0.48858  11.80521
 -17.93497  -0.27348  11.93921
 -17.62587   0.07702  12.03971
 -17.42197   0.51142  12.32381
 -16.95697   0.97412  12.59931
 -16.50547   1.43752  12.62921
 -16.22557   1.75502  12.89431
 -15.62237   2.20492  13.31141
 -15.11947   2.43592  13.75991
 -14.64897   2.92922  13.92471
 -14.07357   3.30012  14.21211
 -13.48767   3.59182  14.66281
 -12.83187   4.06882  15.23081
 -12.36867   4.48482  15.46881
 -11.52857   4.65542  16.08351
 -11.00817   4.79152  16.48351
 -10.14187   5.28042  16.96981
  -9.56557   5.33702  17.57311
  -8.92447   5.49972  18.08881
  -7.92537   5.78592  18.44981
  -7.26977   5.91892  18.89991
  -6.21387   5.86612  19.32661
  -5.37707   6.02252  19.64951
  -4.46847   5.85772  19.97051
  -3.27937   5.70062  20.17751
  -2.46317   5.94752  20.45711
  -1.37147   5.54982  20.73701
  -0.46387   5.54812  20.94581
   0.38463   5.38422  21.24641
   1.43193   5.39032  21.54921
   2.39073   5.01042  21.58711
   3.23293   4.88902  21.73981
   4.11953   4.82612  21.84711
   4.91193   4.85792  21.83521
   5.82423   4.57642  21.70801
   6.51163   4.37862  21.75191
   7.36243   4.33512  21.93871
   7.95233   4.06162  21.85131
   8.43193   3.89792  21.79891
   8.88973   3.70502  21.74981
   9.20343   3.64312  21.96141
   9.65263   3.63882  21.68531
   9.96663   3.50912  21.82071
  10.26563   3.20722  21.54921
  10.54363   3.19812  21.67801
  10.83333   2.99682  21.33881
  11.21373   2.60802  21.34601
  11.37503   2.34942  21.14591
  11.63923   2.33912  20.86441
  11.80273   2.21212  20.59151
  12.13803   2.02742  20.35731
  12.49713   1.84812  19.95301
  12.56933   1.83312  19.42951
  12.75733   1.95312  19.10171
  13.05143   1.71232  18.75641
  13.09353   1.72842  18.34741
  13.28673   1.67632  17.53991
  13.38723   1.46162  17.13491
  13.58243   1.28532  16.39861
  13.52093   1.20052  15.61611
  13.37813   0.96172  14.78751
  13.44213   0.97862  13.94511
  13.41603   1.03142  13.06641
  13.36363   0.67422  12.05331
  13.38953   0.66042  10.96071
  13.17613   0.59442   9.98621
  13.01543   0.44832   8.96981
  13.01683   0.32952   7.63531
  12.98253   0.38052   6.50061
  12.63713   0.31222   5.34931
  12.42723   0.24652   4.01051
  12.05573   0.15142   2.98781
  11.79383   0.19982   1.66281
  11.44193  -0.06908   0.62031
  11.00123  -0.23368  -0.52629
  10.47323  -0.06048  -1.56439
  10.17513   0.04452  -2.73209
   9.77583  -0.14488  -3.92399
   9.46113  -0.57348  -4.99669
   9.18663  -0.73848  -6.13089
   8.72723  -0.91498  -7.10549
   8.61803  -1.13948  -8.19589
   8.26283  -1.47688  -9.18699
   8.09213  -1.64798 -10.18329
   7.96383  -1.74458 -10.93309
   7.74423  -1.77198 -11.90789
   7.59793  -2.03408 -12.84779
   7.41063  -1.80048 -13.60509
   7.21773  -1.76328 -14.55179
   7.43303  -1.81828 -15.37639
   7.43193  -1.92738 -16.39369
   7.43513  -2.07538 -16.97919
   7.48073  -2.17148 -17.52089
   7.45433  -2.50488 -18.21419
   7.49433  -2.27718 -18.77649
   7.63903  -2.20798 -19.14289
   7.55953  -2.05318 -19.69459
   7.78933  -1.97258 -19.84409
   7.88733  -2.06958 -20.31609
   8.07653  -2.13508 -20.78139
   8.09283  -2.19418 -21.14889
   8.04053  -2.32088 -21.33689
   8.06293  -2.47948 -21.74069
   7.85833  -2.73378 -21.89409
   8.18823  -2.84138 -22.15709
   8.29933  -3.00268 -22.36449
   8.30073  -3.08598 -22.53119
   8.41133  -3.37728 -23.00189
   8.26233  -3.64658 -23.30789
   8.27663  -3.95128 -23.43579
   8.08143  -4.10398 -23.61449
   7.93693  -3.87928 -23.85129
   7.93993  -4.15868 -24.09729
   7.72793  -4.19658 -24.31519
   7.36453  -4.16988 -24.12159
   7.06313  -4.01418 -24.54479
   6.59443  -3.81588 -24.90299
   6.20043  -3.68468 -25.02549
   5.90183  -3.50988 -25.28169
   5.32453  -3.25378 -25.46479
   4.85223  -3.13548 -25.65749
   4.40033  -2.66928 -25.88639
   3.88123  -2.33098 -26.12929
   3.34143  -2.19138 -26.28499
   2.59723  -1.64568 -26.74469
   2.49523  -1.58558 -26.88399
   1.76483  -1.49818 -26.94039
   1.12213  -1.00338 -27.10079
   0.71903  -0.44248 -27.20829
   0.08183  -0.25448 -27.19029
  -0.47647   0.09382 -27.23309
  -1.20317   0.22902 -27.32569
  -1.51927   0.50392 -27.25929
  -2.21457   0.86982 -27.26419
  -2.69017   1.01322 -27.36499
  -3.31607   1.20122 -27.32639
  -3.83257   1.28462 -27.17419
  -4.38247   1.52922 -27.01259
  -4.80707   1.86072 -26.83209
  -5.25617   2.02092 -26.74259
  -5.48537   2.10062 -26.51019
  -6.01677   2.29022 -26.42529
  -6.41917   2.36672 -25.96419
  -6.82627   2.43642 -25.73229
  -7.26157   2.67742 -25.43299
  -7.72827   2.72892 -25.14849
  -8.07337   2.79672 -24.72619
  -8.58047   3.08592 -24.20249
  -8.83697   3.16212 -23.73299
  -9.42247   3.48202 -23.09819
  -9.71677   3.55092 -22.61749
 -10.15617   3.66252 -21.81459
 -10.54077   3.68842 -21.10169
 -10.84117   3.75252 -20.23029
 -11.11827   3.50092 -19.31379
 -11.68387   3.35242 -18.53119
 -11.89797   3.14832 -17.56859
 -12.04747   3.02422 -16.61589
 -12.59177   2.66882 -15.51409
 -12.67497   2.15022 -14.28569
 -12.86527   1.88272 -13.19009
 -13.07967   1.45022 -12.24129
 -13.42317   1.06182 -11.08229
 -13.49657   0.42072 -10.05849
 -13.23187  -0.02488  -8.82279
 -13.30347  -0.33678  -7.78929
 -13.15707  -0.77008  -6.61209
 -13.07007  -1.54728  -5.56699
 -12.96797  -2.07918  -4.32149
 -12.50147  -2.63448  -3.21349
 -12.45567  -3.04388  -2.17999
 -12.25177  -3.67518  -1.18849
 -11.83657  -3.75718  -0.23989
 -11.52697  -4.15308   0.91121
 -11.10727  -4.46568   1.96051
 -10.75987  -4.73008   2.76571
 -10.42367  -4.96838   3.72991
 -10.03617  -4.99168   4.72921
  -9.64877  -5.04388   5.38981
  -9.29947  -5.04268   6.34281
  -8.95277  -4.78548   7.15991
  -8.68247  -4.56318   7.88291
  -8.37167  -4.29238   8.58381
  -8.17667  -4.14438   9.30231
  -7.85057  -4.00758   9.86211
  -7.73197  -3.79068  10.78491
  -7.48067  -3.60078  11.50881
  -7.28357  -3.15938  12.01521
  -7.03947  -2.92768  12.63411
  -6.92137  -2.43668  13.27031
  -6.74557  -1.91248  13.47931
  -6.65747  -1.18668  14.07531
  -6.50687  -0.79558  14.54921
  -6.46917  -0.33708  15.01781
  -6.40917   0.42582  15.63641
  -6.35537   1.04942  16.09661
  -6.30507   1.69052  16.57451
  -6.35047   2.18362  17.02081
  -6.18697   2.59282  17.66871
  -6.35837   3.17922  18.10941
  -6.37267   3.72892  18.82981
  -6.15757   4.25912  19.15381
  -5.95737   4.73702  19.71361
  -6.03757   5.10672  19.94181
  -5.74367   5.14112  20.29271
  -5.65627   5.39032  20.66541
  -5.46317   5.23722  20.98551
  -5.14587   4.99752  21.28831
  -5.04907   4.64802  21.57731
  -4.71607   4.49552  22.28221
  -4.70397   4.23972  22.97051
  -4.44887   3.89882  23.65561
  -4.10677   3.71162  24.55601
  -4.02307   3.20262  25.33971
  -3.94757   2.93912  26.07411
  -3.61837   2.61032  26.62471
  -3.42647   1.97462  27.33571
  -3.15567   1.54112  27.86231
  -3.02937   1.04082  28.57211
  -2.53817   0.63442  29.14991
  -2.11947   0.38752  29.70141
  -1.79257   0.07442  30.05491
  -1.20407  -0.18038  30.57311
  -0.62537  -0.53298  30.98181
  -0.25807  -0.68518  31.44001
   0.13453  -0.71048  31.96961
   0.55233  -0.97418  32.46061
   1.15433  -1.13248  32.86041
   1.53993  -1.41838  33.10431
   2.17403  -1.43038  33.49331
   2.49153  -1.44698  33.73371
   2.96003  -1.44438  33.88521
   3.48403  -1.17528  33.78561
   3.91263  -0.93518  33.69301
   4.45623  -0.90918  33.65891
   5.01853  -0.83628  33.66051
   5.50083  -0.77868  33.31491
   6.16883  -0.82848  32.86931
   6.66643  -0.81218  32.51461
   7.17793  -1.23048  31.98691
   7.74563  -1.11238  31.44381
   8.21353  -1.06138  30.79071
   8.58993  -1.17878  30.35771
   9.26943  -1.27038  29.57051
   9.66173  -1.44648  28.88191
   9.93453  -1.83058  28.36821
  10.12953  -1.66838  27.57381
  10.25283  -2.00508  26.92821
  10.39213  -2.21078  26.38511
  10.31643  -2.20818  25.49191
  10.51533  -2.17458  24.65331
  10.48313  -2.36858  23.74751
  10.28783  -2.49068  22.68551
  10.48033  -2.68608  21.66781
  10.26593  -2.57628  20.73651
  10.11573  -2.41818  19.83821
  10.05643  -2.43478  18.85671
   9.73463  -2.42008  17.96591
   9.47323  -2.15348  17.12421
   9.12043  -1.79368  16.13161
   8.86353  -1.71748  15.18471
   8.14083  -1.20078  14.32691
   7.88263  -0.96178  13.26701
   7.61593  -0.45208  12.38721
   6.99653  -0.01958  11.36571
   6.70283   0.37882  10.44911
   6.32293   0.71602   9.31051
   5.92503   0.92832   8.11741
   5.53523   1.34782   6.97801
   5.25883   1.59422   5.67451
   5.01573   1.92482   4.47001
   4.64323   2.02742   3.26071
   4.30753   2.33092   1.94671
   4.34863   2.57672   0.49521
   3.97343   2.54702  -0.88239
   3.73633   2.71232  -1.81509
   3.72253   2.74012  -3.55039
   3.64633   2.92882  -5.04299
   3.36173   2.92992  -6.12859
   3.19223   2.79552  -7.42689
   3.30193   2.78592  -8.59389
   3.20813   2.80412 -10.08929
   2.99583   2.87872 -11.28759
   2.53823   2.61482 -12.43249
   2.57783   2.49722 -13.59949
   2.49733   2.66182 -14.62709
   2.01733   2.45742 -15.73669
   1.99983   2.17802 -16.67919
   1.83633   1.75572 -17.65019
   1.83543   1.58112 -18.58759
   1.83733   1.51402 -19.48159
   1.61143   1.27342 -20.29599
   1.43493   1.13902 -21.06149
   1.38073   0.82962 -21.49969
   0.91023   0.60332 -22.20249
   0.95003   0.67882 -22.66889
   1.01573   0.74762 -23.02059
   0.80203   0.38822 -23.54379
   0.71853   0.40062 -23.93659
   0.67993   0.36932 -24.24689
   0.50343   0.73212 -24.66099
   0.31053   0.61412 -24.89549
   0.02883   0.70642 -25.27309
  -0.08597   0.74692 -25.52839
  -0.13887   0.51542 -25.69579
  -0.36797   0.44412 -26.03649
  -0.52257   0.12192 -26.22139
  -0.69037   0.13992 -26.37709
  -0.83257  -0.10258 -26.32519
  -1.09087  -0.55378 -26.41549
  -1.19477  -0.81728 -26.42439
  -1.31557  -0.87878 -26.55459
  -1.41867  -1.25358 -26.35469
  -1.42577  -1.48438 -26.33599
  -1.65957  -1.70458 -26.29319
  -1.57207  -1.90288 -26.05239
  -1.63827  -1.84468 -26.02919
  -1.88047  -1.86028 -25.93759
  -1.98107  -1.95898 -25.90249
  -2.03807  -2.04218 -25.74089
  -2.19937  -1.88908 -25.68669
  -2.26767  -2.08528 -25.43159
  -2.30737  -2.09648 -25.32729
  -2.47317  -2.25728 -25.26959
  -2.69717  -2.19978 -25.12319
  -2.48937  -1.83368 -25.08089
  -2.44487  -1.96368 -24.82419
  -2.36027  -2.05738 -24.67479
  -2.29267  -2.20008 -24.67879
  -2.21927  -2.01248 -24.65609
  -2.12037  -1.67488 -24.63339
  -2.03617  -1.43688 -24.65929
  -1.92677  -1.17078 -24.65069
  -1.86767  -0.90028 -24.50499
  -1.96697  -0.33848 -24.53429
  -1.97937  -0.10208 -24.49289
  -2.00277   0.14852 -24.51059
  -2.13997   0.53952 -24.59039
  -2.11387   0.83712 -24.28619
  -2.16317   1.55942 -24.36259
  -2.33337   1.76842 -24.14609
  -2.26227   2.00762 -24.00069
  -2.35647   2.34102 -23.64909
  -2.37287   2.73142 -23.38299
  -2.46567   2.90162 -23.15639
  -2.44067   3.31132 -22.59199
  -2.58167   3.39712 -22.01049
  -2.58707   3.38282 -21.45339
  -2.59387   3.30782 -20.70349
  -2.92097   3.34142 -20.08699
  -2.90997   3.15812 -19.23239
  -3.24387   2.65682 -18.27749
  -3.38757   2.50042 -17.35209
  -3.53937   2.07702 -16.33509
  -3.53257   1.89252 -15.09489
  -3.69737   1.33892 -14.09139
  -3.86127   0.75342 -12.77159
  -3.82457   0.47142 -11.75799
  -3.91747  -0.07308 -10.22769
  -3.84097  -0.29548  -8.98849
  -3.81077  -0.55218  -7.89899
  -3.97327  -0.52128  -6.59739
  -4.02727  -0.35528  -5.27499
  -3.79417  -0.32678  -3.97729
  -3.79977  -0.06208  -2.56889
  -3.74437   0.23932  -1.39889
  -3.55357   0.51242   0.06641
  -3.33407   0.76792   1.43421
  -3.27187   0.96802   2.57281
  -2.99037   1.28042   3.95771
  -2.84047   1.29772   5.01171
  -2.67797   1.46912   6.17021
  -2.44047   1.42512   7.41061
  -2.41707   1.26382   8.51671
  -1.92097   1.18412   9.66681
