********************************************************************************
              CENTRO DE INSTRUMENTACION Y REGISTRO SISMICO  A.C.

    Anaxagoras 814, Col. Narvarte, Benito Juarez, C.P. 03020 Mexico, D.F.
           Tels. 5687 45 42/ 5687 45  82             Fax. 5669 25 12
********************************************************************************
ARCHIVO ESTANDAR DE ACELERACION:
VERSION DEL FORMATO                    : 2.0
NOMBRE DEL ARCHIVO                     : LV1720220919180509
FECHA Y HORA DE CREACION               : 19/SEP/22, 19:45
REF. CATALOGO ACELEROGRAMAS, SMIS 1996 : REGISTRO No.     /PAG.


================================================================================
DATOS DE LA ESTACION:
NOMBRE DE LA ESTACION                  : LINDAVISTA
CLAVE DE LA ESTACION                   : LV17
LOCALIZACION DE LA ESTACION            : Del. Gustavo A. Madero, Col. Lindavista
                                       : Av. Lindavista entre calles Matanzas   
                                       : y Lima.                                
                                       :                                        
                                       : 
COORDENADAS DE LA ESTACION             : 19.4931 LAT. N
                                       : 99.1275 LONG. W
ALTITUD (msnm)                         : 2233
TIPO DE SUELO                          : Terreno blando, material compresible
                                       : (arcillas)                
                                       : 
INSTITUCION RESPONSABLE                : CIRES, A. C.
                                       : 

================================================================================
DATOS DEL ACELEROGRAFO:
MODELO DEL ACELEROGRAFO                : RAD_IO14
NUMERO DE SERIE DEL ACELEROGRAFO       : 
NUMERO DE CANALES                      : 3
ORIENTACION C1-C6 (rumbo;orientacion)  : /S00E/+V/N90W
ORIENTACION C7-C12 (rumbo;orientacion) : 
VEL. DE MUESTREO, C1-C6 (muestras/s)   : /100/100/100
VEL. DE MUESTREO, C7-C12 (muestras/s)  : 
ESC. COMPLETA DE SENSORES, C1-C6, (g)  : /2.0/2.0/2.0
ESC. COMPLETA DE SENSORES, C7-C12, (g) : 
FREC. NAT. DE SENSORES, C1-C6, (Hz)    : /52.91/51.46/52.61
FREC. NAT. DE SENSORES, C7-C12, (Hz)   : 
AMORTIGUAMIENTO DE SENSORES, C1-C6     : /0.5928/0.5783/0.5766
AMORTIGUAMIENTO DE SENSORES, C7-C12    : 
INTERVALO DE MUESTREO, C1-C6, (s)      : /0.01/0.01/0.01
INTERVALO DE MUESTREO, C7-C12, (s)     : 
UMBRAL DE DISPARO, C1-C6, (Gal)        : / / /
UMBRAL DE DISPARO, C7-C12, (Gal)       : 
MEMORIA DE PREEVENTO (s)               : 60
TIEMPO DE POSEVENTO (s)                : 90


================================================================================
DATOS DEL SISMO:
FECHA DEL SISMO (GMT)                  : 19/SEP/22
HORA EPICENTRO (GMT)                   : 18:05:09.0
MAGNITUD(ES)                           : /Mc=7.7
COORDENADAS DEL EPICENTRO              : 18.22 LAT. N
                                       : 103.29 LONG. W
PROFUNDIDAD FOCAL (km)                 : 15
FUENTE DE LOS DATOS EPICENTRALES       : SSN
                                       : INSTITUTO DE GEOFISICA, UNAM

================================================================================
DATOS DE ESTE REGISTRO:
HORA DE LA PRIMERA MUESTRA (GMT)       : 18:04:26.967.00
EXACTITUD DEL TIEMPO (s)               : 
DURACION DEL REGISTRO (s), C1-C6       : /521.41/521.41/521.41
DURACION DEL REGISTRO (s), C7-C12      : 
NUM. TOTAL DE MUESTRAS, C1-C6          : /52141/52141/52141
NUM. TOTAL DE MUESTRAS, C7-C12         : 
ACEL. MAX. (Gal), C1-C6                : /19.79135/5.21757/20.04008
ACEL. MAX., C1-C6, EN LA MUESTRA       : /19199/19568/20360
ACEL. MAX. (Gal), C7-C12               : 
ACEL. MAX., C7-C12, EN LA MUESTRA      : 
UNIDADES DE LOS DATOS                  : Gal (cm/s/s)
FACTOR DE DECIMACION                   : 1
FORMATO DATOS (FORTRAN,10 campos/dato) : 3F10.5


================================================================================
CALIDAD DEL ACELEROGRAMA:
REGISTRO DIGITAL COMPLETO CON TIEMPO ABSOLUTO CORRECTO.


================================================================================
COMENTARIOS:














================================================================================
DATOS DE ACELERACION:
---------+---------+---------+---------+---------+---------+---------+---------+
   CANAL-1   CANAL-2   CANAL-3   CANAL-4   CANAL-5   CANAL-6   CANAL-7   CANAL-8
      N00E        +V      N90W
---------+---------+---------+---------+---------+---------+---------+---------+
[...]
 -12.97785  -0.87603   6.06002
 -13.01015  -0.77103   5.86432
 -12.70105  -0.87043   5.52042
 -12.57035  -0.73503   5.43642
 -12.30735  -0.66163   5.07522
 -12.07005  -0.69203   4.89242
 -11.93205  -0.53343   4.58002
 -11.32795  -0.53973   4.28332
 -10.98955  -0.43593   3.75702
 -10.67375  -0.38803   3.55662
  -9.97575  -0.35363   3.21062
  -9.49185  -0.32113   2.55432
  -8.99125  -0.42613   2.30602
  -8.40345  -0.59143   1.82082
  -7.92555  -0.34803   1.49472
  -7.17875  -0.34803   0.97892
  -6.59725  -0.46893   0.73242
  -6.04105  -0.43013   0.34922
  -5.34055  -0.52293   0.04722
  -4.81145  -0.51363  -0.10828
  -3.88325  -0.50913  -0.39728
  -3.23065  -0.47473  -0.57058
  -2.53855  -0.42383  -0.90728
  -1.82845  -0.43623  -1.05918
  -1.27645  -0.40483  -1.21348
  -0.62785  -0.31583  -1.42398
   0.08355  -0.37563  -1.35478
   0.60125  -0.27533  -1.58738
   1.00785  -0.09933  -1.64068
   1.57575  -0.27653  -1.65078
   1.94285   0.00917  -1.39828
   2.72255   0.17167  -1.47918
   3.23605   0.34327  -1.39398
   3.71695   0.48007  -1.32158
   4.35295   0.52757  -1.37228
   4.93415   0.72607  -1.06388
   5.31625   0.78377  -0.83128
   5.70595   0.93957  -0.75178
   6.15725   0.96547  -0.48898
   6.34965   1.11537  -0.17568
   6.67325   1.13177  -0.02578
   6.83385   1.19557   0.07642
   7.01345   1.15997   0.17712
   6.99825   1.11157   0.38062
   6.93165   1.14617   0.58842
   7.00435   1.15117   0.62912
   6.76425   0.98887   0.68382
   6.70345   1.11767   0.87812
   6.47195   1.02647   0.96862
   6.29705   0.92997   1.00692
   6.09225   0.96547   1.24432
   5.82645   0.85447   1.35062
   5.63535   0.89767   1.26882
   5.37375   0.74037   1.29662
   5.03005   0.78657   1.55402
   4.87595   0.67887   1.69922
   4.75325   0.61967   1.82972
   4.58745   0.47657   1.98612
   4.49325   0.47497   2.46122
   4.44485   0.29747   2.66722
   4.24815   0.33377   2.75122
   4.07985   0.23087   3.23772
   4.20755   0.12357   3.28522
   4.04755   0.06997   3.56572
   4.18435   0.02817   3.62542
   4.14765  -0.04733   3.92162
   4.20445  -0.08243   4.01682
   4.16125  -0.00503   4.34832
   4.27995  -0.07353   4.50422
   4.30545  -0.14883   4.81942
   4.35875  -0.05603   4.76732
   4.39335  -0.11053   4.81592
   4.50235  -0.07683   4.98642
   4.36275   0.06277   5.12762
   4.32975  -0.04573   5.19842
   4.40275  -0.05253   5.05702
   4.44415  -0.35393   5.31702
   4.41635  -0.24333   5.24432
   4.47145  -0.43553   5.24752
   4.50795  -0.39463   5.15592
   4.47125  -0.79183   5.28912
   4.38735  -0.85263   5.16552
   4.38355  -0.69763   4.86502
   4.31155  -0.99993   4.80662
   4.14675  -0.94123   4.49822
   3.92605  -1.24753   4.31492
   3.69035  -1.19043   4.21042
   3.68965  -1.19353   3.71772
   3.41205  -1.42143   3.35812
   3.08145  -1.35013   3.08482
   2.95855  -1.12893   2.61112
   2.68375  -1.25193   2.30482
   2.35625  -1.10913   1.86882
   2.51425  -1.24663   1.47712
   2.15635  -0.99683   0.97092
   2.14835  -0.89353   0.41702
   1.89025  -0.94823   0.16152
   1.88225  -0.84163  -0.23338
   1.82245  -0.82313  -0.92408
   1.68195  -0.73223  -1.24368
   1.68985  -0.79063  -1.68398
   1.64635  -0.82433  -2.16188
   1.57805  -0.80963  -2.52658
   1.46685  -0.73643  -3.07768
   1.51125  -0.78363  -3.48168
   1.37425  -0.76473  -3.87198
   1.54845  -0.58023  -4.45688
   1.46045  -0.71723  -4.79218
   1.25475  -0.71863  -5.00148
   1.33655  -0.68123  -5.50038
   1.35665  -0.71983  -5.81558
   1.19835  -0.61063  -6.00358
   0.98965  -0.64523  -6.30798
   0.74125  -0.50053  -6.61848
   0.61315  -0.54043  -6.79828
   0.25615  -0.49373  -7.03398
   0.14185  -0.54023  -7.24768
  -0.15165  -0.49633  -7.36058
  -0.35365  -0.35083  -7.43238
  -0.42425  -0.48643  -7.64588
  -0.48785  -0.36513  -7.52308
  -0.85075  -0.25033  -7.57588
  -0.77615  -0.15353  -7.54998
  -0.87265  -0.09833  -7.55468
  -1.03545   0.12287  -7.60588
  -1.21615   0.20767  -7.61008
  -1.46375   0.39547  -7.50018
  -1.72565   0.43377  -7.51048
  -2.04335   0.68957  -7.57358
  -2.16865   0.86007  -7.51538
  -2.44365   0.81167  -7.42768
  -2.62115   1.01577  -7.39428
  -3.00875   1.07587  -7.24958
  -3.25845   1.23947  -7.26828
  -3.46325   1.24437  -7.08048
  -3.69825   1.19837  -7.06038
  -3.82685   1.33167  -6.91168
  -4.14995   1.20187  -6.58738
  -4.10275   1.32977  -6.44078
  -4.30805   1.38007  -6.10878
  -4.29375   1.55847  -5.92808
  -4.27155   1.51537  -5.39048
  -4.32255   1.45367  -5.09308
  -4.24795   1.69797  -4.90468
  -4.33745   1.50767  -4.47988
  -4.28885   1.61827  -4.17238
  -4.22595   1.53437  -3.87798
  -4.35265   1.40107  -3.53568
  -4.37935   1.39667  -3.10668
  -4.26265   1.36067  -2.75688
  -4.41445   1.35947  -2.35848
  -4.50025   1.36367  -2.12048
  -4.66835   1.43477  -1.73558
  -4.80865   1.37747  -1.49388
  -4.83505   1.33557  -1.03958
  -5.02065   1.35877  -0.68998
  -5.06905   1.61457  -0.53878
  -5.10555   1.55117  -0.00828
  -5.06515   1.43967   0.19912
  -5.12615   1.67887   0.66792
  -5.05155   1.84527   0.97772
  -5.05455   1.81767   1.16012
  -5.00755   1.94397   1.40492
  -4.95735   1.99327   1.56552
  -4.85745   2.29777   1.91862
  -4.69285   2.31337   2.17392
  -4.68405   2.38887   2.39162
  -4.68255   2.32067   2.81922
  -4.52925   2.54887   2.97072
  -4.56405   2.42727   3.54072
  -4.41185   2.42397   3.75422
  -4.22455   2.39777   4.01322
  -4.22765   2.32907   4.37352
  -4.23955   2.19137   4.53322
  -4.11495   2.07797   4.70372
  -4.05135   2.11297   4.70022
  -3.99545   1.97787   4.92792
  -3.87125   1.74177   4.75332
  -3.79105   1.63977   4.86602
  -3.41535   1.70787   4.78742
  -3.37395   1.50977   4.74742
  -3.17475   1.36717   4.62212
  -3.08915   1.30147   4.64292
  -2.99755   1.25427   4.28262
  -2.79555   1.21757   4.15982
  -2.68795   1.22617   3.89592
  -2.71065   1.12497   3.57442
  -2.44905   1.29867   3.41682
  -2.26455   1.20167   2.90692
  -2.07255   1.21117   2.57042
  -2.09695   1.29537   2.12132
  -2.04785   1.14227   1.71072
  -1.86545   1.01457   1.19702
  -1.80135   0.92827   0.85172
  -1.74645   0.73637   0.23162
  -1.66905   0.55867  -0.32408
  -1.55025   0.57177  -0.80948
  -1.34385   0.37257  -1.42978
  -1.20985   0.34117  -2.00548
  -1.29005   0.29657  -2.56378
  -1.11535   0.19387  -3.21818
  -0.86895  -0.06283  -4.04468
  -0.80045   0.02437  -4.89578
  -0.78455  -0.17343  -5.46558
  -0.50565  -0.23863  -6.08958
  -0.49275  -0.49043  -6.84388
  -0.29335  -0.76053  -7.50438
  -0.03965  -0.82083  -7.98748
   0.10555  -1.26133  -8.58878
   0.15255  -1.43663  -9.00008
   0.26505  -1.57623  -9.20748
   0.44925  -1.88343  -9.36478
   0.61835  -2.00973  -9.58758
   0.61835  -2.28193  -9.81368
   0.77965  -2.34383  -9.89368
   0.95475  -2.38473  -9.72698
   1.11705  -2.29573  -9.89598
   1.19235  -2.33073  -9.90678
   1.28275  -2.31063  -9.54788
   1.49365  -2.09933  -9.57848
   1.48995  -2.09343  -9.33158
   1.76705  -1.86753  -9.04078
   1.92345  -1.74603  -8.61708
   1.99455  -1.47123  -8.34258
   2.21855  -1.12243  -8.07648
   2.46865  -1.06233  -7.62408
   2.75715  -0.73433  -7.21638
   2.91995  -0.63373  -6.86048
   3.16495  -0.38943  -6.34588
   3.37955  -0.21293  -5.78638
   3.54935  -0.02753  -5.11858
   3.78965   0.19067  -4.58758
   4.01015   0.32317  -3.78258
   4.34565   0.62267  -3.17708
   4.28425   0.66387  -2.35238
   4.47475   0.74427  -1.69148
   4.80845   0.85537  -0.77398
   4.84445   0.95847  -0.05078
   5.03285   0.97387   0.88892
   5.22155   1.14457   1.68972
   5.24795   1.03047   2.53722
   5.35835   1.16067   3.68332
   5.36905   1.22567   4.61902
   5.24425   1.23647   5.39272
   5.32625   1.38167   6.38712
   5.31505   1.29097   7.36792
   5.29515   1.10177   8.10022
   5.06605   1.15747   9.15422
   5.00055   1.08357   9.93352
   5.04365   1.16047  10.71942
   4.93535   0.89227  11.57162
   4.71115   0.85887  12.35622
   4.58725   0.75107  13.17832
   4.49205   0.66997  13.95972
   4.23465   0.52167  14.75792
   4.19305   0.45367  15.40462
   4.10375   0.55327  16.11712
   3.99805   0.50367  16.64592
   4.05435   0.24227  17.26022
   3.80935   0.33517  17.85872
   3.59095   0.27017  18.29342
   3.63145   0.25517  18.76472
   3.77595   0.34587  19.15802
   3.88765   0.42937  19.27002
   3.70205   0.40857  19.66842
   3.88765   0.37277  20.00722
   3.84415   0.29887  20.01772
   3.95735   0.40457  20.02822
   3.90665   0.32647  19.93912
   4.01325   0.33327  19.83952
   4.08785   0.30867  19.84772
   4.11635   0.14367  19.47922
   4.28605   0.06627  19.34132
   4.22015   0.00567  19.13932
   4.51235  -0.24683  18.82062
   4.44315  -0.35573  18.39022
   4.58865  -0.52623  18.03202
   4.74225  -0.67823  17.48602
   4.83785  -0.78433  17.05702
   4.89445  -1.03783  16.60692
   5.00015  -1.01043  15.95832
   5.14415  -1.35483  15.32942
   5.25455  -1.49113  14.75192
   5.31175  -1.52013  14.09342
   5.54655  -1.75813  13.50572
   5.57485  -1.91523  12.90782
   5.64075  -1.95903  12.32122
   5.76635  -2.08223  11.71752
   5.71935  -2.17523  11.01682
   5.94405  -2.33103  10.30222
   5.84745  -2.40673   9.89822
   5.74645  -2.31623   9.06192
   5.74365  -2.47543   8.42832
   5.81615  -2.32213   7.60222
   5.67485  -2.38733   6.76172
   5.42265  -2.37943   6.13482
   5.18815  -2.25593   5.23072
   5.00335  -2.11073   4.31112
   4.81375  -2.10793   3.33782
   4.60475  -1.89563   2.48532
   4.24165  -1.70393   1.56272
   4.10225  -1.64123   0.49842
   3.59565  -1.44533  -0.30148
   3.23465  -1.35203  -1.51048
   3.03165  -1.14653  -2.37808
   2.69125  -0.89893  -3.39428
   2.19815  -0.68353  -4.41438
   1.80485  -0.54353  -5.24978
   1.61035  -0.28373  -6.14568
   1.10375  -0.02983  -7.03818
   0.69385   0.16047  -8.04468
   0.44135   0.34897  -8.79338
  -0.01415   0.65307  -9.80598
  -0.36505   0.80157 -10.45738
  -0.60705   1.07067 -11.31778
  -1.05295   1.14197 -12.08378
  -1.32745   1.51867 -12.82208
  -1.67815   1.71317 -13.58438
  -1.92435   1.87357 -14.29368
  -2.17615   1.97577 -15.03018
  -2.50515   2.25817 -15.79408
  -2.70975   2.22877 -16.35848
  -3.07495   2.50817 -16.70778
  -3.27785   2.54697 -17.30428
  -3.58935   2.66667 -17.73048
  -3.77685   2.72377 -18.18238
  -3.92245   2.80157 -18.65008
  -4.02935   2.59327 -18.98178
  -4.35035   2.54957 -19.24508
  -4.62505   2.54607 -19.71228
  -4.83855   2.50977 -19.83238
  -4.96665   2.56937 -19.93318
  -5.16565   2.28677 -19.93808
  -5.43755   2.29657 -20.04008
  -5.72935   2.12657 -19.97038
  -5.83455   2.23507 -19.99908
  -6.13965   1.93927 -19.81978
  -6.57875   1.88337 -19.84128
  -6.71745   1.77587 -19.66058
  -7.16845   1.53247 -19.41348
  -7.26085   1.31037 -19.17748
  -7.49065   1.36207 -18.83428
  -7.88645   1.26757 -18.48728
  -8.02605   1.03307 -18.15858
  -8.39505   1.07607 -17.67198
  -8.64685   1.05617 -17.27968
  -8.97955   1.03587 -16.70218
  -9.18315   1.02367 -16.13988
  -9.64795   0.85727 -15.46398
 -10.02915   0.91377 -14.85368
 -10.44345   0.94097 -14.16258
 -10.78895   1.00917 -13.27878
 -11.19935   1.01507 -12.62528
 -11.53155   1.10067 -11.88128
 -11.73945   1.09007 -11.09638
 -12.00665   0.93207 -10.26448
 -12.18735   1.01297  -9.35238
 -12.47805   0.93387  -8.82328
 -12.56635   0.88267  -8.20048
 -12.62785   0.87737  -7.42258
 -12.79485   0.57857  -6.95098
 -12.75925   0.39967  -6.23388
 -12.96995   0.33957  -5.64958
 -13.00965   0.41717  -5.21348
 -13.08315   0.27387  -4.66038
 -12.89535   0.11187  -4.07958
 -12.83015   0.03777  -3.72138
 -12.54585  -0.02793  -3.22638
 -12.38095  -0.13253  -2.78428
 -12.02255  -0.32233  -2.18288
 -11.70225  -0.27513  -1.76228
 -11.43245  -0.28283  -1.06318
 -10.92365  -0.48643  -0.50348
 -10.35905  -0.53393   0.02472
  -9.73425  -0.49253   0.61762
  -9.13825  -0.56663   1.14562
  -8.44135  -0.43413   1.72032
  -7.82215  -0.38313   2.04742
  -7.10745  -0.16503   2.76522
  -6.44245   0.05387   3.40422
  -5.60965  -0.02443   3.76212
  -4.72675   0.12587   4.36122
  -3.73315   0.32697   4.80172
  -2.85705   0.41607   5.16972
  -2.07515   0.59467   5.53722
  -1.27905   0.45717   5.80522
  -0.32535   0.49387   6.26582
   0.49255   0.27457   6.36122
   1.40575   0.34327   6.57672
   2.05415   0.14687   6.88932
   2.72185   0.18527   7.02842
   3.34665  -0.06843   7.17532
   4.13455  -0.19533   7.09652
   4.67885  -0.34313   7.21812
   5.29495  -0.53443   7.17502
   5.92395  -0.67933   7.09792
   6.40675  -0.64503   6.94922
   6.90895  -0.88113   6.84772
   7.28445  -0.98523   6.64172
   7.80935  -1.05553   6.55832
   8.03025  -1.25403   6.35042
   8.40645  -1.24163   6.18252
   8.68305  -1.46033   5.96092
   8.82715  -1.45843   5.80752
   9.05415  -1.52883   5.69202
   9.33425  -1.45303   5.39482
   9.39365  -1.59703   5.26272
   9.44575  -1.70533   5.32842
   9.51915  -1.57273   5.23092
   9.67095  -1.59283   5.26742
   9.74365  -1.49563   5.36542
   9.70505  -1.54233   5.47462
   9.71045  -1.47433   5.56782
   9.79435  -1.47333   5.74672
   9.63935  -1.30223   5.92072
   9.70155  -1.25173   5.99202
   9.56295  -1.00993   6.18212
   9.44765  -1.17833   6.51132
   9.39785  -1.08123   6.66532
   9.46165  -0.94943   6.67892
   9.49955  -0.78243   6.92112
   9.35945  -0.87923   7.25482
   9.17945  -0.89613   7.54242
   9.38385  -1.05183   7.63712
   9.13055  -1.02583   7.92022
   9.03805  -1.09343   8.17742
   8.97535  -1.27653   8.37642
   8.83735  -1.27723   8.45512
   8.73265  -1.33523   8.41332
   8.59725  -1.50353   8.57252
   8.31135  -1.28613   8.70392
   8.21595  -1.30713   8.71982
   7.92415  -1.28493   8.87602
   7.50165  -1.31253   8.79742
   7.45745  -1.18203   8.63992
   7.09275  -1.04483   8.50242
   6.80235  -1.06213   8.53302
   6.41675  -1.09483   8.55452
   6.08215  -0.89353   8.41562
   5.74505  -0.85843   8.43642
   5.23135  -0.87953   8.33242
   4.76705  -0.83623   8.40002
   4.50235  -0.79743   8.62422
   4.01675  -0.69693   8.57952
   3.42985  -0.65343   8.60392
   2.95215  -0.63193   8.71142
   2.50885  -0.43503   8.80472
   1.86195  -0.39103   8.79252
   1.35175  -0.22853   8.92842
   0.72535  -0.03503   8.84912
   0.21145   0.08847   8.89352
  -0.38425   0.02927   8.84842
  -1.03825   0.20137   8.69742
  -1.61455   0.30517   8.66562
  -2.33585   0.56337   8.41192
  -2.93095   0.66457   8.22252
  -3.55405   0.64427   8.16102
  -4.17495   0.80717   7.90452
  -4.83975   0.99777   7.43602
  -5.45185   1.16517   7.34852
  -6.04145   1.15677   6.91322
  -6.47665   1.31807   6.60412
  -6.94795   1.25007   6.06052
  -7.59865   1.43657   5.76802
  -7.89865   1.32697   5.42172
  -8.22175   1.37577   5.02002
  -8.49625   1.25867   4.58422
  -8.64125   1.30727   4.39232
  -8.92575   1.21617   4.04062
  -9.25895   1.05267   3.48512
  -9.27365   1.04967   3.13972
  -9.55095   1.07447   2.63662
  -9.67975   1.02437   2.14932
  -9.53295   1.08027   1.84962
  -9.58115   0.96037   1.22702
  -9.50775   0.98607   0.83062
  -9.58225   0.80627   0.22952
