********************************************************************************
              CENTRO DE INSTRUMENTACION Y REGISTRO SISMICO  A.C.

    Anaxagoras 814, Col. Narvarte, Benito Juarez, C.P. 03020 Mexico, D.F.
           Tels. 5687 45 42/ 5687 45  82             Fax. 5669 25 12
********************************************************************************
ARCHIVO ESTANDAR DE ACELERACION:
VERSION DEL FORMATO                    : 2.0
NOMBRE DEL ARCHIVO                     : ME5220220919180509
FECHA Y HORA DE CREACION               : 19/SEP/22, 19:45
REF. CATALOGO ACELEROGRAMAS, SMIS 1996 : REGISTRO No.     /PAG.


================================================================================
DATOS DE LA ESTACION:
NOMBRE DE LA ESTACION                  : ESC. SEC. TÉC. "RAFAÉL DONDÉ"
CLAVE DE LA ESTACION                   : ME52
LOCALIZACION DE LA ESTACION            : Del. Miguel Hidalgo, Col. Anáhuac,     
                                       : Calle Lago Alberto entre calles        
                                       : Lago Xochimilco y Lago Muritz.         
                                       :                                        
                                       : 
COORDENADAS DE LA ESTACION             : 19.4383 LAT. N
                                       : 99.1820 LONG. W
ALTITUD (msnm)                         : 2238
TIPO DE SUELO                          : Transición                          
                                       :                           
                                       : 
INSTITUCION RESPONSABLE                : CIRES, A. C.
                                       : 

================================================================================
DATOS DEL ACELEROGRAFO:
MODELO DEL ACELEROGRAFO                : RAD_IO14
NUMERO DE SERIE DEL ACELEROGRAFO       : 
NUMERO DE CANALES                      : 3
ORIENTACION C1-C6 (rumbo;orientacion)  : /N00E/+V/N90W
ORIENTACION C7-C12 (rumbo;orientacion) : 
VEL. DE MUESTREO, C1-C6 (muestras/s)   : /100/100/100
VEL. DE MUESTREO, C7-C12 (muestras/s)  : 
ESC. COMPLETA DE SENSORES, C1-C6, (g)  : /2.0/2.0/2.0
ESC. COMPLETA DE SENSORES, C7-C12, (g) : 
FREC. NAT. DE SENSORES, C1-C6, (Hz)    : /30/30/30
FREC. NAT. DE SENSORES, C7-C12, (Hz)   : 
AMORTIGUAMIENTO DE SENSORES, C1-C6     : /0.700/0.700/0.700
AMORTIGUAMIENTO DE SENSORES, C7-C12    : 
INTERVALO DE MUESTREO, C1-C6, (s)      : /0.01/0.01/0.01
INTERVALO DE MUESTREO, C7-C12, (s)     : 
UMBRAL DE DISPARO, C1-C6, (Gal)        : / / /
UMBRAL DE DISPARO, C7-C12, (Gal)       : 
MEMORIA DE PREEVENTO (s)               : 60
TIEMPO DE POSEVENTO (s)                : 90


================================================================================
DATOS DEL SISMO:
FECHA DEL SISMO (GMT)                  : 19/SEP/22
HORA EPICENTRO (GMT)                   : 18:05:09.0
MAGNITUD(ES)                           : /Mc=7.7
COORDENADAS DEL EPICENTRO              : 18.22 LAT. N
                                       : 103.29 LONG. W
PROFUNDIDAD FOCAL (km)                 : 15
FUENTE DE LOS DATOS EPICENTRALES       : SSN
                                       : INSTITUTO DE GEOFISICA, UNAM

================================================================================
DATOS DE ESTE REGISTRO:
HORA DE LA PRIMERA MUESTRA (GMT)       : 18:04:27.069.00
EXACTITUD DEL TIEMPO (s)               : 
DURACION DEL REGISTRO (s), C1-C6       : /537.21/537.21/537.21
DURACION DEL REGISTRO (s), C7-C12      : 
NUM. TOTAL DE MUESTRAS, C1-C6          : /53721/53721/53721
NUM. TOTAL DE MUESTRAS, C7-C12         : 
ACEL. MAX. (Gal), C1-C6                : /8.85479/3.34614/9.13329
ACEL. MAX., C1-C6, EN LA MUESTRA       : /19435/18899/18770
ACEL. MAX. (Gal), C7-C12               : 
ACEL. MAX., C7-C12, EN LA MUESTRA      : 
UNIDADES DE LOS DATOS                  : Gal (cm/s/s)
FACTOR DE DECIMACION                   : 1
FORMATO DATOS (FORTRAN,10 campos/dato) : 3F10.5


================================================================================
CALIDAD DEL ACELEROGRAMA:
REGISTRO DIGITAL COMPLETO CON TIEMPO ABSOLUTO CORRECTO.


================================================================================
COMENTARIOS:














================================================================================
DATOS DE ACELERACION:
---------+---------+---------+---------+---------+---------+---------+---------+
   CANAL-1   CANAL-2   CANAL-3   CANAL-4   CANAL-5   CANAL-6   CANAL-7   CANAL-8
      N00E        +V      N90W
---------+---------+---------+---------+---------+---------+---------+---------+
[...]
  -0.16269   1.09686  -1.81249
  -0.55929   1.09016  -2.22519
  -1.06169   0.92836  -2.61069
  -1.27499   0.82496  -3.11789
  -1.60369   0.75016  -3.56559
  -1.90789   0.72916  -3.61519
  -2.13089   0.70506  -3.85299
  -2.21839   0.72166  -3.98929
  -2.50689   0.60776  -4.03669
  -2.82349   0.40226  -4.00629
  -3.10569   0.40056  -4.18819
  -3.56369   0.47266  -4.06339
  -3.67549   0.21706  -4.07979
  -3.66099   0.26916  -3.85649
  -3.79799   0.12546  -3.74469
  -4.01889   0.12306  -3.54109
  -4.38059   0.21336  -3.40679
  -4.46719   0.29356  -3.12229
  -4.35089   0.09366  -2.98439
  -4.35749   0.00076  -2.64769
  -4.53679   0.15606  -2.29669
  -4.70559   0.05226  -2.21159
  -4.72619  -0.17344  -1.98969
  -4.70939  -0.27164  -1.81389
  -4.74679  -0.13224  -1.55439
  -4.83449  -0.02254  -1.25929
  -4.64229   0.07586  -1.03699
  -4.74299   0.02536  -0.77949
  -4.91629   0.28326  -0.54039
  -4.93639   0.36596  -0.40359
  -4.95089   0.52896  -0.20459
  -4.78629   0.66246  -0.01219
  -4.57679   0.59446   0.14051
  -4.52509   0.65356   0.19401
  -4.56909   0.79486   0.39041
  -4.60909   0.86586   0.50101
  -4.71689   0.91946   0.54731
  -4.67169   0.98416   0.34411
  -4.62659   0.86056   0.59601
  -4.56489   0.69446   0.70911
  -4.42059   0.77446   0.77251
  -4.65279   0.78736   0.50691
  -4.69019   0.73006   0.34061
  -4.44559   0.39496   0.43981
  -4.31749   0.16516   0.73251
  -4.25319   0.26946   0.58541
  -4.14539   0.11276   0.47601
  -4.02879   0.06576   0.30371
  -3.93759   0.02866   0.16481
  -3.71409   0.02976   0.04251
  -3.57979  -0.04344   0.09911
  -3.44589   0.09296   0.05471
  -3.33759   0.11446  -0.16599
  -2.96419   0.11046  -0.31429
  -2.76359   0.34356  -0.37969
  -2.64129   0.30076  -0.58269
  -2.50989   0.61246  -0.51789
  -2.14519   0.41556  -0.69419
  -1.73879   0.46346  -1.01149
  -1.36189   0.57316  -0.95509
  -1.26889   0.62506  -0.98689
  -0.55039   0.53696  -1.13139
  -0.28029   0.37416  -1.42559
   0.14381   0.17336  -1.37969
   0.68161   0.04706  -1.35399
   1.29131   0.12266  -1.33579
   1.72901   0.09386  -1.37319
   2.35661   0.27066  -1.43439
   3.00981   0.13566  -1.46879
   3.37341  -0.11214  -1.28779
   3.96401  -0.05574  -1.21649
   4.53681  -0.19304  -1.12459
   4.96541  -0.11144  -1.06989
   5.34351  -0.12824  -1.01939
   5.99811  -0.22814  -0.92679
   6.45221  -0.09554  -0.81949
   6.58011   0.14296  -0.65299
   7.07061   0.10576  -0.67249
   7.38861   0.32366  -0.39629
   7.63101   0.49976  -0.26449
   7.61591   0.47006  -0.11809
   7.32941   0.60306   0.10051
   7.44051   0.76376  -0.00559
   7.45431   0.74176   0.05961
   7.06871   0.79576   0.22821
   6.92051   0.91286   0.28921
   6.39001   0.89326   0.34131
   6.18941   0.79316   0.16361
   5.77231   0.67536   0.07221
   5.38371   0.33066  -0.02059
   4.73181   0.51236   0.01001
   3.99021   0.51466   0.06731
   3.60231   0.43146  -0.06029
   3.06271   0.32156  -0.25649
   2.73631   0.36226  -0.32849
   2.28201   0.11956  -0.22169
   1.72641  -0.17664  -0.27149
   1.04721  -0.32044  -0.43929
   0.80591  -0.34964  -0.59039
   0.18921  -0.59794  -0.58549
   0.05661  -0.92484  -0.92099
  -0.15359  -1.09554  -0.92429
  -0.67849  -1.37284  -1.08629
  -0.99809  -1.55774  -1.31639
  -1.25559  -1.77174  -1.32199
  -1.50599  -1.88394  -1.74679
  -1.54549  -2.04084  -1.89429
  -1.62499  -2.28464  -1.89759
  -2.09029  -2.56244  -2.10689
  -2.30299  -2.53044  -2.35589
  -2.12649  -2.55524  -2.66029
  -2.11479  -2.65384  -2.75009
  -2.21039  -2.72844  -2.81339
  -2.51059  -2.77634  -2.92219
  -2.38719  -2.60594  -3.15849
  -2.11179  -2.53884  -3.28429
  -1.91209  -2.22084  -3.38949
  -1.81299  -2.19564  -3.44289
  -2.04069  -1.99714  -3.63079
  -1.70489  -1.76424  -3.52839
  -1.21509  -1.61904  -3.45239
  -1.15899  -1.37634  -3.55629
  -0.96889  -1.36794  -3.31519
  -0.85599  -1.08504  -3.38739
  -0.56959  -0.90454  -3.21509
  -0.14539  -0.73574  -3.02059
   0.10331  -0.69404  -2.69649
   0.47771  -0.65904  -2.35279
   0.61941  -0.58024  -2.10569
   0.97971  -0.60924  -1.96139
   1.24461  -0.48384  -1.30189
   1.52471  -0.24444  -1.03089
   1.68761  -0.31324  -0.81409
   2.06731  -0.41004  -0.25529
   2.08811  -0.45794   0.09891
   2.41571  -0.33774   0.31731
   2.52091  -0.35414   0.63411
   2.61231  -0.56314   1.15761
   2.69001  -0.50494   1.51201
   2.94411  -0.63004   1.70771
   3.01361  -0.86004   1.76361
   3.11221  -0.80534   2.02101
   3.42581  -0.81314   2.03531
   3.44961  -0.83464   2.18701
   3.50641  -0.64754   2.12601
   3.82601  -0.47964   2.37271
   3.98341  -0.62134   2.24971
   4.03271  -0.46844   2.13181
   4.07651  -0.44884   2.03551
   3.79351  -0.29944   1.85291
   3.92611  -0.08154   1.72691
   4.06801  -0.10394   1.38341
   3.86791   0.01486   1.31611
   3.69651   0.09016   0.99601
   3.49381   0.34476   0.74211
   3.16551   0.40176   0.43881
   3.02271   0.40556  -0.03209
   2.89481   0.53416  -0.12809
   2.65931   0.86146  -0.25699
   2.59781   0.81286  -0.81039
   2.19851   0.90986  -1.07129
   1.89991   0.67956  -1.53169
   1.70841   0.80816  -1.64859
   1.47111   0.84466  -1.64719
   1.07551   0.93556  -1.95049
   1.03791   0.75036  -2.31009
   0.65121   0.82846  -2.43749
   0.39001   0.77606  -2.66049
   0.21931   0.38726  -2.82369
   0.01781   0.03046  -3.03769
  -0.47649   0.05786  -2.91259
  -0.76989   0.00806  -3.01899
  -0.99109  -0.22394  -2.89389
  -1.30929  -0.16124  -3.05119
  -1.40139  -0.34404  -3.20759
  -1.64039  -0.33234  -3.27399
  -1.83909  -0.31784  -3.13449
  -2.21389  -0.48434  -3.12439
  -2.06449  -0.41984  -3.02739
  -2.13419  -0.43924  -2.91959
  -2.30069  -0.44154  -2.94059
  -2.28359  -0.41894  -2.86019
  -2.31839  -0.31134  -2.53869
  -2.39649  -0.19954  -2.27709
  -2.24669  -0.12614  -2.19529
  -2.24109   0.09826  -1.99959
  -2.00679   0.07396  -1.43439
  -1.91279   0.05246  -1.21489
  -1.79259   0.12476  -0.89499
  -1.56929   0.38546  -0.42269
  -1.36659   0.49646   0.04441
  -1.11549   0.34686   0.47951
  -0.97689   0.37836   0.79541
  -0.69819   0.35716   1.23801
  -0.58149   0.23436   1.66661
  -0.45149   0.43096   2.05191
  -0.23939   0.41346   2.46501
   0.00491   0.13126   2.80641
   0.06481   0.03026   2.87931
   0.37041  -0.12544   3.07151
   0.50251  -0.33964   3.43251
   0.43041  -0.52384   3.57751
   0.62961  -0.60224   3.74281
   0.72531  -0.48064   3.93261
   0.80571  -0.47924   3.81711
   0.79191  -0.35574   3.88541
   0.78891  -0.19704   3.97991
   0.82141  -0.06354   3.81111
   0.96421  -0.23204   3.87231
   0.94411  -0.14674   3.72221
   1.01891   0.09176   3.48961
   0.90041   0.15936   3.49941
   1.01451   0.39266   3.38341
   0.93031   0.46956   3.06051
   1.07741   0.70246   2.81991
   1.21701   0.80906   2.61961
   1.20951   0.81306   2.38691
   1.25631   0.88806   2.09981
   1.11761   0.97856   1.94251
   1.43181   1.15156   1.73321
   1.47511   0.98956   1.56841
   1.53261   0.91916   1.45431
   1.63291   0.99796   1.18631
   1.78351   1.15726   1.02551
   1.75051   1.17946   0.91951
   2.07531   0.91666   0.97221
   2.06781   0.84316   0.88851
   2.05851   0.70616   0.73581
   2.21161   0.65216   0.87631
   2.27081   0.50066   0.65161
   2.45101   0.27876   0.82741
   2.41731   0.06046   1.02641
   2.43581   0.05856   1.09681
   2.47601  -0.15964   1.14541
   2.44661  -0.44464   1.05541
   2.39561  -0.34084   1.08231
   2.15601  -0.37754   1.23991
   2.21531  -0.55914   1.26001
   1.79471  -0.63634   1.34701
   1.75921  -0.69404   1.37311
   1.73461  -0.75164   1.36281
   1.60911  -0.78154   1.45571
   1.16971  -0.78994   1.50731
   0.89741  -0.60014   1.40381
   0.77551  -0.44554   1.46181
   0.57981  -0.36934   1.47201
   0.29791  -0.23444   1.60041
   0.02691  -0.23794   1.70801
  -0.13679  -0.04154   1.83421
  -0.35699   0.19486   1.77201
  -0.62399   0.02296   1.96751
  -0.84569   0.35576   1.88311
  -1.12389   0.35316   2.13771
  -1.29129   0.42216   2.16131
  -1.51949   0.23716   2.20711
  -1.76759   0.20536   2.23821
  -2.13119   0.33276   2.34511
  -2.45729   0.49596   2.30911
  -2.69559   0.43026   2.30601
  -2.80339   0.29286   2.32051
  -3.06379   0.10996   2.43251
  -3.40889   0.14016   2.51951
  -3.69159   0.06346   2.50901
  -3.89079   0.09506   2.72711
  -3.94789   0.01416   2.75591
  -4.13069  -0.24444   2.82211
  -4.41169  -0.08874   2.91001
  -4.49989  -0.05694   3.03881
  -4.61799  -0.17924   3.10751
  -4.58919  -0.16774   3.36281
  -4.79519  -0.10694   3.44351
  -4.79259   0.07396   3.56811
  -4.79139  -0.25894   3.55951
  -4.73879  -0.26854   3.52531
  -4.81249  -0.31274   3.69251
  -4.74049  -0.24164   3.73511
  -4.78279  -0.35924   3.74421
  -4.52349  -0.26274   3.81621
  -4.51669  -0.43834   3.85171
  -4.17019  -0.58284   3.88331
  -4.18279  -0.80674   3.91041
  -4.21279  -1.04504   3.66051
  -3.98569  -0.96854   3.76011
  -3.75499  -1.01794   3.84121
  -3.80449  -0.99734   3.81811
  -3.75869  -1.06164   3.94551
  -3.51699  -1.02754   3.90221
  -3.36749  -1.08124   3.84171
  -3.21279  -1.13434   3.94551
  -3.07969  -1.12994   3.94971
  -2.72499  -1.13594   3.94671
  -2.48559  -1.16684   4.04861
  -2.13889  -1.11614   4.06571
  -1.88659  -1.06074   3.89381
  -1.78909  -0.98194   3.74911
  -1.45029  -0.82224   3.67151
  -1.12439  -0.79464   3.48511
  -0.72549  -0.80954   3.38831
  -0.53119  -0.64424   3.21811
  -0.47929  -0.43384   3.05261
  -0.00229  -0.35974   2.71941
   0.28081  -0.46724   2.53141
   0.45361  -0.37374   2.32591
   0.76171  -0.18154   2.01821
   1.00191  -0.02254   1.91281
   1.21631   0.12586   1.49331
   1.67221   0.13216   1.08441
   2.04631   0.07136   0.73651
   2.23871   0.17076   0.21651
   2.23751   0.33466  -0.33389
   2.79681   0.34846  -0.70329
   3.07481   0.19226  -1.13119
   3.04041   0.35946  -1.61139
   3.32381   0.35686  -2.10849
   3.51251   0.42146  -2.74699
   3.85181   0.36836  -3.03599
   4.11551   0.49556  -3.66729
   4.22891   0.45576  -4.42269
   4.27681   0.42866  -4.82679
   4.53471   0.49206  -5.33299
   4.58551   0.76936  -5.70169
   4.63101   0.52006  -6.16419
   4.83941   0.56306  -6.55459
   5.08141   0.57996  -7.10029
   5.25181   0.75456  -7.52629
   5.31101   0.70316  -7.91869
   5.39441   0.69476  -8.19879
   5.53261   0.79596  -8.34369
   5.84241   0.83126  -8.68089
   5.55811   0.89016  -8.87749
   5.72831   0.94046  -9.06829
   5.63391   1.16446  -9.03879
   5.68061   1.30596  -8.97479
   5.55371   1.30896  -9.13329
   5.45011   1.32906  -9.03839
   5.43911   1.41956  -8.96099
   5.27941   1.45626  -8.84429
   5.09731   1.48526  -8.79919
   4.98531   1.62106  -8.57469
   4.58221   1.70826  -8.46059
   4.38231   1.80646  -8.18849
   4.17511   1.78496  -7.99419
   3.97621   1.58956  -7.73319
   3.87051   1.85586  -7.33949
   3.34531   1.80276  -6.71849
   3.07791   2.05456  -6.43929
   2.94271   1.98936  -6.14519
   2.83731   1.94396  -5.73489
   2.33811   2.03866  -5.13349
   1.99881   2.18106  -4.66609
   1.67661   2.11766  -4.07229
   1.34811   2.01436  -3.47559
   1.19031   1.74336  -3.20899
   0.60981   1.83296  -2.65229
   0.17351   1.75766  -2.05709
  -0.03439   1.78616  -1.50459
  -0.34999   1.86896  -1.09799
  -0.89879   1.84036  -0.67949
  -1.24619   2.00006  -0.23429
  -1.63459   2.07256   0.20641
  -1.63599   1.72256   0.50361
  -2.08279   1.85516   1.07321
  -2.62819   1.86986   1.35021
  -2.71829   1.79906   1.64691
  -3.14189   1.81426   1.80901
  -3.40289   1.59796   2.11361
  -3.59359   1.60636   2.45361
  -3.75709   1.62876   2.52251
  -3.93269   1.48036   2.43301
  -3.84289   1.48386   2.56721
  -4.02759   1.28116   2.54971
  -4.09329   1.33466   2.33011
  -3.92539   1.39406   2.39561
  -3.85809   1.36646   2.34091
  -3.94829   1.48436   1.96791
  -3.82109   1.53976   1.85271
  -3.71479   1.41156   1.43161
  -3.54219   1.11136   1.30041
  -3.44049   1.20956   1.13001
  -3.37989   1.13456   0.81921
  -3.30889   1.21166   0.38761
  -3.08069   1.10926  -0.13099
  -2.75259   1.11676  -0.44639
  -2.68649   1.20116  -0.94909
  -2.33359   0.95146  -1.23359
  -2.26119   0.95266  -1.56559
  -1.87509   0.83296  -1.86599
  -2.00749   0.68726  -2.33969
  -1.86439   0.62416  -2.75359
  -1.49849   0.65406  -2.93219
  -1.30609   0.72766  -3.15569
  -1.16089   0.54576  -3.40099
  -0.74189   0.54326  -3.54809
  -0.77039   0.46096  -3.75449
  -0.56039   0.35616  -3.70519
  -0.50359   0.42606  -3.95159
  -0.34159   0.17076  -3.96569
  -0.29439   0.21006  -3.92189
  -0.26349   0.10346  -3.88549
  -0.32919   0.09506  -3.77979
  -0.16479   0.08266  -3.57819
   0.01381   0.12046  -3.54359
   0.01471   0.14736  -3.12159
   0.01011   0.21446  -2.85059
   0.26161   0.14696  -2.49519
   0.34161   0.31156  -1.98929
   0.31101   0.37276  -1.67459
   0.55971   0.47496  -1.32919
   0.53681   0.60496  -0.77019
   0.61561   0.59136  -0.55459
   0.55511   0.60986  -0.26959
   0.61941   0.81026   0.26281
   0.79491   0.80836   0.63171
   0.72921   0.87056   1.07811
   0.67691   0.65636   1.52581
   0.70911   0.94236   2.04951
   0.59761   0.59096   2.31261
   0.62241   0.43526   2.94481
   0.47441   0.39946   3.28781
   0.44211   0.11886   3.57301
   0.28781  -0.15654   4.03461
   0.13331  -0.29334   4.40771
   0.21811  -0.47714   4.58961
  -0.16929  -0.65244   4.63691
  -0.18169  -0.65454   5.00331
  -0.47439  -0.75674   5.06361
  -0.58239  -0.74344   5.29271
  -0.67549  -0.93304   5.35161
  -1.04909  -1.30904   5.35001
  -1.08139  -1.21574   5.40941
  -1.23289  -1.21294   5.62001
  -1.33079  -1.36834   5.48331
  -1.37949  -1.20164   5.33901
  -1.48909  -1.10554   5.12581
  -1.79779  -0.90594   4.94271
  -1.65189  -0.92154   4.91511
  -1.74559  -1.01554   4.80121
  -1.57349  -0.90964   4.69091
  -1.80149  -0.98444   4.37221
  -1.48889  -0.89894   4.19801
  -1.39419  -0.83364   4.13281
  -1.47349  -0.90524   4.08631
  -1.46429  -0.90264   3.91161
  -1.21629  -0.90454   3.78961
  -1.22959  -0.94094   3.65391
  -0.80759  -1.01834   3.61261
  -0.69039  -1.10114   3.29551
  -0.51159  -1.34594   3.16571
  -0.26159  -1.46774   3.17721
  -0.02669  -1.56944   3.24311
  -0.01849  -1.70764   3.16811
   0.22381  -1.67514   2.98501
   0.46041  -1.92294   2.90341
   0.80731  -2.07544   2.87111
   1.03621  -2.31064   2.61981
   0.97731  -2.43224   2.77601
   1.37461  -2.43174   2.48631
   1.48731  -2.80044   2.40731
   1.62081  -2.96014   2.34061
   1.92121  -2.92154   2.18281
   2.08511  -3.04694   1.93521
   2.18751  -3.18224   1.85741
   2.26961  -3.34614   1.53311
   2.30021  -3.14724   1.28361
   2.21391  -3.03194   0.97151
   2.12601  -2.87524   0.88631
   2.04281  -2.52244   0.47271
   2.11041  -2.48344   0.25181
   2.01661  -2.52314   0.03151
   2.14261  -2.41184  -0.27759
   2.02991  -2.26314  -0.46929
   1.93151  -2.01514  -0.54989
   1.92351  -2.00714  -0.87559
   1.80061  -1.83394  -0.83499
   1.84801  -1.68614  -1.22099
   1.41731  -1.47404  -1.49759
   1.35451  -1.39874  -1.63929
