********************************************************************************
              CENTRO DE INSTRUMENTACION Y REGISTRO SISMICO  A.C.

    Anaxagoras 814, Col. Narvarte, Benito Juarez, C.P. 03020 Mexico, D.F.
           Tels. 5687 45 42/ 5687 45  82             Fax. 5669 25 12
********************************************************************************
ARCHIVO ESTANDAR DE ACELERACION:
VERSION DEL FORMATO                    : 2.0
NOMBRE DEL ARCHIVO                     : MI1520220919180509
FECHA Y HORA DE CREACION               : 19/SEP/22, 19:45
REF. CATALOGO ACELEROGRAMAS, SMIS 1996 : REGISTRO No.     /PAG.


================================================================================
DATOS DE LA ESTACION:
NOMBRE DE LA ESTACION                  : MIRAMONTES
CLAVE DE LA ESTACION                   : MI15
LOCALIZACION DE LA ESTACION            : Del. Xochimilco, Glorieta Vaqueritos,  
                                       : Col. San Bartolo Chico, Prol. División 
                                       : del Norte y Periférico Sur.            
                                       :                                        
                                       : 
COORDENADAS DE LA ESTACION             : 19.2834 LAT. N
                                       : 99.1253 LONG. W
ALTITUD (msnm)                         : 2237
TIPO DE SUELO                          : Terreno blando, material compresible
                                       : (arcillas)                
                                       : 
INSTITUCION RESPONSABLE                : CIRES, A. C.
                                       : 

================================================================================
DATOS DEL ACELEROGRAFO:
MODELO DEL ACELEROGRAFO                : RAD_IO14
NUMERO DE SERIE DEL ACELEROGRAFO       : 
NUMERO DE CANALES                      : 3
ORIENTACION C1-C6 (rumbo;orientacion)  : /S00E/+V/N90W
ORIENTACION C7-C12 (rumbo;orientacion) : 
VEL. DE MUESTREO, C1-C6 (muestras/s)   : /100/100/100
VEL. DE MUESTREO, C7-C12 (muestras/s)  : 
ESC. COMPLETA DE SENSORES, C1-C6, (g)  : /2.0/2.0/2.0
ESC. COMPLETA DE SENSORES, C7-C12, (g) : 
FREC. NAT. DE SENSORES, C1-C6, (Hz)    : /51.79/51.79/51.56
FREC. NAT. DE SENSORES, C7-C12, (Hz)   : 
AMORTIGUAMIENTO DE SENSORES, C1-C6     : /0.5783/0.5630/0.5612
AMORTIGUAMIENTO DE SENSORES, C7-C12    : 
INTERVALO DE MUESTREO, C1-C6, (s)      : /0.01/0.01/0.01
INTERVALO DE MUESTREO, C7-C12, (s)     : 
UMBRAL DE DISPARO, C1-C6, (Gal)        : / / /
UMBRAL DE DISPARO, C7-C12, (Gal)       : 
MEMORIA DE PREEVENTO (s)               : 60
TIEMPO DE POSEVENTO (s)                : 90


================================================================================
DATOS DEL SISMO:
FECHA DEL SISMO (GMT)                  : 19/SEP/22
HORA EPICENTRO (GMT)                   : 18:05:09.0
MAGNITUD(ES)                           : /Mc=7.7
COORDENADAS DEL EPICENTRO              : 18.22 LAT. N
                                       : 103.29 LONG. W
PROFUNDIDAD FOCAL (km)                 : 15
FUENTE DE LOS DATOS EPICENTRALES       : SSN
                                       : INSTITUTO DE GEOFISICA, UNAM

================================================================================
DATOS DE ESTE REGISTRO:
HORA DE LA PRIMERA MUESTRA (GMT)       : 18:04:26.920.00
EXACTITUD DEL TIEMPO (s)               : 
DURACION DEL REGISTRO (s), C1-C6       : /548.81/548.81/548.81
DURACION DEL REGISTRO (s), C7-C12      : 
NUM. TOTAL DE MUESTRAS, C1-C6          : /54881/54881/54881
NUM. TOTAL DE MUESTRAS, C7-C12         : 
ACEL. MAX. (Gal), C1-C6                : /25.38901/5.30341/18.56057
ACEL. MAX., C1-C6, EN LA MUESTRA       : /20040/18697/18944
ACEL. MAX. (Gal), C7-C12               : 
ACEL. MAX., C7-C12, EN LA MUESTRA      : 
UNIDADES DE LOS DATOS                  : Gal (cm/s/s)
FACTOR DE DECIMACION                   : 1
FORMATO DATOS (FORTRAN,10 campos/dato) : 3F10.5


================================================================================
CALIDAD DEL ACELEROGRAMA:
REGISTRO DIGITAL COMPLETO CON TIEMPO ABSOLUTO CORRECTO.


================================================================================
COMENTARIOS:














================================================================================
DATOS DE ACELERACION:
---------+---------+---------+---------+---------+---------+---------+---------+
   CANAL-1   CANAL-2   CANAL-3   CANAL-4   CANAL-5   CANAL-6   CANAL-7   CANAL-8
      N00E        +V      N90W
---------+---------+---------+---------+---------+---------+---------+---------+
[...]
  -0.80031  -1.20331 -11.35217
  -0.50101  -1.10681 -10.72657
  -0.41941  -0.89281 -10.22717
  -0.25931  -0.83161  -9.89257
  -0.00981  -0.80751  -9.33417
   0.16699  -0.50911  -8.69547
   0.24759  -0.62301  -8.02627
   0.28929  -0.50051  -7.29497
   0.42599  -0.40111  -6.45437
   0.51039  -0.55941  -5.62737
   0.59579  -0.44111  -4.91377
   0.62989  -0.46351  -4.09177
   0.72789  -0.48041  -3.19177
   0.53239  -0.36861  -2.44577
   0.49029  -0.23821  -1.51817
   0.36779  -0.27861  -0.57547
   0.36449  -0.56991   0.32233
   0.22449  -0.76331   1.29243
   0.15579  -0.83511   2.16943
   0.13189  -0.95761   2.97843
  -0.09491  -1.01111   4.01023
  -0.14841  -1.13201   4.79043
  -0.27401  -1.01001   5.74153
  -0.47951  -1.19471   6.64503
  -0.82271  -1.17341   7.24613
  -0.80661  -1.14771   8.12123
  -0.82461  -1.14721   8.97023
  -0.85591  -1.19001   9.69293
  -1.17651  -1.00341  10.48993
  -1.25671  -0.86781  11.29353
  -1.09611  -0.78361  11.80393
  -1.24941  -0.61201  12.53533
  -1.12251  -0.63681  13.08693
  -0.87041  -0.20731  13.79723
  -0.71281   0.00619  14.25053
  -0.45941   0.31689  14.67933
  -0.20061   0.44689  15.18883
   0.09359   0.61729  15.64543
   0.54269   0.88969  16.16823
   0.88099   1.06739  16.60363
   1.24999   1.06559  17.02093
   1.68719   1.35549  17.26203
   2.29879   1.57179  17.66693
   2.80739   1.80089  18.04803
   3.42159   1.89249  17.99873
   3.99399   1.85609  18.24683
   4.31029   1.81349  18.36063
   4.90579   1.78269  18.34453
   5.30139   1.94259  18.41353
   5.68739   2.00729  18.49813
   6.04889   2.05919  18.30713
   6.34559   2.02769  18.33193
   6.85839   1.91729  18.27063
   7.05339   1.94819  18.34873
   7.36759   1.81959  18.16713
   7.59859   2.05709  17.99923
   7.89969   1.92709  17.62233
   8.14849   2.15139  17.69693
   8.25049   2.24699  17.42683
   8.44029   2.43919  17.30433
   8.66239   2.55799  17.17203
   8.92729   2.62179  16.82973
   9.06669   2.69239  16.70793
   9.16819   2.89349  16.32933
   9.05009   3.01619  15.93893
   9.34089   3.27269  15.42523
   9.32249   3.55469  15.03963
   9.29699   3.75949  14.41893
   9.45989   3.95589  13.82853
   9.45969   3.94659  13.25173
   9.48239   4.14649  12.61743
   9.42459   4.26479  11.95123
   9.23989   4.39729  11.17483
   9.13939   4.31319  10.33193
   8.84479   4.39569   9.34643
   8.89739   4.37159   8.26923
   8.65839   4.26849   7.29243
   8.58219   4.23829   6.22993
   8.47329   4.02509   5.19003
   8.21349   3.87239   4.01723
   8.15319   3.83289   2.44653
   7.76809   3.66709   1.53533
   7.51279   3.31199   0.06533
   7.07069   3.12069  -1.04897
   6.92029   2.80979  -2.03217
   6.45709   2.63609  -3.35127
   6.11389   2.57879  -4.26317
   5.87709   2.35569  -5.43057
   5.41409   2.34659  -6.22827
   4.84709   2.13429  -7.10577
   4.29179   1.92639  -8.14317
   3.79149   1.83809  -8.91007
   3.12909   1.56099  -9.86517
   2.43119   1.47919 -10.40787
   1.94349   1.41669 -10.96197
   1.44099   1.30379 -11.68517
   0.85929   1.30169 -12.27767
   0.33439   1.27509 -12.90677
  -0.17271   1.04099 -13.24187
  -0.51531   1.02209 -13.79997
  -1.04301   1.09129 -14.29137
  -1.45751   1.13339 -14.73307
  -1.74391   1.34799 -15.18857
  -2.08481   1.41019 -15.60567
  -2.15101   1.50819 -15.93187
  -2.23451   1.54859 -16.24767
  -2.26461   1.53359 -16.50437
  -2.17371   1.54159 -16.97527
  -2.13461   1.50859 -17.34197
  -1.91721   1.61269 -17.46557
  -1.67711   1.64559 -17.51517
  -1.56461   1.70249 -17.72797
  -1.26841   1.73379 -17.74757
  -0.97521   1.53039 -17.67017
  -0.81131   1.31219 -17.87527
  -0.54151   1.30569 -17.74337
  -0.38181   1.14219 -17.54787
  -0.09681   0.75059 -17.56377
  -0.02151   0.50229 -17.42357
   0.32989   0.30289 -17.09827
   0.55369   0.08259 -16.67437
   0.76199  -0.00901 -16.32387
   0.67009  -0.20471 -16.00317
   0.88169  -0.58611 -15.61687
   0.85299  -1.01491 -15.10067
   0.76199  -1.34551 -14.65917
   0.89039  -1.55611 -14.03397
   1.02999  -1.64481 -13.40017
   1.01099  -1.74741 -13.10067
   0.98319  -1.95201 -12.58507
   0.97009  -2.18561 -11.92157
   0.95889  -2.24941 -11.40997
   0.99839  -2.53251 -10.68867
   0.99369  -2.86641 -10.06697
   0.85719  -3.11401  -9.18227
   0.87989  -3.15771  -8.65847
   0.87099  -3.11241  -8.25097
   0.67689  -3.43901  -7.50817
   0.73999  -3.51781  -6.85047
   0.86189  -3.91851  -6.17267
   0.79149  -4.03011  -5.60447
   0.84129  -4.20661  -5.03187
   0.94229  -4.47971  -4.50157
   0.87359  -4.67191  -3.82007
   0.67649  -4.82851  -3.24887
   0.44939  -5.10611  -2.54717
   0.16909  -5.29121  -1.97667
  -0.14161  -5.06331  -1.10627
  -0.33061  -5.16081  -0.30147
  -0.51221  -5.23021   0.26243
  -0.82021  -5.16661   0.91573
  -0.94951  -5.07451   1.62373
  -1.45261  -5.00251   2.41163
  -1.82091  -4.85941   3.24753
  -2.25151  -4.66981   3.87273
  -2.68361  -4.53791   4.67933
  -3.08901  -4.09971   5.37143
  -3.57191  -4.03451   6.18653
  -4.07451  -3.61951   6.86873
  -4.51621  -3.35691   7.51783
  -4.87281  -3.21591   8.33823
  -5.22421  -3.03191   8.86013
  -5.60081  -2.64101   9.41093
  -5.89121  -2.40721  10.01093
  -6.16711  -1.96131  10.49023
  -6.19521  -1.60481  10.94703
  -6.39651  -1.26181  11.34473
  -6.69861  -0.88911  11.83363
  -6.71351  -0.55781  12.49933
  -6.76221  -0.29991  12.84233
  -6.73761  -0.24281  13.17853
  -6.64781  -0.05841  13.39313
  -6.59851   0.10689  13.59873
  -6.40421   0.22639  13.94683
  -6.24521   0.53929  14.04173
  -6.06291   0.59489  14.16453
  -5.93361   0.72259  14.09853
  -5.91201   0.84299  14.20353
  -5.78531   0.91779  14.13503
  -5.58351   1.01599  14.03683
  -5.43041   0.89789  14.02723
  -5.09631   0.98959  13.99293
  -5.02521   1.07959  13.92743
  -4.63711   0.89889  13.70833
  -4.61771   0.72929  13.67423
  -4.42971   0.73309  13.33563
  -4.17551   0.75759  13.03123
  -4.12671   0.84549  12.75373
  -4.05491   0.97089  12.56923
  -4.00631   0.97809  12.28933
  -4.14661   1.17189  11.90733
  -4.31001   1.39479  11.63073
  -4.60061   1.55139  11.35973
  -4.61811   1.68749  10.89353
  -4.84991   1.94579  10.74973
  -5.15731   2.18759  10.26173
  -5.12901   2.19109   9.82833
  -5.50971   2.59279   9.28073
  -5.65391   2.82939   8.78173
  -5.92021   2.78429   8.46983
  -6.20731   3.03769   7.93493
  -6.32071   3.27509   7.48713
  -6.40161   3.43329   7.09013
  -6.45891   3.49999   6.67183
  -6.62471   3.42259   6.02193
  -6.53961   3.27219   5.31363
  -6.66581   3.16029   4.83463
  -6.83371   3.13639   4.22203
  -6.90461   2.86939   3.76443
  -6.74391   2.77379   3.31953
  -6.71701   2.71249   2.72403
  -6.64061   2.65869   2.25363
  -6.43671   2.21729   1.83763
  -6.34111   1.99959   1.32143
  -6.17091   1.76109   0.86123
  -6.35421   1.55069   0.48083
  -6.14801   1.46859   0.11823
  -5.97541   1.11909  -0.39057
  -5.81011   0.98889  -1.03117
  -5.44261   0.85299  -1.35267
  -5.48211   0.63249  -1.97927
  -5.31371   0.67389  -2.35147
  -5.05161   0.93369  -2.89277
  -4.70791   0.83709  -3.46797
  -4.44961   0.96079  -3.94187
  -4.12831   0.79499  -4.30337
  -3.90481   0.94229  -4.76627
  -3.75521   0.86609  -5.20697
  -3.43881   0.97319  -5.73047
  -3.03291   1.06739  -6.10417
  -2.46731   1.11139  -6.42307
  -2.00671   1.18459  -6.73937
  -1.51291   1.33349  -7.01487
  -1.18401   1.39099  -7.37627
  -0.52301   1.54279  -7.72797
  -0.03131   1.75999  -7.84277
   0.57589   1.76419  -7.71927
   1.33839   1.84649  -7.84627
   1.97809   1.81729  -7.93507
   2.62739   1.98539  -7.90237
   3.24969   1.76039  -8.04687
   4.02249   1.79249  -7.92717
   4.76669   1.76139  -7.82637
   5.67529   1.71999  -7.66877
   6.37969   1.45929  -7.70077
   7.31709   1.22639  -7.47757
   8.01449   1.09639  -7.33517
   9.02969   0.88369  -6.89647
   9.99579   0.76509  -6.63137
  10.78979   0.56329  -6.25047
  11.57259   0.51819  -6.03917
  12.29999   0.35949  -5.72587
  13.29179   0.27269  -5.41747
  13.92549   0.19489  -5.05927
  14.71899   0.15249  -4.63327
  15.52609   0.02459  -4.14767
  16.17769  -0.21341  -3.85957
  16.76059  -0.23091  -3.58137
  17.40639  -0.49721  -3.12727
  17.81809  -0.40511  -2.60187
  18.25629  -0.33031  -2.23787
  18.67129  -0.34871  -1.93437
  18.97669  -0.27421  -1.64007
  19.10529  -0.47221  -1.11797
  19.38979  -0.52111  -0.61197
  19.35799  -0.38831  -0.16327
  19.28899  -0.45821   0.46093
  19.35169  -0.23391   0.95833
  19.49709  -0.12201   1.27743
  19.59269  -0.21951   1.95993
  19.48569  -0.04151   2.67373
  19.39469  -0.00061   3.37373
  19.34799   0.16449   3.83903
  19.07929   0.21519   4.27653
  19.05309   0.43379   4.80093
  18.91239   0.49509   5.44433
  18.62709   0.34009   5.83153
  18.59059   0.31129   6.01953
  18.46349   0.44709   6.37563
  18.27729   0.66829   6.63983
  18.00209   0.60939   6.78063
  17.53199   0.55819   6.94283
  17.06109   0.28279   7.03033
  16.56659   0.39869   6.87763
  16.29599   0.25139   6.70433
  15.91419   0.35449   6.55803
  15.44119   0.37509   6.62843
  14.85229   0.41459   6.39243
  14.18429   0.46749   6.02003
  13.58249   0.29119   5.41563
  12.65419   0.35879   4.96203
  11.83679   0.20019   4.37443
  10.91699   0.30219   3.82413
   9.93739   0.36689   3.41113
   9.03789   0.48289   2.81613
   8.17909   0.43309   2.29663
   7.24579   0.57339   1.76053
   6.22919   0.74379   1.09043
   4.88639   0.78219   0.51523
   3.79619   0.58769  -0.10277
   2.59529   0.57039  -0.81957
   1.37439   0.65219  -1.37367
  -0.06871   0.48429  -1.69547
  -1.15401   0.28669  -2.24137
  -2.24621   0.45739  -2.71957
  -3.40231   0.65829  -3.18477
  -4.54291   0.81369  -3.56637
  -5.61791   0.97129  -3.83507
  -6.78651   0.89179  -3.96527
  -8.15121   0.71109  -4.23227
  -9.24101   0.73329  -4.49317
 -10.63191   0.95309  -4.72837
 -11.74301   1.06699  -5.01177
 -12.91461   1.20049  -4.81627
 -13.76241   1.10089  -5.02417
 -14.79191   1.12049  -5.04007
 -15.70631   0.82289  -4.84387
 -16.78951   0.91329  -4.77097
 -18.08201   0.60069  -4.61357
 -18.66681   0.50209  -4.41537
 -19.43671   0.41599  -4.21937
 -19.95551   0.31709  -4.14877
 -20.60321   0.30899  -4.03777
 -21.37271   0.07579  -3.87847
 -22.15501  -0.41371  -3.65777
 -22.58051  -1.02801  -3.48597
 -23.21831  -0.73661  -3.18247
 -23.50781  -0.50751  -3.15767
 -23.76501  -0.23111  -3.22037
 -24.13461  -0.11421  -3.04637
 -24.41431  -0.83901  -2.98767
 -24.59241  -1.11101  -2.68887
 -25.15711  -1.35131  -2.41677
 -25.38901  -1.17151  -2.27877
 -25.29761  -0.76381  -2.40697
 -25.21951  -0.56551  -2.35357
 -25.21861  -0.42801  -2.02507
 -25.11941  -0.53211  -1.80257
 -24.91771  -0.55331  -1.59397
 -24.95411  -0.71161  -1.26597
 -25.14911  -1.03991  -1.08827
 -24.89941  -1.00721  -1.06177
 -24.68201  -0.36071  -0.84207
 -24.09181   0.14949  -0.58017
 -23.69811   0.42119  -0.46467
 -23.25831   0.11139  -0.47167
 -22.69791  -0.26791  -0.33117
 -21.97751  -0.45771  -0.15467
 -21.23101  -0.42591  -0.00737
 -20.74161  -0.41071   0.05933
 -20.22701  -0.20151  -0.12637
 -19.58821  -0.59351  -0.13287
 -18.75031  -1.11421  -0.26827
 -17.91631  -1.36021  -0.45887
 -16.75701  -1.31131  -0.70997
 -15.82201  -1.19541  -1.00617
 -14.98941  -1.20781  -1.08567
 -14.27611  -1.42101  -1.24347
 -13.36941  -1.77311  -1.48527
 -12.62001  -2.17081  -1.67907
 -11.54661  -2.70251  -2.08967
 -10.61231  -3.32301  -2.61967
  -9.81741  -3.61231  -3.03517
  -8.86411  -3.24801  -3.35687
  -7.86251  -3.00791  -3.46867
  -6.65511  -2.75441  -3.79317
  -5.54381  -2.83131  -4.18267
  -4.58731  -3.20751  -4.49017
  -3.80731  -3.76001  -4.63537
  -3.07591  -4.20711  -4.86007
  -2.36941  -4.17481  -5.00597
  -1.64391  -3.51411  -5.32857
  -0.70281  -2.92441  -5.69447
   0.26349  -2.68051  -6.09577
   1.45359  -2.49111  -6.43237
   2.66379  -2.41301  -6.23317
   3.71549  -2.39501  -6.21007
   4.63789  -2.60781  -5.96357
   5.40549  -2.50211  -5.77467
   6.17449  -2.22791  -5.90537
   6.99509  -2.08881  -5.86117
   8.10029  -1.92511  -5.91827
   9.09429  -1.64501  -5.89577
  10.12749  -1.40671  -5.97277
  11.19879  -1.01041  -6.01017
  12.03749  -0.73411  -5.88527
  12.89719  -0.81781  -5.53197
  13.64249  -0.63771  -5.31757
  14.26679  -0.70811  -5.15277
  14.87589  -0.70741  -4.68187
  15.28759  -0.58891  -4.39247
  15.71689  -0.12831  -4.19697
  16.00709   0.42939  -3.94347
  16.58359   0.68489  -3.95617
  17.01659   0.77189  -3.74357
  17.25929   0.79599  -3.38187
  17.65629   0.93139  -2.79267
  17.66059   0.86309  -2.29307
  17.48149   1.09619  -1.54677
  17.33719   1.09949  -1.00687
  17.29979   0.95989  -0.71157
  17.13609   1.33049  -0.12987
  17.01759   1.77029   0.38823
  16.98879   2.07979   1.03683
  16.92149   2.27619   1.50843
  16.81069   2.47259   2.14693
  17.00349   2.53669   2.77123
  17.07739   2.51309   3.38433
  16.63409   2.28739   4.22743
  16.01429   2.51069   5.09673
  15.50369   2.77589   5.90893
  15.01269   3.24159   6.49163
  14.69769   3.25749   6.96343
  14.60539   3.25679   7.43783
  14.72299   3.07299   8.00273
  14.74449   3.07609   8.78783
  14.45199   3.21729   9.41893
  13.81389   3.11419  10.08643
  13.21469   2.93529  10.76723
  12.61589   2.71909  11.00953
  12.12929   2.80109  11.33823
  11.85949   2.73499  11.41723
  11.76439   2.93439  11.60193
  11.28439   2.91849  11.73943
  10.74189   2.71199  11.75043
   9.78049   2.62579  11.71633
   9.03859   2.54949  11.85003
   8.28999   2.40389  11.82083
   7.46019   2.24489  11.61183
   6.64539   2.21679  11.57113
   5.90859   2.23479  11.26953
   5.12609   2.28299  10.93913
   3.99089   2.30799  10.70363
   3.16669   2.60359  10.38103
   2.52419   2.83079  10.03003
   1.65769   2.56119   9.60333
   0.72059   2.57739   9.44363
  -0.45891   2.91829   9.19443
  -1.13441   3.03699   8.49233
  -1.87671   2.79599   7.96673
  -2.84871   2.73779   7.42033
  -3.31651   2.84839   6.90193
  -3.85521   3.27969   6.05393
  -4.37711   3.54789   5.52483
  -5.00811   3.75549   4.73103
  -5.55481   3.92109   4.10353
  -6.05841   3.83319   3.44223
  -6.56131   3.77609   2.77543
  -6.97241   3.88999   2.30803
  -7.48211   4.00989   1.54043
  -7.83471   3.81749   0.74743
  -8.04811   3.62339  -0.01977
  -8.49421   3.65409  -0.76867
  -8.45711   4.05429  -1.51637
  -8.52911   4.36179  -2.08797
  -8.57351   4.34519  -2.70967
  -8.62191   4.07579  -3.28717
  -8.81061   3.92829  -3.73687
  -8.94081   3.60679  -4.24187
  -9.21231   3.35739  -5.00877
  -9.40401   2.98839  -5.56237
  -9.41571   3.26059  -5.95967
  -9.48141   3.28949  -6.28817
  -9.62871   3.11279  -6.54647
  -9.52071   3.13869  -6.96037
  -9.38711   3.14619  -7.42447
  -9.23871   3.13939  -7.65317
  -9.01981   2.84179  -7.85487
  -9.19801   2.33979  -7.97207
  -9.23841   2.14269  -8.03427
  -9.08251   1.83689  -8.00947
  -8.92091   1.78759  -7.85347
  -8.78671   2.09759  -7.78807
  -8.76571   2.20489  -7.63907
  -8.45751   2.09569  -7.48357
  -8.08021   1.81839  -7.42137
  -7.81431   1.34189  -7.09647
