********************************************************************************
              CENTRO DE INSTRUMENTACION Y REGISTRO SISMICO  A.C.

    Anaxagoras 814, Col. Narvarte, Benito Juarez, C.P. 03020 Mexico, D.F.
           Tels. 5687 45 42/ 5687 45  82             Fax. 5669 25 12
********************************************************************************
ARCHIVO ESTANDAR DE ACELERACION:
VERSION DEL FORMATO                    : 2.0
NOMBRE DEL ARCHIVO                     : MT5020220919180509
FECHA Y HORA DE CREACION               : 19/SEP/22, 19:45
REF. CATALOGO ACELEROGRAMAS, SMIS 1996 : REGISTRO No.     /PAG.


================================================================================
DATOS DE LA ESTACION:
NOMBRE DE LA ESTACION                  : MARISCAL TITO
CLAVE DE LA ESTACION                   : MT50
LOCALIZACION DE LA ESTACION            : Del. Miguel Hidalgo, Col. Bosque       
                                       : de Chapultepec, Av. Paseo de la        
                                       : Reforma, entre Rubén Darío             
                                       : y Gandhi.                              
                                       : 
COORDENADAS DE LA ESTACION             : 19.4253 LAT. N
                                       : 99.1900 LONG. W
ALTITUD (msnm)                         : 2234
TIPO DE SUELO                          : Arenoso, limoso, compacto           
                                       :                           
                                       : 
INSTITUCION RESPONSABLE                : CIRES, A. C.
                                       : 

================================================================================
DATOS DEL ACELEROGRAFO:
MODELO DEL ACELEROGRAFO                : RAD_IO14
NUMERO DE SERIE DEL ACELEROGRAFO       : 
NUMERO DE CANALES                      : 3
ORIENTACION C1-C6 (rumbo;orientacion)  : /N00E/+V/N90W
ORIENTACION C7-C12 (rumbo;orientacion) : 
VEL. DE MUESTREO, C1-C6 (muestras/s)   : /100/100/100
VEL. DE MUESTREO, C7-C12 (muestras/s)  : 
ESC. COMPLETA DE SENSORES, C1-C6, (g)  : /2.0/2.0/2.0
ESC. COMPLETA DE SENSORES, C7-C12, (g) : 
FREC. NAT. DE SENSORES, C1-C6, (Hz)    : /30/30/30
FREC. NAT. DE SENSORES, C7-C12, (Hz)   : 
AMORTIGUAMIENTO DE SENSORES, C1-C6     : /0.790/0.667/0.733
AMORTIGUAMIENTO DE SENSORES, C7-C12    : 
INTERVALO DE MUESTREO, C1-C6, (s)      : /0.01/0.01/0.01
INTERVALO DE MUESTREO, C7-C12, (s)     : 
UMBRAL DE DISPARO, C1-C6, (Gal)        : / / /
UMBRAL DE DISPARO, C7-C12, (Gal)       : 
MEMORIA DE PREEVENTO (s)               : 60
TIEMPO DE POSEVENTO (s)                : 90


================================================================================
DATOS DEL SISMO:
FECHA DEL SISMO (GMT)                  : 19/SEP/22
HORA EPICENTRO (GMT)                   : 18:05:09.0
MAGNITUD(ES)                           : /Mc=7.7
COORDENADAS DEL EPICENTRO              : 18.22 LAT. N
                                       : 103.29 LONG. W
PROFUNDIDAD FOCAL (km)                 : 15
FUENTE DE LOS DATOS EPICENTRALES       : SSN
                                       : INSTITUTO DE GEOFISICA, UNAM

================================================================================
DATOS DE ESTE REGISTRO:
HORA DE LA PRIMERA MUESTRA (GMT)       : 18:04:26.872.00
EXACTITUD DEL TIEMPO (s)               : 
DURACION DEL REGISTRO (s), C1-C6       : /599.81/599.81/599.81
DURACION DEL REGISTRO (s), C7-C12      : 
NUM. TOTAL DE MUESTRAS, C1-C6          : /59981/59981/59981
NUM. TOTAL DE MUESTRAS, C7-C12         : 
ACEL. MAX. (Gal), C1-C6                : /8.10369/3.9596/8.21596
ACEL. MAX., C1-C6, EN LA MUESTRA       : /20140/19083/18376
ACEL. MAX. (Gal), C7-C12               : 
ACEL. MAX., C7-C12, EN LA MUESTRA      : 
UNIDADES DE LOS DATOS                  : Gal (cm/s/s)
FACTOR DE DECIMACION                   : 1
FORMATO DATOS (FORTRAN,10 campos/dato) : 3F10.5


================================================================================
CALIDAD DEL ACELEROGRAMA:
REGISTRO DIGITAL COMPLETO CON TIEMPO ABSOLUTO CORRECTO.


================================================================================
COMENTARIOS:














================================================================================
DATOS DE ACELERACION:
---------+---------+---------+---------+---------+---------+---------+---------+
   CANAL-1   CANAL-2   CANAL-3   CANAL-4   CANAL-5   CANAL-6   CANAL-7   CANAL-8
      N00E        +V      N90W
---------+---------+---------+---------+---------+---------+---------+---------+
[...]
   1.95759  -0.61070   3.01936
   1.61289  -0.56960   3.35626
   1.31879  -0.54570   3.60416
   0.94029  -0.47960   3.57536
   0.63259  -0.25720   3.85896
   0.25989  -0.08230   3.91606
  -0.04971   0.07640   4.17766
  -0.12541   0.00750   4.16226
  -0.33071  -0.04160   4.09346
  -0.42801  -0.04860   4.06286
  -0.43551   0.15200   3.95416
  -0.59891   0.50920   3.99556
  -0.51401   0.31330   4.02056
  -0.52311   0.15660   3.90976
  -0.44931   0.34560   3.75916
  -0.47961   0.37850   3.46036
  -0.35291   0.31770   3.14446
  -0.20681   0.42950   2.85146
  -0.46351   0.44750   2.55826
  -0.40321   0.26860   2.27286
  -0.41211   0.25390   2.06476
  -0.45231   0.07550   1.71196
  -0.59961   0.04750   1.42036
  -0.60291  -0.08230   1.25056
  -0.62181  -0.27850   0.82836
  -0.90331  -0.22870   0.60016
  -0.90031  -0.21860   0.52556
  -1.12921  -0.15220   0.37876
  -1.55521  -0.18610   0.02666
  -1.61431  -0.12930  -0.12304
  -1.85001   0.04770  -0.04094
  -2.11581  -0.20020  -0.04424
  -2.21611  -0.14240  -0.08934
  -2.69661   0.07390  -0.20744
  -2.90891   0.17110   0.16386
  -2.99331   0.18940   0.14496
  -3.08971   0.23730   0.10726
  -3.32981   0.12340   0.38786
  -3.45881   0.17930   0.64336
  -3.54391   0.21440   0.66706
  -3.61101   0.31800   0.98216
  -3.56051   0.27630   1.24456
  -3.50091   0.02920   1.46406
  -3.32651   0.01140   1.51386
  -3.23041  -0.17400   1.64556
  -3.16871  -0.16370   1.73996
  -3.15911  -0.18140   1.70956
  -2.92081  -0.11830   1.96956
  -2.58041  -0.21300   2.15806
  -2.43661  -0.38770   1.91226
  -2.24471  -0.35490   1.70906
  -1.75511  -0.26660   1.98946
  -1.57081  -0.40290   1.76266
  -1.01231  -0.14920   1.93126
  -0.85441  -0.37390   1.73576
  -0.60961  -0.05400   1.50946
  -0.05461   0.05350   1.46996
   0.13289   0.14470   1.02686
   0.40089   0.11030   1.03786
   0.64729   0.08910   1.01726
   0.84249  -0.01260   0.80336
   1.19819  -0.10850   0.61626
   1.30709  -0.11040   0.40796
   1.54839  -0.36050   0.03716
   1.43569  -0.35400  -0.00234
   1.71489  -0.37390  -0.06714
   1.91009  -0.34490  -0.16764
   1.72069  -0.67810  -0.10384
   1.84209  -0.74280   0.08596
   1.87879  -0.80240   0.11176
   1.64189  -1.01190  -0.09474
   1.68239  -0.65720   0.17346
   1.50209  -0.67570   0.53776
   1.07099  -0.41760   0.73926
   0.82799  -0.33830   1.03926
   0.90029  -0.54500   1.21016
   0.59589  -0.66190   1.19216
   0.23349  -0.58170   1.62636
  -0.10201  -0.28570   1.88726
  -0.28771  -0.08440   1.93516
  -0.56621   0.01680   2.39606
  -0.73591   0.21180   2.39836
  -0.74131   0.07810   2.60976
  -1.04411  -0.10660   2.54946
  -1.17361   0.02310   2.67376
  -1.41651   0.01260   2.81506
  -1.75601   0.08090   3.03036
  -1.68101   0.04110   3.03176
  -1.75041  -0.11570   3.05866
  -1.85981  -0.20550   3.02406
  -1.98611  -0.42270   3.11846
  -2.01621  -0.43090   3.08106
  -2.08991  -0.60600   3.06706
  -2.15491  -0.50810   2.95416
  -2.10511  -0.80450   2.93616
  -2.10651  -0.72370   2.88446
  -2.05971  -0.60720   2.79776
  -2.04291  -0.86020   2.84356
  -2.13991  -1.04280   2.67826
  -1.99311  -1.04930   2.59926
  -1.78661  -0.89200   2.26086
  -1.49181  -0.88780   2.03436
  -1.31551  -0.84830   1.77626
  -0.84371  -0.71150   1.48676
  -0.68421  -0.61420   1.30396
  -0.44011  -0.46970   1.01026
  -0.22951  -0.37150   0.74276
   0.13319  -0.57960   0.47506
   0.57479  -0.54760   0.13746
   0.89229  -0.37320  -0.01714
   1.22149  -0.39190  -0.22914
   1.68749  -0.40470  -0.48374
   2.05899  -0.41570  -0.49474
   2.28889  -0.39440  -0.59924
   2.46909  -0.61540  -0.71454
   2.63749  -0.34040  -0.85134
   3.10179  -0.15130  -0.84924
   3.23859  -0.10100  -0.92474
   3.30239  -0.05360  -1.03974
   3.30739   0.22680  -1.04844
   3.50699   0.38930  -1.18804
   3.34129   0.50200  -1.23454
   2.91269   0.36330  -1.44944
   2.57649   0.58540  -1.48984
   2.53389   0.60860  -1.48844
   2.17549   0.52070  -1.47494
   1.86169   0.59620  -1.68464
   1.45699   0.88310  -1.82044
   1.03169   1.06170  -1.76574
   0.48409   1.20410  -2.02344
  -0.16281   1.45220  -2.04424
  -0.60191   1.30840  -2.07694
  -1.10601   1.41170  -2.12024
  -1.71911   1.61280  -2.00094
  -2.05361   1.64340  -1.93084
  -2.54251   1.76290  -1.93714
  -3.09341   2.01350  -1.97104
  -3.36551   2.14030  -2.04234
  -3.74671   2.24010  -1.84544
  -4.06771   2.22440  -1.88264
  -4.00901   2.34110  -1.52094
  -4.14481   2.58260  -1.47354
  -4.23581   2.80170  -1.39024
  -4.32791   2.70540  -1.14684
  -4.28911   2.70090  -1.08024
  -4.06811   2.57120  -0.79424
  -4.07421   2.60980  -0.62014
  -3.99121   2.60930  -0.56534
  -3.68031   2.48960  -0.42084
  -3.16611   2.46850  -0.30654
  -2.83851   2.49750  -0.20154
  -2.28091   2.56300  -0.07134
  -1.93791   2.59460  -0.17394
  -1.40651   2.38440  -0.06994
  -1.08241   2.29460  -0.07064
  -0.65381   2.22560  -0.13144
  -0.12191   2.26190  -0.07204
   0.31179   2.13580  -0.18964
   0.55289   2.23590  -0.24854
   0.83739   2.18940  -0.54734
   1.25829   2.08160  -0.65584
   1.57859   2.03670  -0.76504
   1.94329   2.04140  -0.91794
   2.36629   2.09610  -1.15154
   2.54979   2.10120  -1.12344
   2.87409   2.16600  -1.75964
   2.88559   1.92210  -1.91404
   3.16099   1.79660  -2.17754
   3.39899   1.62450  -2.45714
   3.61709   1.42930  -2.70684
   3.55569   1.51830  -2.99204
   3.48249   1.30740  -3.45624
   3.48599   1.15360  -3.73354
   3.38169   0.90580  -3.87704
   3.31549   0.49920  -4.28874
   3.11469   0.33950  -4.53054
   3.46169   0.22940  -4.92894
   3.07959   0.06640  -4.92664
   3.01319   0.08670  -5.29814
   2.84999   0.18030  -5.51834
   2.50259  -0.03200  -5.58504
   2.26149  -0.34180  -5.74024
   2.15019  -0.50250  -5.82814
   1.85749  -0.60700  -5.82214
   1.57739  -0.46250  -6.15294
   1.16149  -0.70470  -6.14004
   0.83669  -0.65770  -6.03094
   0.68569  -0.63570  -6.03534
   0.20449  -0.68600  -5.95934
  -0.08101  -0.76150  -5.80244
  -0.36341  -0.77040  -5.48424
  -0.68751  -0.47210  -5.17464
  -1.00671  -0.58170  -5.16554
  -1.38851  -0.70680  -4.67524
  -1.61251  -0.70540  -4.42514
  -1.66971  -0.95700  -4.21444
  -1.79691  -0.96730  -3.84804
  -1.90731  -0.82750  -3.54484
  -1.94101  -0.59040  -3.16064
  -1.99891  -0.37220  -2.78634
  -1.92901  -0.38930  -2.44404
  -1.88111  -0.30370  -2.01594
  -1.75981  -0.49120  -1.63344
  -1.61781  -0.50430  -1.39054
  -1.50931  -0.49380  -0.94064
  -1.30271  -0.51650  -0.66614
  -1.07701  -0.58220  -0.48284
  -0.76161  -0.61660  -0.21234
  -0.72491  -0.58850  -0.05424
  -0.62161  -0.44660   0.26886
  -0.30361  -0.25440   0.51316
   0.17669  -0.23940   0.59756
   0.33679  -0.19520   0.74816
   0.59799  -0.25180   0.90596
   0.80959  -0.27260   0.96836
   0.96179  -0.29180   1.08086
   1.16309  -0.39440   1.08206
   1.24419  -0.32850   1.02686
   1.42169  -0.20180   1.15006
   1.26669  -0.26800   1.18186
   1.38989  -0.44100   1.14376
   1.41019  -0.38980   1.01656
   1.52599  -0.48170   1.10706
   1.45979  -0.46040   0.94406
   1.32509  -0.43420   0.94666
   1.14319  -0.71200   0.94386
   0.92809  -0.65140   0.93126
   0.63419  -0.90180   1.03716
   0.44319  -0.97550   0.90526
   0.20799  -1.09820   1.02546
  -0.22041  -1.32310   0.77806
  -0.32491  -1.11270   0.74446
  -0.62061  -1.08420   0.77786
  -1.04501  -1.13840   0.72216
  -1.15651  -1.03860   0.55826
  -1.43831  -1.17490   0.41126
  -1.45951  -1.25810   0.55126
  -1.80391  -1.30300   0.26646
  -1.79011  -1.19520   0.23216
  -1.95191  -1.11500   0.08386
  -1.91921  -1.10550  -0.00934
  -1.90851  -1.16880  -0.21304
  -1.69621  -0.72760  -0.44284
  -1.67351  -0.74380  -0.54274
  -1.54111  -0.45450  -0.64394
  -1.36791  -0.58290  -0.70984
  -1.31951  -0.43140  -0.68484
  -1.13641  -0.44070  -0.88614
  -1.04061  -0.44990  -0.70964
  -0.82261  -0.36380  -0.81204
  -0.51261  -0.26140  -0.89034
  -0.31741   0.03480  -0.85154
  -0.24001   0.29220  -0.95394
  -0.22221   0.51600  -0.67454
  -0.04081   0.48120  -0.57614
   0.09369   0.38230  -0.51374
  -0.07941   0.40750  -0.38654
  -0.01061   0.36050  -0.22614
  -0.16681   0.43460   0.02526
  -0.11091   0.48700   0.14796
  -0.20911   0.51090   0.29476
  -0.25751   0.62610   0.28916
  -0.42961   0.54850   0.46246
  -0.45301   0.62750   0.77296
  -0.83251   0.53770   1.09486
  -0.97461   0.25690   1.44516
  -1.16421   0.34810   1.46076
  -1.48341  -0.04770   1.84236
  -1.52621  -0.26960   2.06826
  -1.62511  -0.43790   2.41596
  -1.66341  -0.51300   2.59036
  -2.10421  -0.59830   2.91276
  -2.31041  -0.72150   3.09326
  -2.41301  -0.64160   3.46926
  -2.31181  -0.64110   3.73596
  -2.40761  -0.55410   3.99626
  -2.12961  -0.86880   4.09416
  -2.03351  -0.84380   4.23686
  -1.90001  -0.95840   4.47106
  -1.68311  -0.97450   4.62846
  -1.56121  -0.91120   4.73156
  -1.38031  -1.00660   4.54616
  -1.13341  -1.14030   4.61516
  -0.81491  -1.17120   4.40146
  -0.50051  -1.28760   4.14796
   0.02119  -1.15080   3.86456
   0.20099  -1.26470   3.80146
   0.76229  -1.18500   3.45496
   1.34059  -1.12280   2.91676
   1.71999  -1.07740   2.55156
   1.98419  -0.93520   2.10986
   2.41999  -0.75400   1.50706
   2.60269  -0.79730   1.02776
   2.84719  -0.79920   0.73856
   3.19019  -0.91580  -0.00334
   3.35429  -0.71150  -0.53684
   3.63539  -0.67920  -1.03444
   3.69059  -0.78350  -1.57734
   3.65219  -0.88240  -1.94954
   3.60829  -0.92220  -2.39894
   3.49879  -1.02200  -2.75294
   3.07729  -1.00870  -3.16234
   2.86009  -0.96730  -3.45644
   2.54579  -1.01800  -3.67484
   2.27089  -1.06850  -3.82444
   1.81499  -1.10760  -3.83614
   1.30479  -0.97220  -3.84364
   0.89559  -0.76990  -3.74864
   0.21129  -0.86230  -3.66874
  -0.29961  -0.78350  -3.34534
  -1.06951  -0.85900  -2.85044
  -1.59051  -0.96990  -2.51934
  -2.09901  -0.70240  -1.98924
  -2.71561  -0.62550  -1.43774
  -3.06181  -0.61910  -1.02274
  -3.37611  -0.78910  -0.65494
  -3.51451  -0.52070   0.29086
  -3.77051  -0.39350   0.85426
  -3.80791  -0.40590   1.40146
  -3.87201  -0.09660   2.07406
  -3.68141   0.10470   2.56416
  -3.44201   0.19870   3.26976
  -3.37611   0.25110   4.05496
  -3.09361   0.44910   4.53866
  -2.79111   0.35490   5.21996
  -2.49691   0.54990   5.70376
  -2.03071   0.68570   6.25456
  -1.60051   0.62800   6.62026
  -1.23461   0.61510   7.13466
  -0.85981   0.95700   7.36306
  -0.39641   0.85130   7.72216
   0.22359   0.97680   7.94616
   0.71609   0.77720   8.11636
   1.15579   0.80220   8.17606
   1.66409   0.90060   8.21596
   1.96829   0.96420   8.11686
   2.35219   0.80850   7.86996
   2.86029   0.72780   7.88376
   3.07799   0.77440   7.56016
   3.35669   0.84400   7.25386
   3.71179   1.02660   6.81716
   4.08779   1.08300   6.44986
   4.33919   1.17790   5.92066
   4.19159   1.27890   5.20946
   4.47989   1.37530   4.48606
   4.54819   1.13420   3.76476
   4.47009   0.88170   3.18726
   4.29239   0.85920   2.50316
   4.39809   0.90670   1.73876
   4.31689   0.90970   0.76146
   3.96339   0.71820   0.11496
   3.62579   0.62800  -0.30514
   3.56009   0.28060  -0.83194
   3.29189  -0.00450  -1.44874
   3.12329  -0.00840  -1.94504
   2.79979  -0.26280  -2.29134
   2.38499  -0.33950  -2.84594
   2.08519  -0.46370  -3.25844
   1.76119  -0.72040  -3.42374
   1.30949  -0.90200  -3.56284
   0.78709  -0.90300  -3.55154
   0.31409  -0.86250  -3.59414
  -0.22221  -0.91560  -3.55224
  -0.51121  -1.18780  -3.64024
  -1.18411  -1.06310  -3.48214
  -1.82661  -0.89040  -3.09384
  -2.32511  -0.70490  -2.92424
  -2.71581  -0.56980  -2.65494
  -3.41561  -0.48800  -2.31124
  -4.04381  -0.52000  -1.94014
  -4.58111  -0.28060  -1.60744
  -4.80601  -0.15460  -1.24274
  -5.20421  -0.10620  -0.95444
  -5.36511   0.03040  -0.60184
  -5.68121   0.24010  -0.20624
  -5.83151   0.58870  -0.00304
  -5.95571   0.71590   0.21176
  -6.27551   0.80480   0.51696
  -6.35221   0.90040   0.73436
  -6.07731   0.87090   1.04716
  -5.96271   0.70540   1.07506
  -5.81521   0.90230   1.00956
  -5.59891   1.20900   1.06266
  -5.41581   0.91700   1.07436
  -5.29331   0.76380   1.16366
  -5.01301   0.84850   1.01986
  -4.54531   0.86460   0.99596
  -4.27581   0.71430   0.81946
  -3.87361   0.56490   0.76386
  -3.45111   0.43840   0.68196
  -3.11371   0.20460   0.32426
  -2.69361   0.00890   0.10256
  -2.35921   0.00260   0.17956
  -1.79971   0.09750   0.05956
  -1.29801  -0.00590  -0.16834
  -1.01091  -0.11690  -0.44194
  -0.51281  -0.10200  -0.54314
  -0.17151  -0.14750  -0.56604
   0.23809  -0.17910  -0.79964
   0.58539  -0.03320  -0.86304
   0.81189  -0.08580  -1.05894
   1.16799  -0.24390  -1.24674
   1.34639  -0.32590  -1.25604
   1.69969  -0.10150  -1.41624
   1.88209   0.10120  -1.38234
   2.03029   0.16250  -1.34564
   2.04219   0.30070  -1.35284
   2.13129   0.48580  -1.21674
   2.23629   0.63380  -1.21354
   2.05039   0.73600  -1.24364
   2.09809   0.75570  -1.28454
   2.09249   0.75170  -1.37784
   1.98819   0.95980  -1.15644
   2.02419   1.00910  -1.22664
   1.92669   0.96700  -1.38024
   1.83549   0.90370  -1.33504
   1.77309   0.79700  -1.40004
   1.60029   0.74540  -1.62474
   1.49509   0.67550  -1.44734
   1.30569   0.69210  -1.68444
   1.07139   0.67450  -1.64514
   1.09199   0.84990  -1.76694
   0.95289   0.57400  -1.89064
   0.76139   0.54660  -1.84974
   0.58389   0.27990  -1.81324
   0.35619   0.20900  -1.80414
   0.08099   0.22560  -1.67714
  -0.29421   0.18260  -1.76924
  -0.41861   0.18540  -1.49734
  -0.53671  -0.01900  -1.44474
  -0.57011   0.24970  -1.58874
  -0.76931   0.25270  -1.62034
  -1.00031   0.22090  -1.58694
  -1.03941   0.19780  -1.64654
  -1.08991   0.11900  -1.65864
  -1.25501   0.20500  -1.63694
  -1.20091   0.22260  -1.67224
  -1.35531   0.62870  -1.83194
  -1.23601   0.73880  -1.86514
  -1.28281   0.91930  -1.77304
  -1.22571   0.81110  -1.77064
  -1.20491   0.61820  -1.83704
  -1.30131   0.64580  -1.78114
  -1.47591   0.55650  -1.79854
  -1.28471   0.66610  -1.65144
  -1.48361   0.49330  -1.55274
  -1.66931   0.27920  -1.52474
  -1.81591   0.14050  -1.55694
  -2.03351  -0.01730  -1.48194
  -1.90101  -0.10520  -1.35984
  -2.03991  -0.23520  -1.53544
  -1.88581  -0.19240  -1.48914
  -1.91941  -0.20620  -1.61334
  -1.80631  -0.18380  -1.40104
  -1.85841  -0.17300  -1.39634
  -1.87921  -0.12070  -1.58644
  -1.68961  -0.06570  -1.60584
  -1.34891   0.09140  -1.53384
  -1.03751   0.30770  -1.62644
  -0.78571   0.58400  -1.75384
  -0.37401   0.84120  -1.66944
  -0.16261   0.95840  -1.91654
   0.16889   0.95910  -1.86204
   0.62159   0.99860  -1.83874
   1.21969   1.00330  -1.93454
   1.33309   1.25130  -2.14574
   1.87289   1.30370  -2.24464
   2.27669   1.25110  -2.29464
   2.50419   1.23190  -2.51514
   2.94519   1.32640  -2.55534
   3.07239   1.16150  -2.45764
   3.55589   1.04750  -2.68114
   3.86849   0.79280  -2.65074
   4.01879   0.54830  -2.53404
   4.22409   0.40780  -2.67294
   4.43499   0.28080  -2.46904
   4.57999  -0.00350  -2.42484
   4.57039  -0.29480  -2.33184
