********************************************************************************
              CENTRO DE INSTRUMENTACION Y REGISTRO SISMICO  A.C.

    Anaxagoras 814, Col. Narvarte, Benito Juarez, C.P. 03020 Mexico, D.F.
           Tels. 5687 45 42/ 5687 45  82             Fax. 5669 25 12
********************************************************************************
ARCHIVO ESTANDAR DE ACELERACION:
VERSION DEL FORMATO                    : 2.0
NOMBRE DEL ARCHIVO                     : PA3420220919180509
FECHA Y HORA DE CREACION               : 19/SEP/22, 19:46
REF. CATALOGO ACELEROGRAMAS, SMIS 1996 : REGISTRO No.     /PAG.


================================================================================
DATOS DE LA ESTACION:
NOMBRE DE LA ESTACION                  : ESC. PRIM. "ÁLVARO OBREGÓN"
CLAVE DE LA ESTACION                   : PA34
LOCALIZACION DE LA ESTACION            : Del. Milpa Alta, Pueblo de San Pedro   
                                       : Actopan, calle Cuauhtémoc entre        
                                       : Melchor Ocampo y Xicotencalt.          
                                       :                                        
                                       : 
COORDENADAS DE LA ESTACION             : 19.2016 LAT. N
                                       : 99.0491 LONG. W
ALTITUD (msnm)                         : 2240
TIPO DE SUELO                          : Arenoso, limoso, compacto           
                                       :                           
                                       : 
INSTITUCION RESPONSABLE                : CIRES, A. C.
                                       : 

================================================================================
DATOS DEL ACELEROGRAFO:
MODELO DEL ACELEROGRAFO                : RAD_IO14
NUMERO DE SERIE DEL ACELEROGRAFO       : 
NUMERO DE CANALES                      : 3
ORIENTACION C1-C6 (rumbo;orientacion)  : /N00E/+V/N90W
ORIENTACION C7-C12 (rumbo;orientacion) : 
VEL. DE MUESTREO, C1-C6 (muestras/s)   : /100/100/100
VEL. DE MUESTREO, C7-C12 (muestras/s)  : 
ESC. COMPLETA DE SENSORES, C1-C6, (g)  : /2.0/2.0/2.0
ESC. COMPLETA DE SENSORES, C7-C12, (g) : 
FREC. NAT. DE SENSORES, C1-C6, (Hz)    : /30/30/30
FREC. NAT. DE SENSORES, C7-C12, (Hz)   : 
AMORTIGUAMIENTO DE SENSORES, C1-C6     : /0.790/0.733/0.785
AMORTIGUAMIENTO DE SENSORES, C7-C12    : 
INTERVALO DE MUESTREO, C1-C6, (s)      : /0.01/0.01/0.01
INTERVALO DE MUESTREO, C7-C12, (s)     : 
UMBRAL DE DISPARO, C1-C6, (Gal)        : / / /
UMBRAL DE DISPARO, C7-C12, (Gal)       : 
MEMORIA DE PREEVENTO (s)               : 60
TIEMPO DE POSEVENTO (s)                : 90


================================================================================
DATOS DEL SISMO:
FECHA DEL SISMO (GMT)                  : 19/SEP/22
HORA EPICENTRO (GMT)                   : 18:05:09.0
MAGNITUD(ES)                           : /Mc=7.7
COORDENADAS DEL EPICENTRO              : 18.22 LAT. N
                                       : 103.29 LONG. W
PROFUNDIDAD FOCAL (km)                 : 15
FUENTE DE LOS DATOS EPICENTRALES       : SSN
                                       : INSTITUTO DE GEOFISICA, UNAM

================================================================================
DATOS DE ESTE REGISTRO:
HORA DE LA PRIMERA MUESTRA (GMT)       : 18:04:27.111.00
EXACTITUD DEL TIEMPO (s)               : 
DURACION DEL REGISTRO (s), C1-C6       : /599.61/599.61/599.61
DURACION DEL REGISTRO (s), C7-C12      : 
NUM. TOTAL DE MUESTRAS, C1-C6          : /59961/59961/59961
NUM. TOTAL DE MUESTRAS, C7-C12         : 
ACEL. MAX. (Gal), C1-C6                : /7.31684/2.94738/7.92719
ACEL. MAX., C1-C6, EN LA MUESTRA       : /19497/21423/19359
ACEL. MAX. (Gal), C7-C12               : 
ACEL. MAX., C7-C12, EN LA MUESTRA      : 
UNIDADES DE LOS DATOS                  : Gal (cm/s/s)
FACTOR DE DECIMACION                   : 1
FORMATO DATOS (FORTRAN,10 campos/dato) : 3F10.5


================================================================================
CALIDAD DEL ACELEROGRAMA:
REGISTRO DIGITAL COMPLETO CON TIEMPO ABSOLUTO CORRECTO.


================================================================================
COMENTARIOS:














================================================================================
DATOS DE ACELERACION:
---------+---------+---------+---------+---------+---------+---------+---------+
   CANAL-1   CANAL-2   CANAL-3   CANAL-4   CANAL-5   CANAL-6   CANAL-7   CANAL-8
      N00E        +V      N90W
---------+---------+---------+---------+---------+---------+---------+---------+
[...]
  -1.25134  -0.32848  -0.96401
  -0.80454  -0.25138  -0.90931
  -0.53144  -0.44918  -0.79101
  -0.06404  -0.50858  -0.53481
   0.26696  -0.43908  -0.53431
   0.63666  -0.49548  -0.29351
   0.95066  -0.52348  -0.15861
   1.26906  -0.52278  -0.27551
   1.50156  -0.52558  -0.26801
   1.68316  -0.37928  -0.12931
   2.02616  -0.29578  -0.25961
   2.14166  -0.26088  -0.34981
   2.17226  -0.18238  -0.32531
   2.44706  -0.22678  -0.50791
   2.69066  -0.18148  -0.52051
   2.70446   0.05682  -0.62621
   2.79896   0.10962  -0.59251
   2.89786   0.12112  -0.92971
   2.83076   0.24712  -0.93411
   3.03416   0.24102  -1.17521
   3.25456   0.46202  -1.13401
   3.08256   0.64132  -1.44851
   3.26306   0.52842  -1.34211
   3.41736   0.92172  -1.52891
   3.37966   0.71752  -1.72911
   3.28036   0.71892  -1.77351
   3.33806   0.88922  -1.84391
   3.35206   0.87352  -1.95051
   3.10236   0.77132  -2.20671
   3.07646   0.67452  -2.16321
   3.00676   0.80802  -2.38301
   2.88516   0.92352  -2.21821
   2.71336   0.89062  -2.17261
   2.56206   1.02012  -2.31901
   2.44286   1.08162  -2.11581
   2.19806   1.04022  -2.09291
   2.09566   1.24852  -1.92311
   2.11576   1.21462  -1.75811
   1.90576   1.19572  -1.55111
   1.84406   1.12482  -1.45061
   1.94036   1.21512  -1.28461
   1.98686   1.31842  -1.23321
   2.05726   1.03952  -1.02971
   2.15196   1.31282  -1.08731
   2.00346   1.31802  -1.23971
   2.05186   1.18962  -1.32251
   2.37156   1.46042  -1.39311
   2.37196   1.28642  -1.68841
   2.49796   1.43092  -1.93181
   2.65026   1.52182  -2.18641
   2.74816   1.62432  -2.48541
   2.85176   1.73322  -2.72421
   2.95016   1.67242  -2.74381
   3.04746   1.45012  -2.86281
   2.82136   1.51722  -3.15321
   2.98616   1.57052  -3.27951
   2.96776   1.37882  -3.43821
   2.99346   1.66452  -3.45041
   2.89006   1.66332  -3.49461
   2.98476   1.60062  -3.60541
   2.79236   1.42792  -3.48451
   2.63296   1.50312  -3.52781
   2.69696   1.47252  -3.52471
   2.38696   1.55692  -3.43731
   2.06356   1.60112  -3.32291
   2.05566   1.63242  -3.29611
   1.88376   1.52472  -3.08021
   1.65816   1.49892  -2.90021
   1.43186   1.48422  -2.75291
   1.17726   1.57492  -2.52031
   1.12366   1.33972  -2.34891
   1.00796   1.44892  -1.94581
   0.86256   1.58172  -1.54111
   0.92006   1.39302  -1.19691
   0.82486   1.30652  -0.81421
   0.88476   1.46502  -0.17561
   0.88006   1.38302   0.06569
   0.96096   1.23782   0.56809
   1.02286   1.09892   0.89659
   1.23896   0.99602   1.39859
   1.24226   0.96072   1.77409
   1.28316   0.75522   2.08669
   1.41596   0.73812   2.59149
   1.24316   0.53172   2.90149
   1.25676   0.45992   3.23209
   1.20106   0.15942   3.58029
   1.34976   0.12532   3.77969
   1.21416   0.12862   3.92259
   1.17156  -0.07128   4.22249
   1.20766  -0.06308   4.61719
   1.32706  -0.50428   4.82619
   1.19596  -0.63528   4.89589
   1.11806  -0.72038   5.21079
   1.09446  -0.93058   5.36469
   1.09216  -1.29058   5.45679
   1.08506  -1.31798   5.49839
   1.01826  -1.48728   5.50079
   1.13976  -1.77808   5.76499
   1.19246  -1.91768   5.55219
   1.17886  -2.14398   5.53349
   1.08576  -2.20998   5.45989
   1.12416  -2.32948   5.36329
   1.16206  -2.57238   5.05959
   1.09236  -2.54668   4.97469
   0.97946  -2.68038   4.90479
   0.97146  -2.75398   4.46149
   0.95766  -2.76918   4.21149
   0.87236  -2.54638   4.08249
   1.03876  -2.54128   3.68029
   0.75476  -2.54458   3.35159
   0.73886  -2.32878   3.20619
   0.55416  -2.10058   2.89869
   0.48636  -1.94248   2.53159
   0.38746  -1.59058   2.32419
   0.50716  -1.54618   2.05979
   0.51696  -1.25508   1.68759
   0.26606  -0.98578   1.39839
   0.09846  -0.91118   1.43899
   0.05216  -0.88188   1.31109
   0.08416  -0.75328   1.21879
  -0.13984  -0.71758   1.12879
  -0.15314  -0.56558   0.89539
  -0.33854  -0.43928   0.96979
  -0.48684  -0.53308   1.01959
  -0.40174  -0.44658   0.92749
  -0.52074  -0.53608   0.89849
  -0.59064  -0.62168   0.79489
  -0.76104  -0.57708   0.83109
  -0.75454  -0.78728   0.76609
  -0.81464  -0.64018   0.99319
  -0.80264  -0.58518   0.88799
  -0.74374  -0.59598   0.96789
  -0.67454  -0.40258   0.88159
  -0.75174  -0.55648   0.90689
  -0.79494  -0.36378   0.91979
  -0.87724  -0.16768   0.91369
  -0.82884  -0.08908   0.94379
  -0.73204   0.04932   1.05859
  -0.75284  -0.02618   1.17019
  -0.75244   0.20762   1.04859
  -0.84124   0.24502   1.18929
  -1.04584   0.36752   1.38319
  -1.12304   0.52892   1.52769
  -1.15594   0.51512   1.54359
  -1.29674   0.67832   1.75729
  -1.56654   0.65982   1.82439
  -1.62944   0.61052   1.88839
  -1.91074   0.82952   1.92859
  -2.12274   0.73692   2.01439
  -2.14914   0.71542   2.11589
  -2.33994   0.71082   2.15469
  -2.48114   0.56772   2.04739
  -2.70304   0.52862   2.13579
  -2.87894   0.30722   2.07099
  -3.11134   0.18332   1.82129
  -3.28404   0.23732   1.81969
  -3.61544  -0.01758   1.78369
  -3.75194  -0.12768   1.65859
  -3.86624  -0.20178   1.45399
  -3.98664  -0.20298   1.29709
  -4.02124  -0.23128   0.97419
  -4.18544  -0.46128   0.83579
  -4.34694  -0.52208   0.61419
  -4.42814  -0.62408   0.36629
  -4.33574  -0.56998   0.20449
  -4.30724  -0.77878  -0.11321
  -4.39864  -0.69978  -0.40341
  -4.47534  -0.90318  -0.80151
  -4.15154  -0.79778  -0.97991
  -4.37784  -1.00678  -1.35221
  -4.27614  -0.97148  -1.62781
  -4.06384  -0.87258  -1.78891
  -4.20834  -0.89218  -2.06971
  -4.12624  -0.90768  -2.27661
  -4.09404  -0.73158  -2.58811
  -3.87614  -0.77228  -2.80251
  -3.82584  -0.80168  -3.14921
  -3.82204  -0.72618  -3.32391
  -3.63314  -0.72438  -3.36691
  -3.59364  -0.71708  -3.47631
  -3.37504  -0.67898  -3.58291
  -3.06924  -0.70798  -3.64141
  -2.60274  -0.69348  -3.81001
  -2.54524  -0.76598  -3.63481
  -2.09824  -0.83588  -3.68161
  -1.77624  -0.97448  -3.71671
  -1.41224  -0.83938  -3.89061
  -1.00184  -0.90228  -3.75551
  -0.69864  -1.02268  -3.52331
  -0.33014  -0.94088  -3.45741
  -0.07134  -1.02058  -3.25351
   0.26696  -0.96918  -3.18571
   0.63876  -1.08698  -2.94041
   1.11526  -1.19658  -2.86161
   1.12646  -0.98898  -2.72981
   1.54336  -1.10618  -2.65731
   1.63506  -1.10218  -2.42581
   1.90136  -1.00518  -2.13051
   2.32316  -1.01868  -1.97691
   2.61886  -1.05888  -1.98161
   2.93686  -1.14258  -1.81981
   2.90226  -1.07788  -1.73721
   3.24716  -1.17928  -1.64561
   3.67986  -1.14898  -1.66691
   3.79396  -1.01898  -1.64961
   4.12036  -1.19588  -1.76461
   4.35276  -1.00258  -1.67881
   4.51016  -1.02268  -1.62971
   4.73926  -0.80848  -1.83641
   4.86036  -0.78048  -1.87101
   5.19106  -0.42928  -1.94861
   5.49216  -0.53748  -2.13291
   5.54386  -0.49848  -2.24601
   5.72756  -0.42928  -2.03751
   5.71686  -0.39748  -2.12281
   5.91116  -0.30788  -2.41341
   5.92236  -0.38578  -2.46841
   6.01146  -0.43418  -2.39681
   6.30346  -0.42408  -2.41461
   6.27426  -0.19308  -2.42371
   6.34696  -0.32028  -2.38281
   6.39766  -0.18288  -2.29001
   6.30606  -0.19478  -2.15901
   6.28126  -0.08628  -2.06061
   6.40116   0.11882  -1.86771
   6.43296   0.10822  -1.53801
   6.42066   0.11362  -1.23111
   6.39236   0.28062  -0.89601
   6.39606   0.27002  -0.56751
   6.27356   0.26792  -0.31521
   6.22516   0.32872   0.30549
   6.17766   0.23452   0.48209
   6.06196   0.08632   1.00489
   5.89756  -0.02878   1.44679
   5.77366  -0.10198   1.61089
   5.70536  -0.04438   1.93049
   5.65556  -0.21698   2.04059
   5.34226  -0.41598   2.20899
   5.34416  -0.25038   2.24659
   5.20996  -0.25138   2.24219
   5.02526  -0.35698   2.21669
   4.74046  -0.26658   2.05979
   4.57846  -0.15948   1.95199
   4.51416  -0.04398   1.91039
   4.23376  -0.11738   1.71259
   3.88126  -0.02668   1.42409
   3.69936  -0.04858   1.35809
   3.45896  -0.15338   1.31979
   3.15546  -0.05888   0.93989
   2.75496   0.12342   0.83819
   2.28176   0.14332   0.57439
   1.90036  -0.00168   0.42129
   1.72226   0.12602   0.30619
   1.31376   0.23682   0.21199
   0.89246   0.19972   0.06779
   0.59946   0.30862  -0.09541
   0.13276   0.40872  -0.25001
  -0.12974   0.59812  -0.45881
  -0.61284   0.51272  -0.80341
  -0.89734   0.78912  -0.87851
  -1.16014   0.84542  -1.11201
  -1.45154   1.13232  -1.11791
  -1.64534   1.03672  -1.41861
  -1.75984   1.03952  -1.54811
  -2.00354   1.23382  -1.76861
  -2.18894   1.20712  -1.86491
  -2.23994   1.35982  -2.08841
  -2.29694   1.17772  -2.05971
  -2.61214   1.24102  -2.13431
  -2.67084   1.43492  -2.21701
  -2.86694   1.37012  -2.18381
  -3.07484   1.44262  -2.31451
  -3.26024   1.64232  -2.12371
  -3.55904   1.49572  -2.11811
  -3.75704   1.54832  -2.11601
  -3.85034   1.56352  -1.92171
  -4.22494   1.50762  -1.79431
  -4.51364   1.58152  -1.64861
  -4.70794   1.27702  -1.55281
  -5.04954   1.36852  -1.45061
  -5.16464   1.48542  -1.03371
  -5.51604   1.16652  -0.94141
  -5.65744   1.01542  -0.76371
  -5.98204   1.19782  -0.57621
  -6.12274   0.93382  -0.34491
  -6.30564   0.92802   0.00669
  -6.36314   0.78092   0.12949
  -6.46994   0.60062   0.37829
  -6.74114   0.45362   0.52299
  -6.68924   0.40282   0.66789
  -6.93874   0.11622   0.97099
  -6.91354  -0.05428   1.04409
  -7.07954  -0.22838   1.34129
  -7.15454  -0.20648   1.48649
  -7.14894  -0.63078   1.65669
  -7.14264  -0.77418   1.74089
  -7.06434  -0.88588   1.85309
  -7.08044  -0.89598   2.03389
  -6.83544  -1.18148   2.07919
  -6.78884  -1.03668   2.10049
  -6.81294  -1.35558   2.18789
  -6.44054  -1.46648   2.14719
  -6.46034  -1.52558   2.25949
  -6.33534  -1.57818   2.33129
  -5.96024  -1.54668   2.26389
  -5.71404  -1.53148   2.33849
  -5.32854  -1.46928   2.42669
  -5.03084  -1.21038   2.39349
  -4.72994  -1.20928   2.43859
  -4.33014  -1.22208   2.61249
  -4.01284  -1.05958   2.66579
  -3.46154  -0.84618   2.77739
  -3.06034  -0.77018   2.96839
  -2.76734  -0.79708   3.14609
  -2.35374  -0.51158   3.34439
  -1.98804  -0.41638   3.38009
  -1.65074  -0.42808   3.86849
  -1.26004  -0.40288   4.22299
  -0.96754  -0.25738   4.48559
  -0.61544  -0.22698   4.68499
  -0.50784  -0.17748   5.10309
  -0.12064  -0.26868   5.55779
   0.06896  -0.13168   5.88799
   0.18216  -0.04298   6.37869
   0.38746  -0.12948   6.54779
   0.50686  -0.08908   6.76399
   0.81576  -0.06478   7.00769
   0.92586  -0.09918   7.14679
   1.06776  -0.06428   7.47359
   1.16246   0.04302   7.71629
   1.24756   0.18892   7.76469
   1.33806   0.13212   7.80279
   1.43936   0.13652   7.78669
   1.65236   0.13002   7.92719
   1.72086   0.17282   7.76449
   1.65676   0.11272   7.75349
   1.68646   0.08182   7.57999
   2.00416   0.08022   7.34549
   1.89436   0.19522   7.20449
   1.88756   0.15552   7.19049
   2.02946   0.07112   6.93449
   2.14146   0.10102   6.67239
   2.25696   0.12372   6.47949
   2.51106   0.07572   5.97469
   2.61466  -0.01638   5.51919
   2.63756  -0.04138   5.14209
   2.50196  -0.14728   4.53399
   2.80946  -0.07738   3.99919
   2.92146  -0.21768   3.58699
   3.08956  -0.20408   3.02499
   2.92426  -0.16298   2.24309
   3.20666  -0.08018   1.91249
   2.97986   0.02642   1.11689
   3.17906   0.02552   0.68659
   3.16506   0.21422   0.07869
   2.95786   0.28102  -0.28061
   3.16246   0.06402  -0.71251
   3.16016   0.26962  -0.98881
   2.93986   0.31612  -1.38301
   2.85366   0.48822  -1.65591
   2.91816   0.45542  -2.03611
   2.78866   0.41172  -1.96991
   2.60836   0.56352  -2.11201
   2.46436   0.55812  -2.29441
   2.22306   0.62712  -2.16281
   2.35516   0.84262  -2.32271
   2.00166   0.85502  -2.22471
   1.94856   1.12622  -2.30911
   1.82836   1.28502  -2.26141
   1.39256   1.50502  -2.06551
   1.42296   1.67052  -2.10151
   0.99206   1.78092  -2.14081
   0.72996   1.82772  -2.02511
   0.52136   1.91302  -2.15271
   0.30296   2.18732  -2.08421
   0.21206   2.12932  -1.92591
  -0.11454   2.08422  -2.26401
  -0.41364   2.20952  -2.42771
  -0.67684   2.20152  -2.48151
  -1.13984   2.16372  -2.72461
  -1.18894   2.02152  -2.98771
  -1.40024   1.91672  -3.07881
  -1.45014   1.91822  -3.28951
  -1.48634   1.63692  -3.40521
  -1.60114   1.43912  -3.76671
  -1.65584   1.23922  -3.90281
  -1.59954   1.00582  -4.06951
  -1.46884   0.97572  -4.28551
  -1.32944   0.82092  -4.24651
  -1.08374   0.50242  -4.51121
  -0.65164   0.35772  -4.38961
  -0.43134   0.09092  -4.51491
  -0.16294  -0.04418  -4.39961
   0.15786  -0.19338  -4.33881
   0.57936  -0.49798  -3.98321
   0.88286  -0.72808  -3.70171
   1.27196  -0.80338  -3.41951
   1.75496  -0.91438  -3.24631
   2.11016  -1.06238  -2.94581
   2.44776  -1.13378  -2.65661
   2.67356  -1.17558  -2.39261
   2.83676  -1.33688  -1.96921
   3.09026  -1.19378  -1.47911
   3.20336  -1.26608  -1.17911
   3.47716  -1.40778  -0.78561
   3.60626  -1.25948  -0.57691
   3.52186  -1.49268  -0.27761
   3.63196  -1.28268   0.03389
   3.82436  -1.24058   0.37399
   3.69066  -1.18988   0.83159
   3.68736  -1.08958   0.90779
   3.60466  -1.07598   1.15819
   3.58736  -1.05188   1.44839
   3.54686  -0.90088   1.58819
   3.43796  -0.84588   1.55169
   3.26696  -0.96678   1.59869
   3.32456  -0.69188   1.53019
   3.24966  -0.66328   1.35179
   3.09096  -0.65798   1.37289
   3.03716  -0.67878   0.99149
   2.81486  -0.79378   0.79089
   2.60136  -0.59228   0.51269
   2.36496  -0.86418   0.13369
   2.42456  -0.82748  -0.09471
   2.08766  -0.77978  -0.56821
   1.88986  -0.75188  -1.06741
   1.85546  -1.01288  -1.48731
   1.40236  -0.85718  -2.01171
   1.37806  -0.96138  -2.28861
   1.25816  -1.27448  -2.78121
   0.98016  -1.20548  -3.01831
   0.86766  -1.14358  -3.36321
   1.05096  -1.24548  -3.77821
   1.11666  -1.37178  -3.64721
   0.94486  -1.18748  -4.02391
   1.02076  -1.27728  -3.98741
   1.15356  -1.48418  -4.10251
   1.36636  -1.48208  -3.91521
   1.32826  -1.23638  -3.75271
   1.43556  -1.27218  -3.84341
   1.58096  -1.45658  -3.66521
   1.72996  -1.29438  -3.32181
   1.91536  -1.15808  -3.25211
   1.75476  -1.16628  -2.91051
   2.06496  -0.96238  -2.82731
   1.96776  -0.94808  -2.47911
   1.97896  -0.78088  -2.45621
   1.79396  -0.84968  -2.24041
   1.47416  -0.64438  -2.10271
   1.27966  -0.58338  -2.04051
   1.03856  -0.43888  -2.06011
   0.76896  -0.33108  -1.81721
   0.26466  -0.49218  -2.02951
  -0.26324  -0.16018  -2.10361
  -0.71454  -0.18608  -1.86421
  -1.03814  -0.20438  -2.18081
  -1.64324  -0.19288  -2.29821
  -2.17584   0.11462  -2.43841
  -2.75874   0.10472  -2.59141
  -3.23754   0.09912  -2.78071
  -3.92614   0.24992  -3.08891
  -4.39004   0.37902  -3.33071
  -4.88634   0.37132  -3.52591
  -5.36004   0.59042  -3.90161
  -5.72954   0.55532  -4.14241
  -6.05584   0.65282  -4.60511
  -6.51364   0.65112  -4.79081
  -6.73164   0.76432  -5.13751
  -7.01074   0.85082  -5.27031
  -7.18074   0.75942  -5.78211
  -7.26704   0.98062  -5.98061
  -7.31684   0.82862  -6.30731
  -7.23664   0.89312  -6.50131
  -7.08624   1.18422  -6.74711
  -7.10664   1.38372  -6.93951
  -7.00704   1.37412  -6.89441
  -6.97594   1.47702  -6.92661
