********************************************************************************
              CENTRO DE INSTRUMENTACION Y REGISTRO SISMICO  A.C.

    Anaxagoras 814, Col. Narvarte, Benito Juarez, C.P. 03020 Mexico, D.F.
           Tels. 5687 45 42/ 5687 45  82             Fax. 5669 25 12
********************************************************************************
ARCHIVO ESTANDAR DE ACELERACION:
VERSION DEL FORMATO                    : 2.0
NOMBRE DEL ARCHIVO                     : RI7620220919180509
FECHA Y HORA DE CREACION               : 19/SEP/22, 19:46
REF. CATALOGO ACELEROGRAMAS, SMIS 1996 : REGISTRO No.     /PAG.


================================================================================
DATOS DE LA ESTACION:
NOMBRE DE LA ESTACION                  : REPÚBLICA DE ITALIA
CLAVE DE LA ESTACION                   : RI76
LOCALIZACION DE LA ESTACION            : Del. Venustiano Carranza,              
                                       : Col. Ampliación Simón Bolivar, calle   
                                       : Carlos Marx y Av. Río Consulado.       
                                       :                                        
                                       : 
COORDENADAS DE LA ESTACION             : 19.4473 LAT. N
                                       : 99.1000 LONG. W
ALTITUD (msnm)                         : 2232
TIPO DE SUELO                          : Arcilloso, zona lago                
                                       :                           
                                       : 
INSTITUCION RESPONSABLE                : CIRES, A. C.
                                       : 

================================================================================
DATOS DEL ACELEROGRAFO:
MODELO DEL ACELEROGRAFO                : RAD_IO14
NUMERO DE SERIE DEL ACELEROGRAFO       : 
NUMERO DE CANALES                      : 3
ORIENTACION C1-C6 (rumbo;orientacion)  : /N00E/+V/N90W
ORIENTACION C7-C12 (rumbo;orientacion) : 
VEL. DE MUESTREO, C1-C6 (muestras/s)   : /100/100/100
VEL. DE MUESTREO, C7-C12 (muestras/s)  : 
ESC. COMPLETA DE SENSORES, C1-C6, (g)  : /2.0/2.0/2.0
ESC. COMPLETA DE SENSORES, C7-C12, (g) : 
FREC. NAT. DE SENSORES, C1-C6, (Hz)    : /30/30/30
FREC. NAT. DE SENSORES, C7-C12, (Hz)   : 
AMORTIGUAMIENTO DE SENSORES, C1-C6     : /0.700/0.700/0.700
AMORTIGUAMIENTO DE SENSORES, C7-C12    : 
INTERVALO DE MUESTREO, C1-C6, (s)      : /0.01/0.01/0.01
INTERVALO DE MUESTREO, C7-C12, (s)     : 
UMBRAL DE DISPARO, C1-C6, (Gal)        : / / /
UMBRAL DE DISPARO, C7-C12, (Gal)       : 
MEMORIA DE PREEVENTO (s)               : 60
TIEMPO DE POSEVENTO (s)                : 90


================================================================================
DATOS DEL SISMO:
FECHA DEL SISMO (GMT)                  : 19/SEP/22
HORA EPICENTRO (GMT)                   : 18:05:09.0
MAGNITUD(ES)                           : /Mc=7.7
COORDENADAS DEL EPICENTRO              : 18.22 LAT. N
                                       : 103.29 LONG. W
PROFUNDIDAD FOCAL (km)                 : 15
FUENTE DE LOS DATOS EPICENTRALES       : SSN
                                       : INSTITUTO DE GEOFISICA, UNAM

================================================================================
DATOS DE ESTE REGISTRO:
HORA DE LA PRIMERA MUESTRA (GMT)       : 18:04:27.176.00
EXACTITUD DEL TIEMPO (s)               : 
DURACION DEL REGISTRO (s), C1-C6       : /585.61/585.61/585.61
DURACION DEL REGISTRO (s), C7-C12      : 
NUM. TOTAL DE MUESTRAS, C1-C6          : /58561/58561/58561
NUM. TOTAL DE MUESTRAS, C7-C12         : 
ACEL. MAX. (Gal), C1-C6                : /20.47014/5.21343/18.67226
ACEL. MAX., C1-C6, EN LA MUESTRA       : /20095/19345/19464
ACEL. MAX. (Gal), C7-C12               : 
ACEL. MAX., C7-C12, EN LA MUESTRA      : 
UNIDADES DE LOS DATOS                  : Gal (cm/s/s)
FACTOR DE DECIMACION                   : 1
FORMATO DATOS (FORTRAN,10 campos/dato) : 3F10.5


================================================================================
CALIDAD DEL ACELEROGRAMA:
REGISTRO DIGITAL COMPLETO CON TIEMPO ABSOLUTO CORRECTO.


================================================================================
COMENTARIOS:














================================================================================
DATOS DE ACELERACION:
---------+---------+---------+---------+---------+---------+---------+---------+
   CANAL-1   CANAL-2   CANAL-3   CANAL-4   CANAL-5   CANAL-6   CANAL-7   CANAL-8
      N00E        +V      N90W
---------+---------+---------+---------+---------+---------+---------+---------+
[...]
   3.07664  -3.29313   0.44304
   2.79834  -3.19633   0.43904
   2.49004  -3.11733   0.44554
   2.40864  -3.15543   0.32584
   1.89004  -2.89423   0.23564
   1.67564  -2.62533   0.08014
   1.38384  -2.43133   0.04204
   1.22394  -2.32023   0.20784
   1.07264  -2.27953   0.11564
   0.91574  -1.88323  -0.01686
   0.68004  -1.72353  -0.08816
   0.54144  -1.42893  -0.03236
   0.37824  -1.16923  -0.16046
   0.11664  -0.95883  -0.10406
  -0.02346  -0.65573  -0.10196
  -0.20556  -0.28073  -0.00356
  -0.25186  -0.09463   0.08744
  -0.23366  -0.09413   0.06054
  -0.31596   0.20157   0.30504
  -0.48776   0.31807   0.33754
  -0.36506   0.35827   0.60434
  -0.40476   0.64417   0.68084
  -0.36786   0.90187   0.73524
  -0.33516   0.86067   0.89754
  -0.23946   1.02877   1.10684
  -0.02716   1.24487   1.12224
  -0.04566   1.21607   1.29194
   0.09604   1.39287   1.40914
   0.29224   1.26617   1.71194
   0.45234   1.45837   1.71584
   0.66344   1.43987   1.93334
   1.03294   1.51377   2.12364
   1.33054   1.48847   2.35724
   1.53724   1.57687   2.43344
   1.62164   1.53567   2.47154
   2.00394   1.62967   2.73784
   2.23864   1.70807   3.02244
   2.56804   1.76577   3.09484
   3.05064   1.90587   3.12344
   3.25734   1.95097   3.24924
   3.68174   1.85257   3.47104
   3.93984   2.09807   3.65714
   4.23744   1.94717   3.75184
   4.54404   1.96477   3.83724
   4.66884   1.90887   3.81944
   5.23704   1.89157   4.04064
   5.47224   1.99447   4.04324
   5.61414   1.90257   4.16504
   5.81474   1.88857   4.33154
   6.19234   1.92967   4.38734
   6.33914   2.02457   4.37894
   6.56854   1.98117   4.46224
   6.93684   2.06417   4.49094
   7.19114   2.05147   4.64854
   7.25264   2.14437   4.69154
   7.32354   2.11647   4.70934
   7.50874   1.94797   4.74834
   7.69904   2.03977   4.74324
   7.89724   1.98157   4.65694
   7.93614   1.87917   4.66444
   8.11124   2.01877   4.60224
   8.03194   1.98627   4.47084
   8.20754   1.93387   4.19424
   8.25364   1.94397   4.29904
   8.27634   1.87267   4.08744
   8.46564   1.70737   3.90854
   8.57864   1.52517   3.83044
   8.65904   1.27647   3.53674
   8.72174   1.28207   3.13764
   8.75564   1.09987   2.84424
   8.77964   0.83267   2.70464
   8.96154   0.61147   2.31604
   8.88844   0.26727   1.94664
   9.12364   0.21917   1.67304
   9.10934  -0.02123   1.31094
   9.22904  -0.08883   1.15264
   9.23074  -0.51343   0.79934
   9.21874  -0.56483   0.39484
   9.31274  -0.73273   0.02144
   9.43974  -0.93583  -0.26516
   9.48364  -1.04763  -0.44316
   9.67054  -1.15193  -0.65336
   9.64614  -1.35413  -1.03376
   9.87974  -1.42173  -1.25396
   9.86944  -1.41543  -1.62756
   9.92464  -1.59173  -1.76816
  10.10424  -1.75003  -2.14926
  10.20964  -1.69623  -2.39936
  10.24164  -1.73623  -2.65586
  10.21274  -1.71823  -3.15436
  10.42824  -1.68803  -3.34236
  10.37124  -1.76123  -3.62406
  10.38964  -1.78743  -3.75456
  10.38944  -1.84093  -4.09026
  10.45774  -1.88863  -4.25656
  10.46984  -1.87793  -4.43216
  10.25474  -1.76543  -4.65026
  10.31484  -1.54823  -4.92476
  10.34714  -1.61323  -5.12096
  10.20664  -1.45633  -5.40566
  10.24874  -1.37053  -5.60186
  10.26044  -1.46853  -5.82936
  10.04274  -1.38203  -5.97926
   9.80864  -1.34663  -6.02316
   9.61324  -1.06913  -6.36056
   9.61064  -1.08173  -6.45086
   9.31904  -0.83023  -6.45246
   9.09114  -0.70373  -6.65636
   8.84234  -0.50733  -6.66036
   8.54794  -0.35393  -6.77466
   8.29314  -0.26463  -6.85886
   8.08784   0.12607  -6.88106
   7.92374   0.22547  -7.26356
   7.64994   0.52637  -7.24626
   7.46634   0.76177  -7.34046
   7.08834   0.82607  -7.47816
   6.99224   1.10967  -7.64906
   6.58164   1.03397  -7.82706
   6.36914   1.37977  -7.68066
   6.06984   1.36807  -7.79876
   5.80304   1.36297  -7.92686
   5.64854   1.63157  -8.02856
   5.48184   1.67647  -7.95886
   5.17274   1.84667  -8.07046
   5.09954   1.89787  -7.99486
   4.88914   1.89107  -7.95256
   4.51124   1.99487  -8.11106
   4.22724   1.90487  -7.85466
   4.10914   1.86067  -7.64256
   3.85264   1.94327  -7.42376
   3.55994   1.84087  -7.23526
   3.27934   1.73167  -7.13126
   3.07944   1.85817  -6.99606
   2.88354   1.67717  -6.58266
   2.70164   1.57357  -6.50086
   2.47274   1.60427  -6.15876
   2.27744   1.47357  -5.81886
   1.97324   1.28717  -5.81066
   1.74114   1.30007  -5.40876
   1.55124   1.30377  -5.32766
   1.26224   1.09167  -5.05286
   1.17154   0.90977  -4.91706
   0.92254   0.95497  -4.78546
   0.84514   0.90487  -4.53996
   0.82504   0.57527  -4.33416
   0.66134   0.53757  -4.24576
   0.44674   0.24487  -4.20276
   0.35864   0.22237  -3.99886
   0.27984   0.07677  -4.06486
   0.33104  -0.12833  -3.99046
   0.16314  -0.32893  -3.98926
   0.11944  -0.43693  -4.02806
   0.16994  -0.67443  -4.02456
  -0.02156  -0.96883  -4.13146
   0.08694  -1.09093  -3.99746
   0.09064  -1.26813  -3.89856
  -0.01436  -1.41963  -4.00376
   0.03894  -1.81263  -3.92846
   0.06584  -1.98403  -4.00376
   0.14424  -2.30853  -4.04496
  -0.04776  -2.31233  -4.09736
   0.02094  -2.51593  -4.06486
  -0.03886  -2.66183  -4.05826
  -0.17306  -2.88933  -3.96266
  -0.07376  -2.89333  -4.18736
  -0.13526  -3.06353  -4.12026
  -0.16346  -3.27813  -4.03516
  -0.16136  -3.40163  -3.97016
  -0.23646  -3.44653  -3.89906
  -0.46746  -3.51363  -3.81296
  -0.46536  -3.70953  -3.80626
  -0.60306  -3.68103  -3.73306
  -0.77916  -3.55223  -3.68116
  -0.86146  -3.50473  -3.36386
  -1.01226  -3.63333  -3.20556
  -1.06626  -3.49003  -3.08706
  -1.49366  -3.49073  -2.71876
  -1.62576  -3.47903  -2.57776
  -1.82826  -3.25623  -2.40566
  -2.12866  -3.02403  -2.16096
  -2.40616  -2.99853  -1.92076
  -2.76556  -2.80563  -1.73656
  -3.06996  -2.69813  -1.49226
  -3.34826  -2.54473  -1.37156
  -3.68236  -2.35863  -1.03836
  -4.03846  -2.31883  -0.76746
  -4.47216  -2.19213  -0.56986
  -4.86796  -1.99523  -0.29396
  -5.25776  -1.87203  -0.10126
  -5.59656  -1.73013  -0.00846
  -5.90446  -1.54303   0.21014
  -6.53806  -1.45283   0.35954
  -6.88296  -1.34663   0.49654
  -7.29816  -1.19543   0.75184
  -7.64956  -1.07593   0.82924
  -7.89646  -0.94613   0.80704
  -8.45016  -0.83163   0.87254
  -8.88646  -0.58823   0.93824
  -9.41746  -0.44553   1.09954
  -9.91476  -0.24453   0.97264
 -10.30796  -0.27283   1.07474
 -10.93646  -0.12013   1.02804
 -11.41786   0.12307   1.04204
 -11.89116   0.09267   1.03874
 -12.27946   0.05357   1.09624
 -12.71506   0.21797   1.25594
 -13.08796   0.22637   1.28964
 -13.75196   0.15207   1.37314
 -14.15696   0.53997   1.39064
 -14.46586   0.39447   1.53914
 -14.86916   0.32667   1.57304
 -15.21496   0.58877   1.69014
 -15.54906   0.60097   1.82744
 -15.87826   0.76137   1.84444
 -16.27506   0.83637   1.97194
 -16.43476   0.95467   1.95924
 -16.64426   1.00867   2.02634
 -16.91006   1.17447   2.27864
 -17.09146   1.12697   2.37314
 -17.27616   1.34327   2.25484
 -17.37276   1.52427   2.26014
 -17.62246   1.58037   2.57094
 -17.62696   1.79107   2.67444
 -17.75056   1.91967   2.45234
 -17.86096   2.02207   2.70724
 -17.92266   2.02417   2.95854
 -17.83426   2.07767   2.83094
 -18.00776   2.15597   2.90104
 -18.08326   2.17587   2.88774
 -18.10626   2.05987   2.90474
 -18.04826   2.20017   2.90524
 -18.10366   2.26567   2.88044
 -18.12606   2.07367   2.89034
 -18.15156   2.12187   2.84474
 -18.00876   2.10737   3.03834
 -18.12816   2.18177   2.98474
 -17.96736   2.22947   2.89704
 -17.92876   2.20417   2.91324
 -17.80996   2.34707   2.83584
 -17.60966   2.06277   2.96274
 -17.56446   2.14217   2.86174
 -17.42326   2.07607   2.85574
 -17.25606   2.08607   2.93354
 -17.08026   2.09287   2.79324
 -16.95726   2.05637   2.71894
 -16.61636   2.09547   2.66324
 -16.28416   1.96737   2.79114
 -16.18146   1.85837   2.84334
 -15.74566   1.75247   2.67964
 -15.42956   1.66667   2.68154
 -15.13356   1.79107   2.73134
 -14.61846   1.63747   2.86414
 -14.37206   1.40037   2.79634
 -13.95796   1.39267   3.09394
 -13.70566   1.44077   3.09624
 -13.30026   1.18107   3.06754
 -12.89886   1.08727   3.26744
 -12.60116   1.12657   3.42154
 -12.17916   1.03187   3.57864
 -11.74126   0.95777   3.67824
 -11.26686   0.88527   4.01534
 -10.71906   0.84337   4.15894
 -10.52776   0.67667   4.22484
 -10.07656   0.70617   4.57744
  -9.61756   0.54227   4.81104
  -9.27226   0.56257   4.90664
  -8.58646   0.53737   5.29314
  -8.14806   0.27897   5.55574
  -8.02186   0.20367   5.92654
  -7.42136   0.05337   6.15074
  -7.12186  -0.02193   6.51414
  -6.65966  -0.13253   6.89664
  -6.31736  -0.12903   7.22534
  -5.96876  -0.33223   7.45564
  -5.60006  -0.36143   7.98734
  -5.15556  -0.42013   8.41234
  -4.83406  -0.29313   8.55054
  -4.47496  -0.37543   9.01464
  -4.05316  -0.37123   9.24104
  -3.87876  -0.22303   9.69064
  -3.40476  -0.41543  10.04994
  -3.12376  -0.21883  10.40744
  -2.71876  -0.29643  10.67444
  -2.40996  -0.22463  10.97444
  -2.07416  -0.23403  11.26484
  -1.65196  -0.16123  11.47064
  -1.24746  -0.18843  11.59944
  -0.77376  -0.14773  11.82364
  -0.42516  -0.17293  12.16644
   0.04414  -0.21243  12.36094
   0.42334  -0.05063  12.31844
   0.99524   0.02207  12.38154
   1.51334  -0.04013  12.46754
   2.12384   0.31707  12.45914
   2.58984   0.07087  12.54454
   2.99124   0.07837  12.35514
   3.60034   0.26307  12.18744
   4.21174   0.17777  12.14494
   4.74394   0.23687  12.03974
   5.31934   0.27267  11.75534
   5.94144   0.32057  11.67234
   6.59004   0.33017  11.38134
   7.13134   0.25837  11.06654
   7.99084   0.39077  10.84374
   8.76264   0.19487  10.30784
   9.17364   0.32697  10.05604
   9.91014   0.21097   9.70844
  10.63774   0.09597   9.35274
  11.30384  -0.00723   8.62654
  11.82154  -0.06213   8.46384
  12.52834   0.06227   7.68734
  13.33914  -0.21313   7.64784
  13.86804   0.12627   7.08014
  14.45864   0.06457   6.61024
  14.87394   0.07297   6.14814
  15.49914   0.02277   5.62094
  15.97254  -0.03803   5.14914
  16.41844   0.08117   4.72174
  16.92534  -0.00973   4.37034
  17.50494   0.10547   3.53934
  17.69554   0.08077   3.36004
  18.19774   0.27687   2.88354
  18.57374   0.31057   2.53044
  18.68924   0.23407   2.29384
  19.11124   0.42977   1.93754
  19.32704   0.49787   1.70304
  19.61644   0.38307   1.37054
  19.71514   0.52827   1.07224
  19.93004   0.46507   0.78624
  20.11454   0.48877   0.57814
  20.09934   0.51207   0.50264
  20.20004   0.50577   0.36094
  20.28794   0.52097   0.36214
  20.47014   0.57947   0.07194
  20.43924   0.47987  -0.05896
  20.32754   0.44007  -0.04636
  20.26484   0.37367  -0.12656
  20.29174   0.34677  -0.17986
  20.25574   0.18037  -0.29046
  20.09014   0.23437  -0.23456
  20.07924   0.08677  -0.34046
  19.80584   0.08287  -0.45736
  20.04694  -0.04063  -0.26936
  19.84964  -0.34523  -0.20346
  19.57934  -0.45423  -0.38556
  19.51754  -0.50823  -0.53386
  19.35154  -0.40913  -0.67596
  19.20564  -0.37703  -0.45766
  19.11424  -0.55013  -0.49296
  19.02514  -0.70163  -0.53806
  18.79414  -0.85783  -0.78616
  18.78344  -0.70113  -0.75926
  18.61364  -0.73063  -0.76386
  18.46354  -0.71123  -0.80316
  18.17714  -0.77223  -1.05846
  18.06234  -0.77193  -1.06716
  17.89194  -0.62843  -1.16416
  17.74814  -0.62893  -1.22476
  17.49044  -0.52203  -1.16676
  17.16504  -0.54263  -1.29046
  16.98664  -0.41983  -1.33956
  16.78064  -0.37593  -1.29186
  16.54544  -0.46803  -1.38256
  16.24594  -0.26363  -1.33186
  15.89804  -0.44743  -1.42796
  15.75144  -0.42853  -1.37576
  15.35954  -0.31563  -1.45546
  15.03574  -0.47293  -1.47916
  14.66164  -0.33643  -1.48546
  14.35324  -0.25993  -1.58806
  13.98034  -0.15403  -1.50716
  13.59054  -0.11633  -1.62126
  13.33874  -0.07873  -1.55066
  12.74064   0.04097  -1.71436
  12.43244   0.05597  -1.78516
  12.11894   0.30007  -1.71036
  11.69174   0.17657  -1.74896
  11.21554   0.32157  -1.92616
  11.04994   0.25327  -1.76906
  10.65624   0.09967  -1.87286
  10.03474   0.24017  -2.12766
   9.67654   0.07227  -2.05596
   9.20704   0.48917  -2.38606
   9.08244   0.38557  -2.23336
   8.43034   0.62997  -2.50416
   8.20004   0.62577  -2.56606
   7.55404   0.53527  -2.74406
   7.48364   0.66337  -2.96376
   6.80094   0.83897  -3.16166
   6.36774   0.88057  -3.24396
   5.84184   0.87167  -3.32456
   5.52014   0.96827  -3.65446
   5.15424   0.99627  -3.88756
   4.75044   1.13897  -4.05496
   4.35464   1.06347  -4.48266
   4.06024   1.05897  -4.59606
   3.45534   1.30657  -4.92076
   3.26224   1.36127  -5.31056
   3.24404   1.33067  -5.57846
   2.66164   1.40127  -5.93106
   2.47714   1.29627  -6.29276
   2.26954   1.37647  -6.58646
   2.08484   1.53667  -7.00516
   1.73974   1.46187  -7.14756
   1.45984   1.36087  -7.55446
   1.18444   1.35077  -7.72046
   0.81664   1.31527  -8.38606
   0.78904   1.22967  -8.57916
   0.57584   1.25817  -8.96916
   0.30414   1.05287  -9.18076
   0.01984   1.15927  -9.39616
  -0.13596   1.02157  -9.54646
  -0.30446   0.92497  -9.73566
  -0.58736   0.92547  -9.91966
  -0.91026   0.75057 -10.24036
  -0.83496   0.77957 -10.37346
  -1.27946   0.47287 -10.45836
  -1.74426   0.17847 -10.62646
  -2.32576   0.26407 -10.92636
  -2.21306   0.21467 -10.96356
  -2.58596   0.03137 -10.97716
  -3.17216  -0.04413 -11.31776
  -3.39876  -0.25803 -11.14216
  -3.84386  -0.13273 -11.44076
  -4.29026  -0.20713 -11.29276
  -4.55626  -0.23163 -11.52896
  -5.01576  -0.32983 -11.69886
  -5.51936  -0.37243 -11.59346
  -5.92646  -0.40463 -11.71436
  -6.36176  -0.30203 -11.73656
  -6.79386  -0.30953 -11.94486
  -7.37416  -0.38343 -11.77046
  -7.73706  -0.25413 -11.93946
  -8.12676  -0.20193 -11.84996
  -8.88736  -0.29103 -11.96736
  -9.24046  -0.33963 -12.06526
  -9.45626  -0.10513 -11.98556
 -10.04936  -0.16223 -12.05616
 -10.54976  -0.09413 -12.10996
 -11.03776  -0.05603 -12.02366
 -11.34466  -0.08203 -12.08396
 -11.88806  -0.00723 -12.33066
 -12.22176  -0.35373 -12.31336
 -12.86186  -0.20753 -12.43046
 -13.14966  -0.20663 -12.30396
 -13.70996  -0.26693 -12.53636
 -14.14176  -0.27983 -12.80156
 -14.57966  -0.35693 -12.77626
 -14.82846  -0.28703 -12.60396
 -15.18006  -0.45233 -12.65026
 -15.44646  -0.35413 -12.95466
 -15.87316  -0.38643 -12.93226
 -15.93976  -0.51203 -12.78796
 -16.25356  -0.64833 -12.82706
 -16.89046  -0.73203 -12.85786
 -17.21396  -0.70133 -12.86656
 -17.07766  -0.76213 -12.77866
 -17.32786  -0.76893 -12.70806
 -17.66016  -0.63773 -12.82636
 -17.77536  -0.91973 -12.56006
 -18.10946  -1.03593 -12.53246
 -18.02696  -1.09973 -12.33326
 -18.31876  -1.20453 -12.18336
 -18.32036  -1.11563 -11.94606
 -18.56056  -1.06943 -11.86256
 -18.60656  -1.18723 -11.58736
 -18.67346  -1.16223 -11.19526
 -18.86726  -1.26583 -11.18126
 -18.90326  -1.18653 -10.73866
 -18.97766  -1.21813 -10.47136
 -19.27196  -1.18723 -10.27246
 -19.14686  -1.14883  -9.95566
 -19.12076  -1.17533  -9.71876
 -19.37186  -1.17883  -9.31736
 -19.37136  -0.97443  -8.90886
 -19.20206  -1.02383  -8.47866
 -19.25936  -0.89173  -8.07016
