********************************************************************************
              CENTRO DE INSTRUMENTACION Y REGISTRO SISMICO  A.C.

    Anaxagoras 814, Col. Narvarte, Benito Juarez, C.P. 03020 Mexico, D.F.
           Tels. 5687 45 42/ 5687 45  82             Fax. 5669 25 12
********************************************************************************
ARCHIVO ESTANDAR DE ACELERACION:
VERSION DEL FORMATO                    : 2.0
NOMBRE DEL ARCHIVO                     : RM4820220919180509
FECHA Y HORA DE CREACION               : 19/SEP/22, 19:46
REF. CATALOGO ACELEROGRAMAS, SMIS 1996 : REGISTRO No.     /PAG.


================================================================================
DATOS DE LA ESTACION:
NOMBRE DE LA ESTACION                  : ESC. PRIM. "RODOLFO MENENDEZ"
CLAVE DE LA ESTACION                   : RM48
LOCALIZACION DE LA ESTACION            : Del. Cuauhtémoc, Col. Centro, entre    
                                       : Loreto y San Ildefonso.                
                                       :                                        
                                       :                                        
                                       : 
COORDENADAS DE LA ESTACION             : 19.4359 LAT. N
                                       : 99.1280 LONG. W
ALTITUD (msnm)                         : 2232
TIPO DE SUELO                          : Arcilloso, zona lago                
                                       :                           
                                       : 
INSTITUCION RESPONSABLE                : CIRES, A. C.
                                       : 

================================================================================
DATOS DEL ACELEROGRAFO:
MODELO DEL ACELEROGRAFO                : RAD_IO14
NUMERO DE SERIE DEL ACELEROGRAFO       : 
NUMERO DE CANALES                      : 3
ORIENTACION C1-C6 (rumbo;orientacion)  : /N00E/+V/N90W
ORIENTACION C7-C12 (rumbo;orientacion) : 
VEL. DE MUESTREO, C1-C6 (muestras/s)   : /100/100/100
VEL. DE MUESTREO, C7-C12 (muestras/s)  : 
ESC. COMPLETA DE SENSORES, C1-C6, (g)  : /2.0/2.0/2.0
ESC. COMPLETA DE SENSORES, C7-C12, (g) : 
FREC. NAT. DE SENSORES, C1-C6, (Hz)    : /32/33/30
FREC. NAT. DE SENSORES, C7-C12, (Hz)   : 
AMORTIGUAMIENTO DE SENSORES, C1-C6     : /0.800/0.795/0.700
AMORTIGUAMIENTO DE SENSORES, C7-C12    : 
INTERVALO DE MUESTREO, C1-C6, (s)      : /0.01/0.01/0.01
INTERVALO DE MUESTREO, C7-C12, (s)     : 
UMBRAL DE DISPARO, C1-C6, (Gal)        : / / /
UMBRAL DE DISPARO, C7-C12, (Gal)       : 
MEMORIA DE PREEVENTO (s)               : 60
TIEMPO DE POSEVENTO (s)                : 90


================================================================================
DATOS DEL SISMO:
FECHA DEL SISMO (GMT)                  : 19/SEP/22
HORA EPICENTRO (GMT)                   : 18:05:09.0
MAGNITUD(ES)                           : /Mc=7.7
COORDENADAS DEL EPICENTRO              : 18.22 LAT. N
                                       : 103.29 LONG. W
PROFUNDIDAD FOCAL (km)                 : 15
FUENTE DE LOS DATOS EPICENTRALES       : SSN
                                       : INSTITUTO DE GEOFISICA, UNAM

================================================================================
DATOS DE ESTE REGISTRO:
HORA DE LA PRIMERA MUESTRA (GMT)       : 18:04:26.949.00
EXACTITUD DEL TIEMPO (s)               : 
DURACION DEL REGISTRO (s), C1-C6       : /599.61/599.61/599.61
DURACION DEL REGISTRO (s), C7-C12      : 
NUM. TOTAL DE MUESTRAS, C1-C6          : /59961/59961/59961
NUM. TOTAL DE MUESTRAS, C7-C12         : 
ACEL. MAX. (Gal), C1-C6                : /20.33324/4.25026/15.83384
ACEL. MAX., C1-C6, EN LA MUESTRA       : /20534/19374/19361
ACEL. MAX. (Gal), C7-C12               : 
ACEL. MAX., C7-C12, EN LA MUESTRA      : 
UNIDADES DE LOS DATOS                  : Gal (cm/s/s)
FACTOR DE DECIMACION                   : 1
FORMATO DATOS (FORTRAN,10 campos/dato) : 3F10.5


================================================================================
CALIDAD DEL ACELEROGRAMA:
REGISTRO DIGITAL COMPLETO CON TIEMPO ABSOLUTO CORRECTO.


================================================================================
COMENTARIOS:














================================================================================
DATOS DE ACELERACION:
---------+---------+---------+---------+---------+---------+---------+---------+
   CANAL-1   CANAL-2   CANAL-3   CANAL-4   CANAL-5   CANAL-6   CANAL-7   CANAL-8
      N00E        +V      N90W
---------+---------+---------+---------+---------+---------+---------+---------+
[...]
 -17.61696  -0.80124  -6.18054
 -17.62986  -0.78064  -6.07204
 -17.55156  -0.69764  -6.06744
 -17.30036  -0.87014  -5.85114
 -17.26576  -1.03104  -5.68444
 -17.06916  -1.05624  -5.39634
 -16.90156  -1.18304  -5.32644
 -16.85756  -0.97654  -5.13124
 -16.71306  -1.08944  -4.78914
 -16.50776  -1.17464  -4.56794
 -16.37146  -1.31184  -4.12534
 -16.17176  -1.33664  -3.89834
 -15.92656  -1.37404  -3.77094
 -15.70906  -1.40774  -3.43564
 -15.60506  -1.35304  -3.18004
 -15.27726  -1.26954  -2.79084
 -14.86246  -1.38874  -2.59974
 -14.59456  -1.61464  -2.30054
 -13.98756  -1.54264  -2.14434
 -13.63636  -1.76164  -1.78984
 -13.18536  -1.56994  -1.59904
 -12.90456  -1.56364  -1.34284
 -12.22396  -1.53134  -0.77214
 -11.71116  -1.65274  -0.65824
 -11.32356  -1.61114  -0.23294
 -10.72286  -1.60034  -0.04964
  -9.99576  -1.53134   0.31256
  -9.44416  -1.55434   0.74276
  -8.96586  -1.47014   1.25736
  -8.17576  -1.42124   1.55806
  -7.73156  -1.09554   2.05346
  -7.09416  -1.14374   2.43836
  -6.71026  -0.85944   2.81686
  -5.84706  -1.00204   3.47106
  -5.30856  -1.08244   4.06796
  -4.73526  -0.88144   4.28476
  -4.17106  -0.90994   5.07756
  -3.66306  -0.71514   5.49536
  -2.86346  -0.55874   6.06636
  -2.29476  -0.41824   6.42496
  -1.74486  -0.40184   6.81896
  -1.23796  -0.06304   7.28566
  -0.48506  -0.19024   7.73196
  -0.10186   0.01806   8.10256
   0.51704   0.16586   8.57536
   1.23084   0.26726   8.94946
   1.65584   0.23106   9.43806
   2.26004   0.11296   9.81876
   2.83104   0.22846   9.88306
   3.06854   0.43256  10.33666
   3.80694   0.34536  10.71426
   4.47114   0.55626  11.05376
   5.09734   0.68326  11.44556
   5.48354   0.64796  11.63476
   5.81164   0.58276  11.80726
   6.63504   0.68606  12.16546
   7.14364   0.48126  12.27796
   7.62384   0.72436  12.55336
   7.98254   0.63576  12.76826
   8.56984   0.72436  12.78136
   9.07764   0.57806  12.89306
   9.46624   0.59296  13.07736
   9.98504   0.75266  13.06446
  10.35634   0.91686  13.08226
  10.76154   0.91986  13.02026
  10.93384   1.04916  13.00606
  11.43774   1.17826  12.96836
  11.96964   1.27006  12.90576
  12.08324   1.34466  12.82246
  12.54714   1.47356  12.91156
  13.07884   1.65846  12.61746
  13.16324   1.74776  12.58326
  13.42674   1.68656  12.42316
  13.65164   1.74236  12.14186
  13.99324   2.14526  12.14776
  14.38284   2.08986  12.03806
  14.55974   2.06276  11.87276
  14.83964   1.95936  11.80186
  15.00094   2.27476  11.69206
  15.25814   2.29416  11.55216
  15.30474   2.20816  11.51576
  15.63644   2.19226  11.49166
  15.74844   1.90536  11.39136
  16.14294   1.80766  11.20216
  16.02814   1.94066  11.24596
  16.24324   1.72466  11.31396
  16.53594   1.61826  11.04386
  16.64024   1.53316  11.13256
  16.51374   1.63506  11.11846
  16.78124   1.66216  11.07916
  17.00124   1.34916  10.95906
  16.74384   0.97106  10.90926
  17.12954   0.90066  10.95276
  17.08284   0.96776  10.95436
  17.17844   0.85556  10.88846
  16.98784   0.62296  10.71746
  17.08894   0.47776  10.86546
  17.05894   0.38166  10.92956
  17.06484   0.22636  10.77436
  17.00334   0.16886  10.52226
  16.93664   0.09876  10.44796
  16.59324  -0.14954  10.57136
  16.28364   0.05316  10.30646
  16.46414   0.02786  10.24826
  16.45874  -0.23654   9.93326
  15.93644  -0.24754   9.91976
  15.89114  -0.31114   9.72736
  15.55234  -0.34224   9.48416
  15.44704  -0.33564   9.35296
  15.41974  -0.46034   9.17106
  15.06314  -0.57064   8.88066
  14.77674  -0.37564   8.61016
  14.40224  -0.34484   8.35766
  14.16654  -0.24384   8.23286
  13.94604  -0.25484   7.79326
  13.47004  -0.13254   7.57256
  13.13284  -0.01704   7.40326
  12.93414   0.14806   7.03126
  12.51744   0.31526   6.62306
  12.12844   0.44426   6.27986
  11.87984   0.52686   6.03616
  11.60004   0.56866   5.68806
  11.18474   0.70706   5.40606
  10.86074   0.94956   5.08786
  10.36014   1.16606   4.74646
  10.01364   1.14926   4.42386
   9.84994   1.19906   4.02866
   9.46294   1.28506   3.61786
   9.07834   1.33796   3.30366
   8.50344   1.54276   2.75066
   8.02554   1.48736   2.36236
   7.66734   1.57146   1.91136
   7.29484   1.70286   1.35466
   6.90184   1.67996   0.91436
   6.56824   1.79456   0.48326
   6.15884   1.96316  -0.11884
   5.91494   1.96286  -0.35384
   5.21534   1.94796  -0.89854
   4.77114   2.02836  -1.26314
   4.49854   2.03956  -1.89064
   3.97484   2.11856  -2.26094
   3.60564   1.93646  -2.80384
   3.16584   1.95916  -3.28344
   2.83524   2.02296  -3.63624
   2.37064   1.88246  -4.05364
   2.06644   1.75876  -4.20344
   1.83264   1.74306  -4.75384
   1.35384   1.66476  -4.86144
   0.99494   1.63716  -5.31964
   0.69584   1.37506  -5.70824
   0.79004   1.20676  -6.06294
   0.46134   1.12956  -6.21004
  -0.06936   1.14736  -6.39004
   0.00024   0.93346  -6.68584
  -0.18416   0.77556  -7.03844
  -0.29876   0.62156  -7.21404
  -0.67726   0.64846  -7.51394
  -0.85686   0.66646  -7.74754
  -1.20686   0.58036  -7.85224
  -1.15616   0.44196  -8.26314
  -1.35206   0.26076  -8.34214
  -1.59006   0.34006  -8.65054
  -1.75166   0.18476  -8.58104
  -2.02266   0.17546  -8.91094
  -2.09206  -0.04834  -9.18074
  -2.13766  -0.06474  -9.10434
  -2.58566  -0.10114  -9.35354
  -2.62306  -0.27184  -9.42674
  -2.70256  -0.13154  -9.48124
  -2.98846  -0.15444  -9.53714
  -3.36286  -0.33494  -9.73984
  -3.45756  -0.31554  -9.85064
  -3.76406  -0.40954  -9.78964
  -4.21876  -0.36144  -9.99654
  -4.20926  -0.36234 -10.05404
  -4.49096  -0.42034 -10.40994
  -4.98636  -0.61254 -10.66454
  -5.14866  -0.46684 -10.95684
  -5.55126  -0.48414 -11.05504
  -5.85126  -0.50334 -11.16884
  -6.14466  -0.46214 -11.52404
  -6.48486  -0.16994 -11.72344
  -6.73086  -0.09274 -11.61174
  -7.14746  -0.14394 -11.81694
  -7.38436  -0.32704 -12.18314
  -7.63496  -0.17014 -12.36784
  -7.83816  -0.11524 -12.51214
  -8.22626  -0.17624 -12.62434
  -8.48866  -0.19194 -12.82494
  -8.55716  -0.12624 -12.78444
  -8.78506  -0.16854 -13.10414
  -9.25946  -0.16054 -12.95494
  -9.63266  -0.16804 -12.95864
  -9.80096  -0.28634 -13.16884
  -9.89266  -0.28734 -12.97314
 -10.03476  -0.37564 -13.08704
 -10.32516  -0.38834 -13.06384
 -10.32756  -0.59174 -12.79894
 -10.69526  -0.70444 -12.78164
 -11.03546  -0.57414 -12.73534
 -10.99766  -0.57394 -12.48564
 -11.18346  -0.87974 -12.33884
 -11.39186  -1.11384 -12.16304
 -11.51946  -1.00784 -11.79224
 -11.57626  -1.16664 -11.59254
 -11.61976  -1.26324 -11.41484
 -11.75566  -1.30434 -11.26094
 -11.69806  -1.40884 -11.04704
 -11.94476  -1.60384 -10.73814
 -12.07386  -1.73974 -10.32854
 -12.03016  -1.65044 -10.07674
 -12.39886  -1.50454  -9.74314
 -12.55126  -1.44234  -9.43264
 -12.54236  -1.54004  -8.93604
 -12.53866  -1.64224  -8.74874
 -12.78066  -1.75304  -8.37814
 -12.78156  -1.43104  -7.88194
 -13.04086  -1.22464  -7.65354
 -12.91366  -1.14464  -7.35404
 -12.97846  -1.39274  -6.99704
 -13.26466  -1.05654  -6.61754
 -13.32496  -0.80474  -6.23224
 -13.18866  -0.92444  -5.68694
 -13.21736  -0.77084  -5.30684
 -13.41306  -0.80654  -5.12604
 -13.34666  -0.69664  -4.67204
 -13.36936  -0.67094  -4.35144
 -13.51086  -0.41754  -4.24364
 -13.45306  -0.45004  -3.85554
 -13.58216  -0.47104  -3.78984
 -13.55666  -0.47274  -3.55724
 -13.57976  -0.73224  -3.27434
 -13.74696  -0.64834  -3.21024
 -13.66636  -0.50984  -2.92614
 -13.40676  -0.57794  -2.75524
 -13.53796  -0.61694  -2.48074
 -13.64756  -0.56274  -2.38284
 -13.48866  -0.54934  -2.16534
 -13.59356  -0.36604  -1.98654
 -13.22936  -0.47414  -1.81274
 -13.21646  -0.59524  -1.53294
 -13.28166  -0.66274  -1.51604
 -13.12766  -0.60034  -1.16394
 -12.99806  -0.45374  -0.87874
 -12.97096  -0.56414  -0.58454
 -12.82946  -0.49284  -0.34424
 -12.60456  -0.54094  -0.07604
 -12.52366  -0.69954   0.30436
 -12.35836  -0.68194   0.59426
 -12.26396  -0.77824   0.96886
 -12.20496  -0.70324   1.14306
 -11.98316  -0.83794   1.63616
 -11.78186  -1.03224   1.98666
 -11.63196  -1.27394   2.26066
 -11.41236  -1.38334   2.53376
 -11.37636  -1.65204   2.78646
 -11.18766  -1.73384   2.99786
 -11.00016  -1.88394   3.55476
 -10.94576  -2.05324   3.58076
 -10.66446  -2.40634   3.77546
 -10.51686  -2.46244   4.18796
 -10.35626  -2.63474   4.31206
 -10.29576  -2.71794   4.53306
  -9.98176  -3.05184   4.88676
  -9.92046  -2.92584   4.89706
  -9.71616  -2.92934   5.16826
  -9.57746  -3.18204   5.21126
  -9.32826  -3.05044   5.38406
  -9.13366  -2.98874   5.61046
  -8.81736  -3.03574   5.76096
  -8.69316  -3.01394   5.92166
  -8.55756  -2.91324   6.06636
  -8.33356  -2.56784   6.23076
  -8.00226  -2.65834   6.20526
  -7.57276  -2.41564   6.49186
  -7.36866  -2.42734   6.61906
  -7.10516  -2.35224   6.65276
  -6.71046  -2.05584   6.76146
  -6.18746  -1.84864   6.93756
  -6.09836  -1.49074   7.04456
  -5.69366  -1.20424   7.15706
  -5.22796  -0.98704   7.25946
  -4.80776  -0.76544   7.21156
  -4.47716  -0.79534   7.59846
  -4.02496  -0.43084   7.50146
  -3.50776  -0.05694   7.60646
  -3.02706   0.01036   7.87696
  -2.56836   0.15996   7.73996
  -2.08596   0.37536   7.84516
  -1.47296   0.43616   7.71256
  -1.00856   0.63276   7.98596
  -0.50456   0.70916   7.82366
   0.19764   0.79646   7.85356
   0.93134   1.01876   7.75186
   1.53614   1.22896   7.51576
   2.21674   1.19016   7.51386
   2.99774   1.37646   7.50966
   3.61564   1.35266   7.47366
   4.42374   1.45206   7.32466
   5.15714   1.76506   7.11336
   5.94794   1.59576   7.02306
   6.75644   1.41816   6.85126
   7.83054   1.47726   6.54826
   8.41014   1.63676   6.66656
   9.01824   1.49196   6.36886
  10.07834   1.38466   6.12666
  10.54224   1.22476   5.90856
  11.32784   1.16046   5.76196
  12.22034   1.15716   5.61206
  12.89414   1.24786   5.31696
  13.42934   1.07606   5.17716
  14.03604   1.14266   4.89406
  14.58294   1.10906   4.88346
  15.14994   1.04446   4.79306
  15.63344   1.15606   4.69946
  16.29514   1.10196   4.43786
  16.65934   1.33656   4.45656
  16.95004   1.12816   4.40306
  17.31194   0.91546   4.29356
  17.83054   0.95676   4.08246
  18.11974   0.78636   4.22506
  18.28174   0.68236   4.12996
  18.53264   0.49966   4.05886
  18.84014   0.41956   3.97866
  19.29394   0.52356   3.98216
  19.50294   0.21286   3.90996
  19.56634   0.13196   3.98546
  19.71454   0.29866   4.11096
  20.08184   0.08396   4.01636
  20.06854   0.07136   3.99946
  20.12514   0.18286   4.05486
  20.32034   0.08446   4.23566
  20.14124   0.23176   4.25546
  20.33324   0.07156   4.22256
  20.20584   0.12866   4.35646
  19.94184   0.05076   4.38126
  20.01384  -0.06124   4.36816
  19.94584   0.02436   4.50096
  19.84204  -0.05374   4.33666
  19.80224  -0.09374   4.49916
  19.52724   0.04896   4.41686
  19.50014  -0.01024   4.30506
  19.32694   0.05126   4.23466
  18.95914  -0.05554   4.09416
  18.87984   0.08396   4.32756
  18.55024  -0.22694   3.95086
  18.26354  -0.20854   3.79446
  18.04654  -0.25664   3.71516
  17.64884  -0.13924   3.58186
  17.21634  -0.24734   3.34976
  16.95164  -0.46404   3.18346
  16.75594  -0.39924   2.88796
  16.25794  -0.55124   2.65436
  16.08094  -0.55194   2.62466
  15.57824  -0.60944   2.38086
  15.08794  -0.54214   2.10356
  14.86044  -0.77334   1.79866
  14.61454  -0.73974   1.83346
  14.14224  -0.99124   1.47946
  13.62294  -0.91434   1.22816
  13.19974  -0.93614   1.27866
  12.72884  -0.87184   1.08156
  12.27364  -0.89614   1.00486
  11.82144  -1.02774   0.90406
  11.28104  -0.97584   0.75886
  10.85574  -1.04694   0.59356
  10.29344  -1.15404   0.48816
   9.81274  -1.36964   0.54216
   9.35404  -1.32794   0.29286
   8.90934  -1.31134   0.41236
   8.42414  -1.37704   0.29106
   7.79524  -1.64194   0.27116
   7.34564  -1.66604   0.05486
   6.88924  -1.64874   0.02826
   6.21914  -1.97634   0.07406
   5.83194  -1.74624   0.03406
   5.30564  -1.88144   0.14416
   4.82864  -2.07384   0.14026
   4.45384  -2.07714   0.06986
   3.87754  -2.22864   0.14556
   3.30404  -2.18114   0.13696
   2.77704  -2.19654   0.04386
   2.35874  -2.13464   0.13396
   1.79404  -2.28824   0.18326
   1.39404  -2.10374   0.08946
   0.99654  -1.99974  -0.06554
   0.42094  -1.78694  -0.25654
   0.01614  -1.85334  -0.14904
  -0.20196  -1.44744  -0.18714
  -0.85966  -1.58544  -0.34634
  -1.32166  -1.46854  -0.53714
  -1.69556  -1.47904  -0.69614
  -1.89586  -1.35724  -0.69024
  -2.27796  -1.19304  -0.80134
  -2.49116  -1.09444  -1.00124
  -2.68946  -0.95174  -1.31544
  -3.22906  -0.81384  -1.46134
  -3.46146  -0.54354  -1.53784
  -3.60976  -0.50144  -1.79264
  -4.01186  -0.39504  -2.20744
  -4.20496  -0.26294  -2.35684
  -4.20526  -0.14864  -2.57734
  -4.51336  -0.11594  -2.69634
  -4.60696   0.10646  -2.87804
  -4.59706   0.29116  -3.14334
  -5.08176   0.36406  -3.37674
  -5.30226   0.53036  -3.46254
  -5.51996   0.49826  -3.54084
  -5.72756   0.60776  -3.80814
  -5.94736   0.87806  -3.85064
  -6.10116   0.68886  -3.87004
  -6.63876   0.83756  -4.01594
  -7.01886   0.93716  -4.01874
  -7.19126   1.11436  -4.10244
  -7.46666   1.12446  -4.12844
  -7.85686   1.15316  -4.17844
  -8.16406   1.28676  -4.09994
  -8.54166   1.34006  -4.25724
  -8.81596   1.43516  -3.99954
  -9.23536   1.54246  -4.13244
  -9.56156   1.43776  -4.00354
  -9.84076   1.64396  -4.06784
 -10.16946   1.76416  -3.90374
 -10.45026   1.85906  -3.82964
 -10.83136   1.87236  -3.74104
 -11.17556   1.73426  -3.61874
 -11.43346   1.98326  -3.49834
 -11.68966   1.98486  -3.25914
 -11.92186   1.91516  -3.36574
 -12.39346   1.99046  -3.44434
 -12.56816   2.14596  -3.30124
 -12.95806   2.07446  -3.13264
 -13.25856   2.10246  -2.99914
 -13.51666   2.19556  -3.07654
 -13.67496   2.22496  -3.02954
 -13.89266   2.26426  -3.07414
 -14.09376   2.30496  -3.04584
 -14.18306   2.27086  -2.92404
 -14.51646   2.27876  -2.93854
 -14.65746   2.26756  -2.83404
 -14.85986   2.24996  -2.91684
 -15.04086   2.07296  -2.84154
 -15.00296   2.08186  -2.72464
 -15.07406   1.95216  -2.76784
 -15.05486   1.65916  -2.73774
 -15.12126   1.64746  -2.68984
 -15.32446   1.47706  -2.62014
 -15.12626   1.37066  -2.66664
 -14.97006   1.08186  -2.65494
 -14.84936   1.02086  -2.61844
 -14.72056   0.68206  -2.61944
 -14.65326   0.49716  -2.68234
 -14.55756   0.48876  -2.53264
 -14.45446  -0.02614  -2.80344
 -14.21366  -0.24424  -2.81134
 -13.90406  -0.47834  -2.58084
 -13.79816  -0.61394  -2.63114
 -13.51666  -0.91134  -2.68254
 -13.11316  -1.05864  -2.77654
 -12.51946  -1.42754  -2.81134
 -12.20636  -1.71864  -2.72674
 -11.94386  -1.82574  -3.00594
 -11.42196  -1.89664  -2.97944
 -11.07666  -2.11524  -3.03914
 -10.57936  -2.36774  -3.01454
 -10.20426  -2.38034  -3.37694
  -9.85546  -2.48974  -3.42884
  -9.40986  -2.49444  -3.41884
  -8.96086  -2.62704  -3.70384
  -8.55176  -2.74084  -3.64814
  -8.27746  -2.67374  -3.76254
  -7.88726  -2.69664  -3.85554
  -7.49006  -2.65274  -3.78514
  -7.30296  -2.69644  -3.91234
  -6.95906  -2.51294  -3.87054
  -6.71426  -2.40534  -3.95614
  -6.47456  -2.37754  -3.93314
