********************************************************************************
               CENTRO DE INSTRUMENTACION Y REGISTRO SISMICO  A.C.

    Anaxagoras 814, Col. Narvarte, Benito Juarez, C.P. 03020 Mexico, D.F.
           Tels. 5687 45 42/ 5687 45  82             Fax. 5669 25 12
********************************************************************************
ARCHIVO ESTANDAR DE ACELERACION:
VERSION DEL FORMATO                    : 2.0
NOMBRE DEL ARCHIVO                     : S16020220919180509
FECHA Y HORA DE CREACION               : 19/SEP/22, 17:43
REF. CATALOGO ACELEROGRAMAS, SMIS 1996 : REGISTRO No.     /PAG.


================================================================================
DATOS DE LA ESTACION:
NOMBRE DE LA ESTACION                  : SCT (POZO 7 MTS)
CLAVE DE LA ESTACION                   : S160
LOCALIZACION DE LA ESTACION            : Del. Cuauhtémoc, Col. Narvarte,        
                                       : Calle Cumbres de Acultzingo entre      
                                       : Av. Universidad y Eje Central          
                                       : Lázaro Cardenas.                       
                                       : 
COORDENADAS DE LA ESTACION             : 19.3930 LAT. N
                                       : 99.1470 LONG. W
ALTITUD (msnm)                         : 2247
TIPO DE SUELO                          : Alto riesgo sísmico                 
                                       :                           
                                       : 
INSTITUCION RESPONSABLE                : CIRES, A. C.
                                       : 

================================================================================
DATOS DEL ACELEROGRAFO:
MODELO DEL ACELEROGRAFO                : 
NUMERO DE SERIE DEL ACELEROGRAFO       : 
NUMERO DE CANALES                      : 3
ORIENTACION C1-C6 (rumbo;orientacion)  : /S00E/+V/N90W
ORIENTACION C7-C12 (rumbo;orientacion) : 
VEL. DE MUESTREO, C1-C6 (muestras/s)   : /200/200/200
VEL. DE MUESTREO, C7-C12 (muestras/s)  : 
ESC. COMPLETA DE SENSORES, C1-C6, (g)  : /7.0/7.0/7.0
ESC. COMPLETA DE SENSORES, C7-C12, (g) : 
FREC. NAT. DE SENSORES, C1-C6, (Hz)    : /500/500/500
FREC. NAT. DE SENSORES, C7-C12, (Hz)   : 
AMORTIGUAMIENTO DE SENSORES, C1-C6     : /0.700/0.700/0.700
AMORTIGUAMIENTO DE SENSORES, C7-C12    : 
INTERVALO DE MUESTREO, C1-C6, (s)      : /0.005/0.005/0.005
INTERVALO DE MUESTREO, C7-C12, (s)     : 
UMBRAL DE DISPARO, C1-C6, (Gal)        : /1/1/1
UMBRAL DE DISPARO, C7-C12, (Gal)       : 
MEMORIA DE PREEVENTO (s)               : 60
TIEMPO DE POSEVENTO (s)                : 70


================================================================================
DATOS DEL SISMO:
FECHA DEL SISMO (GMT)                  : 19/SEP/22
HORA EPICENTRO (GMT)                   : 18:05:09.0
MAGNITUD(ES)                           : /Mc=7.7
COORDENADAS DEL EPICENTRO              : 18.22 LAT. N
                                       : 103.29 LONG. W
PROFUNDIDAD FOCAL (km)                 : 15
FUENTE DE LOS DATOS EPICENTRALES       : SSN
                                       : INSTITUTO DE GEOFISICA, UNAM

================================================================================
DATOS DE ESTE REGISTRO:
HORA DE LA PRIMERA MUESTRA (GMT)       : .00
EXACTITUD DEL TIEMPO (s)               : 
DURACION DEL REGISTRO (s), C1-C6       : /638.18/638.18/638.18
DURACION DEL REGISTRO (s), C7-C12      : 
NUM. TOTAL DE MUESTRAS, C1-C6          : /127636/127636/127636
NUM. TOTAL DE MUESTRAS, C7-C12         : 
ACEL. MAX. (Gal), C1-C6                : /25.21835/7.98229/23.07981
ACEL. MAX., C1-C6, EN LA MUESTRA       : /45226/42973/42830
ACEL. MAX. (Gal), C7-C12               : 
ACEL. MAX., C7-C12, EN LA MUESTRA      : 
UNIDADES DE LOS DATOS                  : Gal (cm/s/s)
FACTOR DE DECIMACION                   : 1
FORMATO DATOS (FORTRAN,10 campos/dato) : 3F10.5


================================================================================
CALIDAD DEL ACELEROGRAMA:
REGISTRO DIGITAL COMPLETO CON TIEMPO ABSOLUTO CORRECTO.


================================================================================
COMENTARIOS:














================================================================================
DATOS DE ACELERACION:
---------+---------+---------+---------+---------+---------+---------+---------+
   CANAL-1   CANAL-2   CANAL-3   CANAL-4   CANAL-5   CANAL-6   CANAL-7   CANAL-8
      N00E        +V      N90W
---------+---------+---------+---------+---------+---------+---------+---------+
[...]
 -24.85338  -0.68383   4.51021
 -24.88775  -0.68383   4.63787
 -24.91230  -0.69202   4.73443
 -24.91066  -0.67565   4.79908
 -24.89429  -0.65928   4.81627
 -24.84274  -0.66747   4.80399
 -24.73635  -0.65110   4.78763
 -24.63570  -0.63473   4.75326
 -24.51131  -0.63473   4.70088
 -24.35092  -0.62655   4.63869
 -24.17334  -0.61837   4.56422
 -23.96385  -0.61018   4.48321
 -23.75108  -0.60200   4.41119
 -23.54568  -0.58563   4.30481
 -23.33210  -0.57745   4.17633
 -23.10869  -0.56108   4.09368
 -22.87383  -0.56108   4.02330
 -22.61688  -0.55290   3.96029
 -22.34192  -0.54472   3.91119
 -22.05468  -0.53653   3.85964
 -21.76418  -0.52017   3.81872
 -21.49495  -0.49562   3.77699
 -21.23063  -0.47925   3.74507
 -20.96058  -0.47107   3.74098
 -20.67580  -0.46288   3.72707
 -20.38856  -0.44652   3.71561
 -20.10051  -0.41378   3.72380
 -19.78873  -0.38923   3.74671
 -19.47776  -0.38105   3.76880
 -19.14225  -0.36468   3.76635
 -18.79446  -0.35650   3.76389
 -18.44912  -0.35650   3.74098
 -18.06778  -0.34013   3.70743
 -17.70362  -0.34832   3.69024
 -17.33865  -0.35650   3.65015
 -16.95485  -0.36468   3.60759
 -16.57514  -0.38105   3.53231
 -16.16025  -0.39742   3.43083
 -15.74781  -0.42197   3.33509
 -15.33946  -0.45470   3.21316
 -14.90575  -0.47925   3.09204
 -14.48185  -0.50380   2.96357
 -14.04732  -0.54472   2.83672
 -13.59887  -0.58563   2.70497
 -13.15943  -0.64292   2.53558
 -12.72817  -0.70838   2.38664
 -12.32146  -0.77385   2.23934
 -11.93603  -0.83113   2.07977
 -11.56450  -0.89660   1.92347
 -11.20608  -0.97025   1.77371
 -10.86483  -1.03572   1.64360
 -10.52932  -1.10118   1.51758
 -10.19135  -1.17483   1.42183
  -9.86401  -1.25666   1.34491
  -9.52768  -1.34668   1.26553
  -9.18398  -1.43670   1.20825
  -8.82719  -1.51853   1.16897
  -8.45157  -1.60855   1.15260
  -8.06941  -1.69856   1.14687
  -7.67252  -1.78858   1.15260
  -7.28627  -1.87041   1.17470
  -6.89347  -1.96043   1.19515
  -6.45894  -2.04226   1.24098
  -6.01540  -2.12410   1.29663
  -5.56287  -2.21411   1.34736
  -5.09315  -2.30413   1.40546
  -4.64061  -2.41051   1.44311
  -4.20444  -2.51689   1.47093
  -3.76172  -2.61509   1.48730
  -3.32228  -2.71329   1.49139
  -2.89102  -2.77876   1.50857
  -2.45812  -2.85241   1.51594
  -2.04077  -2.92606   1.52003
  -1.63406  -2.96698   1.51839
  -1.23308  -3.01608   1.48975
  -0.85910  -3.06518   1.48157
  -0.48185  -3.10609   1.49548
  -0.08333  -3.13064   1.51348
   0.31357  -3.16338   1.52658
   0.71455  -3.20429   1.52412
   1.10653  -3.21247   1.50694
   1.44777  -3.21247   1.43738
   1.77347  -3.22884   1.33263
   2.10244  -3.22066   1.22871
   2.40276  -3.21247   1.12232
   2.69982  -3.20429   1.04704
   2.99933  -3.17156   0.99221
   3.28001  -3.13883   0.93247
   3.55006  -3.08973   0.87028
   3.81766  -3.04063   0.81054
   4.09753  -2.98334   0.75898
   4.41177  -2.91788   0.69925
   4.77510  -2.85241   0.66651
   5.16054  -2.77876   0.65587
   5.57379  -2.71329   0.61741
   6.02306  -2.64783   0.59859
   6.46250  -2.57418   0.58059
   6.89294  -2.51689   0.55113
   7.32339  -2.45961   0.53885
   7.75546  -2.38596   0.52085
   8.17445  -2.32868   0.50039
   8.56970  -2.27139   0.47011
   8.96823  -2.22229   0.42592
   9.34875  -2.17319   0.36291
   9.72355  -2.13228   0.29172
  10.09834  -2.09955   0.22871
  10.44450  -2.06681   0.14851
  10.78329  -2.03408   0.06177
  11.11389  -2.02590  -0.03971
  11.42731  -2.00953  -0.14527
  11.72191  -1.98498  -0.26066
  12.00833  -1.98498  -0.40468
  12.28902  -1.96861  -0.52825
  12.56807  -1.94406  -0.66655
  12.83893  -1.91951  -0.83758
  13.09507  -1.89496  -1.01270
  13.37740  -1.87041  -1.20337
  13.66463  -1.85405  -1.40959
  13.95023  -1.82131  -1.59617
  14.23746  -1.78858  -1.77211
  14.49687  -1.75585  -1.97179
  14.78329  -1.73948  -2.15100
  15.07052  -1.70675  -2.31057
  15.33484  -1.68220  -2.46360
  15.64990  -1.65765  -2.59945
  15.95677  -1.62491  -2.73529
  16.24483  -1.57581  -2.85395
  16.54270  -1.54308  -2.96033
  16.82911  -1.49398  -3.06589
  17.13190  -1.44488  -3.15100
  17.41668  -1.39578  -3.22874
  17.68754  -1.33031  -3.30157
  17.97723  -1.26485  -3.33512
  18.24728  -1.19120  -3.36540
  18.50915  -1.10118  -3.40468
  18.75956  -1.01117  -3.42187
  18.99605  -0.89660  -3.44151
  19.23664  -0.79022  -3.47342
  19.45759  -0.68383  -3.50288
  19.65645  -0.55290  -3.51843
  19.84466  -0.45470  -3.53971
  20.03206  -0.34013  -3.56917
  20.22846  -0.20920  -3.57080
  20.43632  -0.09464  -3.58226
  20.65399   0.01993  -3.60108
  20.86921   0.13450  -3.59535
  21.07543   0.23270  -3.59863
  21.27510   0.32271  -3.61499
  21.46823   0.42091  -3.61827
  21.65236   0.50275  -3.60927
  21.82830   0.56821  -3.59617
  21.98623   0.64186  -3.58390
  22.13272   0.71551  -3.55035
  22.28001   0.76461  -3.50861
  22.41995   0.83008  -3.46933
  22.54925   0.88736  -3.39486
  22.68345   0.92009  -3.30812
  22.81520   0.96101  -3.23529
  22.92731   1.00193  -3.14936
  23.05497   1.02648  -3.06017
  23.17445   1.05103  -2.96524
  23.25055   1.06739  -2.86704
  23.34303   1.08376  -2.77457
  23.44450   1.10013  -2.67228
  23.52551   1.10831  -2.58799
  23.61880   1.11649  -2.50288
  23.69573   1.14104  -2.39568
  23.76037   1.16559  -2.29666
  23.83566   1.19014  -2.20174
  23.87740   1.22288  -2.10845
  23.91668   1.23106  -2.02580
  23.95677   1.23106  -1.94969
  23.96905   1.21469  -1.88177
  23.96741   1.19833  -1.83185
  23.94532   1.18196  -1.78030
  23.91995   1.15741  -1.71401
  23.87903   1.14104  -1.66737
  23.81766   1.13286  -1.63709
  23.74237   1.12468  -1.59126
  23.63353   1.10831  -1.54625
  23.49605   1.10831  -1.50206
  23.33648   1.10013  -1.43578
  23.16872   1.07558  -1.36786
  22.98132   1.07558  -1.29994
  22.78820   1.07558  -1.22220
  22.60571   1.08376  -1.15346
  22.39376   1.08376  -1.09126
  22.16218   1.08376  -1.01516
  21.94041   1.10013  -0.91941
  21.70718   1.10831  -0.82203
  21.45514   1.13286  -0.72220
  21.19818   1.15741  -0.60599
  20.91586   1.17378  -0.47588
  20.60735   1.18196  -0.33512
  20.28411   1.19014  -0.18619
  19.93304   1.19014  -0.04134
  19.60080   1.20651   0.10923
  19.29311   1.23106   0.28271
  18.94941   1.23924   0.45375
  18.59753   1.24743   0.62641
  18.25465   1.23106   0.79990
  17.89785   1.23106   0.94884
  17.53533   1.22288   1.09777
  17.16954   1.20651   1.24262
  16.81520   1.19833   1.37600
  16.45759   1.15741   1.49875
  16.10653   1.14104   1.60923
  15.75792   1.10013   1.71398
  15.38967   1.05921   1.80481
  15.05661   1.04284   1.89646
  14.72191   0.99374   1.98812
  14.36512   0.95283   2.07240
  14.03288   0.89554   2.14033
  13.69573   0.83826   2.18779
  13.35857   0.78098   2.22216
  13.02879   0.71551   2.25571
  12.69245   0.67460   2.27862
  12.34139   0.65005   2.28353
  11.97396   0.61731   2.29581
  11.61307   0.58458   2.29417
  11.24483   0.56003   2.26635
  10.86676   0.54366   2.22871
  10.48951   0.50275   2.16733
  10.09343   0.47001   2.10923
   9.69000   0.44546   2.05031
   9.27756   0.40455   1.96275
   8.86348   0.35545   1.87928
   8.45677   0.32271   1.79581
   8.05170   0.27361   1.72789
   7.65481   0.24088   1.67961
   7.22928   0.21633   1.59941
   6.80047   0.19178   1.52249
   6.39540   0.15905   1.44965
   5.98050   0.13450   1.37109
   5.58034   0.10176   1.29417
   5.16954   0.05266   1.20334
   4.72928   0.01175   1.13542
   4.26610  -0.03735   1.06913
   3.77920  -0.07009   0.99466
   3.29311  -0.11919   0.91856
   2.78738  -0.17647   0.82445
   2.28574  -0.22557   0.74998
   1.78656  -0.28285   0.67879
   1.26365  -0.35650   0.60023
   0.74237  -0.43015   0.52330
   0.21209  -0.52017   0.41938
  -0.32228  -0.62655   0.33672
  -0.84683  -0.70838   0.25571
  -1.36729  -0.80658   0.13051
  -1.88611  -0.91297   0.01758
  -2.39920  -0.99480  -0.08308
  -2.90166  -1.10118  -0.19192
  -3.39020  -1.19938  -0.31303
  -3.86974  -1.28940  -0.43823
  -4.35419  -1.39578  -0.58308
  -4.84765  -1.49398  -0.75657
  -5.33783  -1.57581  -0.92678
  -5.83210  -1.65765  -1.10927
  -6.31573  -1.73130  -1.29830
  -6.77891  -1.78858  -1.48897
  -7.23390  -1.82131  -1.70256
  -7.66107  -1.86223  -1.91041
  -8.06860  -1.91133  -2.13054
  -8.48022  -1.94406  -2.37195
  -8.88529  -1.98498  -2.59290
  -9.30591  -2.02590  -2.80566
  -9.75518  -2.05045  -3.00861
 -10.20935  -2.06681  -3.21483
 -10.66352  -2.05863  -3.38013
 -11.11851  -2.05863  -3.53480
 -11.58905  -2.05045  -3.72138
 -12.07187  -2.03408  -3.85395
 -12.55141  -2.01771  -3.98406
 -13.02441  -1.99316  -4.08553
 -13.47940  -1.98498  -4.15591
 -13.92621  -1.96043  -4.25002
 -14.37465  -1.91951  -4.31876
 -14.82228  -1.91951  -4.39323
 -15.25763  -1.89496  -4.48079
 -15.67089  -1.90315  -4.55198
 -16.07923  -1.93588  -4.62400
 -16.46303  -1.93588  -4.72138
 -16.83128  -1.96043  -4.81385
 -17.21508  -1.98498  -4.91287
 -17.58824  -1.99316  -5.02334
 -17.93521  -2.01771  -5.11008
 -18.28300  -2.03408  -5.22629
 -18.63161  -2.02590  -5.31794
 -18.95403  -2.00135  -5.39323
 -19.26909  -1.99316  -5.48242
 -19.59642  -1.96861  -5.51434
 -19.90002  -1.93588  -5.57162
 -20.17743  -1.88678  -5.63627
 -20.44094  -1.82131  -5.66982
 -20.70444  -1.75585  -5.69519
 -20.98349  -1.66583  -5.68128
 -21.26254  -1.58400  -5.67064
 -21.52359  -1.50216  -5.63873
 -21.76663  -1.38760  -5.55280
 -21.99085  -1.29758  -5.45133
 -22.20035  -1.19120  -5.32040
 -22.39757  -1.05208  -5.14200
 -22.58005  -0.93752  -4.97588
 -22.74126  -0.82295  -4.80894
 -22.89347  -0.68383  -4.61990
 -23.05468  -0.56108  -4.43987
 -23.19298  -0.42197  -4.22629
 -23.33701  -0.31558  -4.03398
 -23.47694  -0.21738  -3.83431
 -23.59806  -0.04554  -3.60026
 -23.75927   0.02811  -3.43578
 -23.82473   0.29816  -3.22138
 -23.94585   0.58458  -3.02334
 -24.10378   0.44546  -2.91696
 -24.09806   0.51911  -2.76884
 -24.26090   0.77280  -2.66409
 -24.40084   0.87918  -2.56180
 -24.39511   0.95283  -2.45133
 -24.55632   1.07558  -2.39732
 -24.67089   1.23106  -2.33758
 -24.68889   1.28016  -2.30075
 -24.77645   1.39473  -2.30403
 -24.85583   1.54203  -2.33185
 -24.88775   1.60749  -2.38668
 -24.96385   1.70569  -2.47342
 -25.05796   1.82844  -2.58390
 -25.08414   1.90209  -2.70092
 -25.13324   1.98392  -2.83676
 -25.18562   2.09849  -2.99224
 -25.18398   2.16396  -3.12318
 -25.20280   2.23761  -3.27130
 -25.21344   2.31944  -3.39895
 -25.20608   2.38491  -3.49306
 -25.20935   2.45856  -3.61581
 -25.21835   2.53221  -3.69192
 -25.19789   2.61404  -3.77784
 -25.14388   2.69587  -3.85149
 -25.11606   2.78589  -3.87277
 -25.03914   2.86772  -3.89159
 -24.90657   2.94955  -3.86786
 -24.79364   3.03957  -3.82858
 -24.63979   3.11322  -3.72956
 -24.45076   3.16232  -3.60845
 -24.25190   3.21142  -3.47670
 -24.03177   3.26052  -3.28848
 -23.77727   3.27689  -3.11336
 -23.48431   3.27689  -2.92432
 -23.19544   3.28507  -2.70747
 -22.89675   3.25234  -2.49224
 -22.58333   3.22779  -2.26311
 -22.27318   3.23597  -2.01679
 -21.94094   3.21960  -1.77293
 -21.61770   3.20324  -1.53889
 -21.33128   3.20324  -1.29012
 -21.04159   3.19505  -1.00943
 -20.75027   3.17869  -0.68455
 -20.45894   3.18687  -0.31630
 -20.11933   3.17869   0.05031
 -19.74208   3.16232   0.41938
 -19.35010   3.15414   0.81217
 -18.94666   3.15414   1.19434
 -18.55632   3.16232   1.58222
 -18.17743   3.17050   1.98075
 -17.79364   3.17869   2.33918
 -17.40575   3.19505   2.68533
 -17.01950   3.21142   3.03067
 -16.64388   3.23597   3.33509
 -16.25518   3.25234   3.63051
 -15.83865   3.27689   3.92183
 -15.44503   3.30962   4.21398
 -15.06123   3.32599   4.52003
 -14.66025   3.35872   4.82936
 -14.26090   3.40782   5.14033
 -13.82719   3.43237   5.43574
 -13.38283   3.47329   5.74016
 -12.94094   3.50602   6.03722
 -12.47203   3.53057   6.32691
 -11.99740   3.55512   6.62069
 -11.50968   3.57149   6.90219
 -11.00477   3.57149   7.19679
 -10.48840   3.58785   7.48730
  -9.95403   3.58785   7.76635
  -9.42375   3.57967   8.03231
  -8.91720   3.57967   8.28190
  -8.42702   3.57967   8.52330
  -7.97040   3.56330   8.74016
  -7.54077   3.52239   8.96684
  -7.12670   3.48965   9.20170
  -6.74699   3.43237   9.42920
  -6.37874   3.35872   9.66406
  -6.00722   3.29325   9.91365
  -5.63734   3.24415  10.18533
  -5.26499   3.19505  10.46029
  -4.88938   3.11322  10.73116
  -4.51622   3.02320  10.98484
  -4.15207   2.94137  11.22952
  -3.76581   2.84317  11.44474
  -3.35747   2.74497  11.63542
  -2.94748   2.66314  11.83673
  -2.51131   2.56494  12.00612
  -2.04159   2.47492  12.18615
  -1.56041   2.36036  12.35718
  -1.07432   2.23761  12.49303
  -0.59396   2.13122  12.63705
  -0.11279   2.00847  12.76226
   0.39376   1.88573  12.88828
   0.92240   1.77116  13.00448
   1.47723   1.64841  13.11741
   2.02551   1.54203  13.23362
   2.56561   1.42746  13.34000
   3.11389   1.30471  13.47175
   3.63517   1.19014  13.58877
   4.13926   1.07558  13.69761
   4.62780   0.97738  13.81709
   5.09016   0.89554  13.91938
   5.54352   0.83008  14.01185
   5.97559   0.76461  14.09041
   6.39049   0.70733  14.18042
   6.79965   0.64186  14.27044
   7.18672   0.59276  14.35800
   7.57379   0.55185  14.47093
   7.94777   0.50275  14.56095
   8.28656   0.47820  14.64769
   8.61962   0.44546  14.73689
   8.94941   0.42091  14.80317
   9.28656   0.40455  14.87355
   9.61635   0.38000  14.92020
   9.94286   0.38818  14.94966
  10.29147   0.36363  14.98075
  10.63517   0.33908  14.99057
  10.99114   0.32271  14.98484
  11.35612   0.29816  14.97584
  11.71864   0.27361  14.95211
  12.10653   0.24088  14.90956
  12.49442   0.20815  14.87028
  12.87249   0.18360  14.82936
  13.25956   0.15905  14.77290
  13.64499   0.12631  14.70334
  14.02551   0.09358  14.62560
  14.39949   0.06085  14.54131
  14.77756   0.01175  14.45211
  15.16463  -0.02917  14.36046
  15.52470  -0.07009  14.26799
  15.86676  -0.11100  14.17470
  16.20964  -0.13555  14.06504
  16.54925  -0.14373  13.93902
  16.90276  -0.16010  13.81381
  17.25710  -0.15192  13.66733
  17.59507  -0.14373  13.50203
  17.93632  -0.12737  13.32036
  18.28656  -0.10282  13.12969
  18.63272  -0.06190  12.93083
  19.00096  -0.01280  12.71479
  19.38149   0.01993  12.47011
  19.75874   0.05266  12.18861
  20.15317   0.09358  11.89237
  20.52060   0.10995  11.56749
  20.87576   0.13450  11.23607
  21.22355   0.16723  10.91119
  21.53943   0.19178  10.56504
  21.84875   0.21633  10.21479
  22.13681   0.24906   9.83754
  22.41913   0.28998   9.42429
  22.68591   0.32271   8.98730
  22.93386   0.33908   8.53803
  23.18182   0.37181   8.08386
  23.39540   0.39636   7.63296
  23.59344   0.41273   7.19515
  23.78165   0.42910   6.74344
  23.93877   0.45365   6.27862
  24.07871   0.47001   5.80972
  24.22028   0.49456   5.34736
  24.33075   0.51911   4.92019
  24.39540   0.53548   4.48975
  24.46659   0.51911   4.05604
  24.51815   0.52730   3.65997
  24.54761   0.57640   3.27290
  24.60571   0.58458   2.90055
