********************************************************************************
               CENTRO DE INSTRUMENTACION Y REGISTRO SISMICO  A.C.

    Anaxagoras 814, Col. Narvarte, Benito Juarez, C.P. 03020 Mexico, D.F.
           Tels. 5687 45 42/ 5687 45  82             Fax. 5669 25 12
********************************************************************************
ARCHIVO ESTANDAR DE ACELERACION:
VERSION DEL FORMATO                    : 2.0
NOMBRE DEL ARCHIVO                     : S26020220919180509
FECHA Y HORA DE CREACION               : 19/SEP/22, 17:43
REF. CATALOGO ACELEROGRAMAS, SMIS 1996 : REGISTRO No.     /PAG.


================================================================================
DATOS DE LA ESTACION:
NOMBRE DE LA ESTACION                  : SCT (POZO 25 MTS)
CLAVE DE LA ESTACION                   : S260
LOCALIZACION DE LA ESTACION            : Del. Cuauhtémoc, Col. Narvarte,        
                                       : Calle Cumbres de Acultzingo entre      
                                       : Av. Universidad y Eje Central          
                                       : Lázaro Cardenas.                       
                                       : 
COORDENADAS DE LA ESTACION             : 19.3930 LAT. N
                                       : 99.1470 LONG. W
ALTITUD (msnm)                         : 2229
TIPO DE SUELO                          : Alto riesgo sísmico                 
                                       :                           
                                       : 
INSTITUCION RESPONSABLE                : CIRES, A. C.
                                       : 

================================================================================
DATOS DEL ACELEROGRAFO:
MODELO DEL ACELEROGRAFO                : 
NUMERO DE SERIE DEL ACELEROGRAFO       : 
NUMERO DE CANALES                      : 3
ORIENTACION C1-C6 (rumbo;orientacion)  : /S00E/+V/N90W
ORIENTACION C7-C12 (rumbo;orientacion) : 
VEL. DE MUESTREO, C1-C6 (muestras/s)   : /200/200/200
VEL. DE MUESTREO, C7-C12 (muestras/s)  : 
ESC. COMPLETA DE SENSORES, C1-C6, (g)  : /7.0/7.0/7.0
ESC. COMPLETA DE SENSORES, C7-C12, (g) : 
FREC. NAT. DE SENSORES, C1-C6, (Hz)    : /500/500/500
FREC. NAT. DE SENSORES, C7-C12, (Hz)   : 
AMORTIGUAMIENTO DE SENSORES, C1-C6     : /0.700/0.700/0.700
AMORTIGUAMIENTO DE SENSORES, C7-C12    : 
INTERVALO DE MUESTREO, C1-C6, (s)      : /0.005/0.005/0.005
INTERVALO DE MUESTREO, C7-C12, (s)     : 
UMBRAL DE DISPARO, C1-C6, (Gal)        : /1/1/1
UMBRAL DE DISPARO, C7-C12, (Gal)       : 
MEMORIA DE PREEVENTO (s)               : 60
TIEMPO DE POSEVENTO (s)                : 70


================================================================================
DATOS DEL SISMO:
FECHA DEL SISMO (GMT)                  : 19/SEP/22
HORA EPICENTRO (GMT)                   : 18:05:09.0
MAGNITUD(ES)                           : /Mc=7.7
COORDENADAS DEL EPICENTRO              : 18.22 LAT. N
                                       : 103.29 LONG. W
PROFUNDIDAD FOCAL (km)                 : 15
FUENTE DE LOS DATOS EPICENTRALES       : SSN
                                       : INSTITUTO DE GEOFISICA, UNAM

================================================================================
DATOS DE ESTE REGISTRO:
HORA DE LA PRIMERA MUESTRA (GMT)       : .00
EXACTITUD DEL TIEMPO (s)               : 
DURACION DEL REGISTRO (s), C1-C6       : /638.18/638.18/638.18
DURACION DEL REGISTRO (s), C7-C12      : 
NUM. TOTAL DE MUESTRAS, C1-C6          : /127636/127636/127636
NUM. TOTAL DE MUESTRAS, C7-C12         : 
ACEL. MAX. (Gal), C1-C6                : /9.77613/4.43957/10.65367
ACEL. MAX., C1-C6, EN LA MUESTRA       : /42800/42971/43077
ACEL. MAX. (Gal), C7-C12               : 
ACEL. MAX., C7-C12, EN LA MUESTRA      : 
UNIDADES DE LOS DATOS                  : Gal (cm/s/s)
FACTOR DE DECIMACION                   : 1
FORMATO DATOS (FORTRAN,10 campos/dato) : 3F10.5


================================================================================
CALIDAD DEL ACELEROGRAMA:
REGISTRO DIGITAL COMPLETO CON TIEMPO ABSOLUTO CORRECTO.


================================================================================
COMENTARIOS:














================================================================================
DATOS DE ACELERACION:
---------+---------+---------+---------+---------+---------+---------+---------+
   CANAL-1   CANAL-2   CANAL-3   CANAL-4   CANAL-5   CANAL-6   CANAL-7   CANAL-8
      N00E        +V      N90W
---------+---------+---------+---------+---------+---------+---------+---------+
[...]
  -4.71803  -3.04815  -2.20148
  -4.90870  -2.99087  -2.47971
  -5.06418  -2.89267  -2.74731
  -5.21721  -2.81084  -3.02390
  -5.38906  -2.72900  -3.32178
  -5.55927  -2.59807  -3.56155
  -5.73767  -2.50805  -3.78986
  -5.89560  -2.40985  -4.00672
  -6.03881  -2.29529  -4.14665
  -6.16647  -2.18891  -4.26122
  -6.28840  -2.06616  -4.35206
  -6.41197  -1.91886  -4.41589
  -6.51917  -1.74701  -4.45353
  -6.61246  -1.55879  -4.45189
  -6.67793  -1.37057  -4.43062
  -6.71966  -1.20691  -4.35942
  -6.76467  -1.01869  -4.26286
  -6.80395  -0.83866  -4.16302
  -6.85223  -0.65863  -4.06564
  -6.91934  -0.46223  -3.98790
  -6.98398  -0.27401  -3.90034
  -7.05191  -0.10216  -3.82914
  -7.12146   0.08605  -3.75386
  -7.19511   0.26609  -3.65811
  -7.29249   0.39702  -3.57382
  -7.38578   0.53614  -3.48462
  -7.47089   0.67525  -3.41752
  -7.57400   0.80619  -3.37579
  -7.66811   0.93712  -3.34551
  -7.75076   1.07623  -3.33569
  -7.84078   1.19080  -3.31769
  -7.92343   1.27263  -3.29314
  -7.99708   1.32992  -3.27186
  -8.05109   1.37083  -3.23503
  -8.11410   1.39538  -3.18184
  -8.18284   1.41175  -3.13356
  -8.25076   1.45267  -3.09183
  -8.34323   1.49358  -3.04927
  -8.44143   1.55087  -3.03536
  -8.56582   1.59178  -3.06809
  -8.70084   1.62452  -3.13274
  -8.82277   1.65725  -3.20885
  -8.92588   1.69817  -3.27759
  -9.01426   1.75545  -3.33405
  -9.10182   1.81273  -3.38479
  -9.15583   1.88638  -3.41425
  -9.21557   1.95185  -3.43553
  -9.27776   2.03368  -3.46826
  -9.32195   2.13188  -3.47235
  -9.37678   2.23008  -3.50099
  -9.43243   2.33646  -3.51654
  -9.49953   2.45103  -3.47071
  -9.55027   2.57378  -3.50017
  -9.59528   2.66380  -3.49690
  -9.66320   2.75381  -3.44289
  -9.71312   2.81928  -3.44207
  -9.75403   2.87656  -3.41261
  -9.77613   2.92566  -3.39625
  -9.76713   2.94203  -3.39052
  -9.74667   2.99113  -3.37088
  -9.69675   3.04023  -3.35860
  -9.59937   3.07296  -3.35042
  -9.45780   3.12206  -3.34796
  -9.29659   3.13843  -3.34551
  -9.11410   3.17934  -3.38970
  -8.89642   3.22026  -3.44862
  -8.64520   3.30209  -3.53291
  -8.37678   3.35938  -3.65156
  -8.09200   3.36756  -3.74240
  -7.77695   3.41666  -3.87333
  -7.45371   3.44939  -4.03782
  -7.11083   3.45758  -4.19821
  -6.74585   3.44939  -4.38233
  -6.36287   3.43303  -4.56564
  -5.95371   3.43303  -4.74158
  -5.55027   3.43303  -4.91261
  -5.14601   3.43303  -5.09346
  -4.75649   3.39211  -5.29395
  -4.36778   3.35938  -5.49035
  -3.96762   3.35119  -5.67611
  -3.58873   3.35119  -5.85042
  -3.20248   3.36756  -6.02472
  -2.82932   3.36756  -6.20967
  -2.49299   3.35119  -6.39134
  -2.18202   3.33483  -6.56564
  -1.90788   3.33483  -6.73913
  -1.64356   3.30209  -6.91343
  -1.39724   3.22844  -7.08119
  -1.16729   3.16298  -7.22358
  -0.94143   3.11388  -7.36515
  -0.72294   3.04841  -7.49281
  -0.50362   2.94203  -7.58282
  -0.30477   2.87656  -7.68266
  -0.11246   2.83565  -7.76695
   0.08066   2.71290  -7.83569
   0.29016   2.61470  -7.90361
   0.48574   2.53286  -7.94044
   0.64368   2.42648  -7.97235
   0.82698   2.34465  -7.96908
   0.98737   2.24645  -7.95517
   1.14040   2.17280  -7.98135
   1.29752   2.10733  -7.98463
   1.41045   1.99276  -7.97481
   1.53156   1.92730  -7.95926
   1.64040   1.88638  -7.91589
   1.71323   1.83728  -7.90852
   1.75497   1.78000  -7.89297
   1.76397   1.75545  -7.86024
   1.76970   1.74727  -7.86024
   1.75742   1.71453  -7.83323
   1.71814   1.68998  -7.84715
   1.69032   1.64088  -7.88643
   1.65431   1.59178  -7.89543
   1.60440   1.56723  -7.96008
   1.55530   1.50995  -8.01081
   1.48574   1.46903  -8.05991
   1.42191   1.44448  -8.15238
   1.34008   1.40357  -8.23094
   1.23206   1.36265  -8.33814
   1.11503   1.30537  -8.45844
   0.96773   1.26445  -8.58119
   0.82535   1.23172  -8.71949
   0.69769   1.20717  -8.84960
   0.58639   1.17443  -9.00017
   0.48410   1.13352  -9.13683
   0.38099   1.10897  -9.26613
   0.28770   1.06805  -9.39706
   0.18623   1.02713  -9.50508
   0.09130   0.97803  -9.61638
   0.00538   0.91257  -9.69494
  -0.07891   0.86347  -9.77268
  -0.14929   0.81437  -9.83896
  -0.23112   0.76527  -9.88479
  -0.32114   0.73254  -9.96662
  -0.38087   0.70799 -10.02963
  -0.42834   0.67525 -10.09510
  -0.46762   0.62615 -10.14665
  -0.48726   0.57705 -10.14665
  -0.51344   0.56069 -10.16629
  -0.53881   0.52795 -10.19166
  -0.57155   0.49522 -10.22358
  -0.61083   0.47067 -10.25058
  -0.64438   0.42975 -10.24976
  -0.67547   0.39702 -10.26122
  -0.70575   0.37247 -10.25795
  -0.75894   0.31519 -10.23667
  -0.80313   0.27427 -10.22521
  -0.82277   0.21699 -10.21048
  -0.85469   0.15152 -10.20148
  -0.87351   0.10242 -10.19084
  -0.88415   0.05332 -10.19084
  -0.90542   0.03695 -10.21048
  -0.92015   0.02059 -10.20885
  -0.93243   0.00422 -10.21212
  -0.93407   0.01240 -10.22440
  -0.91524   0.01240 -10.22358
  -0.89724   0.02059 -10.22685
  -0.87678   0.04514 -10.20967
  -0.83014   0.07787 -10.16793
  -0.77122   0.11060 -10.10737
  -0.69102   0.16789 -10.01490
  -0.56827   0.23335  -9.91507
  -0.43161   0.29882  -9.83651
  -0.31377   0.35610  -9.75140
  -0.20248   0.42975  -9.64829
  -0.08300   0.49522  -9.53700
   0.03729   0.54432  -9.41016
   0.16413   0.59342  -9.27268
   0.29998   0.65070  -9.11965
   0.45464   0.70799  -8.95517
   0.64122   0.77345  -8.76122
   0.84662   0.84710  -8.56646
   1.06266   0.91257  -8.36024
   1.24679   0.96985  -8.12456
   1.41863   1.03532  -7.92571
   1.61176   1.10078  -7.69985
   1.77788   1.16625  -7.49199
   1.94073   1.19898  -7.28986
   2.10931   1.23990  -7.13029
   2.25906   1.29718  -6.98135
   2.43336   1.33810  -6.73994
   2.60194   1.41175  -6.67366
   2.74760   1.46085  -6.56318
   2.87526   1.50177  -6.41834
   2.97101   1.56723  -6.40770
   3.05693   1.60815  -6.28659
   3.12240   1.64088  -6.22030
   3.20669   1.67362  -6.12129
   3.31553   1.70635  -5.99444
   3.41373   1.76363  -5.93389
   3.53566   1.80455  -5.82260
   3.65595   1.84547  -5.74076
   3.75824   1.91093  -5.63520
   3.86872   1.96821  -5.53700
   3.97592   2.02550  -5.44862
   4.05693   2.11551  -5.34633
   4.15841   2.20553  -5.23258
   4.27297   2.27100  -5.09183
   4.37117   2.33646  -4.97808
   4.51029   2.41011  -4.85942
   4.64695   2.49195  -4.73994
   4.76479   2.58196  -4.58937
   4.88836   2.69653  -4.43634
   5.00456   2.80291  -4.31441
   5.11749   2.90929  -4.19330
   5.19932   3.03204  -4.07464
   5.26724   3.17116  -3.93389
   5.33353   3.29391  -3.79314
   5.42109   3.40848  -3.63929
   5.52747   3.51486  -3.47726
   5.61749   3.61306  -3.32751
   5.71569   3.67853  -3.18021
   5.82207   3.75218  -3.04191
   5.94810   3.85038  -2.88397
   6.07739   3.91584  -2.73176
   6.18214   3.98131  -2.60083
   6.28770   4.06314  -2.47071
   6.38999   4.12861  -2.36188
   6.47837   4.19407  -2.27922
   6.56184   4.24317  -2.19412
   6.63058   4.28409  -2.10410
   6.64777   4.33319  -2.01245
   6.65431   4.36592  -1.90443
   6.66413   4.38229  -1.77350
   6.66004   4.39866  -1.62701
   6.67232   4.42321  -1.46662
   6.67314   4.42321  -1.27759
   6.67968   4.42321  -1.05009
   6.67805   4.43957  -0.80214
   6.62567   4.42321  -0.55827
   6.58557   4.39866  -0.28495
   6.55448   4.38229   0.03911
   6.50783   4.35774   0.41799
   6.44237   4.35774   0.84271
   6.37608   4.34956   1.28133
   6.33271   4.31682   1.72078
   6.26315   4.28409   2.11767
   6.17314   4.25136   2.57266
   6.08803   4.19407   2.98673
   5.98492   4.09587   3.28051
   5.86217   3.98131   3.66677
   5.72387   3.86674   4.00474
   5.57575   3.77673   4.28461
   5.42764   3.73581   4.55547
   5.27297   3.63761   4.72978
   5.12158   3.52304   4.91636
   4.95791   3.40848   5.08493
   4.76479   3.31028   5.24614
   4.57166   3.22026   5.42372
   4.37199   3.13024   5.61685
   4.18950   3.04023   5.81243
   4.05202   2.98294   5.99246
   3.92845   2.94203   6.18477
   3.79998   2.90929   6.35744
   3.66495   2.86020   6.56529
   3.53484   2.81110   6.80015
   3.40882   2.78655   7.02520
   3.28852   2.69653   7.27724
   3.18787   2.63925   7.49328
   3.09376   2.62288   7.66840
   2.99638   2.55741   7.84925
   2.86872   2.56560   7.97528
   2.74024   2.53286   8.08002
   2.62158   2.48376   8.16840
   2.43500   2.44285   8.16268
   2.24760   2.35283   8.13403
   2.05775   2.24645   8.07020
   1.88017   2.12370   7.97937
   1.76070   2.09915   7.90490
   1.57084   1.87001   7.86153
   1.49228   1.72272   7.80752
   1.48083   1.82092   7.64467
   1.35644   1.67362   7.54975
   1.30734   1.53450   7.53583
   1.30816   1.46085   7.48919
   1.32535   1.28900   7.50392
   1.36299   1.15807   7.50556
   1.44073   1.03532   7.48019
   1.56675   0.90438   7.50719
   1.65677   0.75709   7.55547
   1.73697   0.60979   7.59475
   1.78197   0.51159   7.61030
   1.82125   0.42975   7.62258
   1.89899   0.38884   7.61767
   1.99638   0.31519   7.60539
   2.08885   0.24154   7.60948
   2.15431   0.15152   7.61112
   2.24597   0.05332   7.62094
   2.36299  -0.03670   7.59803
   2.46446  -0.11035   7.54402
   2.56921  -0.13490   7.48592
   2.65841  -0.20854   7.44582
   2.76315  -0.33948   7.46628
   2.94155  -0.39676   7.50228
   3.11503  -0.51133   7.52765
   3.27543  -0.64226   7.53911
   3.45791  -0.74046   7.54156
   3.62322  -0.89594   7.55547
   3.82453  -0.99414   7.59230
   4.02420  -1.07598   7.64140
   4.17232  -1.19872   7.63485
   4.33762  -1.29692   7.64304
   4.50865  -1.40331   7.71178
   4.66904  -1.55061   7.75433
   4.79589  -1.65699   7.80752
   4.88836  -1.76337   7.87708
   5.00047  -1.87794   7.94418
   5.14613  -1.97614   8.03747
   5.28934  -2.06616   8.12585
   5.36954  -2.18072   8.23469
   5.41864  -2.23800   8.34189
   5.45873  -2.28710   8.43845
   5.47592  -2.36075   8.59148
   5.51192  -2.41804   8.75433
   5.55448  -2.50805   8.93518
   5.54466  -2.60625   9.10457
   5.51683  -2.67990   9.24042
   5.53402  -2.77810   9.41963
   5.52993  -2.89267   9.57266
   5.48328  -2.96632   9.68723
   5.44482  -3.03179   9.80997
   5.39900  -3.11362   9.92045
   5.37281  -3.18727  10.04156
   5.34499  -3.27728  10.12012
   5.25333  -3.36730  10.14549
   5.13713  -3.42458  10.21014
   5.03156  -3.48187  10.31407
   4.92518  -3.53915  10.40490
   4.82698  -3.58825  10.45564
   4.75333  -3.64553  10.48182
   4.64859  -3.70282  10.50392
   4.52256  -3.73555  10.54565
   4.41618  -3.74373  10.60621
   4.28934  -3.73555  10.64304
   4.16823  -3.71100  10.65367
   4.06921  -3.71100  10.62994
   3.96610  -3.71918  10.57102
   3.83844  -3.70282  10.49819
   3.67805  -3.67827  10.40736
   3.48492  -3.63735  10.32143
   3.28688  -3.58825  10.20850
   3.10767  -3.55552  10.05793
   2.90881  -3.49823   9.93518
   2.70505  -3.44095   9.83125
   2.52256  -3.40003   9.71832
   2.35399  -3.35093   9.60130
   2.17641  -3.29365   9.45646
   1.99638  -3.24455   9.32961
   1.84580  -3.18727   9.23551
   1.68950  -3.12999   9.10867
   1.56021  -3.07270   9.00228
   1.48083  -2.99905   8.90981
   1.41700  -2.91722   8.79443
   1.37117  -2.84357   8.72323
   1.29098  -2.79447   8.67086
   1.18623  -2.76174   8.61603
   1.10767  -2.68809   8.54975
   1.05448  -2.62262   8.47364
   1.03811  -2.54897   8.41390
   1.04220  -2.46714   8.34598
   1.03566  -2.41804   8.29524
   1.03320  -2.38530   8.25433
   1.04793  -2.34439   8.17904
   1.07657  -2.27892   8.08493
   1.11012  -2.22982   7.99246
   1.11994  -2.17254   7.92454
   1.12240  -2.13162   7.87871
   1.14859  -2.10707   7.83289
   1.20178  -2.11526   7.75269
   1.27788  -2.14799   7.66840
   1.33435  -2.17254   7.58739
   1.38427  -2.18891   7.50801
   1.43582  -2.18891   7.44827
   1.48492  -2.19709   7.37135
   1.55120  -2.24619   7.37053
   1.58066  -2.29529   7.33043
   1.59458  -2.31984   7.25351
   1.58148  -2.35257   7.25433
   1.57821  -2.40167   7.18477
   1.62731  -2.45895   7.13240
   1.58394  -2.52442   7.07839
   1.53975  -2.60625   7.05220
   1.53075  -2.70445   7.02601
   1.45055  -2.80265   6.96137
   1.35317  -2.89267   6.99655
   1.23942  -2.96632   6.94173
   1.11503  -3.02360   6.89426
   0.97919  -3.08907   6.86971
   0.83271  -3.15454   6.77397
   0.66168  -3.22818   6.71832
   0.44646  -3.30183   6.63485
   0.24351  -3.35912   6.52438
   0.03566  -3.42458   6.39263
  -0.15747  -3.48187   6.30588
  -0.31868  -3.53097   6.21014
  -0.49053  -3.53915   6.05629
  -0.65420  -3.56370   5.92209
  -0.81950  -3.60462   5.74942
  -0.98235  -3.63735   5.60785
  -1.11492  -3.67827   5.47528
  -1.25567  -3.68645   5.30506
  -1.39806  -3.66190   5.15531
  -1.50853  -3.63735   4.99492
  -1.61574  -3.62098   4.84680
  -1.71475  -3.61280   4.68068
  -1.79904  -3.61280   4.49574
  -1.88497  -3.62917   4.31161
  -1.95534  -3.64553   4.10539
  -2.02899  -3.66190   3.93600
  -2.14029  -3.69463   3.76169
  -2.27695  -3.69463   3.58821
  -2.44716  -3.72737   3.44664
  -2.62719  -3.74373   3.29524
  -2.78267  -3.73555   3.14876
  -2.94061  -3.74373   2.97691
  -3.09446  -3.71918   2.78952
  -3.23848  -3.70282   2.60539
  -3.35551  -3.69463   2.41472
  -3.42506  -3.66190   2.20932
  -3.48398  -3.62917   1.98919
  -3.52163  -3.57188   1.78051
  -3.52654  -3.51460   1.53747
  -3.49462  -3.46550   1.26824
  -3.42834  -3.41640   0.99492
  -3.35796  -3.37548   0.71668
  -3.25812  -3.32638   0.45891
  -3.14438  -3.26910   0.21668
  -3.02654  -3.22818   0.00637
  -2.88578  -3.20364  -0.17530
  -2.77040  -3.14635  -0.31850
  -2.70493  -3.08907  -0.46253
  -2.66320  -3.03997  -0.63520
  -2.61001  -2.99087  -0.77841
  -2.55927  -2.94177  -0.91343
  -2.54536  -2.86812  -1.02800
  -2.56664  -2.79447  -1.10083
  -2.59282  -2.73719  -1.13520
  -2.58955  -2.66354  -1.13765
  -2.57973  -2.60625  -1.17693
  -2.57809  -2.55715  -1.25713
  -2.57891  -2.45895  -1.32914
  -2.58382  -2.34439  -1.36188
  -2.59037  -2.22982  -1.38233
  -2.60346  -2.10707  -1.41016
  -2.61083  -2.00069  -1.43061
  -2.61246  -1.92704  -1.47726
  -2.61328  -1.85339  -1.51736
  -2.62637  -1.78792  -1.52636
  -2.67302  -1.70609  -1.55255
  -2.75158  -1.60789  -1.59919
  -2.84159  -1.50969  -1.68266
  -2.94716  -1.41149  -1.77677
  -3.05109  -1.30511  -1.83814
  -3.14601  -1.19872  -1.89461
  -3.26385  -1.12508  -1.95025
  -3.35960  -1.05143  -2.01654
  -3.44143  -0.97778  -2.09101
  -3.53881  -0.89594  -2.14420
  -3.61492  -0.78138  -2.20803
  -3.67302  -0.66681  -2.27186
  -3.70657  -0.56861  -2.31441
  -3.70411  -0.47041  -2.35942
  -3.68202  -0.41313  -2.38479
  -3.63538  -0.36403  -2.40116
  -3.60101  -0.31493  -2.41016
  -3.59937  -0.32311  -2.41098
  -3.59937  -0.33948  -2.42489
  -3.58791  -0.30674  -2.42243
  -3.55845  -0.28219  -2.41098
  -3.52245  -0.27401  -2.39379
  -3.48808  -0.24946  -2.36842
  -3.44880  -0.24946  -2.37006
  -3.40952  -0.24946  -2.35287
  -3.38742  -0.24946  -2.31441
  -3.37678  -0.24946  -2.31032
  -3.33177  -0.25764  -2.31278
  -3.25076  -0.29038  -2.33651
  -3.14683  -0.30674  -2.39870
