********************************************************************************
               CENTRO DE INSTRUMENTACION Y REGISTRO SISMICO  A.C.

    Anaxagoras 814, Col. Narvarte, Benito Juarez, C.P. 03020 Mexico, D.F.
           Tels. 5687 45 42/ 5687 45  82             Fax. 5669 25 12
********************************************************************************
ARCHIVO ESTANDAR DE ACELERACION:
VERSION DEL FORMATO                    : 2.0
NOMBRE DEL ARCHIVO                     : S36020220919180509
FECHA Y HORA DE CREACION               : 19/SEP/22, 17:43
REF. CATALOGO ACELEROGRAMAS, SMIS 1996 : REGISTRO No.     /PAG.


================================================================================
DATOS DE LA ESTACION:
NOMBRE DE LA ESTACION                  : SCT (POZO 40 MTS)
CLAVE DE LA ESTACION                   : S360
LOCALIZACION DE LA ESTACION            : Del. Cuauhtémoc, Col. Narvarte,        
                                       : Calle Cumbres de Acultzingo entre      
                                       : Av. Universidad y Eje Central          
                                       : Lázaro Cardenas.                       
                                       : 
COORDENADAS DE LA ESTACION             : 19.3930 LAT. N
                                       : 99.1470 LONG. W
ALTITUD (msnm)                         : 2214
TIPO DE SUELO                          : Alto riesgo sísmico                 
                                       :                           
                                       : 
INSTITUCION RESPONSABLE                : CIRES, A. C.
                                       : 

================================================================================
DATOS DEL ACELEROGRAFO:
MODELO DEL ACELEROGRAFO                : 
NUMERO DE SERIE DEL ACELEROGRAFO       : 
NUMERO DE CANALES                      : 3
ORIENTACION C1-C6 (rumbo;orientacion)  : /S00E/+V/N90W
ORIENTACION C7-C12 (rumbo;orientacion) : 
VEL. DE MUESTREO, C1-C6 (muestras/s)   : /200/200/200
VEL. DE MUESTREO, C7-C12 (muestras/s)  : 
ESC. COMPLETA DE SENSORES, C1-C6, (g)  : /7.0/7.0/7.0
ESC. COMPLETA DE SENSORES, C7-C12, (g) : 
FREC. NAT. DE SENSORES, C1-C6, (Hz)    : /500/500/500
FREC. NAT. DE SENSORES, C7-C12, (Hz)   : 
AMORTIGUAMIENTO DE SENSORES, C1-C6     : /0.700/0.700/0.700
AMORTIGUAMIENTO DE SENSORES, C7-C12    : 
INTERVALO DE MUESTREO, C1-C6, (s)      : /0.005/0.005/0.005
INTERVALO DE MUESTREO, C7-C12, (s)     : 
UMBRAL DE DISPARO, C1-C6, (Gal)        : /0.5/0.5/0.5
UMBRAL DE DISPARO, C7-C12, (Gal)       : 
MEMORIA DE PREEVENTO (s)               : 60
TIEMPO DE POSEVENTO (s)                : 70


================================================================================
DATOS DEL SISMO:
FECHA DEL SISMO (GMT)                  : 19/SEP/22
HORA EPICENTRO (GMT)                   : 18:05:09.0
MAGNITUD(ES)                           : /Mc=7.7
COORDENADAS DEL EPICENTRO              : 18.22 LAT. N
                                       : 103.29 LONG. W
PROFUNDIDAD FOCAL (km)                 : 15
FUENTE DE LOS DATOS EPICENTRALES       : SSN
                                       : INSTITUTO DE GEOFISICA, UNAM

================================================================================
DATOS DE ESTE REGISTRO:
HORA DE LA PRIMERA MUESTRA (GMT)       : .00
EXACTITUD DEL TIEMPO (s)               : 
DURACION DEL REGISTRO (s), C1-C6       : /638.18/638.18/638.18
DURACION DEL REGISTRO (s), C7-C12      : 
NUM. TOTAL DE MUESTRAS, C1-C6          : /127636/127636/127636
NUM. TOTAL DE MUESTRAS, C7-C12         : 
ACEL. MAX. (Gal), C1-C6                : /7.22153/4.22512/8.15442
ACEL. MAX., C1-C6, EN LA MUESTRA       : /46495/43427/42899
ACEL. MAX. (Gal), C7-C12               : 
ACEL. MAX., C7-C12, EN LA MUESTRA      : 
UNIDADES DE LOS DATOS                  : Gal (cm/s/s)
FACTOR DE DECIMACION                   : 1
FORMATO DATOS (FORTRAN,10 campos/dato) : 3F10.5


================================================================================
CALIDAD DEL ACELEROGRAMA:
REGISTRO DIGITAL COMPLETO CON TIEMPO ABSOLUTO CORRECTO.


================================================================================
COMENTARIOS:














================================================================================
DATOS DE ACELERACION:
---------+---------+---------+---------+---------+---------+---------+---------+
   CANAL-1   CANAL-2   CANAL-3   CANAL-4   CANAL-5   CANAL-6   CANAL-7   CANAL-8
      N00E        +V      N90W
---------+---------+---------+---------+---------+---------+---------+---------+
[...]
   1.60369  -1.78142   0.89959
   1.59141  -1.78142   0.91350
   1.60041  -1.78142   0.92495
   1.60778  -1.77324   0.93150
   1.62578  -1.76506   0.96423
   1.65606  -1.74869   0.98224
   1.63233  -1.72414   1.00761
   1.57423  -1.71596   1.04034
   1.60778  -1.70777   1.05016
   1.62987  -1.69141   1.05916
   1.61269  -1.69141   1.08126
   1.60369  -1.68322   1.12381
   1.58159  -1.68322   1.16227
   1.60614  -1.67504   1.18109
   1.61432  -1.65867   1.21464
   1.53249  -1.66686   1.28093
   1.51858  -1.66686   1.32185
   1.54722  -1.66686   1.33494
   1.45802  -1.67504   1.34885
   1.43347  -1.67504   1.34640
   1.43593  -1.69959   1.37995
   1.36719  -1.70777   1.42086
   1.36882  -1.70777   1.42823
   1.34673  -1.72414   1.45196
   1.30745  -1.72414   1.48387
   1.27717  -1.73232   1.53216
   1.22071  -1.74051   1.56898
   1.23462  -1.73232   1.59844
   1.25835  -1.73232   1.65900
   1.22807  -1.72414   1.68928
   1.18143  -1.71596   1.70892
   1.16915  -1.69141   1.74410
   1.21416  -1.65049   1.78093
   1.25508  -1.61776   1.83494
   1.27226  -1.59321   1.87831
   1.27799  -1.55229   1.91677
   1.29190  -1.51956   1.95851
   1.34837  -1.47046   1.98878
   1.39174  -1.41318   2.03707
   1.42529  -1.36408   2.09680
   1.52840  -1.32316   2.14754
   1.57586  -1.28224   2.21955
   1.60123  -1.23314   2.29893
   1.69943  -1.17586   2.36849
   1.72234  -1.12676   2.44214
   1.77717  -1.06948   2.52725
   1.87292  -1.02038   2.61317
   1.94575  -0.97128   2.69091
   2.02185  -0.92218   2.79402
   2.04886  -0.86489   2.89468
   2.15442  -0.82398   2.97487
   2.25590  -0.77488   3.07062
   2.29108  -0.74214   3.16882
   2.33282  -0.70941   3.28502
   2.40892  -0.67668   3.40450
   2.51285  -0.65213   3.49369
   2.56850  -0.63576   3.58535
   2.67979  -0.63576   3.67045
   2.76653  -0.61939   3.74329
   2.77390  -0.60303   3.81857
   2.83282  -0.60303   3.87586
   2.85900  -0.60303   3.93232
   2.92529  -0.59484   3.96751
   3.07750  -0.60303   3.97978
   3.08814  -0.59484   4.02561
   3.11105  -0.59484   4.05998
   3.23626  -0.59484   4.06571
   3.24444  -0.59484   4.07716
   3.25671  -0.58666   4.08535
   3.30581  -0.57848   4.10744
   3.29681  -0.57848   4.13117
   3.27635  -0.57848   4.13281
   3.28454  -0.57848   4.13199
   3.23626  -0.57848   4.12954
   3.19207  -0.57029   4.11072
   3.26653  -0.56211   4.10417
   3.17652  -0.57029   4.10662
   3.09714  -0.57029   4.07635
   3.10450  -0.56211   4.05916
   2.98503  -0.55393   4.05998
   2.97848  -0.53756   4.03216
   2.97275  -0.52938   4.01661
   2.89256  -0.52119   4.00188
   2.80991  -0.51301   3.96423
   2.72480  -0.51301   3.92987
   2.66261  -0.49664   3.88649
   2.52431  -0.48846   3.84476
   2.44575  -0.49664   3.80466
   2.39992  -0.48028   3.74329
   2.27799  -0.48028   3.69337
   2.19534  -0.48846   3.63281
   2.11023  -0.46391   3.55671
   1.98012  -0.43936   3.49124
   1.88274  -0.44754   3.41841
   1.75508  -0.43936   3.34640
   1.60532  -0.42300   3.26538
   1.50876  -0.40663   3.16964
   1.39337  -0.40663   3.06243
   1.25099  -0.41481   2.94050
   1.10287  -0.41481   2.83739
   0.96948  -0.42300   2.74738
   0.90647  -0.41481   2.64345
   0.81563  -0.42300   2.54852
   0.63478  -0.43936   2.47160
   0.52185  -0.43936   2.38077
   0.45802  -0.44754   2.28911
   0.36473  -0.46391   2.21383
   0.26490  -0.47209   2.15327
   0.12087  -0.50483   2.10335
   0.00958  -0.52938   2.05343
  -0.08371  -0.54574   2.01906
  -0.20482  -0.57848   1.99369
  -0.29075  -0.61121   1.97324
  -0.39222  -0.64394   1.97651
  -0.52561  -0.66849   1.98715
  -0.63690  -0.70123   1.99779
  -0.72774  -0.74214   2.02397
  -0.80139  -0.78306   2.04934
  -0.91023  -0.81579   2.08207
  -0.97897  -0.85671   2.14181
  -1.00270  -0.88944   2.18928
  -1.17373  -0.93036   2.22856
  -1.25229  -0.97128   2.28502
  -1.24901  -1.01219   2.32839
  -1.34885  -1.06129   2.35376
  -1.40450  -1.11039   2.37667
  -1.51661  -1.16768   2.40450
  -1.60826  -1.23314   2.41841
  -1.66227  -1.28224   2.42577
  -1.74165  -1.33134   2.43477
  -1.79730  -1.39681   2.43314
  -1.89550  -1.45409   2.43314
  -1.93559  -1.51956   2.42086
  -1.99942  -1.56866   2.40122
  -2.05507  -1.61776   2.38322
  -2.07880  -1.67504   2.36522
  -2.19746  -1.72414   2.35540
  -2.25147  -1.77324   2.32021
  -2.28175  -1.82234   2.27520
  -2.31366  -1.87962   2.23838
  -2.33985  -1.92872   2.18518
  -2.45278  -1.98601   2.10417
  -2.56816  -2.04329   2.01661
  -2.65818  -2.10876   1.93805
  -2.70728  -2.17422   1.82430
  -2.79075  -2.23969   1.70646
  -2.87831  -2.30516   1.59353
  -2.90041  -2.37062   1.46669
  -2.99370  -2.43609   1.33085
  -3.12708  -2.50155   1.17455
  -3.22856  -2.56702   1.05261
  -3.28911  -2.64067   0.92168
  -3.35540  -2.71432   0.77193
  -3.48797  -2.75524   0.65654
  -3.62463  -2.80434   0.53134
  -3.67700  -2.87799   0.40041
  -3.72692  -2.91072   0.27029
  -3.83821  -2.95164   0.13036
  -3.92823  -2.98437   0.00024
  -3.99779  -3.01710  -0.12251
  -4.06244  -3.04165  -0.25590
  -4.13527  -3.05802  -0.38519
  -4.21628  -3.08257  -0.49403
  -4.26865  -3.09075  -0.61351
  -4.28748  -3.09894  -0.72971
  -4.36849  -3.10712  -0.84428
  -4.47733  -3.09894  -0.98094
  -4.53707  -3.08257  -1.10860
  -4.63199  -3.05802  -1.22971
  -4.68682  -3.04165  -1.35246
  -4.77029  -3.02529  -1.46457
  -4.84394  -2.98437  -1.57996
  -4.84721  -2.94345  -1.70761
  -4.94541  -2.90254  -1.81482
  -5.02561  -2.86162  -1.91956
  -5.11235  -2.79615  -2.04395
  -5.20892  -2.74705  -2.14051
  -5.28175  -2.68977  -2.22316
  -5.40695  -2.59975  -2.31072
  -5.49533  -2.50155  -2.39174
  -5.58289  -2.41972  -2.46948
  -5.69419  -2.31334  -2.54313
  -5.77193  -2.20696  -2.61760
  -5.83576  -2.09239  -2.68470
  -5.95114  -1.98601  -2.74117
  -6.07389  -1.87962  -2.79354
  -6.13445  -1.75687  -2.84100
  -6.24902  -1.62594  -2.88110
  -6.37504  -1.47864  -2.92529
  -6.42659  -1.35589  -2.96293
  -6.51334  -1.22496  -2.97685
  -6.63690  -1.07766  -2.99812
  -6.66555  -0.94673  -3.01531
  -6.71465  -0.79943  -3.01940
  -6.80548  -0.66031  -3.01940
  -6.80793  -0.52119  -2.99649
  -6.87422  -0.39026  -2.97439
  -6.92577  -0.25933  -2.95557
  -6.90532  -0.12021  -2.92038
  -6.97160   0.01072  -2.89092
  -7.01088   0.14165  -2.86064
  -6.98060   0.28077  -2.80581
  -6.94378   0.41989  -2.74280
  -6.92086   0.55082  -2.69043
  -6.94214   0.66538  -2.64297
  -6.93887   0.78813  -2.59305
  -6.88568   0.90270  -2.54477
  -6.85785   1.00908  -2.48667
  -6.79893   1.11547  -2.41793
  -6.76211   1.22185  -2.34100
  -6.76538   1.33642  -2.26490
  -6.69419   1.43462  -2.20761
  -6.67782   1.52463  -2.15606
  -6.64100   1.62283  -2.10696
  -6.56653   1.71285  -2.05950
  -6.59108   1.80286  -2.00876
  -6.53789   1.89288  -1.95557
  -6.50679   1.96653  -1.90483
  -6.50515   2.05655  -1.87537
  -6.40941   2.13838  -1.84755
  -6.39550   2.21203  -1.80827
  -6.40777   2.30205  -1.77799
  -6.37504   2.38388  -1.74771
  -6.32676   2.44116  -1.71662
  -6.29239   2.53118  -1.68306
  -6.26047   2.60483  -1.64624
  -6.20073   2.66211  -1.63315
  -6.17373   2.72758  -1.62087
  -6.13527   2.78486  -1.60205
  -6.09353   2.83396  -1.59550
  -6.05916   2.89943  -1.58487
  -6.02888   2.94853  -1.58159
  -6.01743   2.98126  -1.58568
  -5.93887   3.03036  -1.58323
  -5.88731   3.07946  -1.58732
  -5.87422   3.12856  -1.59632
  -5.80302   3.16129  -1.60614
  -5.74820   3.20221  -1.63315
  -5.68437   3.24313  -1.65688
  -5.61645   3.25949  -1.68306
  -5.56816   3.28404  -1.73626
  -5.51579   3.32496  -1.78781
  -5.45442   3.33314  -1.85410
  -5.35949   3.35769  -1.93184
  -5.27684   3.38224  -1.98421
  -5.19091   3.39861  -2.06523
  -5.14427   3.40679  -2.16670
  -5.07635   3.39861  -2.26408
  -4.92905   3.40679  -2.38601
  -4.85622   3.39861  -2.50467
  -4.76702   3.39043  -2.61596
  -4.62790   3.37406  -2.73462
  -4.55916   3.34133  -2.85164
  -4.51906   3.31678  -2.96866
  -4.41350   3.27586  -3.09632
  -4.32266   3.25131  -3.21171
  -4.29402   3.21858  -3.31891
  -4.18437   3.16948  -3.42693
  -4.07798   3.12856  -3.52676
  -4.03052   3.10401  -3.64051
  -3.90941   3.07128  -3.74280
  -3.76047   3.02218  -3.83609
  -3.69582   2.99763  -3.93429
  -3.64509   2.96489  -4.03086
  -3.50515   2.92398  -4.12742
  -3.38486   2.89124  -4.20107
  -3.33167   2.85033  -4.27063
  -3.24083   2.80941  -4.34346
  -3.09762   2.78486  -4.41138
  -2.96669   2.74394  -4.47439
  -2.85867   2.69484  -4.52840
  -2.78257   2.65393  -4.57586
  -2.69664   2.60483  -4.61678
  -2.58371   2.55573  -4.63806
  -2.51743   2.50663  -4.65442
  -2.42659   2.45753  -4.68961
  -2.35294   2.40843  -4.70761
  -2.30302   2.35115  -4.70843
  -2.24001   2.30205  -4.71007
  -2.20401   2.24476  -4.70843
  -2.10172   2.18748  -4.72316
  -2.04689   2.14656  -4.72562
  -1.99288   2.08928  -4.73135
  -1.86685   2.03200  -4.74689
  -1.88077   1.98290  -4.74526
  -1.84558   1.91743  -4.76572
  -1.68437   1.86833  -4.79436
  -1.66718   1.81105  -4.81482
  -1.63609   1.75376  -4.85164
  -1.52152   1.71285  -4.89747
  -1.52152   1.67193  -4.94493
  -1.50679   1.61465  -4.99812
  -1.43641   1.56555  -5.06850
  -1.37831   1.53282  -5.14870
  -1.34230   1.49190  -5.22480
  -1.34067   1.45098  -5.30500
  -1.28829   1.42643  -5.38110
  -1.25392   1.38552  -5.47194
  -1.25065   1.34460  -5.57668
  -1.26865   1.31187  -5.66670
  -1.29320   1.27095  -5.76244
  -1.20073   1.23003  -5.87374
  -1.17455   1.21367  -5.99158
  -1.21628   1.18093  -6.10123
  -1.15982   1.14002  -6.19125
  -1.11317   1.11547  -6.28945
  -1.11072   1.08273  -6.39010
  -1.08289   1.05818  -6.49567
  -1.06898   1.04182  -6.60942
  -1.06407   1.00908  -6.71007
  -0.99697   0.98453  -6.81645
  -0.99042   0.92725  -6.91383
  -0.97978   0.90270  -7.01367
  -0.96260   0.86997  -7.12005
  -1.01661   0.81268  -7.19943
  -1.00106   0.77995  -7.30009
  -0.99942   0.73903  -7.40892
  -0.93314   0.68993  -7.47930
  -0.84967   0.65720  -7.55377
  -0.90613   0.59992  -7.63642
  -0.90695   0.56719  -7.70434
  -0.86113   0.52627  -7.77799
  -0.85049   0.47717  -7.85164
  -0.81612   0.43625  -7.89010
  -0.72692   0.39534  -7.93102
  -0.68028   0.37079  -7.97848
  -0.68764   0.35442  -8.01203
  -0.60826   0.32169  -8.04313
  -0.48797   0.30532  -8.06932
  -0.41350   0.31350  -8.09550
  -0.36440   0.31350  -8.11351
  -0.33903   0.30532  -8.12987
  -0.27111   0.33805  -8.14706
  -0.18109   0.37079  -8.15197
  -0.13036   0.38715  -8.15442
  -0.04852   0.41989  -8.14951
   0.00058   0.45262  -8.14379
   0.06604   0.49354  -8.11433
   0.20270   0.53445  -8.06850
   0.27144   0.56719  -8.03413
   0.36064   0.63265  -7.99812
   0.41792   0.68175  -7.96948
   0.42529   0.72267  -7.92202
   0.54395   0.77995  -7.85655
   0.57832   0.82905  -7.80090
   0.55213   0.87815  -7.73707
   0.65524   0.92725  -7.66752
   0.67324   0.98453  -7.60123
   0.65851   1.03363  -7.52267
   0.77226   1.08273  -7.42447
   0.80581   1.14002  -7.32300
   0.77881   1.18912  -7.23053
   0.81236   1.24640  -7.13069
   0.81400   1.32005  -7.01694
   0.79436   1.36915  -6.90156
   0.78045   1.42643  -6.78699
   0.83527   1.48372  -6.67406
   0.91547   1.53282  -6.56113
   0.88928   1.60646  -6.43757
   0.90810   1.66375  -6.29436
   0.96048   1.72103  -6.13806
   0.95720   1.77831  -5.97685
   1.01612   1.84378  -5.83200
   1.08405   1.90925  -5.71089
   1.08323   1.98290  -5.56113
   1.07259   2.05655  -5.41711
   1.12251   2.12201  -5.29436
   1.18716   2.17930  -5.15115
   1.23380   2.26113  -5.01776
   1.29027   2.32660  -4.87537
   1.32382   2.39206  -4.71989
   1.34018   2.45753  -4.57177
   1.32136   2.52300  -4.42038
   1.34100   2.60483  -4.29190
   1.40238   2.67848  -4.15279
   1.40810   2.75213  -4.00221
   1.46702   2.81759  -3.86883
   1.48830   2.87488  -3.70680
   1.48830   2.94034  -3.55131
   1.59550   3.01399  -3.40238
   1.59468   3.09583  -3.23298
   1.58650   3.16948  -3.07914
   1.69616   3.23494  -2.92038
   1.72480   3.30859  -2.76572
   1.76162   3.37406  -2.62496
   1.82791   3.43953  -2.46457
   1.83773   3.48863  -2.31645
   1.93347   3.54591  -2.16342
   2.01285   3.59501  -2.00221
   1.99485   3.65229  -1.85082
   2.07504   3.71776  -1.69207
   2.15688   3.76686  -1.56277
   2.22071   3.81596  -1.41711
   2.36719   3.84051  -1.25508
   2.38601   3.88142  -1.14297
   2.41301   3.93052  -1.01776
   2.61105   3.93871  -0.89338
   2.72234   3.97144  -0.77635
   2.79927   3.98781  -0.64706
   2.89092   3.97962  -0.53904
   2.97112   3.98781  -0.42202
   3.07095   3.98781  -0.30090
   3.14133   3.97962  -0.19207
   3.23707   3.97962  -0.09796
   3.33364   3.97962   0.00842
   3.42693   3.97144   0.12708
   3.48339   3.96326   0.23183
   3.51612   3.94689   0.37176
   3.61023   3.90597   0.52234
   3.66261   3.88961   0.65818
   3.66588   3.86506   0.78175
   3.70516   3.83232   0.88486
   3.77308   3.80777   1.00924
   3.76081   3.75867   1.15982
   3.74280   3.69321   1.32839
   3.84428   3.64411   1.46914
   3.88028   3.59501   1.59353
   3.85819   3.52136   1.72201
   3.90074   3.44771   1.82757
   3.94002   3.39043   1.94378
   3.95475   3.33314   2.06489
   3.99567   3.25131   2.19009
   4.03495   3.18584   2.31284
   3.99239   3.12038   2.39877
   4.00630   3.04673   2.49615
   4.02349   2.98944   2.61072
   3.97193   2.93216   2.71710
   3.98666   2.87488   2.82839
   3.98257   2.82578   2.95441
   4.00958   2.78486   3.05507
   4.01531   2.73576   3.15491
   3.95229   2.67848   3.30548
   3.97521   2.63756   3.42905
   4.02267   2.60483   3.52479
   4.00958   2.55573   3.62872
   3.93265   2.49845   3.72610
   3.88355   2.44935   3.84230
   3.92365   2.40025   3.92414
   3.95557   2.33478   4.00679
   3.87373   2.28568   4.13936
   3.81400   2.22840   4.23183
   3.89828   2.17111   4.30139
   3.91956   2.10565   4.37504
   3.82545   2.02381   4.43396
   3.79681   1.96653   4.50106
   3.84264   1.90106   4.55261
   3.86391   1.81105   4.58617
   3.84755   1.73740   4.64345
   3.80663   1.66375   4.72119
   3.75671   1.58192   4.80302
   3.77554   1.50008   4.87995
   3.82791   1.40188   4.92659
   3.80254   1.30368   4.96751
   3.77799   1.22185   5.03461
   3.82054   1.12365   5.10990
   3.85082   1.03363   5.17291
   3.85655   0.94362   5.21874
   3.88274   0.82087   5.28911
   3.91792   0.70630   5.36767
   3.94329   0.59992   5.40122
   3.99567   0.49354   5.44132
   4.05786   0.39534   5.49860
   4.06604   0.28077   5.55671
   4.07259   0.14984   5.62463
   4.17161   0.04345   5.67536
   4.31482  -0.07111   5.70401
   4.38355  -0.16931   5.72856
   4.39583  -0.25933   5.77275
   4.46293  -0.36571   5.81121
   4.58159  -0.46391   5.82839
   4.63724  -0.55393   5.85622
   4.64378  -0.66031   5.87831
   4.74526  -0.75851   5.89877
   4.84018  -0.85671   5.92741
   4.87292  -0.97128   5.95523
   4.96539  -1.06129   5.97324
   5.03413  -1.15949   6.00270
   5.09959  -1.28224   6.03788
