********************************************************************************
              CENTRO DE INSTRUMENTACION Y REGISTRO SISMICO  A.C.

    Anaxagoras 814, Col. Narvarte, Benito Juarez, C.P. 03020 Mexico, D.F.
           Tels. 5687 45 42/ 5687 45  82             Fax. 5669 25 12
********************************************************************************
ARCHIVO ESTANDAR DE ACELERACION:
VERSION DEL FORMATO                    : 2.0
NOMBRE DEL ARCHIVO                     : SP5120220919180509
FECHA Y HORA DE CREACION               : 19/SEP/22, 19:46
REF. CATALOGO ACELEROGRAMAS, SMIS 1996 : REGISTRO No.     /PAG.


================================================================================
DATOS DE LA ESTACION:
NOMBRE DE LA ESTACION                  : SECTOR POPULAR
CLAVE DE LA ESTACION                   : SP51
LOCALIZACION DE LA ESTACION            : Del. Iztapalapa, Col. Sector Popular,  
                                       : Calle Sur 103A esq. con Av.            
                                       : Agustín Yañes.                         
                                       :                                        
                                       : 
COORDENADAS DE LA ESTACION             : 19.3656 LAT. N
                                       : 99.1189 LONG. W
ALTITUD (msnm)                         : 2234
TIPO DE SUELO                          : Terreno blando, material compresible
                                       : (arcillas)                
                                       : 
INSTITUCION RESPONSABLE                : CIRES, A. C.
                                       : 

================================================================================
DATOS DEL ACELEROGRAFO:
MODELO DEL ACELEROGRAFO                : RAD_IO14
NUMERO DE SERIE DEL ACELEROGRAFO       : 
NUMERO DE CANALES                      : 3
ORIENTACION C1-C6 (rumbo;orientacion)  : /S00E/+V/N90W
ORIENTACION C7-C12 (rumbo;orientacion) : 
VEL. DE MUESTREO, C1-C6 (muestras/s)   : /100/100/100
VEL. DE MUESTREO, C7-C12 (muestras/s)  : 
ESC. COMPLETA DE SENSORES, C1-C6, (g)  : /2.0/2.0/2.0
ESC. COMPLETA DE SENSORES, C7-C12, (g) : 
FREC. NAT. DE SENSORES, C1-C6, (Hz)    : /52.67/53.32/56.11
FREC. NAT. DE SENSORES, C7-C12, (Hz)   : 
AMORTIGUAMIENTO DE SENSORES, C1-C6     : /0.6053/0.5865/0.6038
AMORTIGUAMIENTO DE SENSORES, C7-C12    : 
INTERVALO DE MUESTREO, C1-C6, (s)      : /0.01/0.01/0.01
INTERVALO DE MUESTREO, C7-C12, (s)     : 
UMBRAL DE DISPARO, C1-C6, (Gal)        : / / /
UMBRAL DE DISPARO, C7-C12, (Gal)       : 
MEMORIA DE PREEVENTO (s)               : 60
TIEMPO DE POSEVENTO (s)                : 90


================================================================================
DATOS DEL SISMO:
FECHA DEL SISMO (GMT)                  : 19/SEP/22
HORA EPICENTRO (GMT)                   : 18:05:09.0
MAGNITUD(ES)                           : /Mc=7.7
COORDENADAS DEL EPICENTRO              : 18.22 LAT. N
                                       : 103.29 LONG. W
PROFUNDIDAD FOCAL (km)                 : 15
FUENTE DE LOS DATOS EPICENTRALES       : SSN
                                       : INSTITUTO DE GEOFISICA, UNAM

================================================================================
DATOS DE ESTE REGISTRO:
HORA DE LA PRIMERA MUESTRA (GMT)       : 18:04:26.857.00
EXACTITUD DEL TIEMPO (s)               : 
DURACION DEL REGISTRO (s), C1-C6       : /436.61/436.61/436.61
DURACION DEL REGISTRO (s), C7-C12      : 
NUM. TOTAL DE MUESTRAS, C1-C6          : /43661/43661/43661
NUM. TOTAL DE MUESTRAS, C7-C12         : 
ACEL. MAX. (Gal), C1-C6                : /22.51454/4.62807/20.57661
ACEL. MAX., C1-C6, EN LA MUESTRA       : /22931/20196/21146
ACEL. MAX. (Gal), C7-C12               : 
ACEL. MAX., C7-C12, EN LA MUESTRA      : 
UNIDADES DE LOS DATOS                  : Gal (cm/s/s)
FACTOR DE DECIMACION                   : 1
FORMATO DATOS (FORTRAN,10 campos/dato) : 3F10.5


================================================================================
CALIDAD DEL ACELEROGRAMA:
REGISTRO DIGITAL COMPLETO CON TIEMPO ABSOLUTO CORRECTO.


================================================================================
COMENTARIOS:














================================================================================
DATOS DE ACELERACION:
---------+---------+---------+---------+---------+---------+---------+---------+
   CANAL-1   CANAL-2   CANAL-3   CANAL-4   CANAL-5   CANAL-6   CANAL-7   CANAL-8
      N00E        +V      N90W
---------+---------+---------+---------+---------+---------+---------+---------+
[...]
   1.23484  -0.61253  -7.17179
   1.17594  -0.66233  -6.83159
   1.00594  -0.48223  -6.34949
   0.79084  -0.56193  -5.84229
   0.66924  -0.30053  -5.57179
   0.47284  -0.24233  -4.91549
   0.32764  -0.18863  -4.57599
  -0.13436  -0.08313  -3.96419
  -0.25126   0.01947  -3.59149
  -0.27766   0.04757  -2.99459
  -0.59446   0.11047  -2.67329
  -0.82386   0.32397  -2.06399
  -0.92316   0.37327  -1.79839
  -1.10856   0.43947  -1.37539
  -1.39596   0.40317  -0.85029
  -1.57736   0.40197  -0.42899
  -1.80936   0.67087  -0.08549
  -1.97416   0.60077   0.28601
  -2.08546   0.40807   0.90771
  -2.36466   0.55397   1.08281
  -2.26786   0.48877   1.64421
  -2.58136   0.45887   1.93931
  -2.69896   0.43567   2.35291
  -2.83086   0.39807   2.47611
  -3.11146   0.34217   3.10361
  -3.38236   0.23907   3.69751
  -3.65246   0.26267   3.99241
  -3.95776   0.20397   4.33981
  -4.14996   0.08897   4.84131
  -4.51796  -0.08363   5.39381
  -5.00366  -0.10443   5.97271
  -5.15656  -0.25243   6.41481
  -5.47076  -0.28353   6.99381
  -5.92226  -0.46053   7.64231
  -6.24636  -0.58513   8.16161
  -6.61526  -0.70273   8.67951
  -6.77406  -0.81563   9.07471
  -7.01906  -0.84513   9.51381
  -7.31736  -0.93743   9.93461
  -7.47776  -0.93913  10.32551
  -7.53296  -0.99263  10.83481
  -7.88886  -1.19023  11.08381
  -8.13506  -1.27763  11.40761
  -8.32726  -1.22483  11.68821
  -8.49016  -1.20073  12.06341
  -8.52406  -1.23723  12.26291
  -8.59566  -1.29703  12.63841
  -8.72116  -1.23843  12.84861
  -8.79996  -1.34593  13.18851
  -8.67326  -1.14653  13.43141
  -8.71976  -1.12193  13.42211
  -8.76396  -1.12573  13.58181
  -8.57106  -1.11683  13.75481
  -8.47196  -0.96833  13.94911
  -8.51496  -0.90803  14.01011
  -8.31456  -0.92973  14.08851
  -8.24186  -0.94213  14.09501
  -8.02536  -0.72403  14.15981
  -7.85306  -0.70743  14.12001
  -7.74576  -0.60243  14.20791
  -7.37396  -0.51123  14.17781
  -7.32206  -0.55073  14.03771
  -6.98706  -0.44503  14.12101
  -6.91456  -0.39293  13.92621
  -6.61906  -0.27653  13.80461
  -6.42026  -0.29243  13.73191
  -6.23836  -0.11053  13.50651
  -5.94376  -0.09323  13.36951
  -5.77756  -0.02913  13.16091
  -5.65016   0.09057  12.91801
  -5.60896   0.20067  12.72391
  -5.55916   0.29237  12.48241
  -5.51166   0.65637  12.19111
  -5.37586   0.65197  12.01111
  -5.30126   0.78267  11.79781
  -5.32276   0.91687  11.56591
  -5.17266   1.08217  11.23581
  -5.13666   1.06467  10.93111
  -5.04786   1.16847  10.55351
  -5.06096   1.23227  10.27131
  -4.89066   1.45087  10.07791
  -4.89396   1.35057   9.60141
  -4.80166   1.43357   9.31641
  -4.73386   1.48787   8.88291
  -4.60566   1.40057   8.53131
  -4.23576   1.58857   8.17501
  -4.36626   1.44247   7.77701
  -4.24306   1.29327   7.46631
  -4.02026   1.20727   6.92711
  -3.92456   1.19837   6.39151
  -3.75996   1.19717   5.90891
  -3.64446   1.08167   5.43521
  -3.35836   0.89117   4.88951
  -3.16446   0.84247   4.56401
  -3.01276   0.62417   3.95191
  -2.55966   0.43357   3.48831
  -2.34496   0.32327   3.01551
  -2.07756   0.20397   2.39851
  -1.93976   0.11727   1.80531
  -1.67046  -0.02773   1.25911
  -1.49926  -0.19743   0.72091
  -1.18736  -0.38363   0.10601
  -0.87456  -0.37773  -0.39649
  -0.81796  -0.47403  -1.03169
  -0.58676  -0.55773  -1.36489
  -0.18206  -0.74853  -1.87129
   0.10464  -0.55103  -2.55199
   0.65544  -0.66793  -3.12289
   0.76814  -0.80253  -3.61859
   1.06024  -0.77853  -4.21899
   1.48944  -0.79833  -4.73339
   1.68474  -0.88513  -5.23789
   2.19694  -0.84283  -5.73389
   2.56894  -0.94353  -6.44559
   2.98184  -0.79303  -6.82429
   3.19044  -0.69553  -7.29829
   3.74174  -0.58043  -7.75909
   3.94214  -0.36513  -8.30009
   4.26104  -0.38993  -8.72289
   4.75114  -0.44343  -9.09699
   5.04664  -0.26693  -9.61249
   5.37024  -0.23063 -10.04079
   5.61784  -0.03353 -10.31229
   6.13524   0.07707 -10.77029
   6.44364   0.10697 -11.22699
   6.85914   0.16887 -11.62419
   7.07564   0.28067 -11.98729
   7.50324   0.45467 -12.29799
   7.94124   0.38397 -12.49419
   8.32814   0.52917 -12.91579
   8.64544   0.62247 -13.10789
   8.93254   0.79247 -13.35319
   9.21824   0.72977 -13.66089
   9.75554   0.77167 -13.89349
  10.14184   0.84507 -13.98399
  10.19884   0.85817 -14.27399
  10.56574   0.83717 -14.34849
  10.78224   0.91147 -14.56289
  11.05554   1.00667 -14.65179
  11.30784   1.02207 -14.66529
  11.45374   1.09807 -14.83209
  11.79714   0.91807 -14.91059
  12.04474   1.10667 -14.97399
  12.18274   1.00547 -14.90169
  12.41374   0.97417 -15.02449
  12.53834   0.94607 -14.86099
  12.63654   0.93577 -14.84769
  12.66834   0.95967 -14.81849
  12.79484   0.90397 -14.66019
  12.95424   0.84437 -14.51919
  12.95964   0.72747 -14.42219
  13.01534   0.76557 -14.28279
  12.89144   0.75877 -14.13179
  12.89234   0.61667 -13.75189
  12.89934   0.59067 -13.67589
  12.72464   0.49997 -13.37169
  12.79974   0.54907 -13.03429
  12.77144   0.44647 -12.92739
  12.79204   0.47077 -12.66489
  12.54934   0.36647 -12.20829
  12.47594   0.18997 -11.99149
  12.38454   0.33517 -11.78339
  12.14294   0.27947 -11.47759
  12.11954   0.26247 -11.12669
  11.94054   0.39497 -10.85819
  11.75534   0.35527 -10.53319
  11.77214   0.34197 -10.29779
  11.59354   0.46117  -9.96039
  11.19184   0.53267  -9.45939
  11.21314   0.50557  -9.14279
  11.04664   0.66477  -8.89449
  10.80624   0.59607  -8.50779
  10.74524   0.74217  -8.22839
  10.55334   0.62857  -7.91669
  10.29914   0.69217  -7.70809
  10.03494   0.78127  -7.40209
  10.01134   0.77097  -7.18699
   9.72044   0.85907  -6.91479
   9.63324   0.79907  -6.74619
   9.48504   0.93117  -6.57299
   9.20984   0.68207  -6.14839
   9.08244   0.87127  -5.99599
   8.76214   0.79037  -5.72779
   8.59284   0.84767  -5.37679
   8.44804   0.81847  -5.06769
   8.19814   0.77777  -4.85049
   7.82924   0.67137  -4.57699
   7.53394   0.56197  -4.02239
   7.28914   0.74757  -3.73359
   6.89374   0.51867  -3.37069
   6.48644   0.50227  -3.01369
   6.12054   0.42707  -2.53839
   5.55864   0.38467  -2.10509
   5.29614   0.25897  -1.54519
   4.95424   0.19747  -1.30039
   4.24954   0.44967  -0.65199
   4.00594   0.42447  -0.14399
   3.38984   0.36107   0.15931
   2.88814   0.22217   0.88391
   2.47844   0.31157   1.33091
   1.85984   0.04197   1.72861
   1.41864   0.19137   2.33541
   0.78174   0.22127   2.69051
   0.32484   0.33047   3.31241
  -0.19726   0.26877   3.80321
  -0.81186   0.35997   4.27811
  -1.51726   0.18437   4.81541
  -2.06346   0.19277   5.29351
  -2.57926   0.15297   5.75881
  -3.26196   0.24327   6.32371
  -3.99306   0.02117   6.83101
  -4.79766  -0.02843   7.31241
  -5.44416  -0.33353   7.68141
  -6.28306  -0.50423   8.26011
  -6.88276  -0.65503   8.53531
  -7.74366  -0.80253   8.99751
  -8.35336  -1.11403   9.36431
  -8.98726  -1.28143   9.76421
  -9.81426  -1.57113  10.17311
 -10.53886  -1.92933  10.44171
 -11.23886  -1.97533  10.78331
 -11.98046  -2.16773  11.12211
 -12.68586  -2.39483  11.27991
 -13.34336  -2.63213  11.68861
 -13.78876  -2.81453  11.91121
 -14.58446  -2.80233  12.12961
 -15.24986  -2.95013  12.44991
 -15.80656  -2.99923  12.67771
 -16.44506  -3.07403  12.72491
 -16.78856  -3.05013  12.79101
 -17.37636  -3.10953  13.02771
 -17.72396  -3.08783  13.19201
 -18.22016  -3.09293  13.24841
 -18.53486  -3.22973  13.26101
 -18.89846  -3.12713  13.24811
 -19.26406  -3.19253  13.19181
 -19.48156  -3.30763  13.24001
 -19.65966  -3.17663  13.26331
 -19.79556  -3.15043  13.24631
 -19.94966  -3.40253  13.03541
 -20.14186  -3.15213  13.11671
 -20.36816  -3.08543  12.90801
 -20.38026  -3.16143  12.87941
 -20.40996  -2.96253  12.80091
 -20.28486  -3.05583  12.61101
 -20.19976  -2.84673  12.56571
 -20.25056  -2.89233  12.38311
 -20.30666  -2.88603  12.31011
 -20.18176  -2.83743  12.20511
 -19.97156  -2.75863  12.07561
 -19.85376  -2.61573  11.87851
 -19.71976  -2.39733  11.67301
 -19.59776  -2.28493  11.58041
 -19.41866  -2.17013  11.43101
 -19.13156  -2.00883  11.25891
 -18.86126  -1.86783  11.10931
 -18.62156  -1.63143  11.00031
 -18.31416  -1.57533  10.80181
 -18.08846  -1.25223  10.63491
 -17.93836  -1.10603  10.52751
 -17.75506  -1.04833  10.14851
 -17.32326  -0.80113  10.07561
 -17.07706  -0.41073  10.03841
 -16.73056  -0.23743   9.62831
 -16.48546  -0.13153   9.43191
 -16.04926   0.04427   9.32861
 -15.73076   0.20657   9.09591
 -15.44226   0.43947   8.84441
 -14.75746   0.46067   8.65711
 -14.44626   0.74037   8.42861
 -14.06816   0.81567   8.17401
 -13.66176   1.01557   7.80951
 -12.97326   1.04757   7.51961
 -12.50496   1.24397   7.23221
 -12.01256   1.21967   6.97041
 -11.56666   1.30827   6.50721
 -11.06376   1.44927   6.02911
 -10.62046   1.44157   5.63841
 -10.04006   1.39037   5.29701
  -9.57276   1.45817   4.74991
  -9.21806   1.58957   4.38941
  -8.60526   1.42357   3.74801
  -7.96176   1.43917   3.41811
  -7.51896   1.45437   2.77471
  -6.88066   1.48057   2.19601
  -6.33466   1.42707   1.83621
  -5.76136   1.27977   1.28881
  -5.09456   1.35667   0.70871
  -4.51096   1.33257   0.22851
  -3.75926   1.38937  -0.37519
  -3.22526   1.20797  -1.07869
  -2.56826   1.42237  -1.68079
  -1.82356   1.39427  -2.24079
  -1.19086   1.27087  -2.77779
  -0.40416   1.31087  -3.22979
   0.31884   1.42727  -3.85609
   1.15274   1.46117  -4.37589
   1.76814   1.45677  -4.92439
   2.72934   1.59397  -5.56779
   3.57294   1.61667  -5.99409
   4.39504   1.77867  -6.52669
   5.21124   1.88997  -6.86289
   6.11304   1.78407  -7.16589
   6.96974   2.12617  -7.67819
   7.78684   2.02887  -7.83909
   8.68914   2.20137  -8.16849
   9.56214   2.49667  -8.43929
  10.37284   2.43637  -8.61619
  11.10204   2.47867  -8.88069
  11.90404   2.55497  -8.98029
  12.82544   2.58037  -8.99289
  13.40854   2.48567  -9.29409
  14.12054   2.65807  -9.39299
  14.91924   2.39337  -9.24189
  15.60074   2.38897  -9.10979
  16.30784   2.18457  -9.40039
  17.05624   2.40437  -9.26929
  17.69354   2.28137  -9.42149
  18.11514   1.96737  -9.34269
  18.70644   2.17077  -9.15869
  19.12494   2.28537  -9.14609
  19.51004   1.99187  -8.99099
  20.13994   1.85237  -8.92089
  20.58584   1.86117  -8.72659
  20.81354   1.93997  -8.65899
  21.24984   1.92787  -8.66929
  21.46964   1.78407  -8.39199
  21.64284   1.54927  -8.26829
  22.05644   1.45157  -8.10509
  22.03754   1.46397  -7.96439
  22.20634   1.29887  -7.67329
  22.40064   1.06717  -7.50709
  22.47944   1.17807  -7.49719
  22.51454   1.16587  -7.33939
  22.43384   1.14927  -7.25239
  22.16374   1.12987  -7.01819
  22.38004   1.13247  -6.90709
  22.28464   1.17827  -6.84229
  22.04124   1.04357  -6.77639
  22.00104   0.86777  -6.68169
  21.73634   1.12077  -6.43969
  21.56734   1.06047  -6.51499
  21.22764   1.04667  -6.55499
  20.88274   0.93137  -6.46239
  20.61834   0.85517  -6.37939
  20.28794   0.72537  -6.34829
  19.96664   0.74927  -6.42149
  19.65364   0.74147  -6.25949
  19.30994   0.74567  -6.29449
  18.97444   0.66617  -6.28119
  18.67254   0.62577  -6.25059
  18.24214   0.65987  -6.13999
  17.75364   0.61667  -6.21829
  17.34144   0.50587  -6.08669
  16.75694   0.38987  -5.90799
  16.33024   0.47687  -5.97019
  15.78714   0.47917  -5.80139
  15.17294   0.28557  -5.62679
  14.67304   0.10367  -5.56179
  14.05744   0.15047  -5.43409
  13.49884  -0.00083  -5.11099
  12.90024  -0.11053  -5.10859
  12.30664  -0.00173  -4.74599
  11.88344  -0.12503  -4.56549
  11.32324   0.00547  -4.36229
  10.76704   0.05597  -3.93979
  10.19934   0.02867  -3.62909
   9.59144  -0.02163  -3.37749
   9.09344  -0.01933  -3.09809
   8.42544  -0.06003  -2.69999
   7.83804  -0.18743  -2.31299
   7.16424  -0.15633  -1.86029
   6.66224  -0.02233  -1.42779
   6.04714  -0.08683  -1.10819
   5.35524   0.09247  -0.67699
   4.92854  -0.05223  -0.14649
   4.30504   0.01227   0.21101
   3.59024  -0.01343   0.64331
   3.02884   0.07347   1.09101
   2.44804   0.27927   1.45041
   1.78754   0.34057   1.92851
   1.12454   0.16517   2.32901
   0.60404   0.39317   3.00941
   0.02254   0.36457   3.42861
  -0.82636   0.49277   3.80551
  -1.50356   0.44717   4.14321
  -2.04896   0.48127   4.61081
  -2.77306   0.62507   5.04991
  -3.50816   0.48287   5.45411
  -4.13756   0.53317   5.77261
  -4.83386   0.34057   6.02811
  -5.31296   0.40367   6.40251
  -6.06236   0.21757   6.65311
  -6.70176   0.09807   7.07331
  -7.23906   0.08147   7.25981
  -7.76136   0.01557   7.54161
  -8.27506  -0.05673   7.82921
  -8.85256  -0.18793   7.88431
  -9.35526  -0.31273   8.14181
  -9.81846  -0.31323   8.42301
 -10.24096  -0.26733   8.48871
 -10.83106  -0.74503   8.57171
 -11.19516  -0.63053   8.68331
 -11.76536  -0.78153   8.57171
 -11.98376  -0.99523   8.65611
 -12.54096  -1.17593   8.80341
 -12.82776  -1.13903   8.49901
 -13.23046  -1.25643   8.50091
 -13.62976  -1.22833   8.49041
 -14.06816  -1.39593   8.34001
 -14.24236  -1.41493   8.27041
 -14.70106  -1.44253   8.35221
 -15.11586  -1.34753   8.06951
 -15.23086  -1.44133   7.94471
 -15.62016  -1.46213   7.89021
 -15.74406  -1.39273   7.69711
 -16.13806  -1.61413   7.63421
 -16.47496  -1.45773   7.43801
 -16.59166  -1.35043   7.31901
 -16.83976  -1.45353   7.08781
 -17.01226  -1.41253   6.89881
 -17.07516  -1.40603   6.99071
 -17.17896  -1.35183   6.79011
 -17.13826  -1.17433   6.59391
 -17.25806  -0.96693   6.41201
 -17.35926  -1.09413   6.20581
 -17.34006  -0.89583   6.31381
 -17.21216  -0.98963   6.13521
 -17.14296  -0.93353   6.28791
 -16.88646  -0.80863   6.17821
 -16.70456  -0.84303   5.97251
 -16.52996  -0.84633   6.01461
 -16.38146  -0.76023   5.88531
 -15.99216  -0.69013   5.87641
 -15.89466  -0.71093   5.76531
 -15.52826  -0.73033   5.75251
 -15.14996  -0.79743   5.59841
 -14.85326  -0.74173   5.46211
 -14.44276  -0.74953   5.42981
 -13.93836  -0.81403   5.30891
 -13.53816  -0.88933   5.23461
 -13.32326  -0.92043   5.09271
 -12.77726  -0.84423   4.95191
 -12.18576  -0.80003   4.89281
 -11.72466  -0.76543   4.61481
 -11.24916  -0.78313   4.43611
 -10.67256  -0.66863   4.30711
 -10.29546  -0.61323   4.14901
  -9.68846  -0.54443   3.88641
  -9.35996  -0.53953   3.54601
  -8.74806  -0.57323   3.46911
  -8.40156  -0.44833   3.10691
  -7.64656  -0.53693   2.91431
  -6.95496  -0.40233   2.48591
  -6.41486  -0.29123   2.22591
  -5.80466  -0.24373   1.83591
  -5.25686  -0.30783   1.65661
  -4.73406  -0.32743   1.27221
  -4.19396  -0.20943   0.76771
  -3.45276  -0.22153   0.52591
  -2.88416  -0.01393  -0.12809
  -2.24026  -0.08333  -0.57579
  -1.59216  -0.08223  -0.95059
  -1.09016  -0.10563  -1.39229
  -0.52246  -0.12313  -1.79369
  -0.10086  -0.09393  -2.47359
   0.45394   0.00897  -2.97299
   1.10044  -0.08803  -3.32279
   1.61804  -0.00273  -3.86059
   2.03094  -0.17103  -4.28279
   2.50914  -0.11563  -4.72259
   2.92104  -0.05393  -5.25759
   3.15814   0.01717  -5.70599
   3.67514  -0.12783  -5.93139
   4.10224  -0.13203  -6.41769
   4.41704   0.02047  -6.85889
   4.82894   0.00177  -7.12129
