********************************************************************************
              CENTRO DE INSTRUMENTACION Y REGISTRO SISMICO  A.C.

    Anaxagoras 814, Col. Narvarte, Benito Juarez, C.P. 03020 Mexico, D.F.
           Tels. 5687 45 42/ 5687 45  82             Fax. 5669 25 12
********************************************************************************
ARCHIVO ESTANDAR DE ACELERACION:
VERSION DEL FORMATO                    : 2.0
NOMBRE DEL ARCHIVO                     : TH3520220919180509
FECHA Y HORA DE CREACION               : 19/SEP/22, 19:46
REF. CATALOGO ACELEROGRAMAS, SMIS 1996 : REGISTRO No.     /PAG.


================================================================================
DATOS DE LA ESTACION:
NOMBRE DE LA ESTACION                  : TLÁHUAC
CLAVE DE LA ESTACION                   : TH35
LOCALIZACION DE LA ESTACION            : Del. Tláhuac, Col. San José, calle Juan
                                       : Mendoza esq. con calle La Rondalla.    
                                       :                                        
                                       :                                        
                                       : 
COORDENADAS DE LA ESTACION             : 19.2786 LAT. N
                                       : 99.0000 LONG. W
ALTITUD (msnm)                         : 2238
TIPO DE SUELO                          : Terreno blando, material compresible
                                       : (arcillas)                
                                       : 
INSTITUCION RESPONSABLE                : CIRES, A. C.
                                       : 

================================================================================
DATOS DEL ACELEROGRAFO:
MODELO DEL ACELEROGRAFO                : RAD_IO14
NUMERO DE SERIE DEL ACELEROGRAFO       : 
NUMERO DE CANALES                      : 3
ORIENTACION C1-C6 (rumbo;orientacion)  : /S00E/+V/N90W
ORIENTACION C7-C12 (rumbo;orientacion) : 
VEL. DE MUESTREO, C1-C6 (muestras/s)   : /100/100/100
VEL. DE MUESTREO, C7-C12 (muestras/s)  : 
ESC. COMPLETA DE SENSORES, C1-C6, (g)  : /2.0/2.0/2.0
ESC. COMPLETA DE SENSORES, C7-C12, (g) : 
FREC. NAT. DE SENSORES, C1-C6, (Hz)    : /53.1/51.25/51.77
FREC. NAT. DE SENSORES, C7-C12, (Hz)   : 
AMORTIGUAMIENTO DE SENSORES, C1-C6     : /0.5698/0.5715/0.5572
AMORTIGUAMIENTO DE SENSORES, C7-C12    : 
INTERVALO DE MUESTREO, C1-C6, (s)      : /0.01/0.01/0.01
INTERVALO DE MUESTREO, C7-C12, (s)     : 
UMBRAL DE DISPARO, C1-C6, (Gal)        : / / /
UMBRAL DE DISPARO, C7-C12, (Gal)       : 
MEMORIA DE PREEVENTO (s)               : 60
TIEMPO DE POSEVENTO (s)                : 90


================================================================================
DATOS DEL SISMO:
FECHA DEL SISMO (GMT)                  : 19/SEP/22
HORA EPICENTRO (GMT)                   : 18:05:09.0
MAGNITUD(ES)                           : /Mc=7.7
COORDENADAS DEL EPICENTRO              : 18.22 LAT. N
                                       : 103.29 LONG. W
PROFUNDIDAD FOCAL (km)                 : 15
FUENTE DE LOS DATOS EPICENTRALES       : SSN
                                       : INSTITUTO DE GEOFISICA, UNAM

================================================================================
DATOS DE ESTE REGISTRO:
HORA DE LA PRIMERA MUESTRA (GMT)       : 18:04:26.959.00
EXACTITUD DEL TIEMPO (s)               : 
DURACION DEL REGISTRO (s), C1-C6       : /515.81/515.81/515.81
DURACION DEL REGISTRO (s), C7-C12      : 
NUM. TOTAL DE MUESTRAS, C1-C6          : /51581/51581/51581
NUM. TOTAL DE MUESTRAS, C7-C12         : 
ACEL. MAX. (Gal), C1-C6                : /52.52279/10.59813/22.78022
ACEL. MAX., C1-C6, EN LA MUESTRA       : /20244/21255/21816
ACEL. MAX. (Gal), C7-C12               : 
ACEL. MAX., C7-C12, EN LA MUESTRA      : 
UNIDADES DE LOS DATOS                  : Gal (cm/s/s)
FACTOR DE DECIMACION                   : 1
FORMATO DATOS (FORTRAN,10 campos/dato) : 3F10.5


================================================================================
CALIDAD DEL ACELEROGRAMA:
REGISTRO DIGITAL COMPLETO CON TIEMPO ABSOLUTO CORRECTO.


================================================================================
COMENTARIOS:














================================================================================
DATOS DE ACELERACION:
---------+---------+---------+---------+---------+---------+---------+---------+
   CANAL-1   CANAL-2   CANAL-3   CANAL-4   CANAL-5   CANAL-6   CANAL-7   CANAL-8
      N00E        +V      N90W
---------+---------+---------+---------+---------+---------+---------+---------+
[...]
  -1.92589  -3.74297  -0.95552
  -1.88149  -3.84327  -0.75422
  -2.02059  -3.85657  -0.58632
  -1.93009  -3.90407  -0.26952
  -1.87959  -3.87527  -0.00832
  -1.83659  -3.71937   0.44408
  -1.68979  -3.56477   0.64768
  -1.62729  -3.47547   0.89668
  -1.64299  -3.23327   1.15248
  -1.59759  -3.05837   1.54978
  -1.47859  -2.89447   1.92688
  -1.21279  -2.70367   2.44008
  -1.09959  -2.43387   2.66758
  -0.96379  -2.16097   3.00448
  -0.56889  -1.99827   3.44058
  -0.44429  -1.75017   3.67548
  -0.40379  -1.37447   4.04818
  -0.10169  -1.20587   4.37668
   0.27591  -0.81407   4.64158
   0.56201  -0.52407   4.86378
   1.10381  -0.44957   5.14878
   1.51251  -0.22597   5.32648
   1.92441  -0.07127   5.67388
   2.28571  -0.12477   5.81768
   2.72451   0.06133   5.97828
   3.20781   0.15393   6.22218
   3.73761   0.11353   6.32058
   3.84661  -0.03217   6.66918
   4.39651  -0.24357   6.89418
   4.84141  -0.25427   7.04818
   5.17671  -0.40717   7.24508
   5.52881  -0.53537   7.49638
   5.82301  -0.71657   7.68088
   6.20321  -0.88937   7.83168
   6.44141  -0.97207   7.72888
   6.67451  -1.23087   8.02738
   7.08691  -1.45977   8.09918
   7.42761  -1.62747   8.01708
   7.68781  -1.74667   8.13898
   7.88521  -2.10467   8.09868
   8.45781  -2.20777   8.02158
   8.80851  -2.30757   7.82558
   9.19291  -2.68497   7.86118
   9.53001  -2.83627   7.80198
   9.83051  -3.04457   7.69938
  10.42761  -3.04367   7.58248
  10.78981  -3.31327   7.72248
  11.32711  -3.28867   7.68328
  11.67011  -3.63607   7.69168
  12.10401  -3.50607   7.71648
  12.73111  -3.64057   7.61778
  13.26181  -3.56317   7.47348
  13.72151  -3.69197   7.40808
  13.86201  -3.60077   7.42278
  14.11781  -3.60857   7.38748
  14.37501  -3.61837   7.29138
  14.56931  -3.55617   7.19948
  14.75451  -3.66187   7.20158
  14.82671  -3.44347   6.95728
  15.06871  -3.54817   7.05338
  15.22421  -3.53697   6.73908
  15.47881  -3.52927   6.73378
  15.56911  -3.37327   6.42138
  15.45751  -3.34647   6.13308
  15.34111  -3.07587   5.74588
  15.36241  -3.04407   5.24068
  15.06821  -2.97167   4.63908
  14.96261  -2.84727   3.98138
  14.74401  -2.64597   3.52848
  14.63011  -2.59117   3.33978
  14.34201  -2.62957   3.06338
  14.27961  -2.48927   3.06298
  13.82481  -2.37567   2.83168
  13.24831  -2.36517   2.74148
  12.79231  -2.29407   2.41948
  12.40071  -2.08877   2.03648
  12.19121  -2.02817   1.71598
  11.94341  -2.03217   1.51418
  11.82341  -2.03097   1.31688
  11.56511  -2.10627   1.15908
  11.39321  -2.04667   0.98788
  11.12691  -2.08807   0.98928
  10.80501  -2.02497   0.84408
  10.21551  -2.01937   0.97948
   9.54361  -1.84307   0.95768
   8.74321  -1.80707   1.07818
   8.05401  -1.59337   1.23688
   7.38581  -1.38987   1.25958
   6.71361  -1.34037   1.37178
   6.09511  -1.23957   1.31618
   5.49941  -1.12127   1.47838
   4.89151  -1.29707   1.62898
   4.38881  -0.92067   1.48188
   3.92891  -0.85377   1.32618
   3.40071  -0.45797   1.41908
   2.89731  -0.32467   1.10498
   2.40631  -0.25707   1.13638
   1.67191   0.01603   1.12888
   1.02381   0.12303   1.05638
   0.37201   0.49013   0.94018
  -0.19919   0.49363   0.76088
  -0.69299   0.78403   0.65258
  -1.39209   0.75853   0.82308
  -1.92029   0.89723   0.80878
  -2.36829   1.02063   0.68698
  -2.75849   1.11603   0.70568
  -3.11899   1.39873   0.61758
  -3.53869   1.42653   0.47028
  -3.88479   1.55303   0.51228
  -4.17819   1.59583   0.29888
  -4.50859   1.75083   0.31798
  -4.78869   1.94533   0.01638
  -4.90739   1.88393  -0.04442
  -5.10269   2.05293  -0.22742
  -5.43909   2.11983  -0.47952
  -5.71809   2.14853  -0.56602
  -5.99559   2.21383  -0.68662
  -6.26539   2.22903  -0.77832
  -6.44889   2.17563  -1.17532
  -6.78959   2.06903  -1.20522
  -6.87399   2.01363  -1.63172
  -7.02479   1.84643  -1.72012
  -7.36849   1.71673  -2.01072
  -7.66329   1.54113  -2.12132
  -7.92939   1.42443  -2.43112
  -8.01289   1.29443  -2.78442
  -8.46829   1.13713  -2.98122
  -8.79609   1.00573  -3.28192
  -9.20019   0.92343  -3.31352
  -9.52699   0.96013  -3.61272
  -9.83329   1.07283  -3.69252
 -10.37409   0.88713  -4.03152
 -10.62499   0.86443  -4.19382
 -11.14199   0.88953  -4.16242
 -11.48209   0.77003  -4.43972
 -11.75799   0.77583  -4.51832
 -12.24999   0.70643  -4.50172
 -12.69719   0.60053  -4.68222
 -12.81319   0.69313  -4.83742
 -13.29299   0.74963  -5.02192
 -13.63999   0.57573  -5.24572
 -13.74049   0.53273  -5.45422
 -13.88289   0.46793  -5.59242
 -13.98199   0.38333  -5.79562
 -14.30659   0.19223  -6.19942
 -14.65629  -0.00527  -6.29832
 -14.88409   0.06863  -6.46612
 -14.75449  -0.23557  -6.66862
 -14.64959  -0.37987  -6.92932
 -14.53149  -0.59407  -7.16902
 -14.47369  -0.71837  -7.20592
 -14.14239  -0.99267  -7.29032
 -13.96429  -0.96067  -7.36612
 -13.64999  -1.19307  -7.42132
 -13.23269  -1.37517  -7.37472
 -12.87279  -1.48927  -7.32402
 -12.36869  -1.54167  -7.27402
 -12.00559  -1.68867  -7.20642
 -11.51889  -1.71767  -6.95062
 -11.10429  -1.60947  -6.85382
 -10.21559  -1.71117  -6.67212
  -9.80989  -1.73997  -6.66772
  -9.25749  -1.77947  -6.49982
  -8.51249  -1.52647  -6.23792
  -7.60089  -1.56827  -6.19492
  -6.93079  -1.26227  -6.28872
  -5.90579  -0.98237  -6.13042
  -4.85949  -0.77737  -6.09882
  -3.86909  -0.41987  -6.13302
  -2.70989  -0.10747  -6.32612
  -1.65819   0.37563  -6.12362
  -0.59789   0.57523  -6.25152
   0.10071   0.77473  -6.20172
   0.86321   0.83453  -6.29732
   1.75751   0.94393  -6.24852
   2.40381   1.05833  -5.95762
   2.98451   1.11513  -5.92702
   3.52251   1.25193  -5.60742
   4.33851   1.40803  -5.49632
   4.95551   1.30073  -5.47012
   5.59101   1.36573  -5.35772
   6.35141   1.30383  -5.45472
   6.89871   1.36253  -5.30442
   7.59341   1.37563  -5.34852
   8.12461   1.37673  -5.60182
   8.87931   1.10973  -5.55202
   9.60791   1.28673  -5.60502
  10.53261   0.86403  -5.90342
  11.18751   1.03773  -6.18392
  11.98271   0.87893  -6.51102
  12.48791   0.65333  -6.82952
  13.28991   0.62573  -7.10732
  14.09821   0.48753  -7.53002
  14.55131   0.53733  -7.99992
  15.13041   0.44943  -8.38812
  15.69201   0.26573  -8.91412
  16.00651   0.09593  -9.56722
  16.51081   0.01853 -10.05962
  17.03831  -0.13417 -10.69812
  17.64951  -0.20827 -11.19262
  18.17091  -0.17127 -11.53252
  18.59221  -0.09597 -12.24782
  19.26321  -0.26037 -12.43432
  19.69561  -0.31857 -13.16432
  20.21371  -0.35837 -13.69042
  20.67611  -0.25337 -14.18862
  21.10031  -0.21267 -14.59942
  21.40381  -0.21807 -15.18422
  21.73181   0.05083 -15.63222
  22.03831   0.17993 -16.03712
  22.19921   0.23273 -16.48232
  22.48981   0.29093 -16.84332
  22.82061   0.61853 -17.14092
  23.18441   0.70643 -17.33612
  23.59991   0.71883 -17.44672
  24.13771   0.76603 -17.58242
  24.42551   0.72813 -17.35882
  24.76151   0.84013 -17.39832
  25.18021   1.04923 -17.18672
  25.62311   1.24953 -16.97422
  26.08271   1.48223 -16.88352
  26.52841   1.47023 -16.42522
  27.04721   1.44993 -16.16592
  27.52701   1.76983 -15.73062
  27.92961   1.68143 -15.42012
  28.42251   1.67253 -14.83492
  28.91111   1.87803 -14.31562
  29.32031   2.15793 -13.70912
  29.89781   2.38193 -13.09582
  30.30601   2.30173 -12.36682
  30.79161   2.47263 -11.46872
  31.12581   2.55683 -10.57462
  31.54291   2.83713  -9.74342
  31.60091   3.09053  -8.81362
  31.81851   3.01883  -8.03762
  32.00861   3.10763  -7.32772
  32.19731   3.30993  -6.49212
  32.40281   3.29303  -5.72472
  32.37101   3.26963  -5.32192
  32.39321   3.33303  -5.01232
  32.60671   3.45323  -4.84282
  32.44751   3.39663  -4.51382
  32.07391   3.38473  -4.43322
  31.70681   3.39573  -4.20992
  31.39461   3.29323  -3.67802
  31.14471   3.47193  -3.20972
  30.59621   3.67723  -2.65342
  29.88261   3.71043  -1.97122
  29.14941   3.88993  -1.25102
  28.27031   3.93813  -0.27892
  27.46311   3.95563   0.42978
  26.35771   3.93183   0.77908
  25.20501   4.04263   0.55158
  23.82181   4.13403  -0.53232
  22.62071   4.08703  -1.80702
  21.54921   4.05203  -3.31772
  20.66701   3.91313  -4.42222
  19.98851   4.02203  -4.87982
  19.24941   4.26003  -5.25972
  18.72621   4.50863  -5.02352
  18.19291   4.44713  -4.73712
  17.80681   4.49833  -4.32802
  17.40191   4.53433  -3.67542
  16.83681   4.57623  -2.87512
  16.20201   4.77423  -2.22322
  15.38061   4.72253  -1.73552
  14.65441   4.77933  -1.82132
  13.73411   4.61683  -1.54242
  13.20291   4.55493  -1.65532
  12.60581   4.37463  -1.67312
  12.08811   4.08263  -1.61982
  11.53401   4.01033  -1.51382
  10.83401   3.89253  -1.51202
  10.25601   3.81513  -1.05372
   9.68571   3.64793  -0.51742
   9.18401   3.51983   0.10498
   8.66891   3.45903   1.05878
   7.96961   3.33183   1.89648
   7.21341   3.13193   2.61028
   6.26091   3.03493   3.38678
   5.32241   2.78173   3.94698
   4.30771   2.50133   4.65798
   3.26281   2.13853   5.40268
   2.20391   1.96293   5.93108
   1.08131   1.73093   6.69678
  -0.18569   1.48943   7.31988
  -1.44359   1.29093   7.87688
  -2.48709   1.08143   8.49128
  -3.80319   0.87993   9.05588
  -5.00819   0.72653   9.76698
  -6.54429   0.44433  10.28088
  -8.08209   0.30613  10.68908
  -9.58359   0.05803  11.36948
 -11.23269   0.07743  11.78328
 -12.82259  -0.12707  12.12588
 -14.33509  -0.42127  12.63038
 -16.14009  -0.61277  13.19408
 -17.55209  -0.83067  13.56728
 -19.34679  -0.79787  14.18808
 -21.21279  -0.98237  14.43468
 -22.82859  -0.85657  14.70008
 -24.44449  -1.10047  14.88338
 -26.13069  -1.04527  15.08818
 -27.96819  -0.99567  15.17448
 -29.61709  -0.89937  15.04958
 -31.44989  -0.92227  14.94768
 -33.01409  -0.81097  14.98508
 -34.52659  -0.87297  14.90678
 -36.06809  -0.85477  14.74828
 -37.32339  -0.74927  14.60098
 -38.59579  -0.87597  14.51838
 -39.85829  -0.95007  14.43888
 -40.95509  -0.99457  14.20228
 -42.01659  -1.09317  14.08958
 -43.20159  -1.14767  13.70518
 -44.06429  -1.14577  13.50668
 -45.02669  -1.17267  13.30888
 -45.71549  -1.36447  13.02908
 -46.71809  -1.61647  12.97668
 -47.39119  -1.61527  12.50768
 -48.13869  -1.82407  12.42138
 -48.77719  -1.75257  12.08468
 -49.23009  -2.00227  11.80388
 -49.71599  -2.19047  11.46318
 -49.97809  -2.43947  11.20468
 -50.58829  -2.65477  10.97078
 -50.90599  -2.80887  10.86028
 -51.17489  -2.71447  10.62218
 -51.53029  -2.84797  10.42438
 -51.86839  -3.11967  10.29788
 -52.10479  -3.24847  10.13288
 -52.25749  -3.36887  10.05078
 -52.29559  -3.41327   9.87618
 -52.52279  -3.53067   9.83518
 -52.29999  -3.51407   9.71858
 -52.21189  -3.73267   9.73558
 -51.93879  -3.78227   9.48448
 -51.81669  -3.79067   9.56918
 -51.64349  -3.95667   9.25018
 -51.52169  -3.94617   9.09728
 -51.43539  -4.12737   8.84878
 -51.49659  -4.02707   8.92708
 -51.35239  -4.23467   8.85768
 -51.17609  -4.14937   9.05688
 -50.93899  -4.13457   9.12068
 -50.51599  -4.13717   9.30168
 -50.08229  -4.19817   9.43468
 -49.44959  -4.32347   9.64698
 -49.09709  -4.39977   9.79498
 -48.34609  -4.48157   9.75318
 -47.71879  -4.27207   9.77608
 -47.00379  -4.53087   9.63458
 -46.09119  -4.29757   9.83168
 -45.20719  -4.35157   9.72838
 -44.40779  -4.39127   9.84648
 -43.53659  -4.34077   9.91498
 -42.73719  -4.36657  10.03788
 -41.94769  -4.32327  10.34868
 -41.07509  -4.11657  10.45578
 -40.26379  -4.19887  10.78658
 -39.36989  -4.08827  10.97008
 -38.45809  -4.05017  11.11298
 -37.62269  -3.98187  11.26308
 -36.59039  -3.85567  11.12588
 -35.73999  -3.80987  10.99018
 -34.70869  -3.56857  10.94208
 -33.77649  -3.55547  10.84268
 -32.58759  -3.24827  10.88848
 -31.44709  -2.81167  11.00098
 -30.37599  -2.64357  11.30678
 -29.13449  -2.22997  11.23358
 -28.19619  -1.89307  11.35588
 -27.16559  -1.65837  11.33858
 -26.29279  -1.37097  11.07578
 -25.03909  -1.23607  10.96268
 -24.21019  -1.13157  10.80928
 -23.29909  -1.21787  10.65448
 -22.25749  -1.04647  10.39048
 -21.11459  -1.08197  10.47838
 -20.05429  -1.07987  10.46998
 -18.78399  -1.00667  10.33678
 -17.36449  -1.05397  10.13218
 -16.17399  -0.93307  10.13468
 -14.87239  -0.91317  10.12018
 -13.74659  -0.87137   9.91798
 -12.53169  -0.84347   9.89018
 -11.35799  -0.86147   9.89858
  -9.85229  -0.58837   9.84758
  -8.53169  -0.37937   9.73798
  -7.27989  -0.30967   9.33278
  -6.01919  -0.09597   9.01268
  -4.84429  -0.11307   8.52468
  -3.62309  -0.03287   7.98458
  -2.01989  -0.09577   7.54858
  -0.54969   0.02483   7.32998
   0.99341   0.06133   7.11488
   2.48651   0.04493   7.03678
   3.74071  -0.13347   6.98138
   5.03931  -0.22037   6.72278
   6.43181  -0.35277   6.68508
   7.56531  -0.38477   6.59648
   8.82111  -0.42237   6.54738
  10.13651  -0.43807   6.39848
  11.54361  -0.18087   6.17568
  12.66051   0.01313   6.06018
  13.97001   0.22573   5.69118
  15.14911   0.39403   5.37248
  16.20691   0.60843   5.25658
  17.38761   0.78473   5.03648
  18.60131   0.96573   4.82328
  19.83931   1.08123   4.35308
  20.92141   1.31993   4.12868
  22.11641   1.57993   3.88688
  23.14751   1.52643   3.44378
  24.09331   1.69283   2.88898
  25.15121   1.84083   2.42558
  26.27911   1.94353   1.96758
  27.04911   2.23763   1.58928
  28.24311   2.36343   1.40548
  29.48751   2.43773   1.10618
  30.36491   2.58903   0.98838
  31.18121   2.78663   0.74618
  31.66281   2.82003   0.60328
  31.87821   2.86163   0.67828
  31.89031   3.01133   0.77278
  31.84051   3.39683   0.91798
  32.39021   3.46953   1.34588
  33.12161   3.66103   1.35798
  33.67081   3.96973   1.38438
  34.54471   4.02513   1.35568
  35.66801   4.02163   1.06858
  36.99531   4.14363   0.57758
  37.99271   4.24323  -0.05822
  38.80731   4.27153  -0.63752
  39.22281   4.57623  -1.13532
  39.07411   4.46443  -1.55572
  38.73021   4.40103  -1.83282
  38.27541   4.70833  -2.18112
  37.82931   4.62763  -2.38882
  37.91811   4.54973  -3.04042
  38.03131   4.42753  -3.40722
  38.30561   4.40733  -3.70352
  39.10051   4.29093  -4.04082
  39.66261   4.24323  -4.53372
  40.27121   3.69963  -4.88332
  40.73811   3.65753  -5.24892
  40.80051   3.81893  -5.60832
  40.66611   3.56243  -5.94732
  40.74401   3.42633  -6.11782
  40.64761   3.31503  -6.54682
  40.50011   3.36293  -6.94342
  40.43841   3.18013  -7.09042
  40.41191   2.97673  -7.36632
  40.51341   2.55583  -7.67212
  40.20221   2.49253  -8.20642
  40.08621   2.16823  -8.30042
  40.09701   2.27693  -8.59102
  40.14911   2.09473  -8.61912
  40.01401   2.00403  -8.88492
  39.79871   1.92833  -9.13342
  39.55711   2.09473  -9.30902
  39.29201   2.04893  -9.64342
  39.00511   1.96193  -9.78832
  38.78321   2.09033 -10.17322
  38.20901   2.26753 -10.32002
  37.74351   2.19763 -10.62072
  37.29131   2.19673 -10.88752
  36.82481   1.93013 -11.31182
  36.40751   1.86703 -11.59822
  35.89431   1.67863 -11.93332
  35.36871   1.65963 -12.46332
  35.03761   1.57623 -12.68592
  34.30671   1.70553 -13.02212
  33.60721   1.64423 -13.27492
  32.97641   1.38893 -13.64812
  32.23031   1.35853 -13.76452
  31.58381   1.05483 -14.12412
