********************************************************************************
              CENTRO DE INSTRUMENTACION Y REGISTRO SISMICO  A.C.

    Anaxagoras 814, Col. Narvarte, Benito Juarez, C.P. 03020 Mexico, D.F.
           Tels. 5687 45 42/ 5687 45  82             Fax. 5669 25 12
********************************************************************************
ARCHIVO ESTANDAR DE ACELERACION:
VERSION DEL FORMATO                    : 2.0
NOMBRE DEL ARCHIVO                     : TP1320220919180509
FECHA Y HORA DE CREACION               : 19/SEP/22, 19:46
REF. CATALOGO ACELEROGRAMAS, SMIS 1996 : REGISTRO No.     /PAG.


================================================================================
DATOS DE LA ESTACION:
NOMBRE DE LA ESTACION                  : TLALPAN
CLAVE DE LA ESTACION                   : TP13
LOCALIZACION DE LA ESTACION            : Del. Tlalpan, Col. Tlalpan,            
                                       : Las Fuentes, entre Av. San Fernando    
                                       : y calle Ignacio Allende.               
                                       :                                        
                                       : 
COORDENADAS DE LA ESTACION             : 19.2922 LAT. N
                                       : 99.1708 LONG. W
ALTITUD (msnm)                         : 2265
TIPO DE SUELO                          : Terreno firme, materiales compactos 
                                       : (limos, arenas, gravas)   
                                       : 
INSTITUCION RESPONSABLE                : CIRES, A. C.
                                       : 

================================================================================
DATOS DEL ACELEROGRAFO:
MODELO DEL ACELEROGRAFO                : RAD_IO14
NUMERO DE SERIE DEL ACELEROGRAFO       : 
NUMERO DE CANALES                      : 3
ORIENTACION C1-C6 (rumbo;orientacion)  : /S00E/+V/N90W
ORIENTACION C7-C12 (rumbo;orientacion) : 
VEL. DE MUESTREO, C1-C6 (muestras/s)   : /100/100/100
VEL. DE MUESTREO, C7-C12 (muestras/s)  : 
ESC. COMPLETA DE SENSORES, C1-C6, (g)  : /2.0/2.0/2.0
ESC. COMPLETA DE SENSORES, C7-C12, (g) : 
FREC. NAT. DE SENSORES, C1-C6, (Hz)    : /51.83/50.37/51.83
FREC. NAT. DE SENSORES, C7-C12, (Hz)   : 
AMORTIGUAMIENTO DE SENSORES, C1-C6     : /0.5881/0.5605/0.5912
AMORTIGUAMIENTO DE SENSORES, C7-C12    : 
INTERVALO DE MUESTREO, C1-C6, (s)      : /0.01/0.01/0.01
INTERVALO DE MUESTREO, C7-C12, (s)     : 
UMBRAL DE DISPARO, C1-C6, (Gal)        : / / /
UMBRAL DE DISPARO, C7-C12, (Gal)       : 
MEMORIA DE PREEVENTO (s)               : 60
TIEMPO DE POSEVENTO (s)                : 90


================================================================================
DATOS DEL SISMO:
FECHA DEL SISMO (GMT)                  : 19/SEP/22
HORA EPICENTRO (GMT)                   : 18:05:09.0
MAGNITUD(ES)                           : /Mc=7.7
COORDENADAS DEL EPICENTRO              : 18.22 LAT. N
                                       : 103.29 LONG. W
PROFUNDIDAD FOCAL (km)                 : 15
FUENTE DE LOS DATOS EPICENTRALES       : SSN
                                       : INSTITUTO DE GEOFISICA, UNAM

================================================================================
DATOS DE ESTE REGISTRO:
HORA DE LA PRIMERA MUESTRA (GMT)       : 18:04:27.044.00
EXACTITUD DEL TIEMPO (s)               : 
DURACION DEL REGISTRO (s), C1-C6       : /523.41/523.41/523.41
DURACION DEL REGISTRO (s), C7-C12      : 
NUM. TOTAL DE MUESTRAS, C1-C6          : /52341/52341/52341
NUM. TOTAL DE MUESTRAS, C7-C12         : 
ACEL. MAX. (Gal), C1-C6                : /7.67044/2.94428/5.29969
ACEL. MAX., C1-C6, EN LA MUESTRA       : /19315/19498/18863
ACEL. MAX. (Gal), C7-C12               : 
ACEL. MAX., C7-C12, EN LA MUESTRA      : 
UNIDADES DE LOS DATOS                  : Gal (cm/s/s)
FACTOR DE DECIMACION                   : 1
FORMATO DATOS (FORTRAN,10 campos/dato) : 3F10.5


================================================================================
CALIDAD DEL ACELEROGRAMA:
REGISTRO DIGITAL COMPLETO CON TIEMPO ABSOLUTO CORRECTO.


================================================================================
COMENTARIOS:














================================================================================
DATOS DE ACELERACION:
---------+---------+---------+---------+---------+---------+---------+---------+
   CANAL-1   CANAL-2   CANAL-3   CANAL-4   CANAL-5   CANAL-6   CANAL-7   CANAL-8
      N00E        +V      N90W
---------+---------+---------+---------+---------+---------+---------+---------+
[...]
   0.35926  -0.69578   1.06951
   0.61646  -0.65558   1.04441
   0.75836  -0.57888   1.06381
   1.16426  -0.38338   0.84991
   1.54516  -0.56738   0.94111
   1.71486  -0.55408   0.89321
   1.88536  -0.42358   0.88311
   2.14506  -0.29688   1.05011
   2.54256  -0.30018   1.06151
   2.67326  -0.07808   1.25421
   2.92316  -0.12858   1.40451
   3.06236   0.01502   1.57051
   3.23556   0.11652   1.68601
   3.29026   0.24022   1.97831
   3.23116   0.29702   2.35191
   3.30336   0.34912   2.66221
   3.38776   0.41272   2.96611
   3.25336   0.58292   3.15881
   3.20986   0.38372   3.57101
   3.20026   0.47752   3.79241
   2.94256   0.59692   4.21931
   2.82896   0.56892   4.36711
   2.76326   0.52962   4.39191
   2.61556   0.71292   4.70921
   2.69786   0.81282   4.75311
   2.73966   0.74872   4.85481
   2.72816   0.86022   4.79331
   2.60386   0.83192   4.91261
   2.60386   0.71782   4.85791
   2.54956   0.69512   4.86511
   2.59496   0.81132   4.85651
   2.45536   0.73912   4.86181
   2.28096   0.73772   4.78681
   2.34196   0.59862   4.78301
   2.16916   0.76132   4.81061
   1.99006   0.74312   4.78211
   2.01466   0.63412   4.67251
   2.06326   0.55742   4.81411
   1.94236   0.62782   4.87211
   1.84416   0.69192   4.74681
   1.74386   0.89112   4.71941
   1.66296   0.77042   4.86841
   1.69426   0.83962   4.85971
   1.65666   0.78702   4.90301
   1.45446   0.79452   4.54671
   1.55686   0.75292   4.66471
   1.34546   0.79712   4.65231
   1.48556   0.83052   4.52631
   1.36346   0.95582   4.56491
   1.43196   0.85372   4.40151
   1.23886   0.72812   4.17401
   1.29406   0.75082   4.14171
   1.31976   0.66782   4.04301
   1.11076   0.67292   3.78191
   1.09646   0.57242   3.60371
   0.79606   0.65242   3.49381
   0.74716   0.61962   3.20301
   0.58116   0.60512   2.91281
   0.46566   0.62942   2.71831
   0.56336   0.47682   2.48941
   0.38266   0.40052   2.36571
   0.36086   0.38252   2.14501
   0.36676   0.39962   2.02571
   0.28446   0.22472   1.72511
   0.41656   0.26542   1.65281
   0.37306   0.13332   1.50861
   0.49016   0.03232   1.43471
   0.59796   0.02582   1.33371
   0.45586  -0.16548   1.22961
   0.60356  -0.09298   1.21111
   0.76256   0.06642   1.14431
   0.60846  -0.08318   1.01051
   0.85426   0.08862   0.84801
   0.84366   0.00842   0.81651
   0.75646   0.19552   0.63111
   0.70596   0.33462   0.54501
   0.86146   0.22662   0.32241
   0.81476   0.36592   0.30861
   1.03196   0.41482  -0.07179
   0.77096   0.55252  -0.26839
   0.92526   0.60122  -0.60909
   0.69106   0.77812  -0.79699
   0.71416   0.63082  -1.26259
   0.50936   0.79502  -1.44279
   0.33586   0.89672  -1.89519
   0.18526   0.90982  -1.99759
  -0.01484   0.78752  -2.31239
  -0.06394   0.86822  -2.60949
  -0.22524   0.78452  -2.73479
  -0.38074   0.50882  -2.95839
  -0.44364   0.46652  -3.17389
  -0.39334   0.35402  -3.23359
  -0.49014   0.20062  -3.43019
  -0.44014   0.01012  -3.38759
  -0.18664   0.11722  -3.56839
  -0.41064  -0.06678  -3.83729
  -0.27184  -0.22888  -3.69299
  -0.19624  -0.54568  -3.96889
  -0.49714  -0.48558  -3.87629
  -0.44344  -0.68638  -3.88569
  -0.72094  -0.62658  -3.93079
  -0.87364  -0.60478  -3.93519
  -1.01184  -0.85798  -3.74889
  -1.29704  -0.91768  -3.82179
  -1.56544  -0.99998  -3.86909
  -1.86194  -1.10608  -3.74089
  -1.86384  -1.18158  -3.47229
  -2.23204  -1.22748  -3.53379
  -2.56354  -1.17998  -3.74469
  -2.83694  -1.27538  -3.65819
  -2.87474  -1.29668  -3.40559
  -3.24534  -1.25008  -3.56599
  -3.28394  -1.23418  -3.43599
  -3.38594  -1.02758  -3.41059
  -3.45554  -0.95158  -3.36399
  -3.32514  -0.79538  -3.07709
  -3.36274  -0.69458  -3.15059
  -3.21334  -0.57888  -3.03199
  -3.19694  -0.52108  -2.92419
  -3.02564  -0.52178  -2.95789
  -2.92084  -0.39788  -2.85269
  -2.72844  -0.42568  -2.67969
  -2.52944  -0.43948  -2.59969
  -2.31804  -0.48158  -2.66729
  -1.86564  -0.37778  -2.49429
  -1.56824  -0.65998  -2.40329
  -1.15744  -0.55498  -2.55739
  -0.91504  -0.64218  -2.33709
  -0.31454  -0.73228  -2.47109
   0.14926  -0.80048  -2.36539
   0.50326  -0.70958  -2.18959
   0.99006  -0.89288  -2.28269
   1.51806  -0.83368  -2.16319
   2.03426  -1.13458  -2.14069
   2.25096  -1.07528  -2.04039
   2.47196  -1.06328  -1.91529
   2.96836  -1.08648  -1.93079
   3.19066  -0.97778  -1.92169
   3.35506  -0.94268  -1.84329
   3.59676  -0.92348  -1.93869
   3.86006  -0.83348  -1.84189
   4.15706  -0.71378  -1.91669
   4.03586  -0.69858  -1.80259
   4.10066  -0.55878  -1.77229
   4.10206  -0.55948  -1.84429
   4.08216  -0.43998  -1.81459
   4.00036  -0.27168  -1.91419
   3.78316  -0.27138  -1.80939
   3.53156  -0.17108  -1.66629
   3.23396  -0.20638  -1.49639
   2.85236  -0.07948  -1.38999
   2.53226   0.13212  -1.31939
   2.19766   0.09642  -1.36219
   1.81966  -0.06238  -1.04599
   1.43896   0.02832  -0.88309
   1.11076   0.06992  -0.88239
   0.64216   0.07562  -0.55639
   0.54416   0.06482  -0.72319
   0.28886  -0.00138  -0.45429
   0.04616   0.06672  -0.30579
  -0.14744  -0.06888  -0.10079
  -0.23554  -0.04808   0.00611
  -0.32624  -0.16318   0.08791
  -0.43894  -0.06568   0.26941
  -0.63704  -0.18838   0.18451
  -0.82544  -0.12858   0.10921
  -0.95214  -0.08128   0.14471
  -1.00924  -0.14628   0.17421
  -1.17644  -0.13928   0.06311
  -1.11074  -0.26878   0.18641
  -1.14884   0.03002   0.24721
  -1.27924   0.06362   0.13841
  -1.09174  -0.06588   0.10341
  -1.04594   0.15012   0.21791
  -0.91804   0.32182   0.29561
  -0.83734   0.29792   0.48031
  -0.79484   0.36732   0.64491
  -0.52314   0.21402   0.79871
  -0.57414   0.49292   0.94721
  -0.53294   0.53262   1.13631
  -0.53344   0.46912   1.37341
  -0.52384   0.47542   1.57401
  -0.54064   0.41602   1.72481
  -0.64424   0.35642   1.82231
  -0.75904   0.48402   2.12771
  -0.80164   0.33672   2.09001
  -1.13574   0.29042   2.28361
  -1.11214   0.32742   2.31821
  -1.23184   0.26702   2.53731
  -1.46074   0.14992   2.73071
  -1.42054  -0.01068   2.70281
  -1.66464  -0.07948   2.55411
  -1.78804  -0.16778   2.57211
  -1.79954  -0.25318   2.61211
  -1.99664  -0.20378   2.51001
  -2.07494  -0.25858   2.61101
  -1.87764  -0.32168   2.54691
  -2.21144  -0.40768   2.38211
  -2.30004  -0.48398   2.05501
  -2.37514  -0.43128   1.88711
  -2.31014  -0.42178   1.65731
  -2.25734  -0.47198   1.41431
  -2.17804  -0.54328   1.17931
  -1.95874  -0.50618   1.05331
  -1.95494  -0.49768   0.71341
  -1.79554  -0.32638   0.38881
  -1.63044  -0.31348   0.02921
  -1.43004  -0.20238  -0.17319
  -1.36534  -0.32168  -0.34229
  -1.35714  -0.06798  -0.69249
  -1.25424  -0.15448  -0.93899
  -1.03864  -0.25618  -1.26859
  -1.02114  -0.04158  -1.48859
  -0.72214  -0.23608  -1.66819
  -0.67584  -0.36768  -1.61509
  -0.49574  -0.41168  -1.89239
  -0.35834  -0.36938  -1.89729
  -0.13474  -0.47738  -2.00419
   0.12126  -0.37568  -2.05279
   0.32976  -0.53238  -2.06079
   0.50396  -0.47508  -2.04159
   0.71296  -0.44258  -2.07149
   0.88536  -0.50218  -2.00719
   0.94846  -0.47018  -2.03789
   0.98956  -0.57158  -1.95559
   1.28916  -0.59588  -1.96369
   1.16496  -0.71728  -1.70819
   1.20826  -0.48348  -1.67289
   1.35056  -0.70488  -1.47479
   1.32136  -0.99078  -1.37969
   1.19766  -0.86158  -1.13329
   1.31626  -0.92888  -1.09159
   1.26456  -0.88418  -0.94289
   1.35716  -1.00018  -0.98269
   1.31526  -1.10798  -0.83889
   1.36906  -0.96648  -0.89899
   1.44506  -1.03668  -1.10239
   1.59146  -1.03128  -1.04979
   1.50516  -1.03738  -1.00369
   1.54306  -0.95248  -1.05699
   1.60566  -1.05188  -0.93289
   1.77376  -0.93638  -0.96959
   1.73826  -0.83998  -0.99579
   1.54816  -0.83438  -0.88779
   1.63256  -0.80008  -1.01329
   1.45906  -0.74488  -0.85599
   1.34826  -0.83298  -0.97709
   1.42096  -0.91368  -0.69979
   1.25026  -0.79158  -0.89359
   1.30596  -0.74908  -0.90409
   1.35696  -0.69388  -0.92049
   1.31876  -0.56718  -0.96159
   1.53346  -0.54428  -0.97519
   1.53626  -0.67868  -0.95599
   1.43756  -0.59658  -1.12129
   1.53646  -0.63828  -0.92539
   1.57926  -0.74958  -1.22929
   1.48526  -0.74108  -1.10749
   1.47036  -0.82298  -1.07339
   1.22386  -0.92978  -1.27419
   1.18486  -0.82858  -1.36289
   1.09436  -0.99178  -1.54869
   1.02776  -1.21528  -1.61419
   1.05206  -1.19028  -1.83939
   0.93466  -1.19028  -1.98309
   0.92416  -1.23278  -2.40309
   0.97626  -1.19288  -2.72689
   1.00456  -1.11218  -2.70959
   0.91056  -1.19778  -2.86269
   0.96016  -1.16948  -3.16649
   0.93306  -1.13068  -3.14239
   1.01416  -0.92208  -3.23799
   0.89816  -1.11988  -3.26179
   0.97816  -0.91908  -3.28379
   0.92506  -0.85098  -3.23819
   0.74716  -0.77128  -3.20459
   0.56946  -0.92068  -3.15219
   0.55126  -0.67218  -3.14279
   0.38076  -0.57608  -3.08039
   0.05786  -0.47438  -3.06119
  -0.15374  -0.22038  -3.11569
  -0.53364  -0.21648  -2.69739
  -0.86264   0.01782  -2.55529
  -1.17314   0.29562  -2.48469
  -1.35994   0.24272  -2.31419
  -1.88464   0.47702  -2.11449
  -2.15564   0.52542  -1.91769
  -2.60894   0.63652  -1.77809
  -2.96554   0.71902  -1.60019
  -3.21384   0.73822  -1.34229
  -3.73874   0.78192  -0.95509
  -3.87384   0.82632  -0.86159
  -4.11114   0.76812  -0.54619
  -4.39314   0.77982  -0.05349
  -4.49084   0.82632   0.39301
  -4.56194   0.69072   0.59951
  -4.62084   0.56092   0.99561
  -4.64444   0.61192   1.45411
  -4.67764   0.61922   1.78631
  -4.54064   0.58832   2.06241
  -4.27974   0.64212   2.35891
  -4.16234   0.72182   2.39841
  -3.97014   0.59482   2.59951
  -3.87924   0.83082   2.72741
  -3.93674   0.76202   2.74681
  -3.80184   1.00172   2.82421
  -3.61574   0.98882   2.80741
  -3.48104   0.78282   2.77531
  -3.67254   0.90792   2.67761
  -3.59004   0.87852   2.58641
  -3.57574   1.09332   2.38021
  -3.74994   1.13872   2.35121
  -3.78874   1.12112   2.18941
  -3.82244   1.37952   2.08931
  -3.89744   1.51372   1.92221
  -4.17504   1.60022   1.88991
  -4.14554   1.73192   1.64811
  -4.23744   1.73302   1.59741
  -4.41654   1.75972   1.52911
  -4.63114   1.81232   1.51861
  -4.73384   1.97922   1.31871
  -4.99774   1.97762   1.31151
  -5.24724   2.07602   1.16951
  -5.55684   2.03882   1.08091
  -5.75154   2.00662   0.94951
  -5.97674   1.91142   1.00381
  -6.41274   1.72602   1.02951
  -6.59004   1.77162   0.70141
  -6.92104   1.75762   0.76041
  -7.13784   1.59512   0.73841
  -7.21754   1.55862   0.44751
  -7.47664   1.53052   0.56511
  -7.46464   1.29532   0.47301
  -7.67044   1.13052   0.54461
  -7.56964   1.16092   0.43541
  -7.60594   0.95582   0.33741
  -7.64374   0.79872   0.59551
  -7.50324   0.54252   0.44121
  -7.30074   0.43912   0.38441
  -7.07824   0.43142   0.36151
  -7.03914   0.24952   0.44331
  -6.93764   0.14522   0.16811
  -6.66364   0.09052   0.41811
  -6.51544   0.04262   0.49921
  -6.31294  -0.07498   0.60841
  -5.82244  -0.15008   0.54081
  -5.75604  -0.34438   0.58901
  -5.38194  -0.13298   0.89901
  -4.94374  -0.23888   0.95401
  -4.72074  -0.05208   1.20341
  -4.33004  -0.10468   1.18781
  -3.88924  -0.10028   1.51091
  -3.61974   0.10662   1.53101
  -3.11634   0.12722   1.80831
  -2.55654   0.25212   1.89201
  -2.24234   0.31382   1.89601
  -1.77964   0.56262   2.07341
  -1.17894   0.30562   2.31801
  -0.69174   0.53592   2.37621
  -0.19974   0.36172   2.56771
   0.38406   0.39562   2.62501
   0.82316   0.42392   2.70141
   1.21456   0.26492   2.72791
   1.69566   0.20862   2.72481
   2.03166   0.25912   2.83611
   2.31576   0.17892   2.75971
   2.83246   0.08352   2.85621
   3.15986   0.01172   2.61451
   3.30196   0.16002   2.65051
   3.81306   0.06112   2.41291
   3.85956   0.15692   2.12211
   4.37006   0.20602   2.09921
   4.45866   0.09102   1.93641
   4.83106   0.28692   1.72881
   5.03756   0.26382   1.49171
   5.12806   0.26542   1.36851
   5.21196   0.43872   1.11361
   5.43896   0.39662   1.04471
   5.70856   0.52982   0.85391
   5.57806   0.38442   0.67811
   5.66646   0.41202   0.49271
   5.48266   0.50742   0.36831
   5.58466   0.66382   0.21021
   5.59636   0.66122  -0.02899
   5.45416   0.35432  -0.00649
   5.42686   0.25002  -0.10519
   5.37186   0.42882  -0.26139
   5.23836   0.46272  -0.15269
   5.15276   0.45672  -0.42549
   5.28466   0.34932  -0.39649
   5.27926   0.43122  -0.39859
   5.20236   0.50412  -0.44489
   5.32726   0.47122  -0.47769
   5.46326   0.53762  -0.38179
   5.32516   0.69332  -0.36239
   5.19446   0.76182  -0.15289
   5.27646   0.53012  -0.26789
   5.12076   0.66402  -0.15519
   5.18136   0.72722  -0.21039
   5.13476   0.64562  -0.10849
   5.12966   0.60352   0.00281
   4.91226   0.37022   0.22991
   4.86006   0.43962   0.21581
   4.74736   0.38862   0.20651
   4.48806   0.29462   0.43231
   4.17666   0.21262   0.39071
   4.14136   0.11412   0.50201
   3.84886   0.01342   0.60111
   3.66696  -0.00668   0.67571
   3.44526   0.03792   0.97501
   3.29866  -0.03458   1.10031
   3.15396  -0.14488   0.96521
   2.71816  -0.14518   1.02411
   2.78876  -0.24168   1.21511
   2.61696  -0.21528   1.12631
   2.39226  -0.17768   1.18361
   2.14856  -0.14888   0.96731
   2.13736  -0.32078   0.97621
   1.87616  -0.36048   0.75261
   1.95776  -0.38008   0.45711
   1.70786  -0.36448   0.53051
   1.54376  -0.35928   0.36801
   1.56426  -0.47598   0.06031
   1.56756  -0.47788  -0.14869
   1.34386  -0.48788  -0.36709
   1.33006  -0.32918  -0.62989
   1.47876  -0.51108  -0.88329
   1.36606  -0.55218  -1.01419
   1.42636  -0.24198  -1.22279
   1.45726  -0.48138  -1.57609
   1.52806  -0.32518  -1.72689
   1.54136  -0.16218  -1.81779
   1.47666  -0.37708  -1.90319
   1.50216  -0.15518  -1.94149
   1.41206  -0.00068  -1.81739
   1.57486  -0.04558  -1.81919
   1.54726  -0.01868  -1.85549
   1.42516  -0.01488  -1.79909
   1.44876   0.17802  -1.60249
   1.27186   0.01172  -1.30159
   1.20186  -0.01418  -1.29859
   1.04806  -0.06288  -0.89409
   0.88506  -0.03548  -0.52249
   0.57506  -0.05818  -0.33079
   0.27956  -0.01028  -0.27919
   0.19326  -0.15378  -0.04669
  -0.07844   0.06992   0.20411
  -0.26664  -0.05368   0.43751
  -0.42424  -0.06028   0.57031
  -0.89064   0.09732   0.62781
  -1.12214   0.30282   0.89361
  -1.28304   0.54132   0.98221
  -1.54654   0.55182   0.87521
  -1.63354   0.62432   0.97361
  -2.19584   0.83662   0.93381
  -2.38664   0.84642   0.87051
  -2.42824   0.88942   0.89111
  -2.75134   0.77442   0.56771
  -2.69124   0.81422   0.65561
  -2.68264   0.65702   0.33831
  -2.74294   0.69492   0.20741
  -2.77214   0.62622   0.15671
  -2.76094   0.58852  -0.00329
  -2.81494   0.66242   0.02321
  -2.54114   0.52282  -0.09939
  -2.50604   0.45482  -0.06899
  -2.45624   0.44712  -0.25019
  -2.33824   0.45482  -0.32029
  -2.03614   0.47472  -0.40489
  -2.15114   0.54152  -0.41989
  -1.93864   0.44432  -0.41239
  -1.68094   0.38112  -0.49379
  -1.57694   0.58242  -0.54479
  -1.19414   0.43262  -0.57019
  -0.83834   0.42912  -0.67079
  -0.56174   0.43422  -0.71329
  -0.39334   0.42982  -0.72289
