********************************************************************************
              CENTRO DE INSTRUMENTACION Y REGISTRO SISMICO  A.C.

    Anaxagoras 814, Col. Narvarte, Benito Juarez, C.P. 03020 Mexico, D.F.
           Tels. 5687 45 42/ 5687 45  82             Fax. 5669 25 12
********************************************************************************
ARCHIVO ESTANDAR DE ACELERACION:
VERSION DEL FORMATO                    : 2.0
NOMBRE DEL ARCHIVO                     : UC4420220919180509
FECHA Y HORA DE CREACION               : 19/SEP/22, 19:46
REF. CATALOGO ACELEROGRAMAS, SMIS 1996 : REGISTRO No.     /PAG.


================================================================================
DATOS DE LA ESTACION:
NOMBRE DE LA ESTACION                  : UNIDAD COLONIA IMSS
CLAVE DE LA ESTACION                   : UC44
LOCALIZACION DE LA ESTACION            : Del. Cuauhtémoc, Col. San Rafael,      
                                       : Calle Villalongin y Río Neva.          
                                       :                                        
                                       :                                        
                                       : 
COORDENADAS DE LA ESTACION             : 19.4337 LAT. N
                                       : 99.1654 LONG. W
ALTITUD (msnm)                         : 2234
TIPO DE SUELO                          : Alto riesgo sísmico                 
                                       :                           
                                       : 
INSTITUCION RESPONSABLE                : CIRES, A. C.
                                       : 

================================================================================
DATOS DEL ACELEROGRAFO:
MODELO DEL ACELEROGRAFO                : RAD_IO14
NUMERO DE SERIE DEL ACELEROGRAFO       : 
NUMERO DE CANALES                      : 3
ORIENTACION C1-C6 (rumbo;orientacion)  : /N00E/+V/N90W
ORIENTACION C7-C12 (rumbo;orientacion) : 
VEL. DE MUESTREO, C1-C6 (muestras/s)   : /100/100/100
VEL. DE MUESTREO, C7-C12 (muestras/s)  : 
ESC. COMPLETA DE SENSORES, C1-C6, (g)  : /2.0/2.0/2.0
ESC. COMPLETA DE SENSORES, C7-C12, (g) : 
FREC. NAT. DE SENSORES, C1-C6, (Hz)    : /30/30/32
FREC. NAT. DE SENSORES, C7-C12, (Hz)   : 
AMORTIGUAMIENTO DE SENSORES, C1-C6     : /0.747/0.777/0.759
AMORTIGUAMIENTO DE SENSORES, C7-C12    : 
INTERVALO DE MUESTREO, C1-C6, (s)      : /0.01/0.01/0.01
INTERVALO DE MUESTREO, C7-C12, (s)     : 
UMBRAL DE DISPARO, C1-C6, (Gal)        : / / /
UMBRAL DE DISPARO, C7-C12, (Gal)       : 
MEMORIA DE PREEVENTO (s)               : 60
TIEMPO DE POSEVENTO (s)                : 90


================================================================================
DATOS DEL SISMO:
FECHA DEL SISMO (GMT)                  : 19/SEP/22
HORA EPICENTRO (GMT)                   : 18:05:09.0
MAGNITUD(ES)                           : /Mc=7.7
COORDENADAS DEL EPICENTRO              : 18.22 LAT. N
                                       : 103.29 LONG. W
PROFUNDIDAD FOCAL (km)                 : 15
FUENTE DE LOS DATOS EPICENTRALES       : SSN
                                       : INSTITUTO DE GEOFISICA, UNAM

================================================================================
DATOS DE ESTE REGISTRO:
HORA DE LA PRIMERA MUESTRA (GMT)       : 18:04:26.874.00
EXACTITUD DEL TIEMPO (s)               : 
DURACION DEL REGISTRO (s), C1-C6       : /573.01/573.01/573.01
DURACION DEL REGISTRO (s), C7-C12      : 
NUM. TOTAL DE MUESTRAS, C1-C6          : /57301/57301/57301
NUM. TOTAL DE MUESTRAS, C7-C12         : 
ACEL. MAX. (Gal), C1-C6                : /15.32164/4.9405/16.3503
ACEL. MAX., C1-C6, EN LA MUESTRA       : /20422/20674/19999
ACEL. MAX. (Gal), C7-C12               : 
ACEL. MAX., C7-C12, EN LA MUESTRA      : 
UNIDADES DE LOS DATOS                  : Gal (cm/s/s)
FACTOR DE DECIMACION                   : 1
FORMATO DATOS (FORTRAN,10 campos/dato) : 3F10.5


================================================================================
CALIDAD DEL ACELEROGRAMA:
REGISTRO DIGITAL COMPLETO CON TIEMPO ABSOLUTO CORRECTO.


================================================================================
COMENTARIOS:














================================================================================
DATOS DE ACELERACION:
---------+---------+---------+---------+---------+---------+---------+---------+
   CANAL-1   CANAL-2   CANAL-3   CANAL-4   CANAL-5   CANAL-6   CANAL-7   CANAL-8
      N00E        +V      N90W
---------+---------+---------+---------+---------+---------+---------+---------+
[...]
   4.03214  -1.17030   5.16130
   3.94474  -0.66250   5.60430
   3.96744  -0.30690   6.21180
   3.99684   0.13690   6.70110
   4.02164   0.61810   7.29480
   3.84464   0.99310   7.67330
   4.01464   1.48370   8.20550
   3.90214   1.61390   8.48910
   3.90564   2.08760   8.88820
   3.87414   2.43220   9.03360
   3.95264   2.94190   9.31860
   3.73264   3.03520   9.58030
   3.81524   3.31440   9.45170
   3.78644   3.42310   9.80120
   3.67494   3.56290   9.78910
   3.62134   3.74650   9.66120
   3.66274   3.61220   9.65700
   3.48224   3.72940   9.47670
   3.40164   3.85280   9.38250
   3.26694   3.94330   9.27490
   3.20704   3.82270   9.25180
   2.97774   3.83930   9.07200
   2.99684   3.75670   9.05820
   2.86124   3.84700   9.01960
   2.61744   3.70160   9.13670
   2.40374   3.57900   8.99640
   2.28824   3.45210   9.12600
   2.16214   3.24660   9.23190
   1.94494   3.19980   9.40840
   1.80584   3.08340   9.26040
   1.46564   2.91040   9.43830
   1.35064   2.49860   9.56790
   0.91294   2.45440   9.65650
   0.98054   2.12940   9.87250
   0.76754   1.90330  10.26090
   0.52834   1.70160  10.43440
   0.36814   1.51800  10.53770
   0.15794   1.14000  10.76890
  -0.06576   1.04010  11.02190
  -0.25076   0.86730  11.32920
  -0.38936   0.65550  11.62590
  -0.63156   0.62630  11.62210
  -0.92476   0.51550  11.92400
  -1.19486   0.45580  11.82790
  -1.32646   0.67230  12.02640
  -1.61996   0.70160  12.06000
  -1.75386   0.76630  11.92160
  -1.87406   0.94240  11.81290
  -2.01206   1.14950  11.54610
  -2.30586   1.39710  11.19940
  -2.22896   1.53210  11.04620
  -2.26176   1.66930  10.34790
  -2.42936   1.99060   9.81830
  -2.62346   1.97230   9.09070
  -2.62926   2.09200   8.40440
  -2.59416   2.33940   7.66980
  -2.61756   2.44370   6.80610
  -2.81186   2.38690   5.94850
  -2.94116   2.57300   5.02570
  -2.92526   2.62020   4.38180
  -3.08546   2.35810   3.50010
  -3.06256   2.55570   2.57020
  -3.12726   2.35880   1.86270
  -3.45786   2.37210   0.98310
  -3.39916   2.19190   0.25500
  -3.33136   2.16030  -0.53520
  -3.33186   2.06020  -1.14450
  -2.92016   2.09650  -1.76180
  -3.05296   2.05200  -2.21350
  -3.05226   1.93930  -2.60160
  -3.14456   1.70090  -3.04490
  -3.01626   1.83460  -3.42040
  -2.91896   1.80720  -3.82560
  -2.72516   1.89910  -3.77510
  -2.48966   1.66720  -4.03930
  -2.28906   1.62440  -4.12070
  -2.19206   1.51660  -4.31660
  -1.85256   1.51570  -4.47440
  -1.76066   1.50490  -4.39310
  -1.67786   1.40020  -4.55040
  -1.31946   1.16050  -4.62900
  -1.12966   1.15400  -4.51140
  -0.98346   1.15730  -4.61050
  -0.81026   0.85380  -4.54040
  -0.57996   0.82290  -4.39070
  -0.30196   0.62320  -4.24370
  -0.34936   0.51590  -4.23030
  -0.11836   0.41960  -3.97550
   0.08714   0.19300  -3.76830
   0.18744  -0.09900  -3.60190
   0.23744  -0.39830  -3.33720
   0.37614  -0.68310  -3.26030
   0.56194  -0.83320  -3.09940
   0.63844  -1.00660  -2.76390
   0.69084  -1.33280  -2.73300
   0.56344  -1.48410  -2.74050
   0.86994  -1.85820  -2.64260
   0.83834  -2.17380  -2.44360
   0.81034  -2.33910  -2.51020
   0.77924  -2.47780  -2.50370
   0.73734  -2.63980  -2.44100
   0.74394  -2.85350  -2.78520
   0.82264  -2.98370  -2.83360
   0.66584  -3.09150  -2.63040
   0.44574  -3.46470  -2.96850
   0.34264  -3.69170  -2.98300
   0.24544  -3.82750  -3.51700
   0.25074  -3.91290  -3.53340
   0.00384  -4.18410  -3.55110
  -0.16866  -4.24630  -3.82170
  -0.39896  -4.34610  -4.04840
  -0.47516  -4.39410  -4.25510
  -0.67226  -4.48970  -4.33020
  -0.73546  -4.52340  -4.68320
  -0.93856  -4.56610  -4.60560
  -0.92856  -4.49370  -4.75640
  -1.21406  -4.48130  -5.05500
  -1.38306  -4.51680  -5.20250
  -1.54626  -4.36970  -5.50460
  -1.69936  -4.13520  -5.77400
  -1.75066  -3.97670  -5.92590
  -1.80156  -3.77560  -6.17190
  -2.14926  -3.60990  -6.49900
  -2.07486  -3.24120  -6.45340
  -1.94986  -2.87310  -6.61120
  -1.77496  -2.66130  -6.67110
  -1.82216  -2.12400  -6.71990
  -1.78316  -1.77520  -6.61730
  -1.51446  -1.43900  -6.75620
  -1.57086  -1.11560  -6.65400
  -1.26546  -0.79180  -6.44710
  -1.09106  -0.50020  -6.29790
  -0.96056  -0.27650  -6.06810
  -0.74216  -0.00150  -5.95590
  -0.21586   0.15630  -5.63530
   0.05484   0.25570  -5.26540
   0.39384   0.54750  -4.95540
   0.89334   0.74830  -4.70710
   1.39924   0.81100  -4.19760
   1.80494   0.84860  -3.76300
   2.42544   0.88210  -3.16420
   2.97254   0.86590  -2.67720
   3.30204   0.75460  -2.11270
   3.96624   0.58820  -1.43470
   4.35224   0.35690  -0.91680
   4.91134   0.16240  -0.36830
   5.35714  -0.18150   0.20800
   5.65064  -0.46470   0.65560
   5.92344  -0.70690   1.25430
   6.41284  -1.25610   1.41290
   6.72214  -1.60750   1.78410
   7.13174  -1.85720   2.10560
   7.27164  -1.96710   1.98570
   7.40744  -2.28790   2.20900
   7.72424  -2.44920   2.11500
   7.79584  -2.56400   2.13490
   8.07914  -2.91360   1.90550
   8.19884  -2.98890   1.69370
   8.23584  -3.16890   1.57630
   8.17034  -3.21500   1.27050
   8.24194  -3.37540   0.97050
   8.09224  -3.37560   0.47180
   8.17624  -3.26480   0.29060
   8.00744  -3.13450  -0.25350
   7.87434  -3.14090  -0.61680
   7.52504  -3.11840  -0.89460
   7.35674  -2.95260  -1.23550
   7.19794  -2.89750  -1.36570
   7.03034  -2.46230  -1.43910
   6.85634  -2.31360  -1.53270
   6.51314  -2.18080  -1.47020
   6.46844  -1.79410  -1.48820
   5.97184  -1.53510  -1.57550
   5.87604  -1.19180  -1.56380
   5.71424  -1.00640  -1.48820
   5.44324  -0.59910  -1.32080
   5.14674  -0.14180  -1.35570
   4.86104   0.07960  -1.20020
   4.48344   0.25900  -1.11320
   4.13384   0.30670  -0.99720
   3.89304   0.47640  -0.93220
   3.64734   0.62000  -0.73580
   3.39014   0.71330  -0.53340
   2.95244   0.82710  -0.36500
   2.71844   0.87180  -0.15390
   2.23464   0.99310  -0.18030
   1.83604   1.08010   0.16760
   1.62724   1.18620   0.23820
   1.10234   1.02140   0.31020
   0.73824   0.98470   0.43090
   0.36044   1.15190   0.49960
   0.11374   1.02210   0.64670
  -0.30916   1.06090   0.81500
  -0.79646   1.04500   0.63990
  -0.93116   0.80230   0.52650
  -1.34726   0.66790   0.69340
  -1.61876   0.66180   0.85500
  -1.90256   0.64500   0.83390
  -2.13546   0.66950   0.87390
  -2.22126   0.56200   0.94060
  -2.53086   0.60640   0.93170
  -2.92806   0.66280   0.95320
  -3.06276   0.54230   0.74320
  -3.19926   0.62390   0.62980
  -3.51606   0.67680   0.51290
  -3.97486   0.57830   0.38410
  -4.01366   0.72990   0.39930
  -4.37556   0.78550   0.25390
  -4.67836   0.78480   0.17340
  -4.79316   0.71560   0.02240
  -5.15436   0.82620   0.11900
  -5.23596   0.88460  -0.02390
  -5.49626   0.90290  -0.07160
  -5.84156   1.03310  -0.09940
  -6.12376   1.01230  -0.09380
  -6.20486   1.16960  -0.05010
  -6.48946   1.37910  -0.06880
  -6.77146   1.54630  -0.08980
  -7.04126   1.76450   0.01610
  -7.44786   1.89730  -0.16650
  -7.70296   1.99620  -0.04890
  -7.95146   2.29540  -0.19080
  -8.21356   2.40490  -0.18220
  -8.58556   2.44600  -0.12050
  -8.82266   2.52670  -0.03490
  -9.16916   2.50960   0.04390
  -9.35006   2.67610   0.04160
  -9.75836   2.53950  -0.00850
 -10.13776   2.58040   0.13840
 -10.20236   2.70440   0.21810
 -10.56166   2.76750   0.32680
 -10.75946   2.86920   0.52390
 -11.16886   2.86340   0.64620
 -11.22856   2.87460   0.80330
 -11.44876   2.90240   0.95900
 -11.58386   2.71820   1.12460
 -11.55586   2.87270   1.42340
 -11.64356   2.81750   1.59850
 -11.86916   2.82220   1.76920
 -11.90816   2.78250   2.18560
 -11.84906   2.70930   2.29970
 -11.96896   2.59820   2.80220
 -12.10366   2.52670   3.10940
 -11.97766   2.35460   3.52930
 -12.00666   2.17530   3.75450
 -11.79016   2.15000   4.11480
 -11.40876   2.07780   4.34580
 -11.20346   1.99990   4.80680
 -10.90586   1.62510   5.08670
 -10.41906   1.46170   5.39020
  -9.92316   1.55680   5.66400
  -9.33446   1.22300   5.85380
  -8.89156   1.33960   6.10310
  -8.34966   1.19960   6.34460
  -7.69146   0.96270   6.57330
  -7.10386   0.93440   6.62330
  -6.59976   0.97910   6.91320
  -6.10786   0.80190   7.10910
  -5.50116   0.91640   7.23630
  -4.62876   0.84140   7.60530
  -4.24236   0.87340   7.75140
  -3.58746   1.10420   7.82410
  -2.94446   1.09860   8.04840
  -2.32536   1.21870   8.08340
  -1.42216   1.41050   8.60500
  -0.88806   1.46420   8.71470
  -0.29986   1.67720   8.77920
   0.49464   1.83620   8.95550
   1.12734   1.92790   9.18260
   1.68474   1.93300   9.21480
   2.41394   2.03890   9.30900
   2.99824   2.21920   9.40870
   3.73544   2.04600   9.48460
   4.42944   2.28330   9.56880
   5.10424   2.35080   9.65200
   5.69384   2.37120   9.83930
   6.34894   2.52950   9.64430
   6.82644   2.34730   9.96840
   7.39314   2.33500  10.03690
   7.96414   2.25290   9.94450
   8.34734   2.13430   9.94430
   9.04224   1.91670   9.73250
   9.55244   1.94500   9.74040
   9.80354   1.88140   9.54100
  10.27324   1.69710   9.34390
  10.71324   1.74970   9.02310
  11.09064   1.74690   8.76540
  11.18534   1.64760   8.33030
  11.54114   1.61620   7.83820
  11.82734   1.68990   7.47720
  11.83644   1.59630   6.85970
  11.84424   1.70720   6.43460
  11.94174   1.74740   5.89570
  12.09764   1.74860   5.31230
  11.86014   1.71750   4.57980
  11.78594   1.68450   4.05680
  11.52434   1.59940   3.39160
  11.45934   1.84610   2.58660
  11.18204   1.71490   1.85310
  11.00134   1.60800   1.25830
  10.78454   1.53630   0.46410
  10.54984   1.40600  -0.34350
  10.34504   1.46140  -1.15040
  10.03074   1.43920  -1.84270
   9.75374   1.40700  -2.65280
   9.45604   1.21940  -3.47800
   9.31534   1.06020  -4.11630
   9.00434   0.94290  -4.97340
   8.69384   0.97770  -5.61120
   8.65134   0.82150  -6.30540
   8.52134   0.87250  -6.94670
   8.22224   0.85990  -7.50160
   7.94734   0.72490  -8.18620
   7.71884   0.55520  -8.97220
   7.44834   0.27000  -9.48330
   7.22064   0.36140 -10.18050
   6.76194   0.07850 -10.67550
   6.60664  -0.19670 -11.16700
   6.13364  -0.48850 -11.80510
   5.80914  -0.73380 -12.35500
   5.30874  -0.86120 -12.72420
   4.81144  -1.22970 -13.23570
   4.28964  -1.34730 -13.78450
   3.98004  -1.59580 -13.99440
   3.60754  -1.69680 -14.64230
   3.05864  -1.94090 -14.90580
   2.71534  -2.17330 -15.31170
   2.48364  -2.29750 -15.55840
   2.10064  -2.29260 -15.85880
   1.79934  -2.50630 -16.01450
   1.59164  -2.54490 -16.12420
   1.22254  -2.79220 -16.07350
   1.03924  -2.75060 -16.16580
   0.71024  -2.77940 -16.35030
   0.44674  -3.05710 -16.09360
   0.13524  -3.05390 -15.99350
  -0.16026  -3.13410 -15.87010
  -0.34306  -3.26660 -15.53500
  -0.89556  -3.33630 -15.27060
  -1.02796  -3.29820 -15.07160
  -1.15956  -3.51260 -14.91120
  -1.42096  -3.83500 -14.63620
  -1.72606  -4.15420 -14.27800
  -1.99826  -4.06300 -14.00100
  -2.26126  -4.32530 -13.48010
  -2.32226  -4.45670 -13.33740
  -2.30076  -4.51850 -12.81740
  -2.49556  -4.52760 -12.43540
  -2.59096  -4.50330 -11.80360
  -2.82306  -4.54770 -11.36250
  -2.69426  -4.49230 -11.06880
  -2.67466  -4.20510 -10.71110
  -2.70226  -4.22570 -10.35780
  -2.69916  -4.05550  -9.86420
  -2.70716  -4.06420  -9.64400
  -2.78216  -4.14410  -9.28900
  -2.78076  -4.18080  -8.98440
  -2.69846  -4.12140  -8.64650
  -2.68816  -4.00970  -8.27430
  -2.71226  -4.07680  -8.03320
  -2.64186  -3.99640  -7.69890
  -2.65036  -3.98580  -7.46110
  -2.68066  -3.85750  -7.05450
  -2.93836  -3.82970  -6.52380
  -2.81256  -3.55540  -5.98300
  -2.94466  -3.28000  -5.58010
  -3.01926  -2.92950  -5.00430
  -3.01346  -2.53340  -4.49060
  -3.14416  -2.10130  -3.87870
  -3.20276  -1.54510  -3.31150
  -3.26966  -1.33440  -2.62080
  -3.43006  -0.77350  -1.90770
  -3.45436  -0.49040  -1.20700
  -3.72586  -0.16310  -0.37270
  -3.78846   0.21170   0.13670
  -3.94676   0.58210   0.93380
  -4.09056   0.68400   1.60290
  -4.18526   0.92810   2.21180
  -4.30896   1.23930   2.84520
  -4.38146   1.30170   3.75910
  -4.53266   1.32230   4.43930
  -4.57786   1.32910   5.10840
  -4.68356   1.28890   5.81310
  -5.00456   1.33310   6.50940
  -4.98236   1.30830   7.12360
  -5.10136   1.35370   7.48560
  -5.09456   1.57510   8.10560
  -5.38916   1.67140   8.41940
  -5.45856   1.78810   8.81830
  -5.67466   2.01950   9.40610
  -5.88346   2.33640   9.83020
  -6.02396   2.66600  10.14470
  -6.18996   2.94990  10.57110
  -6.29396   3.33960  10.98430
  -6.73866   3.61390  11.47360
  -6.91566   3.90120  11.64320
  -6.98136   4.00270  11.93120
  -7.10996   3.99410  12.07240
  -7.07676   4.12620  12.37900
  -7.19326   4.24590  12.48930
  -7.21216   4.34030  12.69110
  -7.01526   4.37170  12.71420
  -6.98976   4.35950  12.78880
  -6.95126   4.26690  12.95880
  -6.93256   4.18740  12.95040
  -6.72116   4.04950  12.93940
  -6.61336   4.19090  12.87040
  -6.38606   3.99200  12.89050
  -6.36766   3.83790  12.81340
  -6.32226   3.65970  12.70440
  -6.20866   3.59240  12.54850
  -5.97486   3.61900  12.35650
  -5.91316   3.53910  12.13440
  -5.95166   3.55960  12.03150
  -5.58766   3.59190  11.75610
  -5.27056   3.53390  11.57700
  -5.25726   3.71070  11.47440
  -5.01646   3.67420  11.11520
  -4.85256   3.59470  10.70070
  -4.52456   3.64800  10.64290
  -4.14056   3.47030  10.22860
  -4.02626   3.38830  10.00420
  -3.94886   3.13710   9.68310
  -3.64096   3.23230   9.28820
  -3.49996   2.87580   8.89520
  -3.31406   2.60500   8.42880
  -3.07466   2.40300   7.93990
  -2.96876   2.35880   7.59220
  -2.73116   2.10210   7.25480
  -2.63866   2.02590   6.89660
  -2.66946   1.87150   6.54470
  -2.49036   1.84470   6.06660
  -2.19506   1.77830   5.79930
  -2.29046   1.67330   5.23910
  -2.24536   1.54490   4.75610
  -2.34586   1.23580   4.15120
  -2.27926   1.08640   3.61230
  -2.50816   0.99480   2.95250
  -2.38676   0.74670   2.50100
  -2.60796   0.46420   2.11690
  -2.69916   0.36090   1.50430
  -2.71786   0.17850   1.21530
  -2.69006   0.00080   0.67870
  -2.71766  -0.04010   0.35110
  -2.80486  -0.04360  -0.24180
  -2.58696  -0.06000  -0.92060
  -2.54276  -0.08310  -1.49810
  -2.47196  -0.17850  -2.13940
  -2.36016  -0.01530  -2.67130
  -2.22546  -0.10760  -3.23710
  -1.94656  -0.01270  -3.75570
  -1.67346  -0.10720  -4.35890
  -1.52036  -0.20000  -4.85650
  -1.07516  -0.36880  -5.36060
  -0.92666  -0.54810  -5.89460
  -0.35666  -0.62060  -6.26680
  -0.07676  -0.93140  -7.02250
   0.51644  -1.03630  -7.52030
   0.94404  -1.20300  -7.90890
   1.18484  -1.31360  -8.27290
   1.35534  -1.31950  -8.87660
   1.85944  -1.51240  -9.19080
   2.33424  -1.45060  -9.45530
   2.74694  -1.44880  -9.88830
   3.11054  -1.64540 -10.17660
   3.30314  -1.59820 -10.24980
   3.84374  -1.71510 -10.43470
   4.29034  -2.09250 -10.63060
   4.55474  -2.01720 -10.59880
   4.76024  -2.28670 -10.64370
   5.25964  -2.53650 -10.63480
   5.59214  -2.78780 -10.63810
   5.87814  -2.58130 -10.32150
   6.18344  -2.57690 -10.12420
   6.47684  -2.44920 -10.16890
   6.77644  -2.41650  -9.92450
   7.02074  -2.37400  -9.45880
