********************************************************************************
              CENTRO DE INSTRUMENTACION Y REGISTRO SISMICO  A.C.

    Anaxagoras 814, Col. Narvarte, Benito Juarez, C.P. 03020 Mexico, D.F.
           Tels. 5687 45 42/ 5687 45  82             Fax. 5669 25 12
********************************************************************************
ARCHIVO ESTANDAR DE ACELERACION:
VERSION DEL FORMATO                    : 2.0
NOMBRE DEL ARCHIVO                     : UI2120220919180509
FECHA Y HORA DE CREACION               : 19/SEP/22, 19:46
REF. CATALOGO ACELEROGRAMAS, SMIS 1996 : REGISTRO No.     /PAG.


================================================================================
DATOS DE LA ESTACION:
NOMBRE DE LA ESTACION                  : U. IBEROAMERICANA
CLAVE DE LA ESTACION                   : UI21
LOCALIZACION DE LA ESTACION            : Del Alvaro Obregón, Col. Centro,       
                                       : Comercial Lomas de Sta. Fe,            
                                       : Aut. México-Toluca Km 9.5              
                                       : Esq. Joaquín Gallo.                    
                                       : 
COORDENADAS DE LA ESTACION             : 19.3700 LAT. N
                                       : 99.2642 LONG. W
ALTITUD (msnm)                         : 2540
TIPO DE SUELO                          : Terreno firme, materiales compactos 
                                       : (limos, arenas, gravas)   
                                       : 
INSTITUCION RESPONSABLE                : CIRES, A. C.
                                       : 

================================================================================
DATOS DEL ACELEROGRAFO:
MODELO DEL ACELEROGRAFO                : RAD_IO14
NUMERO DE SERIE DEL ACELEROGRAFO       : 
NUMERO DE CANALES                      : 3
ORIENTACION C1-C6 (rumbo;orientacion)  : /S00E/+V/N90W
ORIENTACION C7-C12 (rumbo;orientacion) : 
VEL. DE MUESTREO, C1-C6 (muestras/s)   : /100/100/100
VEL. DE MUESTREO, C7-C12 (muestras/s)  : 
ESC. COMPLETA DE SENSORES, C1-C6, (g)  : /2.0/2.0/2.0
ESC. COMPLETA DE SENSORES, C7-C12, (g) : 
FREC. NAT. DE SENSORES, C1-C6, (Hz)    : /54.11/51.56/54.11
FREC. NAT. DE SENSORES, C7-C12, (Hz)   : 
AMORTIGUAMIENTO DE SENSORES, C1-C6     : /0.5715/0.6038/0.5715
AMORTIGUAMIENTO DE SENSORES, C7-C12    : 
INTERVALO DE MUESTREO, C1-C6, (s)      : /0.01/0.01/0.01
INTERVALO DE MUESTREO, C7-C12, (s)     : 
UMBRAL DE DISPARO, C1-C6, (Gal)        : / / /
UMBRAL DE DISPARO, C7-C12, (Gal)       : 
MEMORIA DE PREEVENTO (s)               : 60
TIEMPO DE POSEVENTO (s)                : 90


================================================================================
DATOS DEL SISMO:
FECHA DEL SISMO (GMT)                  : 19/SEP/22
HORA EPICENTRO (GMT)                   : 18:05:09.0
MAGNITUD(ES)                           : /Mc=7.7
COORDENADAS DEL EPICENTRO              : 18.22 LAT. N
                                       : 103.29 LONG. W
PROFUNDIDAD FOCAL (km)                 : 15
FUENTE DE LOS DATOS EPICENTRALES       : SSN
                                       : INSTITUTO DE GEOFISICA, UNAM

================================================================================
DATOS DE ESTE REGISTRO:
HORA DE LA PRIMERA MUESTRA (GMT)       : 18:04:26.903.00
EXACTITUD DEL TIEMPO (s)               : 
DURACION DEL REGISTRO (s), C1-C6       : /441.21/441.21/441.21
DURACION DEL REGISTRO (s), C7-C12      : 
NUM. TOTAL DE MUESTRAS, C1-C6          : /44121/44121/44121
NUM. TOTAL DE MUESTRAS, C7-C12         : 
ACEL. MAX. (Gal), C1-C6                : /5.8765/3.68621/9.27027
ACEL. MAX., C1-C6, EN LA MUESTRA       : /18734/18674/18639
ACEL. MAX. (Gal), C7-C12               : 
ACEL. MAX., C7-C12, EN LA MUESTRA      : 
UNIDADES DE LOS DATOS                  : Gal (cm/s/s)
FACTOR DE DECIMACION                   : 1
FORMATO DATOS (FORTRAN,10 campos/dato) : 3F10.5


================================================================================
CALIDAD DEL ACELEROGRAMA:
REGISTRO DIGITAL COMPLETO CON TIEMPO ABSOLUTO CORRECTO.


================================================================================
COMENTARIOS:














================================================================================
DATOS DE ACELERACION:
---------+---------+---------+---------+---------+---------+---------+---------+
   CANAL-1   CANAL-2   CANAL-3   CANAL-4   CANAL-5   CANAL-6   CANAL-7   CANAL-8
      N00E        +V      N90W
---------+---------+---------+---------+---------+---------+---------+---------+
[...]
  -3.35270  -0.97679   0.06107
  -3.59110  -0.97889   0.17307
  -3.67860  -0.92959   0.34017
  -3.88810  -1.21199   0.63647
  -3.86800  -1.01069   0.84217
  -3.79690  -1.30769   1.01777
  -3.65890  -1.35299   1.34047
  -3.51800  -1.38019   1.27337
  -3.19830  -1.56769   1.49247
  -2.97010  -1.35069   1.47367
  -2.74480  -1.29199   1.48587
  -2.34560  -1.41289   1.45597
  -1.87170  -1.33739   1.24697
  -1.82710  -1.21909   1.11387
  -1.39310  -0.90039   1.02457
  -1.25330  -0.71889   0.83187
  -0.94120  -0.43579   0.46997
  -0.93720  -0.29249   0.27547
  -0.77210  -0.06849  -0.12323
  -0.60070   0.34981  -0.35093
  -0.57270   0.50671  -0.58733
  -0.43940   0.74071  -0.91723
  -0.36740   0.95281  -1.29153
  -0.35640   1.06341  -1.67053
  -0.33020   1.22451  -2.07643
  -0.36580   1.17001  -2.58173
  -0.36440   1.54251  -2.97283
  -0.36650   1.54411  -3.32893
  -0.32040   1.60161  -3.66403
  -0.43540   1.72131  -4.05093
  -0.34190   1.96891  -4.25183
  -0.16330   2.06781  -4.64973
  -0.21350   2.20691  -4.80453
  -0.09550   2.12771  -4.80873
  -0.04920   2.14261  -5.10283
  -0.16280   2.41291  -5.23383
  -0.06090   2.36801  -5.05353
   0.08530   2.37791  -5.25903
   0.16480   2.19451  -4.96703
   0.36260   1.99161  -4.95603
   0.37450   1.77721  -4.73413
   0.19400   1.40851  -4.30743
   0.31230   1.20091  -3.95083
   0.36210   1.07601  -3.60903
   0.41770   0.88691  -3.30303
   0.50240   0.65701  -2.87423
   0.79910   0.47701  -2.33903
   0.70670   0.39681  -1.71633
   0.86710   0.32361  -1.13913
   0.95690   0.28781  -0.56813
   0.98780   0.17891  -0.02033
   0.89070   0.14361   0.52537
   0.43410   0.29181   1.21017
   0.27070   0.24931   1.77277
   0.10980   0.25021   2.38977
  -0.28160   0.23061   2.80547
  -0.41060   0.10641   3.27947
  -0.63160   0.16251   3.54717
  -0.89530  -0.16969   3.77837
  -1.04820   0.29441   4.00117
  -1.23460   0.36101   4.25437
  -1.31780   0.45551   4.17277
  -1.10200   0.50671   4.12087
  -1.14390   0.54501   4.15527
  -0.98630   0.58831   4.13047
  -0.72040   0.61751   3.76737
  -0.66850   0.81761   3.58567
  -0.33930   0.85761   3.24197
  -0.17780   1.07131   2.90887
   0.10300   1.31001   2.70477
   0.43880   1.48031   2.20037
   0.95250   1.53151   1.82627
   1.27460   1.64701   1.36077
   1.60150   1.92051   0.99677
   1.91600   2.00491   0.39497
   1.95970   2.24061   0.10107
   2.32000   2.30141  -0.37363
   2.61810   2.33441  -0.67053
   2.98290   2.41201  -1.05143
   3.16030   2.38981  -1.49453
   3.42500   2.31361  -1.62823
   3.49820   2.19811  -1.89643
   3.64620   2.08751  -1.91583
   3.70720   2.10731  -2.13093
   3.97400   1.89151  -1.79613
   4.10580   1.98151  -1.75873
   4.23350   1.69821  -1.32523
   4.29450   1.57681  -1.08533
   4.49890   1.47281  -0.76013
   4.59360   1.24431  -0.33973
   4.43620   1.10341  -0.05793
   4.26440   0.92661   0.30207
   4.05670   1.08861   0.80857
   3.85610   0.95791   0.94227
   3.56080   1.23341   1.23527
   3.24660   1.14781   1.45617
   2.68730   1.01221   1.70967
   2.23790   1.17351   1.77507
   1.90830   1.10411   2.01917
   1.49440   1.05731   2.30797
   0.95250   0.82581   2.51117
   0.55970   0.91511   2.58737
   0.51480   0.66781   2.75427
   0.09580   0.61771   2.85177
  -0.16280   0.44821   3.01617
  -0.40640   0.29741   3.00257
  -0.43100  -0.00889   2.97637
  -0.68140  -0.23849   3.11697
  -0.76020  -0.34299   3.03487
  -0.77940  -0.53559   2.97687
  -0.86330  -0.75429   2.76857
  -0.81400  -1.00259   2.70257
  -0.99100  -1.08459   2.29927
  -1.29470  -1.20569   2.30047
  -1.33860  -1.04879   2.01617
  -1.46280  -1.01489   1.74707
  -1.75460  -1.19729   1.38487
  -1.77300  -1.12409   0.95537
  -1.98370  -0.95089   0.57657
  -2.00150  -1.00299   0.25787
  -2.13450  -1.24809  -0.09043
  -2.28810  -1.09959  -0.56323
  -2.35240  -1.11009  -0.82513
  -2.61570  -0.92799  -1.08413
  -2.68750  -0.95139  -1.12343
  -2.83130  -0.94479  -1.35933
  -2.66570  -1.11739  -1.50543
  -2.57150  -1.18979  -1.51833
  -2.54160  -1.36959  -1.61113
  -2.59890  -1.60129  -1.36733
  -2.45740  -1.66209  -1.38533
  -2.61430  -1.67239  -1.07593
  -2.42860  -1.39629  -0.82513
  -2.31830  -1.27279  -0.63803
  -2.50440  -1.35699  -0.23613
  -2.29140  -1.31139   0.09987
  -2.38450  -1.40279   0.45597
  -2.21560  -1.31239   0.75287
  -2.33330  -1.26889   1.21257
  -2.35640  -1.15569   1.51227
  -2.23220  -0.96939   1.68417
  -2.22430  -0.94739   1.79097
  -2.11140  -0.79889   1.70707
  -2.16870  -0.82599   1.75007
  -1.86280  -0.91719   1.80177
  -1.67740  -1.08929   1.86137
  -1.68350  -1.02059   1.91727
  -1.61220  -1.11739   1.96757
  -1.52100  -1.30699   2.00537
  -1.13080  -1.59389   2.00887
  -0.87990  -1.49219   2.21677
  -0.68890  -1.59109   2.05687
  -0.45370  -1.69299   2.02897
  -0.27900  -1.92049   2.12927
  -0.16560  -1.92349   1.93177
   0.01910  -1.93919   1.88147
   0.13270  -1.90879   1.81177
   0.30480  -1.77619   1.94977
   0.45090  -1.78279   1.80127
   0.42550  -1.62119   1.51017
   0.57160  -1.49029   1.11697
   0.79860  -1.35789   0.68787
   0.61980  -1.32379   0.40337
   0.77310  -1.17039   0.07877
   0.84260  -1.06729  -0.25253
   0.86830  -0.69109  -0.77693
   0.92300  -0.64159  -1.03363
   0.94780  -0.38579  -1.34553
   0.98100  -0.25829  -1.70113
   0.92530  -0.27259  -1.86113
   0.52180  -0.11899  -2.10913
   0.14000   0.05221  -2.19923
   0.02120   0.07181  -2.09353
  -0.27150   0.10991  -2.27023
  -0.50790   0.19521  -2.28523
  -0.82280   0.21491  -2.21413
  -1.05780   0.07741  -2.13673
  -1.34560  -0.17349  -2.19803
  -1.60450  -0.11149  -2.28523
  -1.73630   0.06221  -2.16103
  -1.86170   0.05471  -2.25113
  -1.80620   0.06151  -2.37873
  -1.89650   0.18261  -2.32193
  -1.62040   0.08471  -2.57163
  -1.64980   0.08161  -2.65323
  -1.68540   0.07271  -2.86293
  -1.76930   0.36831  -3.08793
  -1.51350   0.49851  -3.57183
  -1.53570   0.75831  -3.64223
  -1.47100   0.88331  -3.83863
  -1.26470   1.00101  -4.00233
  -1.21660   1.03841  -3.95043
  -0.89090   1.01171  -4.04553
  -0.78920   1.07531  -4.14683
  -0.51560   1.17471  -3.98833
  -0.46580   1.44891  -3.86903
  -0.15300   1.50881  -3.78623
   0.04150   1.68551  -3.56743
   0.60850   1.78801  -3.38743
   0.87200   1.73631  -3.18073
   1.35090   1.40751  -3.05333
   1.52410   1.33461  -2.97823
   1.94430   1.28711  -3.02403
   2.15910   1.52191  -2.89083
   2.16940   1.81111  -2.82723
   2.80560   1.82861  -2.56763
   2.86240   1.91021  -2.36473
   3.47130   1.64721  -2.44213
   3.84890   1.48451  -2.62263
   4.06070   1.35171  -2.22003
   4.32490   1.18121  -2.07973
   4.38710   1.03701  -2.01913
   4.60710   1.00941  -1.86203
   4.75510   1.02811  -1.68033
   4.96700   1.22961  -1.67003
   4.93190   1.22911  -1.48863
   4.87530   1.19621  -1.29013
   4.85940   1.02551  -1.20833
   4.78900   1.29701  -0.86043
   4.36840   1.17751  -0.51573
   4.08740   1.31051  -0.22393
   3.96020   1.51791   0.35777
   3.42050   1.55391   0.86227
   3.33610   1.32691   1.21257
   2.97510   1.34351   1.74327
   2.49000   1.29651   2.09967
   1.95530   1.18241   2.52167
   1.42170   1.25671   2.78777
   0.97980   1.17091   2.96257
   0.58560   1.07321   3.10177
   0.19470   1.08611   3.41547
  -0.04380   1.02411   3.41737
  -0.55350   0.84971   3.58107
  -0.75060   0.57141   3.50577
  -1.11210   0.42371   3.33927
  -1.60820   0.37291   3.21087
  -1.81580   0.54201   2.97407
  -2.12840   0.56961   2.80997
  -2.27530   0.58031   2.50647
  -2.48800   0.61841   2.30137
  -2.54060   0.55911   1.90067
  -2.57240   0.64421   1.38817
  -2.70380   0.71451   1.01427
  -2.94400   0.75901   0.46697
  -2.91330   0.90161   0.08047
  -2.80950   0.88781  -0.44963
  -2.86000   0.89361  -0.76683
  -2.88290   0.81181  -1.28153
  -2.82870   0.95121  -1.53143
  -2.82750   1.19901  -2.08413
  -2.78360   1.38181  -2.32543
  -2.74200   1.60771  -2.63803
  -2.67160   1.42651  -2.84333
  -2.80270   1.26351  -3.18023
  -2.73610   1.32201  -3.22043
  -2.65150   1.23431  -3.10753
  -2.51020   1.32711  -3.20273
  -2.50440   1.04821  -3.07713
  -2.41060   0.83211  -2.91953
  -2.27740   0.75941  -2.47153
  -2.19620   0.68881  -2.19663
  -2.08750   0.48331  -1.84773
  -1.86730   0.42021  -1.70823
  -1.81070   0.11931  -1.35303
  -1.54020  -0.02009  -0.95603
  -1.82260  -0.22049  -0.55103
  -1.56780  -0.12759  -0.03083
  -1.63860  -0.15169   0.29907
  -1.57450  -0.34789   0.52937
  -1.56960  -0.55929   0.77397
  -1.66760  -0.70979   1.02807
  -1.63250  -0.82019   1.31937
  -1.62290  -1.13439   1.71687
  -1.74050  -1.22539   1.87047
  -1.75600  -1.48019   2.28877
  -1.83410  -1.42059   2.35287
  -1.94260  -1.40869   2.51467
  -2.15700  -1.48959   2.61957
  -2.09690  -1.43299   2.76337
  -2.16140  -1.59129   2.67617
  -2.30240  -1.44679   3.00727
  -2.33090  -1.39469   3.03817
  -2.33930  -1.30579   3.11317
  -2.37580  -1.25199   2.98737
  -2.52590  -1.35679   2.85837
  -2.54860  -1.48119   2.83917
  -2.44830  -1.58919   2.71477
  -2.51610  -1.82019   2.62027
  -2.80880  -1.73649   2.40657
  -2.79810  -1.67449   2.29747
  -2.76700  -1.47629   1.93197
  -2.53270  -1.26979   1.39377
  -2.36220  -1.18279   0.88617
  -2.07560  -1.39679   0.35397
  -1.90330  -1.52249  -0.09023
  -1.64490  -1.54449  -0.57893
  -1.44290  -1.52769  -0.94313
  -1.26590  -1.43139  -1.33433
  -1.20280  -0.98549  -1.58073
  -0.72750  -0.76009  -2.10453
  -0.35970  -0.51229  -2.45823
  -0.27500  -0.30369  -2.73973
   0.02890  -0.34229  -3.01753
   0.05070  -0.19379  -2.75823
  -0.14710  -0.27769  -2.63293
  -0.36180  -0.05869  -2.40633
  -0.49130   0.23311  -2.02503
  -0.81440   0.75621  -1.88053
  -0.92830   1.10221  -1.65023
  -1.15740   1.26681  -1.52953
  -1.56400   1.25631  -1.07713
  -1.69240   1.15321  -0.65863
  -1.90610   0.88901  -0.10103
  -2.12890   0.56511   0.41757
  -2.13520   0.56331   0.82067
  -2.00660   0.54031   1.19177
  -1.83240   0.74911   1.64207
  -1.58580   0.75591   2.17117
  -1.28180   0.88221   2.88217
  -0.72140   0.72721   3.38767
  -0.26660   0.60141   3.96167
   0.29080   0.37081   4.58457
   0.97610   0.28391   5.13957
   1.45870   0.36131   5.73117
   1.91360   0.39701   6.22607
   2.36260   0.42861   6.67077
   2.79300   0.34161   7.12837
   3.09250   0.09101   7.74587
   3.27020  -0.16319   8.28527
   3.62160  -0.19259   8.70477
   3.66280  -0.29479   8.97547
   3.86010  -0.62869   9.02877
   3.72170  -0.67729   9.22287
   3.66300  -0.87069   9.27027
   3.63070  -0.88749   9.19527
   3.06450  -0.93309   9.22607
   2.82690  -1.20779   9.04237
   2.49280  -1.42499   8.87537
   2.22860  -1.50199   8.71987
   1.94290  -1.53769   8.32197
   1.55870  -1.47109   7.88007
   0.96130  -1.40349   7.22747
   0.62890  -1.10749   6.61607
   0.18530  -0.75799   6.10007
  -0.17170  -0.80799   5.38467
  -0.60610  -0.83159   4.85927
  -0.83940  -0.74419   4.45897
  -1.04660  -0.60319   3.97147
  -1.26830  -0.32189   3.32757
  -1.29260  -0.06099   2.94417
  -1.33440   0.21331   2.35917
  -1.30050   0.28601   1.98837
  -1.41060   0.45451   1.56587
  -1.38680   0.62361   1.17837
  -1.51660   0.71151   0.69887
  -1.43590   0.84551   0.26747
  -1.23410   0.99001  -0.36313
  -1.08750   1.00591  -0.82373
  -1.13100   1.23851  -1.34433
  -1.08170   1.39001  -1.95273
  -1.08660   1.59371  -2.34553
  -0.87050   1.83141  -2.79193
  -0.69500   1.96261  -3.15753
  -0.49110   2.21441  -3.68153
  -0.32370   2.40961  -4.25603
  -0.10550   2.86911  -4.71283
   0.14580   3.12371  -5.00113
   0.46290   3.45031  -5.38783
   0.74970   3.68621  -5.67313
   0.90240   3.67431  -5.79963
   1.14000   3.48101  -6.05263
   1.15590   3.62101  -6.22283
   1.41770   3.59761  -6.29173
   1.66180   3.62571  -6.27633
   1.85710   3.36691  -6.22883
   1.60620   3.07231  -6.18933
   1.66090   2.78301  -6.00703
   1.59780   2.48171  -5.95883
   1.36280   2.28971  -5.59943
   1.02400   2.00731  -5.29383
   0.86380   1.87521  -5.22793
   0.69130   1.66401  -5.17933
   0.47670   1.54901  -5.16673
   0.16450   1.11181  -5.00723
  -0.02630   0.85581  -4.89713
  -0.00450   0.39841  -4.81313
  -0.25240   0.08891  -4.65743
  -0.37930  -0.05099  -4.61883
  -0.19860  -0.20179  -4.56603
  -0.18690  -0.02429  -4.42973
  -0.06690  -0.32359  -4.12713
   0.08040  -0.51619  -4.16643
   0.25900  -0.79349  -3.91443
   0.29690  -0.89659  -3.72783
   0.41890  -1.24219  -3.32993
   0.78290  -1.43909  -3.13253
   0.92980  -1.61279  -3.02923
   1.12150  -1.66029  -2.92373
   1.39020  -1.82789  -2.95483
   1.60290  -1.83559  -2.96823
   1.82220  -1.70589  -3.05513
   2.00020  -1.70979  -3.16643
   2.20710  -1.88119  -3.33083
   2.42450  -1.96189  -3.52793
   2.49020  -1.73109  -3.82793
   2.71580  -1.31419  -3.79683
   2.91690  -1.05049  -4.12673
   2.97400  -0.65209  -4.26813
   3.12640  -0.46319  -4.28173
   3.21200  -0.21229  -4.37363
   3.33500  -0.07339  -4.25763
   3.63070  -0.02359  -4.36003
   3.67870   0.21701  -4.29903
   3.85520   0.17981  -4.31633
   4.14560   0.46341  -4.36003
   4.47970   0.53641  -4.15783
   4.61300   0.46461  -4.00143
   4.77620   0.32951  -3.96353
   5.11240   0.28041  -3.88193
   5.28210   0.37811  -3.65933
   5.47030   0.25461  -3.50223
   5.65150   0.25931  -3.46433
   5.75820   0.22171  -3.49543
   5.78060   0.22491  -3.29173
   5.82620  -0.26369  -3.37733
   5.66810  -0.11339  -3.26353
   5.79000  -0.15799  -3.07273
   5.69850  -0.40399  -3.08323
   5.87650  -0.43979  -3.02823
   5.76470  -0.50879  -3.03103
   5.84000  -0.55409  -2.80893
   5.71260  -0.46569  -3.00493
   5.62470  -0.52209  -2.93873
   5.57580  -0.54049  -2.76503
   5.24260  -0.46989  -2.50543
   5.23120  -0.70019  -2.48773
   5.22180  -0.99299  -2.37383
   5.03480  -0.95719  -2.51923
   4.89310  -1.19469  -2.40473
   4.64970  -1.18139  -2.18123
   4.43040  -1.32379  -2.05583
   4.19400  -1.53659  -2.06853
   3.75330  -1.46269  -1.96793
   3.36260  -1.83279  -1.92263
   3.03130  -1.84679  -1.84663
   2.86950  -2.11429  -2.00303
   2.46850  -2.31069  -1.94973
   2.12640  -2.36539  -1.97243
   1.79250  -2.47909  -1.73293
   1.40230  -2.62449  -1.80823
   0.99920  -2.72179  -1.65233
   0.71980  -2.77039  -1.56273
   0.41870  -2.80099  -1.41923
   0.19520  -2.81179  -1.32173
  -0.28020  -2.75209  -1.18093
  -0.39640  -2.69019  -1.02403
  -0.74760  -2.65609  -1.03433
  -1.06580  -2.48509  -1.02643
  -1.30710  -2.55079  -0.97773
  -1.66290  -2.51619  -0.91203
  -1.82140  -2.52609  -0.75843
  -2.10810  -2.49119  -0.76013
  -2.25380  -2.36709  -0.65813
  -2.65970  -2.44279  -0.52183
  -2.76160  -2.28519  -0.67823
  -2.89770  -2.39439  -0.63123
  -3.26710  -2.52229  -0.27163
  -3.36130  -2.58469  -0.02873
  -3.46400  -2.67239   0.23827
  -3.57200  -2.69629   0.63877
  -3.55160  -2.55949   0.96497
  -3.58090  -2.45029   1.31427
  -3.68090  -2.50879   1.65707
  -3.75790  -2.57229   1.90857
  -3.82380  -2.55199   2.42437
  -3.76740  -2.34179   2.75407
  -3.93650  -2.34129   3.13707
