********************************************************************************
              CENTRO DE INSTRUMENTACION Y REGISTRO SISMICO  A.C.

    Anaxagoras 814, Col. Narvarte, Benito Juarez, C.P. 03020 Mexico, D.F.
           Tels. 5687 45 42/ 5687 45  82             Fax. 5669 25 12
********************************************************************************
ARCHIVO ESTANDAR DE ACELERACION:
VERSION DEL FORMATO                    : 2.0
NOMBRE DEL ARCHIVO                     : VM2920220919180509
FECHA Y HORA DE CREACION               : 19/SEP/22, 19:47
REF. CATALOGO ACELEROGRAMAS, SMIS 1996 : REGISTRO No.     /PAG.


================================================================================
DATOS DE LA ESTACION:
NOMBRE DE LA ESTACION                  : VILLA DEL MAR
CLAVE DE LA ESTACION                   : VM29
LOCALIZACION DE LA ESTACION            : Del. Iztacalco, Col. Militar Marte,    
                                       : Cda. Playa Flamingos.                  
                                       :                                        
                                       :                                        
                                       : 
COORDENADAS DE LA ESTACION             : 19.3811 LAT. N
                                       : 99.1253 LONG. W
ALTITUD (msnm)                         : 2234
TIPO DE SUELO                          : Terreno blando, material compresible
                                       : (arcillas)                
                                       : 
INSTITUCION RESPONSABLE                : CIRES, A. C.
                                       : 

================================================================================
DATOS DEL ACELEROGRAFO:
MODELO DEL ACELEROGRAFO                : RAD_IO14
NUMERO DE SERIE DEL ACELEROGRAFO       : 
NUMERO DE CANALES                      : 3
ORIENTACION C1-C6 (rumbo;orientacion)  : /S00E/+V/N90W
ORIENTACION C7-C12 (rumbo;orientacion) : 
VEL. DE MUESTREO, C1-C6 (muestras/s)   : /100/100/100
VEL. DE MUESTREO, C7-C12 (muestras/s)  : 
ESC. COMPLETA DE SENSORES, C1-C6, (g)  : /2.0/2.0/2.0
ESC. COMPLETA DE SENSORES, C7-C12, (g) : 
FREC. NAT. DE SENSORES, C1-C6, (Hz)    : /52.35/51.1/51.1
FREC. NAT. DE SENSORES, C7-C12, (Hz)   : 
AMORTIGUAMIENTO DE SENSORES, C1-C6     : /0.5320/0.5731/0.6204
AMORTIGUAMIENTO DE SENSORES, C7-C12    : 
INTERVALO DE MUESTREO, C1-C6, (s)      : /0.01/0.01/0.01
INTERVALO DE MUESTREO, C7-C12, (s)     : 
UMBRAL DE DISPARO, C1-C6, (Gal)        : / / /
UMBRAL DE DISPARO, C7-C12, (Gal)       : 
MEMORIA DE PREEVENTO (s)               : 60
TIEMPO DE POSEVENTO (s)                : 90


================================================================================
DATOS DEL SISMO:
FECHA DEL SISMO (GMT)                  : 19/SEP/22
HORA EPICENTRO (GMT)                   : 18:05:09.0
MAGNITUD(ES)                           : /Mc=7.7
COORDENADAS DEL EPICENTRO              : 18.22 LAT. N
                                       : 103.29 LONG. W
PROFUNDIDAD FOCAL (km)                 : 15
FUENTE DE LOS DATOS EPICENTRALES       : SSN
                                       : INSTITUTO DE GEOFISICA, UNAM

================================================================================
DATOS DE ESTE REGISTRO:
HORA DE LA PRIMERA MUESTRA (GMT)       : 18:04:26.936.00
EXACTITUD DEL TIEMPO (s)               : 
DURACION DEL REGISTRO (s), C1-C6       : /488.41/488.41/488.41
DURACION DEL REGISTRO (s), C7-C12      : 
NUM. TOTAL DE MUESTRAS, C1-C6          : /48841/48841/48841
NUM. TOTAL DE MUESTRAS, C7-C12         : 
ACEL. MAX. (Gal), C1-C6                : /30.19622/5.4638/33.66832
ACEL. MAX., C1-C6, EN LA MUESTRA       : /21593/22312/20550
ACEL. MAX. (Gal), C7-C12               : 
ACEL. MAX., C7-C12, EN LA MUESTRA      : 
UNIDADES DE LOS DATOS                  : Gal (cm/s/s)
FACTOR DE DECIMACION                   : 1
FORMATO DATOS (FORTRAN,10 campos/dato) : 3F10.5


================================================================================
CALIDAD DEL ACELEROGRAMA:
REGISTRO DIGITAL COMPLETO CON TIEMPO ABSOLUTO CORRECTO.


================================================================================
COMENTARIOS:














================================================================================
DATOS DE ACELERACION:
---------+---------+---------+---------+---------+---------+---------+---------+
   CANAL-1   CANAL-2   CANAL-3   CANAL-4   CANAL-5   CANAL-6   CANAL-7   CANAL-8
      N00E        +V      N90W
---------+---------+---------+---------+---------+---------+---------+---------+
[...]
  -8.88082   0.73430  22.09068
  -8.27102   0.58250  21.80568
  -7.95682   0.45720  21.17838
  -7.51602   0.60800  20.76568
  -7.05402   0.56450  20.33588
  -6.57942   0.31150  19.69228
  -5.92402   0.27930  19.31118
  -5.41782   0.27180  18.89588
  -5.03182   0.26290  18.55318
  -4.57312   0.05690  18.01258
  -3.85302   0.03820  17.65368
  -3.48592  -0.10630  16.88818
  -3.19552  -0.18950  16.50308
  -2.65262  -0.35270  16.18608
  -2.27992  -0.31580  15.88188
  -1.87102  -0.42150  15.34758
  -1.50182  -0.44620  14.97608
  -1.22992  -0.60060  14.34438
  -0.83922  -0.75700  13.97778
  -0.63512  -0.85380  13.63938
  -0.33232  -1.07000  13.00278
   0.08018  -1.09440  12.75798
   0.27588  -1.19700  12.20848
   0.51718  -1.19260  11.71638
   0.70118  -1.29360  11.33758
   0.99388  -1.14280  10.91418
   1.17788  -1.14650  10.54588
   1.14278  -1.03240  10.22698
   1.34858  -1.01020   9.79608
   1.40308  -1.00110   9.36658
   1.48468  -1.07820   8.86408
   1.58938  -1.09690   8.56948
   1.67008  -1.15300   8.24098
   1.69718  -1.10070   7.85758
   1.93988  -1.11050   7.31278
   1.95908  -1.05690   6.89008
   2.10708  -0.96060   6.40208
   2.32538  -1.07820   6.03708
   2.38498  -1.23770   5.61628
   2.47788  -1.35480   5.00208
   2.96228  -1.28330   4.40818
   2.77498  -1.46030   3.97208
   2.87158  -1.38100   3.40488
   3.20078  -1.57370   2.84728
   3.29778  -1.56310   2.20098
   3.57228  -1.60760   1.63588
   3.81828  -1.88210   1.01118
   3.95268  -1.71300   0.26598
   4.13598  -1.77080  -0.28862
   4.38288  -1.78480  -1.02462
   4.56998  -1.79110  -1.87662
   4.78648  -1.56100  -2.69402
   4.97398  -1.55380  -3.44452
   5.33288  -1.64520  -4.19852
   5.52978  -1.61270  -4.96242
   5.60548  -1.72660  -5.73722
   5.66538  -1.68100  -6.86582
   6.03178  -1.66300  -7.73372
   6.19148  -1.72330  -8.67292
   6.38528  -1.73550  -9.54552
   6.57768  -1.69660 -10.32462
   6.61388  -1.62530 -11.31992
   6.72098  -1.73240 -12.30912
   6.68268  -1.56950 -13.11112
   6.89518  -1.57970 -13.97972
   6.92118  -1.63700 -14.76322
   6.87908  -1.72380 -15.77682
   6.83768  -1.56760 -16.54012
   6.75558  -1.63610 -17.13752
   6.88728  -1.55430 -18.01522
   6.67288  -1.51900 -18.99512
   6.66048  -1.76330 -19.59042
   6.34788  -1.61360 -20.36272
   6.31208  -1.76420 -20.94982
   6.23488  -1.85960 -21.58812
   6.14838  -1.90470 -22.32042
   6.04088  -1.81450 -22.80642
   6.07528  -1.99590 -23.39662
   5.82688  -2.08450 -24.04402
   5.70928  -2.16750 -24.39632
   5.60788  -2.06980 -24.91262
   5.55358  -2.06260 -25.35152
   5.41378  -1.86830 -25.91842
   5.42778  -1.81820 -26.12772
   5.48398  -1.77780 -26.71182
   5.48108  -1.58890 -27.02812
   5.37548  -1.53440 -27.38962
   5.28148  -1.41120 -27.52142
   5.37358  -1.00060 -27.77562
   5.32518  -0.90220 -28.08262
   5.47298  -0.81240 -28.19712
   5.44438  -0.63840 -28.36342
   5.32588  -0.42450 -28.33792
   5.27378  -0.27860 -28.45272
   5.19958   0.02470 -28.49902
   5.10028   0.18620 -28.72582
   4.99688   0.44390 -28.66872
   4.78578   0.51750 -28.68672
   4.78248   0.68700 -28.60352
   4.78598   0.98470 -28.58882
   4.63078   0.81700 -28.62662
   4.76268   1.07610 -28.56662
   4.79398   1.16210 -28.41182
   4.64218   1.13950 -28.46702
   4.39948   1.27580 -28.16492
   4.37378   1.43660 -28.07112
   4.34718   1.55870 -27.83262
   4.00528   1.48250 -27.33062
   3.83158   1.42630 -27.18872
   3.67168   1.55540 -26.86192
   3.40348   1.43660 -26.45432
   3.38618   1.39620 -26.13612
   3.28588   1.14340 -25.86932
   3.20428   0.96830 -25.40552
   3.27168   0.76980 -25.10152
   3.32538   0.51660 -24.71572
   3.37988   0.29730 -24.34232
   3.44698   0.04900 -23.84502
   3.57788  -0.12990 -23.50482
   3.55058  -0.18340 -23.18782
   3.35138  -0.34900 -22.98692
   3.46378  -0.37030 -22.63862
   3.62838  -0.60940 -22.28012
   3.61628  -0.73480 -21.65822
   3.79348  -0.98470 -21.29142
   3.80218  -1.03310 -20.77962
   4.04788  -1.23140 -20.42632
   4.04598  -1.37700 -20.00712
   4.17368  -1.45090 -19.24272
   4.18208  -1.59210 -18.83122
   4.33758  -1.58330 -18.14362
   4.29968  -1.60430 -17.48292
   4.39878  -1.67280 -16.89162
   4.29358  -1.86480 -16.25752
   4.29668  -1.98660 -15.52422
   4.29218  -2.03170 -14.65802
   4.18068  -2.09010 -14.04352
   4.00818  -2.01840 -13.33862
   3.96088  -2.12730 -12.59812
   3.86718  -2.04270 -11.88692
   3.77358  -2.07420 -10.85722
   3.59098  -2.12690 -10.15512
   3.66678  -2.05950  -9.50902
   3.38528  -1.96390  -8.78122
   3.24028  -1.86660  -8.10032
   3.05468  -1.83620  -7.51002
   2.99408  -1.66740  -6.69612
   2.80118  -1.64710  -6.09642
   2.61748  -1.62280  -5.71882
   2.63128  -1.56710  -4.95892
   2.40418  -1.59260  -4.26522
   2.31418  -1.36740  -3.81352
   2.10098  -1.27930  -3.08562
   2.28688  -1.01510  -2.58462
   2.03148  -0.86640  -1.92572
   1.94338  -0.72820  -1.54182
   1.83018  -0.68310  -1.06182
   1.53558  -0.31830  -0.43822
   1.35158  -0.19190   0.13838
   1.11898   0.05970   0.64458
   0.99808   0.11930   1.27278
   0.64288   0.30290   1.90128
   0.43598   0.53600   2.44998
   0.37918   0.66040   3.03688
   0.04738   0.93510   3.89498
   0.01518   1.15980   4.33428
  -0.29882   1.28960   4.96418
  -0.47632   1.68660   5.69018
  -0.95192   1.75580   6.38718
  -1.06132   2.07960   7.12148
  -1.34582   2.22040   7.67328
  -1.60912   2.50230   8.28588
  -1.72622   2.66670   9.07848
  -2.11952   2.71180   9.66558
  -2.35072   2.86470  10.40518
  -2.60492   2.85940  10.98198
  -2.90422   3.10270  11.80148
  -3.06902   3.00850  12.42898
  -3.20532   2.92340  13.01728
  -3.37182   2.96110  13.79418
  -3.54812   2.98370  14.54918
  -3.58832   3.04270  15.20308
  -3.64562   2.80320  15.78418
  -3.59272   2.88670  16.41498
  -3.73212   2.88130  17.11848
  -3.70732   2.74220  17.74108
  -3.67042   2.61810  18.28448
  -3.56982   2.61030  18.90198
  -3.50342   2.38730  19.48788
  -3.34092   2.28110  19.90148
  -3.14102   2.32420  20.48888
  -3.12002   2.18150  20.88048
  -3.01622   1.89960  21.43268
  -2.88242   1.78170  21.90688
  -2.80362   1.71530  22.46918
  -2.72092   1.49300  22.73618
  -2.67742   1.38990  23.20028
  -2.59162   1.23650  23.53958
  -2.56562   1.02000  23.96418
  -2.79402   0.88880  24.34478
  -2.54322   0.81140  24.66188
  -2.53032   0.50960  24.96188
  -2.46482   0.33980  25.08548
  -2.71642   0.27720  25.57188
  -2.64892   0.11470  25.87558
  -2.83032  -0.12800  26.20168
  -2.81232  -0.22110  26.38218
  -2.74492  -0.32960  26.63288
  -2.75782  -0.57250  26.90218
  -2.67042  -0.80190  27.12668
  -2.67832  -1.01790  27.15588
  -2.46912  -1.21450  27.62068
  -2.48212  -1.34920  27.88238
  -2.29352  -1.32300  28.23958
  -2.04662  -1.30060  28.48468
  -1.85812  -1.38360  28.57678
  -1.69942  -1.42660  28.95548
  -1.39842  -1.60270  29.39208
  -1.36272  -1.51290  29.49258
  -1.14972  -1.49910  29.75068
  -1.01292  -1.44020  30.01278
  -0.56842  -1.37420  30.18538
  -0.53502  -1.48250  30.29428
  -0.40082  -1.46070  30.48748
  -0.30592  -1.48670  30.41378
  -0.19482  -1.41440  30.68598
  -0.09222  -1.38850  30.72378
   0.09348  -1.52390  30.96888
   0.07008  -1.49930  31.04348
   0.16178  -1.30920  30.85848
  -0.04122  -1.22110  30.80448
  -0.25302  -1.22390  30.85848
  -0.34962  -1.30130  30.69978
  -0.67532  -1.33680  30.60578
  -0.77842  -1.19140  30.50358
  -1.31052  -1.18090  30.24918
  -1.48592  -1.12430  30.20198
  -1.86702  -1.18200  29.93918
  -2.20162  -1.00360  29.51528
  -2.43372  -0.81470  29.38598
  -2.77042  -0.64730  28.90918
  -3.23082  -0.39740  28.58358
  -3.55582  -0.10790  28.12578
  -3.87542   0.11610  27.71538
  -4.31852   0.36930  27.24688
  -4.73582   0.43730  26.82908
  -5.29812   0.69870  26.15428
  -5.42072   0.72980  25.65158
  -5.95682   0.58770  25.01588
  -6.22362   0.80020  24.07598
  -6.61352   0.78270  23.20338
  -6.98722   0.93910  22.49588
  -7.25442   0.97860  21.61158
  -7.44432   1.09200  20.65628
  -7.70382   1.12310  19.82108
  -8.00852   0.91500  18.67288
  -8.06252   1.07700  17.86248
  -8.29072   0.97230  16.71868
  -8.62572   0.81960  15.62658
  -8.70102   0.88690  14.50238
  -9.05402   0.74690  13.25288
  -8.88032   0.77210  11.96958
  -9.10902   0.76230  10.63988
  -9.25142   0.56870   9.24848
  -9.30402   0.60870   8.01488
  -9.38822   0.51710   6.88888
  -9.43662   0.54840   5.57908
  -9.75592   0.63700   4.33288
  -9.72182   0.66270   3.10278
  -9.40452   0.49530   1.91838
  -9.62662   0.63860   0.78878
  -9.45852   0.65620  -0.36082
  -9.27062   0.72400  -1.24112
  -9.31852   0.71650  -2.30122
  -9.02182   0.78270  -3.38492
  -8.70892   0.94280  -4.26542
  -8.56982   0.83250  -5.14222
  -8.16532   1.00500  -6.04802
  -7.92222   0.90490  -6.91872
  -7.39122   1.09110  -7.83782
  -7.14382   1.09430  -8.54272
  -6.82722   1.10930  -9.28412
  -6.33232   1.12140 -10.07982
  -5.87332   1.08100 -10.71432
  -5.44122   1.09780 -11.41432
  -5.01902   1.13880 -12.23362
  -4.57242   0.96620 -12.95802
  -4.06362   0.98560 -13.74942
  -3.56282   0.99800 -14.41182
  -3.01872   1.00360 -15.14222
  -2.72792   0.93980 -15.92852
  -2.25112   0.95680 -16.49732
  -1.95892   0.92480 -17.09712
  -1.59482   1.05460 -17.89832
  -1.10152   0.91800 -18.62312
  -0.91492   1.13240 -19.25772
  -0.59112   1.17220 -19.72232
  -0.45482   1.15790 -20.41602
  -0.04492   1.09040 -20.77722
   0.08828   1.23550 -21.43142
   0.44678   1.30220 -21.89272
   0.69458   1.12430 -22.28582
   0.78068   1.24770 -22.99422
   1.18278   1.14270 -23.40222
   1.45728   1.22530 -23.75552
   1.53938   1.01970 -24.46342
   1.74628   1.13270 -25.08162
   1.91808   1.11790 -25.38442
   1.99858   0.91800 -26.01032
   2.07828   0.90070 -26.39522
   2.24078   0.70130 -26.98302
   2.43178   0.61270 -27.33792
   2.39578   0.52290 -27.84992
   2.61888   0.42490 -28.32852
   2.71608   0.13430 -28.87402
   2.99738  -0.17810 -29.54132
   3.04488  -0.26360 -29.97362
   3.27818  -0.29430 -30.46772
   3.39908  -0.54720 -30.92992
   3.33148  -0.68260 -31.58782
   3.39578  -0.91360 -31.97852
   3.36138  -1.26290 -32.18782
   3.40278  -1.32040 -32.59792
   3.19778  -1.54230 -32.95612
   3.02798  -1.75350 -33.05222
   2.97278  -2.04530 -33.41762
   2.61318  -2.23880 -33.36292
   2.49628  -2.42240 -33.40432
   2.34528  -2.54400 -33.21982
   2.27838  -2.75040 -33.14172
   1.95878  -3.02590 -33.33022
   2.06918  -3.21800 -33.39192
   2.00788  -3.22390 -33.60402
   1.93608  -3.47800 -33.66832
   1.85128  -3.54070 -33.50112
   1.91558  -3.61810 -33.51422
   1.98868  -3.85050 -33.41932
   2.06378  -3.90710 -33.52542
   2.26018  -4.23910 -33.47122
   2.53158  -4.24260 -33.54132
   2.84378  -4.54260 -33.52472
   3.26248  -4.43200 -33.66222
   3.27188  -4.40950 -33.47002
   3.56808  -4.15440 -33.17052
   3.94988  -4.22550 -32.47352
   4.29128  -4.12220 -32.32972
   4.67658  -3.95200 -32.10602
   5.02938  -3.79930 -31.61002
   5.34058  -3.68920 -31.03182
   5.64058  -3.72800 -30.48852
   5.86368  -3.83810 -29.96752
   6.21598  -3.83320 -29.30662
   6.54118  -3.77680 -28.72602
   6.77338  -3.77330 -28.19252
   7.10048  -3.83090 -27.65032
   7.34318  -3.65880 -27.12372
   7.79278  -3.59820 -26.56772
   8.08458  -3.42640 -26.02512
   8.40068  -3.47430 -25.45252
   8.63378  -3.47060 -24.79242
   8.98028  -3.65970 -24.36502
   9.39698  -3.65990 -23.77492
   9.81548  -3.84820 -23.39542
   9.84258  -3.84160 -22.89552
  10.16778  -3.97040 -22.35802
  10.65908  -3.99450 -21.71412
  10.73458  -3.94350 -20.87852
  11.08198  -3.81070 -19.91732
  11.19848  -3.65290 -18.95122
  11.17878  -3.49140 -17.80482
  11.20128  -3.50540 -16.73262
  11.14908  -3.29330 -15.57962
  11.37218  -3.03990 -14.38402
  11.35788  -2.96970 -13.04492
  11.60018  -2.64640 -11.80322
  11.56578  -2.35390 -10.45012
  11.72868  -2.18230  -8.69332
  11.57278  -1.70830  -7.41602
  11.50198  -1.42960  -6.03672
  11.31818  -1.33050  -4.60092
  11.13228  -1.10390  -3.26472
  10.70348  -1.00850  -1.82372
  10.48488  -0.75000  -0.40832
  10.09788  -0.59610   0.85688
   9.86088  -0.42660   2.13698
   9.61508  -0.07210   3.30978
   9.11848   0.16770   4.81458
   8.84988   0.54000   5.87788
   8.33548   0.77960   7.04318
   8.05328   0.95400   8.32378
   7.66448   1.47500   9.43368
   7.11428   1.69990  10.65018
   6.86408   2.01300  11.73088
   6.60688   2.14670  12.62608
   6.15028   2.46770  13.89048
   5.86788   2.46470  14.87418
   5.48838   2.54530  16.03248
   5.27868   2.67600  16.89258
   5.02048   2.70850  17.86898
   4.89498   2.81190  18.74068
   4.73758   2.58700  19.55318
   4.68968   2.78240  20.36958
   4.52648   2.91010  21.18748
   4.19448   2.94520  21.97518
   3.93778   2.97060  22.89548
   3.54168   3.09690  23.64808
   3.31628   3.23810  24.47688
   2.88748   3.05340  25.03528
   2.62908   3.16680  25.55618
   2.29738   3.01670  25.95928
   1.90128   2.97420  26.53628
   1.46198   2.90990  26.94948
   0.99948   2.84490  27.55638
   0.68988   2.70130  27.79348
   0.30928   2.73730  28.38718
   0.00558   2.32720  28.98358
  -0.49032   2.26870  28.97798
  -0.84462   1.95030  29.39948
  -1.23592   1.76210  29.80428
  -1.35002   1.38850  30.08038
  -1.60282   1.15910  30.41988
  -1.86562   1.11370  30.69598
  -1.96382   0.82050  30.98548
  -2.06152   0.74290  31.06588
  -1.93532   0.81420  31.11798
  -2.16232   0.85540  31.21368
  -1.98762   0.81400  31.39578
  -2.03372   0.94800  31.42598
  -2.10292   0.87410  31.69648
  -2.38002   1.03450  31.76478
  -2.49692   1.07730  31.94168
  -2.73332   1.34890  32.36748
  -2.67692   1.46000  32.57648
  -2.67432   1.20190  32.72588
  -2.62922   1.29400  32.73128
  -2.63532   1.31760  32.79278
  -2.61282   1.47380  32.89048
  -2.56162   1.64870  32.61278
  -2.81652   1.82100  32.66678
  -2.78872   1.95610  32.34368
  -2.86842   2.07680  32.15358
  -2.90772   2.25170  32.12008
  -2.98182   2.26690  31.57768
  -3.07092   2.34030  31.25218
  -3.25962   2.39550  31.02778
  -3.56002   2.40830  30.76428
  -3.72392   2.42400  30.44908
  -3.88802   2.50720  29.95578
  -4.28012   2.53080  29.43228
  -4.44382   2.53790  28.69228
  -4.29652   2.55070  28.08178
  -4.39772   2.45950  27.53188
  -4.52912   2.22760  26.70748
  -4.65662   2.17360  26.16358
  -4.61282   1.92290  25.61908
  -4.79522   1.83460  24.87908
  -4.92802   1.76210  23.95968
  -5.01622   1.80020  23.49448
  -4.97152   1.49250  22.91228
  -4.84832   1.48030  22.35018
  -4.87892   1.39200  21.78088
  -5.05382   1.45840  21.22558
  -5.12232   1.05690  20.64528
  -5.08422   0.77630  20.07758
  -5.25022   0.66580  19.60898
  -5.29952   0.34080  19.22838
  -5.41082   0.10480  18.46898
  -5.38772  -0.08290  17.80988
  -5.38772  -0.27370  17.24898
  -5.36342  -0.53420  16.79488
  -5.43612  -0.65430  16.32588
  -5.53802  -0.65670  15.66208
  -5.46532  -0.74950  15.17418
  -5.57752  -0.91640  14.80258
  -5.60282  -0.97140  14.01938
  -5.70642  -0.67790  13.28538
  -5.87752  -0.84210  12.41728
