********************************************************************************
              CENTRO DE INSTRUMENTACION Y REGISTRO SISMICO  A.C.

    Anaxagoras 814, Col. Narvarte, Benito Juarez, C.P. 03020 Mexico, D.F.
           Tels. 5687 45 42/ 5687 45  82             Fax. 5669 25 12
********************************************************************************
ARCHIVO ESTANDAR DE ACELERACION:
VERSION DEL FORMATO                    : 2.0
NOMBRE DEL ARCHIVO                     : XO3620220919180509
FECHA Y HORA DE CREACION               : 19/SEP/22, 19:47
REF. CATALOGO ACELEROGRAMAS, SMIS 1996 : REGISTRO No.     /PAG.


================================================================================
DATOS DE LA ESTACION:
NOMBRE DE LA ESTACION                  : JARDÍN DE NIÑOS "XOCHIMILCO"
CLAVE DE LA ESTACION                   : XO36
LOCALIZACION DE LA ESTACION            : Del. Xochimilco, Barrio la Concepción  
                                       : Tlacopa, Club España de Remo y         
                                       : Callejón Chicoco.                      
                                       :                                        
                                       : 
COORDENADAS DE LA ESTACION             : 19.2711 LAT. N
                                       : 99.1024 LONG. W
ALTITUD (msnm)                         : 2232
TIPO DE SUELO                          : Alto riesgo sísmico                 
                                       :                           
                                       : 
INSTITUCION RESPONSABLE                : CIRES, A. C.
                                       : 

================================================================================
DATOS DEL ACELEROGRAFO:
MODELO DEL ACELEROGRAFO                : RAD_IO14
NUMERO DE SERIE DEL ACELEROGRAFO       : 
NUMERO DE CANALES                      : 3
ORIENTACION C1-C6 (rumbo;orientacion)  : /N00E/+V/N90W
ORIENTACION C7-C12 (rumbo;orientacion) : 
VEL. DE MUESTREO, C1-C6 (muestras/s)   : /100/100/100
VEL. DE MUESTREO, C7-C12 (muestras/s)  : 
ESC. COMPLETA DE SENSORES, C1-C6, (g)  : /2.0/2.0/2.0
ESC. COMPLETA DE SENSORES, C7-C12, (g) : 
FREC. NAT. DE SENSORES, C1-C6, (Hz)    : /30/30/30
FREC. NAT. DE SENSORES, C7-C12, (Hz)   : 
AMORTIGUAMIENTO DE SENSORES, C1-C6     : /0.733/0.696/0.750
AMORTIGUAMIENTO DE SENSORES, C7-C12    : 
INTERVALO DE MUESTREO, C1-C6, (s)      : /0.01/0.01/0.01
INTERVALO DE MUESTREO, C7-C12, (s)     : 
UMBRAL DE DISPARO, C1-C6, (Gal)        : / / /
UMBRAL DE DISPARO, C7-C12, (Gal)       : 
MEMORIA DE PREEVENTO (s)               : 60
TIEMPO DE POSEVENTO (s)                : 90


================================================================================
DATOS DEL SISMO:
FECHA DEL SISMO (GMT)                  : 19/SEP/22
HORA EPICENTRO (GMT)                   : 18:05:09.0
MAGNITUD(ES)                           : /Mc=7.7
COORDENADAS DEL EPICENTRO              : 18.22 LAT. N
                                       : 103.29 LONG. W
PROFUNDIDAD FOCAL (km)                 : 15
FUENTE DE LOS DATOS EPICENTRALES       : SSN
                                       : INSTITUTO DE GEOFISICA, UNAM

================================================================================
DATOS DE ESTE REGISTRO:
HORA DE LA PRIMERA MUESTRA (GMT)       : 18:04:26.567.00
EXACTITUD DEL TIEMPO (s)               : 
DURACION DEL REGISTRO (s), C1-C6       : /599.81/599.81/599.81
DURACION DEL REGISTRO (s), C7-C12      : 
NUM. TOTAL DE MUESTRAS, C1-C6          : /59981/59981/59981
NUM. TOTAL DE MUESTRAS, C7-C12         : 
ACEL. MAX. (Gal), C1-C6                : /37.93822/5.74015/33.73578
ACEL. MAX., C1-C6, EN LA MUESTRA       : /19767/20216/19472
ACEL. MAX. (Gal), C7-C12               : 
ACEL. MAX., C7-C12, EN LA MUESTRA      : 
UNIDADES DE LOS DATOS                  : Gal (cm/s/s)
FACTOR DE DECIMACION                   : 1
FORMATO DATOS (FORTRAN,10 campos/dato) : 3F10.5


================================================================================
CALIDAD DEL ACELEROGRAMA:
REGISTRO DIGITAL COMPLETO CON TIEMPO ABSOLUTO CORRECTO.


================================================================================
COMENTARIOS:














================================================================================
DATOS DE ACELERACION:
---------+---------+---------+---------+---------+---------+---------+---------+
   CANAL-1   CANAL-2   CANAL-3   CANAL-4   CANAL-5   CANAL-6   CANAL-7   CANAL-8
      N00E        +V      N90W
---------+---------+---------+---------+---------+---------+---------+---------+
[...]
   8.44182  -3.39585 -26.09678
   9.00712  -3.18215 -26.23448
   9.50752  -2.99235 -26.01118
   9.83932  -2.70915 -26.04368
  10.31042  -2.41315 -25.99998
  10.83442  -2.13495 -25.70748
  11.45142  -2.09475 -25.73858
  12.01062  -1.47635 -25.62518
  12.17642  -1.16675 -25.63538
  12.76492  -0.85745 -25.58728
  13.02232  -0.59885 -25.64428
  13.32722  -0.21285 -25.87088
  13.55032   0.16615 -26.03918
  13.84022   0.54545 -26.44578
  14.13882   0.72665 -26.71958
  14.44232   0.81265 -27.06428
  14.47482   1.11565 -27.49308
  14.74202   1.27605 -28.06678
  14.82082   1.61905 -28.48978
  14.68052   2.02145 -28.93638
  14.73852   2.20545 -29.48508
  14.41932   2.52995 -30.11188
  14.47242   2.83725 -30.47148
  14.43552   3.11035 -31.04108
  14.19772   3.35655 -31.37688
  14.00222   3.34505 -31.67588
  13.68872   3.25665 -32.02098
  13.35432   3.46075 -32.31768
  13.05672   3.27305 -32.46918
  12.68172   2.98385 -32.74698
  12.27862   3.13225 -32.83928
  11.85472   3.14185 -32.85798
  11.48902   3.04975 -33.02168
  11.08572   3.23705 -33.07568
  10.68072   3.27515 -33.12338
  10.49742   3.03825 -33.21738
  10.25222   2.98595 -33.34038
  10.20102   2.60625 -33.66558
  10.10142   2.41965 -33.73578
   9.82312   2.03945 -33.57088
   9.83652   1.68575 -33.30088
   9.58682   1.28655 -32.88138
   9.33192   0.95735 -32.26698
   8.98562   0.55855 -31.84328
   8.64712   0.28705 -31.34038
   8.34642  -0.11415 -30.49468
   7.98562  -0.25885 -29.65488
   7.63302  -0.56215 -28.71448
   7.11052  -0.64885 -27.59868
   6.63192  -0.82705 -26.55988
   6.27562  -0.88105 -25.35348
   5.65012  -0.89325 -24.13458
   5.04642  -0.89105 -23.05418
   4.63912  -0.78475 -21.82758
   3.92812  -0.73585 -20.37078
   3.38662  -0.53805 -19.16568
   2.82452  -0.57775 -17.96628
   1.86802  -0.58365 -16.41588
   1.82852  -0.47145 -15.27938
   2.52502   0.88045 -14.30388
   0.41072   0.76665 -12.68758
  -1.30638  -0.53475 -11.09228
  -1.57758  -1.15765  -9.29198
  -1.68168  -1.77255  -7.85308
  -1.76488  -1.70475  -7.10488
  -2.56638  -1.47865  -6.09278
  -3.34678  -1.08775  -5.12638
  -4.05648  -0.71225  -3.99998
  -4.84508  -0.20655  -2.86288
  -5.12118   0.03995  -1.78408
  -5.33728   0.30995  -0.60338
  -5.98888  -0.08465   0.41812
  -6.63998  -0.66755   1.26452
  -6.75058  -0.61145   1.84692
  -7.21428  -1.00545   2.23342
  -7.55188  -1.03795   2.29772
  -7.78638  -1.10155   2.57942
  -8.22918  -1.22845   2.74292
  -8.78968  -1.04985   2.79552
  -9.20698  -1.02785   3.10042
  -9.57688  -0.72625   3.18242
 -10.17238  -0.64185   3.43402
 -10.70848  -0.69755   3.55022
 -11.13338  -0.84975   3.70872
 -11.60708  -0.84995   3.49362
 -12.01108  -0.73635   3.21122
 -13.03048  -0.71455   3.25072
 -13.56238  -0.59695   3.00102
 -14.08688  -0.11675   3.13922
 -14.58038   0.11545   3.03162
 -15.06458   0.23305   3.15582
 -15.74098   0.08735   3.16652
 -16.29488  -0.02605   2.98652
 -16.75058  -0.06345   2.91562
 -17.14738  -0.26445   3.15902
 -17.53948  -0.27015   3.39142
 -18.07888  -0.40195   3.28112
 -18.33978  -0.21495   3.75642
 -18.83778  -0.35525   3.99262
 -19.14088  -0.28955   4.26502
 -19.38798  -0.48005   4.62952
 -19.59608  -0.62665   4.95962
 -19.79408  -0.46955   5.44692
 -20.09708  -0.73565   5.72512
 -20.20978  -0.75755   6.20392
 -20.26098  -0.86725   6.74082
 -20.50628  -0.92855   7.13662
 -20.51258  -0.99215   7.70152
 -20.72958  -1.00195   8.25472
 -20.74218  -1.17055   8.65382
 -20.75738  -1.15905   9.07462
 -20.69708  -1.26425   9.25912
 -20.72418  -1.37535   9.48872
 -20.80318  -1.50675   9.91542
 -20.86188  -1.66785   9.97062
 -20.85678  -1.78685  10.12402
 -21.01388  -1.83175  10.45762
 -21.20938  -1.87965  10.59372
 -21.22428  -1.76415  10.76512
 -21.30728  -1.85115  10.72202
 -21.21918  -1.81765  10.69492
 -21.25218  -1.75925  10.66802
 -21.27508  -1.77345  10.46842
 -21.37578  -1.82585  10.37232
 -21.42488  -2.06765  10.25192
 -21.40688  -2.08355  10.23642
 -21.37188  -2.21795  10.16892
 -21.16938  -2.24695   9.94982
 -20.96688  -2.26545   9.75762
 -20.99238  -2.23385   9.71882
 -20.86288  -2.33345   9.72112
 -20.64138  -2.35455   9.69542
 -20.22528  -2.34375   9.70692
 -20.12288  -2.39375   9.81882
 -19.90138  -2.28485   9.89902
 -19.34708  -2.48125  10.09402
 -19.18388  -2.62525  10.10602
 -18.71648  -2.54835  10.38442
 -18.30588  -2.58065  10.52752
 -17.87968  -2.60885  10.88362
 -17.16538  -2.54135  11.08982
 -16.85578  -2.55935  11.40972
 -16.20068  -2.90935  11.84482
 -15.38218  -2.82635  12.57732
 -14.96688  -2.73185  13.11482
 -14.20908  -2.84225  13.54812
 -13.75438  -2.95375  14.04802
 -13.16938  -2.92825  14.80532
 -12.42868  -2.59645  15.33492
 -11.86848  -2.64955  16.07352
 -11.30658  -2.55485  16.67342
 -10.84418  -2.38865  17.29022
 -10.22268  -2.32065  18.00052
  -9.64238  -2.15855  18.42422
  -9.26078  -2.09475  19.04892
  -8.84228  -1.91865  19.46352
  -8.38188  -1.60985  19.97832
  -7.90258  -1.22685  20.59512
  -7.69168  -1.04285  21.05272
  -7.33188  -0.80905  21.55182
  -7.11438  -0.55885  21.86962
  -6.88858  -0.42555  22.12212
  -6.80318  -0.31405  22.48082
  -6.53198  -0.07465  22.58552
  -6.35458   0.17415  22.76952
  -6.16208   0.37775  22.74332
  -6.12778   0.20895  22.79592
  -6.13218   0.45405  22.53062
  -5.96828   0.54725  22.44332
  -5.93718   0.67285  22.27172
  -5.95828   0.69295  22.13682
  -5.87358   0.76895  21.85722
  -5.90728   0.86555  21.43542
  -6.04268   1.00435  21.14692
  -6.07028   1.01235  20.56822
  -5.83458   1.13185  20.19792
  -5.97388   1.28725  19.74992
  -5.85648   1.30155  19.09732
  -5.99448   1.30925  18.70692
  -5.84068   1.59965  18.32132
  -5.98868   1.75865  17.76672
  -6.09498   1.68615  17.28022
  -6.15648   1.90545  16.92902
  -6.33588   1.80755  16.49172
  -6.33238   1.88915  16.28042
  -6.20488   1.95665  15.93792
  -6.26408   2.01285  15.56702
  -6.38678   2.31025  15.44592
  -6.38868   2.35605  15.20072
  -6.49738   2.35445  15.23082
  -6.33518   2.25015  15.07932
  -6.10858   2.36305  14.98412
  -6.26268   2.35765  14.84692
  -6.28298   2.14465  15.06462
  -6.31598   1.79115  14.81672
  -6.13898   1.86015  14.96292
  -5.87688   1.55925  14.86122
  -5.83148   1.64755  14.87642
  -5.80818   1.43035  14.94212
  -5.88928   1.40585  14.96592
  -5.87878   1.27445  14.93792
  -5.89998   1.36005  15.02532
  -5.95148   1.21945  15.02652
  -5.88898   0.86835  15.13802
  -5.84668   0.73245  15.20392
  -5.91308   0.69765  15.10532
  -5.89788   0.60225  15.28232
  -6.01108   0.57625  15.18032
  -6.00358   0.52345  15.16752
  -5.71318   0.43905  15.25002
  -5.61178   0.31865  15.20632
  -5.46488   0.33145  15.15692
  -5.45298   0.29545  15.21942
  -5.66368   0.29155  15.02442
  -5.70828   0.22345  15.13592
  -5.77958   0.37105  15.21402
  -5.82188   0.13085  14.94562
  -5.71978   0.01235  14.86302
  -5.64188  -0.14995  14.80862
  -5.77798  -0.16655  14.38892
  -5.74688  -0.32275  14.22642
  -5.86938  -0.47935  13.88102
  -5.83128  -0.66525  13.40152
  -5.71668  -0.59535  13.86282
  -5.84808  -0.48385  13.53622
  -5.80718  -0.47675  13.29772
  -5.88368  -0.42205  12.98272
  -5.86518  -0.36765  12.62742
  -6.11328  -0.01265  12.32742
  -6.19738  -0.00095  12.10392
  -6.35778  -0.01735  11.67042
  -6.45648   0.16505  11.50392
  -6.77028   0.20965  11.27972
  -6.97058   0.33355  10.85272
  -7.18928   0.37005  10.57732
  -7.14898   0.43715  10.27732
  -7.33908   0.47855   9.80762
  -7.75548   0.73785   9.41202
  -7.75038   0.99695   8.78612
  -7.79268   1.12015   8.29352
  -7.71768   1.35205   7.80272
  -7.67678   1.56205   6.93692
  -7.62108   1.74865   6.18922
  -7.47498   1.74345   5.43192
  -7.56218   1.62535   4.86582
  -7.44928   1.84685   4.02342
  -7.16608   1.96465   3.24602
  -6.90328   1.86385   2.41062
  -6.46748   1.83305   1.60892
  -5.88688   1.85945   1.00542
  -5.50508   1.92585   0.32742
  -5.02088   1.77435  -0.21368
  -4.45578   1.86225  -0.75958
  -3.94868   1.93355  -1.23208
  -3.40178   1.95345  -1.53328
  -2.83828   1.92535  -2.06378
  -1.98818   1.78465  -2.46058
  -1.28888   1.93545  -2.87318
  -0.33698   1.88565  -3.16968
   0.39202   1.63145  -3.62188
   1.24612   1.61485  -3.72798
   1.93842   1.50335  -3.84888
   2.47852   1.30275  -3.92418
   3.30152   1.35795  -3.94658
   3.85942   1.11525  -4.09298
   4.40812   1.22185  -4.07568
   5.42312   1.19865  -4.02588
   6.08782   1.31375  -4.00788
   6.78952   1.37595  -3.84208
   7.53672   1.53255  -3.97588
   8.34312   1.68945  -3.58748
   9.05302   1.82365  -3.62628
   9.69502   1.80495  -3.78838
  10.37662   2.15545  -3.57208
  11.18232   2.11035  -3.68288
  11.91882   2.27745  -3.94968
  12.78852   2.34155  -4.17978
  13.49792   2.15375  -4.37968
  14.04902   2.37265  -4.70018
  14.81572   2.51835  -4.96368
  15.48362   2.58635  -5.25988
  16.25312   2.70835  -5.65738
  17.19962   2.88725  -6.14508
  18.05902   2.89635  -6.39178
  18.92112   2.72565  -6.77738
  19.82852   3.00555  -7.53578
  20.51992   3.17645  -7.92538
  21.36462   3.11595  -8.75958
  22.33542   3.14745  -9.32098
  23.23702   3.18815  -9.94308
  24.00062   3.15585 -10.82548
  24.83372   3.02355 -11.49558
  25.59212   2.74205 -12.08738
  26.29572   2.57485 -12.74278
  27.15142   2.33735 -13.43388
  28.08482   2.06125 -14.18888
  28.78672   1.93725 -14.99108
  29.46732   1.49255 -15.56738
  30.17552   1.30435 -16.08788
  30.66182   1.02735 -16.48858
  31.12782   0.80895 -17.00088
  31.50312   0.47015 -17.32678
  31.94612   0.34415 -17.67568
  32.45722   0.08455 -17.94478
  32.81712  -0.00285 -18.29218
  33.12452  -0.17915 -18.54518
  33.37492  -0.31195 -18.76988
  33.64892  -0.63065 -19.04838
  33.90712  -0.83315 -19.04228
  33.92022  -0.99565 -19.18398
  34.04482  -1.10695 -19.21478
  34.17672  -1.07725 -19.28218
  34.45162  -0.94725 -19.26788
  34.45252  -1.05175 -19.01488
  34.62302  -1.06925 -18.99808
  34.82272  -0.99725 -19.06798
  35.03572  -0.96315 -18.76638
  35.17812  -0.82865 -18.56998
  35.44132  -0.84945 -18.14748
  35.76942  -0.59135 -18.12528
  35.93652  -0.65655 -17.89028
  35.97302  -0.48945 -17.59198
  36.36532  -0.60185 -17.33128
  36.62842  -0.45485 -16.95998
  36.81472  -0.42185 -16.81658
  36.92202  -0.32925 -16.68098
  37.10182  -0.07675 -16.27698
  37.23932   0.08765 -15.98448
  37.33772   0.13325 -15.61248
  37.47832   0.14775 -15.48978
  37.59752   0.17745 -15.20988
  37.62512   0.28755 -15.13788
  37.70392   0.22605 -14.98238
  37.93822   0.23635 -14.82688
  37.92862   0.22225 -14.87508
  37.77612   0.19335 -15.07338
  37.58962   0.40775 -15.13508
  37.39502   0.54095 -15.22978
  37.18092   0.77105 -15.59408
  36.66622   0.84725 -15.64458
  36.29522   0.92325 -15.91268
  35.76842   0.69385 -16.24848
  35.43012   0.96415 -16.35738
  34.73172   1.04015 -16.60478
  33.94352   0.99905 -16.96508
  32.98872   1.15285 -17.17928
  32.17082   1.20805 -17.51128
  31.15872   1.27445 -17.81918
  29.97142   1.27915 -17.88488
  28.90942   1.15005 -18.36608
  27.41142   1.18375 -18.54378
  26.19792   1.07645 -19.01798
  24.67562   0.97005 -19.37028
  23.15542   0.80515 -19.52278
  21.66672   0.81575 -19.94918
  20.05832   0.82225 -20.16638
  18.45282   0.78275 -20.50288
  16.83372   0.74795 -20.42758
  15.40842   0.60035 -20.68968
  13.89492   0.52295 -20.74108
  12.35602   0.47295 -20.96978
  10.74812   0.31345 -20.96748
   9.22672  -0.11045 -21.02868
   8.07612  -0.34165 -20.79908
   6.81572  -0.78425 -20.49728
   5.64822  -1.17165 -20.58238
   4.75042  -1.22755 -20.17598
   3.80352  -1.50415 -19.74598
   2.69032  -1.49525 -19.30878
   1.78462  -1.67035 -18.74068
   0.90942  -1.74455 -18.09748
  -0.04198  -1.73075 -17.21438
  -0.87828  -2.00335 -16.57788
  -1.86308  -2.14405 -15.73428
  -2.48178  -2.12675 -14.75698
  -3.23718  -2.34775 -13.92088
  -3.63348  -2.59205 -12.91878
  -4.14968  -2.55745 -12.05908
  -4.70758  -2.66825 -11.05648
  -5.37608  -2.58855 -10.07478
  -5.92338  -2.76325  -9.20128
  -6.43198  -2.75785  -8.13878
  -7.04988  -2.69775  -7.11778
  -7.66388  -2.78515  -6.23168
  -7.94418  -2.92945  -5.41148
  -8.57218  -2.86445  -4.53958
  -9.13948  -2.90135  -3.66788
  -9.77888  -2.69915  -3.04298
 -10.28768  -2.46485  -2.38898
 -10.79738  -2.65265  -1.46688
 -11.42398  -2.72065  -1.01298
 -12.07908  -2.56375  -0.57928
 -12.80458  -2.64205  -0.37118
 -13.43688  -2.66055   0.21732
 -14.17638  -2.68485   0.59672
 -14.73638  -2.92645   0.80482
 -15.29748  -2.96665   1.35682
 -15.99238  -3.13475   1.66942
 -16.51258  -3.42065   1.89762
 -17.24908  -3.56255   2.25282
 -17.96318  -3.81515   2.43242
 -18.44878  -3.74405   2.42982
 -18.95688  -3.79005   2.88622
 -19.32808  -3.74265   2.87592
 -19.88718  -3.90045   2.75272
 -20.68188  -3.72815   3.08072
 -21.28648  -3.78305   3.17402
 -21.76538  -3.93015   3.21982
 -22.10558  -4.02855   3.42602
 -22.50418  -4.05335   3.61452
 -22.95898  -4.17335   3.68002
 -23.25328  -4.33675   3.67392
 -23.64798  -4.25865   3.86192
 -24.03168  -4.45415   3.86212
 -24.20588  -4.37925   4.09542
 -24.42908  -4.39165   4.19222
 -24.59838  -4.22565   4.26382
 -24.59488  -4.37765   4.48152
 -24.69728  -4.32945   4.70122
 -24.75318  -4.36855   5.12262
 -24.60778  -4.42395   5.18642
 -24.65408  -4.40265   5.43242
 -24.55068  -4.45925   5.64982
 -24.45788  -4.38535   5.72352
 -24.44548  -4.41455   6.10602
 -24.25308  -4.00095   6.19862
 -23.97348  -4.00445   6.52542
 -23.76438  -3.95025   6.75812
 -23.66158  -3.64635   6.86472
 -23.43338  -3.43965   6.93932
 -23.28998  -3.39335   7.08772
 -23.01758  -3.22755   7.16912
 -22.50698  -3.01945   7.40312
 -22.19278  -2.91055   7.16182
 -22.10978  -2.76605   7.15412
 -21.70738  -2.58625   7.20742
 -21.47568  -2.45205   7.02532
 -21.21898  -2.40435   6.99612
 -21.15788  -2.23625   7.03982
 -20.79738  -2.06455   6.85202
 -20.54038  -1.91845   6.41202
 -20.52548  -1.82425   6.18732
 -20.40828  -1.69025   6.17662
 -20.25118  -1.51185   6.01292
 -20.01898  -1.29135   5.84112
 -20.04848  -1.16815   5.65872
 -20.06698  -0.81025   5.59162
 -19.87778  -0.87125   5.56212
 -19.78758  -0.69375   5.43172
 -19.72908  -0.68095   5.36012
 -19.68278  -0.72715   5.16912
 -19.57878  -0.53175   5.07002
 -19.49548  -0.62735   5.20022
 -19.58508  -0.61055   5.26822
 -19.44898  -0.77465   5.45342
 -19.30848  -0.51655   5.60192
 -19.28788  -0.49615   5.91102
 -19.27088  -0.56495   6.18872
 -19.22248  -0.45155   6.59322
 -19.12258  -0.55515   6.94462
 -18.72398  -0.53315   7.44082
 -18.55978  -0.71155   7.90372
 -18.34778  -0.63325   8.57502
 -18.09828  -0.62335   9.20532
 -17.70878  -0.71595   9.75292
 -17.48808  -0.65095  10.61312
 -17.37928  -0.60585  11.12792
 -16.95728  -0.71645  12.07252
 -16.65358  -0.71785  12.86372
 -16.37838  -0.79035  13.50622
 -15.96688  -0.82615  14.38862
 -15.73518  -1.04865  15.29352
 -15.40738  -0.91285  15.89722
 -14.78688  -0.89745  16.52992
 -14.29538  -0.84905  17.22572
 -13.88878  -0.94375  17.90702
 -13.38148  -0.90555  18.56312
