********************************************************************************
              CENTRO DE INSTRUMENTACION Y REGISTRO SISMICO  A.C.

    Anaxagoras 814, Col. Narvarte, Benito Juarez, C.P. 03020 Mexico, D.F.
           Tels. 5687 45 42/ 5687 45  82             Fax. 5669 25 12
********************************************************************************
ARCHIVO ESTANDAR DE ACELERACION:
VERSION DEL FORMATO                    : 2.0
NOMBRE DEL ARCHIVO                     : AL0120210908014746
FECHA Y HORA DE CREACION               : 07/SEP/21, 23:11
REF. CATALOGO ACELEROGRAMAS, SMIS 1996 : REGISTRO No.     /PAG.


================================================================================
DATOS DE LA ESTACION:
NOMBRE DE LA ESTACION                  : ALAMEDA
CLAVE DE LA ESTACION                   : AL01
LOCALIZACION DE LA ESTACION            : Del. Cuauhtémoc, Col. Centro,          
                                       : Dr. Mora entre Av. Hidalgo             
                                       : y Av. Juárez.                          
                                       :                                        
                                       : 
COORDENADAS DE LA ESTACION             : 19.4356 LAT. N
                                       : 99.1453 LONG. W
ALTITUD (msnm)                         : 2232
TIPO DE SUELO                          : Terreno blando, material compresible
                                       : (arcillas)                
                                       : 
INSTITUCION RESPONSABLE                : CIRES, A. C.
                                       : 

================================================================================
DATOS DEL ACELEROGRAFO:
MODELO DEL ACELEROGRAFO                : RAD_IO14
NUMERO DE SERIE DEL ACELEROGRAFO       : 
NUMERO DE CANALES                      : 3
ORIENTACION C1-C6 (rumbo;orientacion)  : /S00E/+V/N90W
ORIENTACION C7-C12 (rumbo;orientacion) : 
VEL. DE MUESTREO, C1-C6 (muestras/s)   : /100/100/100
VEL. DE MUESTREO, C7-C12 (muestras/s)  : 
ESC. COMPLETA DE SENSORES, C1-C6, (g)  : /2.0/2.0/2.0
ESC. COMPLETA DE SENSORES, C7-C12, (g) : 
FREC. NAT. DE SENSORES, C1-C6, (Hz)    : /51.29/51.09/53.75
FREC. NAT. DE SENSORES, C7-C12, (Hz)   : 
AMORTIGUAMIENTO DE SENSORES, C1-C6     : /0.5519/0.5670/0.5810
AMORTIGUAMIENTO DE SENSORES, C7-C12    : 
INTERVALO DE MUESTREO, C1-C6, (s)      : /0.01/0.01/0.01
INTERVALO DE MUESTREO, C7-C12, (s)     : 
UMBRAL DE DISPARO, C1-C6, (Gal)        : / / /
UMBRAL DE DISPARO, C7-C12, (Gal)       : 
MEMORIA DE PREEVENTO (s)               : 60
TIEMPO DE POSEVENTO (s)                : 90


================================================================================
DATOS DEL SISMO:
FECHA DEL SISMO (GMT)                  : 08/SEP/21
HORA EPICENTRO (GMT)                   : 01:47:46.0
MAGNITUD(ES)                           : /Mc=7.1
COORDENADAS DEL EPICENTRO              : 16.78 LAT. N
                                       : 99.93 LONG. W
PROFUNDIDAD FOCAL (km)                 : 10
FUENTE DE LOS DATOS EPICENTRALES       : SSN
                                       : INSTITUTO DE GEOFISICA, UNAM

================================================================================
DATOS DE ESTE REGISTRO:
HORA DE LA PRIMERA MUESTRA (GMT)       : 20:54:01.00
EXACTITUD DEL TIEMPO (s)               : 
DURACION DEL REGISTRO (s), C1-C6       : /657.42/657.42/657.42
DURACION DEL REGISTRO (s), C7-C12      : 
NUM. TOTAL DE MUESTRAS, C1-C6          : /65742/65742/65742
NUM. TOTAL DE MUESTRAS, C7-C12         : 
ACEL. MAX. (Gal), C1-C6                : /34.4785/12.54711/41.35239
ACEL. MAX., C1-C6, EN LA MUESTRA       : /13267/14508/14702
ACEL. MAX. (Gal), C7-C12               : 
ACEL. MAX., C7-C12, EN LA MUESTRA      : 
UNIDADES DE LOS DATOS                  : Gal (cm/s/s)
FACTOR DE DECIMACION                   : 1
FORMATO DATOS (FORTRAN,10 campos/dato) : 3F10.5


================================================================================
CALIDAD DEL ACELEROGRAMA:
REGISTRO DIGITAL COMPLETO CON TIEMPO ABSOLUTO CORRECTO.


================================================================================
COMENTARIOS:














================================================================================
DATOS DE ACELERACION:
---------+---------+---------+---------+---------+---------+---------+---------+
   CANAL-1   CANAL-2   CANAL-3   CANAL-4   CANAL-5   CANAL-6   CANAL-7   CANAL-8
      N00E        +V      N90W
---------+---------+---------+---------+---------+---------+---------+---------+
[...]
  22.68030  -6.78671  -8.24961
  23.06510  -6.38671  -7.23421
  23.32910  -5.93051  -6.29661
  23.31900  -5.45281  -5.11421
  23.61390  -4.86531  -3.84961
  23.49490  -4.47321  -2.81401
  23.35830  -3.83791  -1.85051
  23.18550  -3.17371  -1.16731
  22.68850  -2.43371  -0.44131
  22.09200  -1.87531  -0.11121
  21.62110  -0.87721   0.44549
  21.06890  -0.07221   1.01759
  20.33330   0.73489   1.31109
  19.57410   1.43139   1.90419
  18.73780   2.43029   2.40319
  18.18860   3.46699   2.85089
  17.27530   4.35009   3.13169
  16.42310   5.34379   3.31029
  15.70410   6.28689   3.47259
  14.96550   7.16749   3.39989
  13.92970   7.89579   3.47449
  12.98120   8.57729   3.45439
  11.93230   9.11059   3.32769
  10.90330   9.50529   3.08289
   9.71300   9.79729   2.93039
   8.41770   9.99649   2.92129
   7.06330   9.95259   2.82219
   5.59890   9.90049   2.92499
   3.99190   9.74779   3.13729
   2.24590   9.34329   3.38939
   0.48340   8.79029   3.74149
  -1.01230   8.22639   4.25279
  -2.55540   7.36479   4.94629
  -4.09850   6.39819   5.71269
  -5.41750   5.46089   6.49129
  -6.84070   4.30139   7.39359
  -8.10720   3.21209   8.26269
  -9.01620   2.01969   9.31779
  -9.89840   1.07809  10.56709
 -10.31950   0.17629  11.73709
 -10.59160  -0.55711  12.79949
 -10.42750  -1.29131  13.89949
 -10.00920  -1.88051  15.04869
  -9.32350  -2.39131  16.12139
  -8.24510  -2.76851  16.98819
  -7.01950  -3.05891  18.01619
  -5.60590  -3.22301  18.80949
  -4.01230  -3.37501  19.55629
  -2.13360  -3.38181  20.14359
  -0.32020  -3.47461  20.68509
   1.33210  -3.41291  20.81679
   3.09510  -3.36701  21.07259
   4.86030  -3.33481  21.03419
   6.46330  -3.36021  20.83779
   8.06400  -3.62021  20.34639
   9.76940  -3.69601  19.55439
  11.35250  -3.87631  18.93909
  12.72260  -4.04951  18.02249
  13.94170  -4.41501  17.02389
  15.24020  -4.67101  16.17659
  16.27720  -5.05471  15.10019
  17.13950  -5.45731  14.17359
  17.80090  -5.93561  13.12799
  18.29360  -6.47971  12.15809
  18.56870  -6.81941  11.13779
  18.54930  -7.32911  10.13939
  18.45020  -7.39391   9.16679
  18.29520  -7.88511   8.38209
  17.73660  -8.21181   7.58319
  17.07520  -8.23051   6.94439
  16.28020  -8.20591   6.51729
  15.29470  -8.25811   6.03559
  13.85680  -8.09041   5.71109
  12.62950  -7.65601   5.59819
  10.94030  -7.46291   5.39339
   9.34380  -7.19241   5.28209
   7.45280  -6.87631   4.84409
   5.60870  -6.28991   4.72439
   3.79600  -5.75751   4.74359
   2.08290  -5.22441   4.39359
   0.32960  -4.39931   4.23269
  -1.39380  -3.55971   3.80949
  -2.76160  -2.59171   3.52969
  -4.36740  -1.74491   3.13219
  -5.95800  -0.73761   2.55279
  -7.30220   0.27009   1.95959
  -8.63790   1.12749   1.48569
  -9.82780   2.04609   0.84249
 -11.30850   2.76369   0.06319
 -12.64570   3.55559  -0.59751
 -13.85280   4.28479  -1.47711
 -15.08290   5.28409  -2.22691
 -16.17940   6.08749  -3.04221
 -17.28840   6.64469  -3.66161
 -18.11400   7.19759  -4.20401
 -19.05130   7.75079  -4.25521
 -19.67650   8.10059  -4.47271
 -20.18290   8.41789  -4.05601
 -20.58720   8.60869  -3.45771
 -20.81070   8.73939  -2.76311
 -21.21500   8.88849  -1.88371
 -21.26900   8.92759  -0.84841
 -21.44220   9.02579   0.10579
 -21.47990   9.01219   0.98559
 -21.50400   8.86369   1.97179
 -21.48150   8.92899   3.09029
 -21.34900   8.58719   4.13499
 -21.06040   8.44639   5.29019
 -20.60520   7.99159   6.30009
 -20.01250   7.62899   7.17029
 -19.35150   7.33599   7.91969
 -18.68140   6.73119   8.61479
 -17.87270   6.23639   9.19299
 -16.98540   5.56749   9.60639
 -16.15440   5.14379   9.89369
 -15.44720   4.72349   9.93789
 -14.55680   4.20579   9.93179
 -13.64870   3.75549   9.58019
 -12.83690   2.98139   9.09879
 -11.73330   2.16699   8.28719
 -10.64400   1.36389   7.63439
  -9.86820   0.52939   6.63039
  -9.23420  -0.28401   5.45509
  -8.50580  -1.04091   4.21779
  -8.26500  -1.57111   2.94749
  -7.72490  -2.53301   1.36999
  -7.78730  -3.56091  -0.30481
  -7.51780  -4.55621  -1.79231
  -7.13100  -5.56441  -3.12591
  -7.12920  -6.65481  -4.59501
  -7.41280  -7.59711  -5.89051
  -7.71530  -8.59641  -6.87441
  -8.13100  -9.54821  -7.71001
  -8.58210 -10.24541  -8.21691
  -9.20960 -10.83141  -8.44091
  -9.66810 -11.51251  -8.73151
 -10.13620 -11.96511  -8.92911
 -10.72090 -12.35631  -8.89911
 -11.08290 -12.45171  -8.68641
 -11.67490 -12.54711  -8.26651
 -12.13150 -12.34791  -7.92111
 -12.77750 -11.98831  -7.49261
 -13.19390 -11.28221  -6.82711
 -13.40810 -10.52791  -6.05491
 -13.41250  -9.85151  -5.43461
 -13.13150  -8.84771  -4.44371
 -12.88740  -8.14701  -3.24311
 -12.44270  -6.98191  -2.10421
 -11.82410  -5.86921  -0.99661
 -11.22430  -4.81781   0.28839
 -10.50400  -3.73041   1.26379
  -9.80420  -2.69461   2.40529
  -9.25100  -1.69341   3.17639
  -8.50300  -0.76801   3.80629
  -7.53480  -0.08951   4.78049
  -6.70500   0.46649   5.35729
  -6.06980   1.00079   5.58549
  -4.93090   1.48849   5.73189
  -4.06320   1.99439   5.74639
  -2.95640   2.52569   5.86209
  -1.85490   3.01339   6.10059
  -0.70200   3.61099   6.09029
   0.77820   3.98209   6.34989
   1.89630   4.64609   6.12679
   3.23350   5.07439   6.00799
   4.32890   5.46249   6.03159
   5.23230   5.84289   6.07579
   6.11700   6.39449   5.94229
   6.91830   6.84149   5.74239
   7.48810   7.13919   5.56779
   7.99080   7.39079   5.41439
   8.40950   7.50929   5.00969
   8.78900   7.47399   4.70009
   9.00570   7.35149   4.57429
   8.96480   7.28249   4.27319
   9.11310   7.32149   4.11889
   8.93960   7.09899   3.82709
   8.78080   6.89529   3.68559
   8.88090   6.42299   3.49949
   8.87220   5.82469   3.48869
   8.76300   5.49689   3.34119
   8.72120   5.08169   2.92829
   8.50940   4.37439   2.52449
   8.43590   3.93009   2.08429
   8.20840   3.33089   1.61549
   7.88210   2.72739   1.33399
   7.76510   1.99839   0.89559
   7.50610   1.33389   0.45199
   7.06400   0.72179  -0.04531
   6.62000   0.26079  -0.52671
   6.36490  -0.25501  -1.02121
   6.27530  -0.49611  -1.48791
   6.23160  -0.96651  -2.09791
   6.22200  -1.24801  -2.37191
   6.14650  -1.36981  -2.83911
   6.06260  -1.59851  -3.25361
   6.35340  -1.54781  -3.64361
   6.32230  -1.45611  -4.05251
   6.46280  -1.35671  -4.37751
   6.99920  -1.16971  -4.47901
   7.20870  -1.11711  -4.79391
   7.78270  -0.75891  -5.10701
   8.19300  -0.70961  -5.57491
   8.66760  -0.35161  -5.97611
   8.98820  -0.34341  -6.67121
   9.47150  -0.35181  -7.29781
   9.65830  -0.47671  -8.08131
   9.74740  -0.80031  -8.87741
   9.59870  -1.04881  -9.89121
   9.30900  -1.37471 -10.81191
   8.94210  -1.60851 -11.68121
   8.31040  -1.87161 -12.45161
   7.57510  -1.93701 -13.26671
   6.92040  -2.06561 -14.13481
   6.04570  -2.15221 -14.68311
   4.94560  -2.04481 -15.28261
   3.66060  -2.06541 -15.89451
   2.40040  -2.11611 -16.33261
   1.11400  -2.09911 -16.61881
  -0.28650  -2.20641 -17.08101
  -1.56150  -2.09981 -17.23961
  -2.91080  -1.95721 -17.15961
  -4.10060  -1.86951 -17.05581
  -5.04310  -1.89501 -16.95711
  -6.06350  -1.77831 -16.43391
  -6.94330  -1.65091 -15.96041
  -7.69480  -1.57461 -15.30391
  -8.41180  -1.38361 -14.53671
  -8.89420  -1.04931 -13.83371
  -9.26170  -0.62371 -12.79881
  -9.28490  -0.17531 -12.02311
  -9.72660   0.40809 -11.16431
  -9.72070   1.10409 -10.57251
  -9.78100   1.85019 -10.06871
  -9.67000   2.43959  -9.51621
  -9.46490   2.87849  -9.43271
  -9.01390   3.29789  -9.10771
  -8.69660   3.56329  -9.08951
  -8.22460   3.87429  -9.22201
  -7.50960   3.97919  -9.60361
  -6.84810   4.12119  -9.91341
  -6.10490   4.05899 -10.17151
  -5.23530   4.05059 -10.74721
  -4.51310   4.01529 -11.09251
  -3.65710   3.81839 -11.65621
  -2.57080   3.53099 -12.25691
  -1.66790   3.27009 -12.85961
  -0.74030   2.79289 -13.64081
   0.10040   1.98879 -14.54611
   1.20050   1.36459 -15.07801
   2.07660   0.58429 -15.84001
   3.37770   0.01599 -16.50471
   4.60450  -0.41171 -16.76731
   5.92020  -1.00111 -17.22111
   7.28930  -1.42691 -17.69361
   9.17200  -1.64151 -17.76311
  10.83650  -2.00881 -17.65131
  12.40270  -2.33591 -17.35271
  13.60260  -2.76431 -17.04951
  14.78220  -3.10311 -16.26531
  16.19020  -3.49561 -15.28911
  17.16260  -3.89101 -13.98031
  17.77610  -4.08861 -12.58211
  18.26180  -4.28661 -11.32371
  18.38590  -4.46031  -9.74321
  18.12900  -4.72051  -8.21361
  17.92830  -4.94481  -6.64011
  17.40060  -5.17161  -5.17671
  16.76700  -5.26021  -3.71001
  15.87180  -5.44611  -2.19441
  14.68000  -5.69531  -1.10141
  13.27200  -5.78341  -0.08361
  11.79690  -5.80471   0.71109
  10.08520  -5.74771   1.75509
   8.69660  -5.65021   2.28039
   7.32390  -5.52931   2.75109
   5.47780  -5.68311   2.98889
   2.68990  -5.32661   3.05339
   0.74550  -5.09041   3.25029
  -0.96620  -5.15401   3.52689
  -2.36320  -5.10771   3.81909
  -3.84070  -4.70111   3.85979
  -5.46490  -4.70511   3.30469
  -6.82220  -4.62121   2.76859
  -7.92440  -4.50431   2.30729
  -8.86120  -4.66261   1.75579
  -9.74600  -4.67001   1.16049
 -10.18550  -4.65061   0.30079
 -10.33540  -4.54471  -0.64031
 -10.46160  -4.51951  -1.46191
 -10.22880  -4.61911  -2.39531
  -9.77660  -4.63381  -3.03451
  -9.10370  -4.34481  -3.56391
  -8.24580  -4.21431  -3.96391
  -7.22460  -4.00461  -4.01531
  -6.00710  -3.71031  -4.20871
  -4.51590  -3.35351  -4.10701
  -2.88020  -3.38811  -4.09271
  -1.26810  -3.01441  -3.67401
   0.51990  -3.00041  -3.33471
   2.40840  -2.79001  -2.65791
   4.26710  -2.60881  -2.02401
   6.16120  -2.48441  -0.89071
   7.86360  -2.13061  -0.01211
   9.66530  -2.07501   0.90379
  11.19700  -1.69621   2.05529
  12.28650  -1.53581   3.23759
  13.30310  -1.03481   4.50579
  14.00290  -0.71121   5.76999
  14.36560  -0.18931   7.39379
  14.49840   0.13029   9.00289
  14.31720   0.39639  10.63249
  13.82780   0.93179  12.29519
  13.21100   1.22519  13.97059
  12.27810   1.58929  15.66079
  11.28350   1.89879  17.17289
  10.11490   2.18849  19.01929
   8.91080   2.49269  20.72629
   7.59190   2.84389  22.32249
   6.07630   3.07319  24.20139
   4.65290   3.25909  25.79879
   3.21080   3.58549  27.62999
   1.85050   3.81439  29.43169
   0.37490   4.15619  31.12959
  -0.85090   4.12139  32.82539
  -2.22270   4.15969  34.11439
  -3.34520   4.41129  35.57639
  -4.33980   4.55959  36.94579
  -5.52810   4.48609  38.11769
  -6.46140   4.61259  39.24889
  -7.18830   4.64769  40.01669
  -7.98890   4.65099  40.74569
  -8.58510   4.29179  41.20329
  -9.14230   4.22219  41.35239
  -9.79250   4.08119  41.31759
 -10.11090   3.77579  41.22429
 -10.42750   3.49359  40.74729
 -10.69430   3.19789  40.15319
 -11.07980   2.74889  39.37979
 -11.17220   2.26639  38.62389
 -11.41370   1.61379  37.75319
 -11.47920   1.10739  36.55799
 -11.48690   0.62529  35.33719
 -11.70040  -0.11101  34.13009
 -11.89050  -1.03381  33.00289
 -11.96640  -1.71661  31.54699
 -11.92060  -2.43651  30.13709
 -11.81590  -3.06451  28.57319
 -11.56060  -3.78271  26.82399
 -11.46330  -4.60221  25.16259
 -11.36580  -5.15401  23.57239
 -11.27810  -5.83601  21.76629
 -11.20490  -6.42411  19.74759
 -11.17130  -6.93921  17.99189
 -11.13410  -7.40891  16.06949
 -11.16890  -7.76401  14.16799
 -11.20140  -8.10491  12.18809
 -11.40740  -8.25431   9.96479
 -11.56990  -8.47601   8.05179
 -11.64640  -8.39981   6.15089
 -11.88320  -8.20801   4.10109
 -11.94980  -7.98081   2.27829
 -12.20610  -7.75161   0.65329
 -12.40410  -7.29991  -0.88351
 -12.54370  -6.63681  -2.57811
 -12.77800  -6.08791  -4.22621
 -13.13970  -5.27231  -5.94451
 -13.32140  -4.38111  -7.55151
 -13.61950  -3.50641  -9.12151
 -13.99010  -2.36211 -10.76561
 -14.51590  -1.41661 -12.21991
 -14.92580  -0.43441 -13.89261
 -15.48830   0.36879 -15.34101
 -16.03330   1.23479 -16.45891
 -16.65340   1.96029 -17.79671
 -17.22780   2.83079 -18.66071
 -17.65270   3.43279 -19.41211
 -18.12450   4.06599 -20.06701
 -18.72120   4.49689 -20.34501
 -19.23840   4.96589 -20.73971
 -19.48760   5.60279 -20.73221
 -19.78900   5.78889 -20.80261
 -19.80770   6.18969 -20.87021
 -19.73190   6.36319 -20.71751
 -19.35670   6.66779 -20.57461
 -18.94560   6.88429 -20.47081
 -18.46680   7.13869 -20.44161
 -17.44830   7.16159 -20.23471
 -16.63300   7.17309 -20.22901
 -15.58460   7.14879 -20.13131
 -14.45740   7.04489 -19.94471
 -13.10300   6.70049 -19.96251
 -11.43430   6.33809 -20.01861
  -9.92740   6.06149 -20.30781
  -8.17150   5.44689 -20.70841
  -6.18370   4.73729 -21.18631
  -4.34330   4.25609 -21.81291
  -2.01690   3.64859 -22.36071
   0.36630   3.01219 -23.06941
   2.64380   2.42819 -23.43601
   4.96740   1.69239 -24.14701
   7.20890   1.15929 -24.61671
   8.94870   0.51889 -25.06611
  10.77570   0.20879 -25.26861
  12.78360  -0.23351 -25.28191
  14.88790  -0.55971 -25.52061
  16.55240  -0.67781 -25.69251
  17.39900  -0.60181 -26.02351
  18.29120  -0.71351 -26.29551
  18.98470  -0.77971 -26.19421
  19.42260  -0.69161 -26.53701
  19.67300  -0.59151 -26.60831
  19.87250  -0.52061 -26.85801
  20.07680  -0.55291 -27.07591
  20.06070  -0.47711 -27.13551
  19.77780  -0.48811 -27.28541
  19.37750  -0.62471 -27.22881
  18.91270  -0.52771 -27.30551
  18.53550  -0.65691 -27.37631
  17.95570  -0.71331 -27.11311
  17.69620  -0.77881 -26.82811
  17.36280  -0.86011 -26.59011
  17.04990  -1.00201 -26.44351
  16.85490  -1.03781 -25.97631
  16.70530  -1.20341 -25.25731
  16.61760  -1.33481 -24.26971
  16.69130  -1.34291 -23.11471
  16.57020  -1.39811 -21.69991
  16.36140  -1.60011 -19.95011
  16.53840  -1.76431 -18.18861
  16.50400  -1.72661 -16.28001
  16.57040  -1.79021 -14.52551
  16.71580  -1.86991 -12.66791
  16.99450  -1.90971 -10.75631
  16.58420  -1.99971  -8.89381
  15.95430  -1.91721  -7.09111
  15.50120  -1.81171  -5.17551
  15.39200  -2.16571  -3.13581
  15.33610  -2.09461  -0.65621
  15.19630  -1.84841   1.55159
  14.45540  -1.59481   3.57709
  13.79980  -1.43901   5.56989
  13.12170  -1.24991   7.24159
  12.49530  -1.09491   9.20019
  11.60410  -1.01371  10.52919
  10.64120  -0.60391  11.71389
   9.42680  -0.01401  13.13759
   8.31020   0.16719  14.19529
   7.17570   0.47419  15.38379
   5.84230   0.96899  16.40339
   4.79460   1.45059  17.22829
   3.57130   1.88809  18.32879
   2.55190   2.48749  18.98109
   1.57530   3.02459  19.49249
   0.47360   3.47889  20.20789
  -0.34240   3.96189  20.65219
  -1.38680   4.24349  21.04709
  -2.17850   4.54879  21.63389
  -2.99170   4.99159  22.22879
  -3.91870   5.38909  22.69959
  -4.51430   5.66339  23.18569
  -5.21780   5.90959  23.76209
  -5.58790   6.15319  24.20139
  -6.12540   6.18969  24.82169
  -6.41610   6.33459  25.29229
  -6.52660   6.28229  25.67809
  -6.75860   5.98739  26.20019
  -6.95990   5.78749  26.60119
  -7.27390   5.50649  27.18219
  -7.20910   5.20369  27.82099
  -7.27970   4.81579  28.19629
  -7.44930   4.53549  28.41929
  -7.33280   4.03999  28.51029
  -7.34100   3.55019  28.49509
  -7.11230   2.97779  28.59159
  -7.15720   2.23549  28.63459
  -6.92860   1.84339  28.72139
