********************************************************************************
              CENTRO DE INSTRUMENTACION Y REGISTRO SISMICO  A.C.

    Anaxagoras 814, Col. Narvarte, Benito Juarez, C.P. 03020 Mexico, D.F.
           Tels. 5687 45 42/ 5687 45  82             Fax. 5669 25 12
********************************************************************************
ARCHIVO ESTANDAR DE ACELERACION:
VERSION DEL FORMATO                    : 2.0
NOMBRE DEL ARCHIVO                     : CE2320210908014746
FECHA Y HORA DE CREACION               : 08/SEP/21, 02:00
REF. CATALOGO ACELEROGRAMAS, SMIS 1996 : REGISTRO No.     /PAG.


================================================================================
DATOS DE LA ESTACION:
NOMBRE DE LA ESTACION                  : CETIS ARAGÓN
CLAVE DE LA ESTACION                   : CE23
LOCALIZACION DE LA ESTACION            : Del. Gustavo A. Madero, Col. U. Hab.   
                                       : San Juan de Aragón 5ta. Secc.,         
                                       : Av. 412 entre Av. Taxímetros           
                                       : y Av. 608.                             
                                       : 
COORDENADAS DE LA ESTACION             : 19.4619 LAT. N
                                       : 99.0642 LONG. W
ALTITUD (msnm)                         : 2233
TIPO DE SUELO                          : Terreno blando, material compresible
                                       : (arcillas)                
                                       : 
INSTITUCION RESPONSABLE                : CIRES, A. C.
                                       : 

================================================================================
DATOS DEL ACELEROGRAFO:
MODELO DEL ACELEROGRAFO                : RAD_IO14
NUMERO DE SERIE DEL ACELEROGRAFO       : 
NUMERO DE CANALES                      : 3
ORIENTACION C1-C6 (rumbo;orientacion)  : /S00E/+V/N90W
ORIENTACION C7-C12 (rumbo;orientacion) : 
VEL. DE MUESTREO, C1-C6 (muestras/s)   : /100/100/100
VEL. DE MUESTREO, C7-C12 (muestras/s)  : 
ESC. COMPLETA DE SENSORES, C1-C6, (g)  : /2.0/2.0/2.0
ESC. COMPLETA DE SENSORES, C7-C12, (g) : 
FREC. NAT. DE SENSORES, C1-C6, (Hz)    : /52.03/55.02/51.46
FREC. NAT. DE SENSORES, C7-C12, (Hz)   : 
AMORTIGUAMIENTO DE SENSORES, C1-C6     : /0.6067/0.6082/0.5956
AMORTIGUAMIENTO DE SENSORES, C7-C12    : 
INTERVALO DE MUESTREO, C1-C6, (s)      : /0.01/0.01/0.01
INTERVALO DE MUESTREO, C7-C12, (s)     : 
UMBRAL DE DISPARO, C1-C6, (Gal)        : / / /
UMBRAL DE DISPARO, C7-C12, (Gal)       : 
MEMORIA DE PREEVENTO (s)               : 60
TIEMPO DE POSEVENTO (s)                : 90


================================================================================
DATOS DEL SISMO:
FECHA DEL SISMO (GMT)                  : 08/SEP/21
HORA EPICENTRO (GMT)                   : 01:47:46.0
MAGNITUD(ES)                           : /Mc=7.1
COORDENADAS DEL EPICENTRO              : 16.78 LAT. N
                                       : 99.93 LONG. W
PROFUNDIDAD FOCAL (km)                 : 10
FUENTE DE LOS DATOS EPICENTRALES       : SSN
                                       : INSTITUTO DE GEOFISICA, UNAM

================================================================================
DATOS DE ESTE REGISTRO:
HORA DE LA PRIMERA MUESTRA (GMT)       : 20:54:01.00
EXACTITUD DEL TIEMPO (s)               : 
DURACION DEL REGISTRO (s), C1-C6       : /657.4/657.4/657.4
DURACION DEL REGISTRO (s), C7-C12      : 
NUM. TOTAL DE MUESTRAS, C1-C6          : /65740/65740/65740
NUM. TOTAL DE MUESTRAS, C7-C12         : 
ACEL. MAX. (Gal), C1-C6                : /19.55725/9.39585/20.64998
ACEL. MAX., C1-C6, EN LA MUESTRA       : /15724/14163/18615
ACEL. MAX. (Gal), C7-C12               : 
ACEL. MAX., C7-C12, EN LA MUESTRA      : 
UNIDADES DE LOS DATOS                  : Gal (cm/s/s)
FACTOR DE DECIMACION                   : 1
FORMATO DATOS (FORTRAN,10 campos/dato) : 3F10.5


================================================================================
CALIDAD DEL ACELEROGRAMA:
REGISTRO DIGITAL COMPLETO CON TIEMPO ABSOLUTO CORRECTO.


================================================================================
COMENTARIOS:














================================================================================
DATOS DE ACELERACION:
---------+---------+---------+---------+---------+---------+---------+---------+
   CANAL-1   CANAL-2   CANAL-3   CANAL-4   CANAL-5   CANAL-6   CANAL-7   CANAL-8
      N00E        +V      N90W
---------+---------+---------+---------+---------+---------+---------+---------+
[...]
  -9.65505  -0.65815  -6.12908
  -9.69485  -0.56505  -6.27688
  -9.54515  -0.58355  -6.27568
  -9.48465  -0.53535  -6.32988
  -9.55385  -0.37075  -6.18408
  -9.59265  -0.26695  -6.39118
  -9.59245  -0.32935  -6.20738
  -9.41685  -0.15635  -6.41968
  -9.33925  -0.01585  -6.09818
  -9.46825   0.05875  -6.18328
  -9.43105   0.19175  -6.18728
  -9.30435   0.39985  -6.16018
  -9.20005   0.43395  -6.04208
  -9.13675   0.45245  -5.91908
  -9.05375   0.57985  -6.01148
  -9.08995   0.61775  -5.89618
  -8.78995   0.86675  -5.80248
  -8.62845   0.86115  -5.80878
  -8.61155   0.90835  -5.81768
  -8.70935   1.15765  -5.56768
  -8.38455   1.23715  -5.68928
  -8.12505   1.49035  -5.60188
  -8.23375   1.63065  -5.46768
  -8.13645   1.75315  -5.61428
  -7.92465   1.81485  -5.43748
  -7.92165   1.96735  -5.36848
  -7.69135   2.07345  -5.26398
  -7.72925   2.12255  -5.16888
  -7.50475   2.10855  -5.25018
  -7.32335   2.11745  -5.08468
  -7.08645   2.35685  -5.22868
  -6.78505   2.29135  -5.19268
  -6.72055   2.46225  -5.25258
  -6.50805   2.53545  -5.07838
  -6.36255   2.52095  -5.07668
  -6.25925   2.53265  -5.15408
  -6.06965   2.54385  -5.21088
  -5.97545   2.55795  -5.13028
  -5.85215   2.74985  -5.20138
  -5.49725   2.72555  -5.30168
  -5.36185   2.57915  -5.29908
  -5.29015   2.56865  -5.31568
  -5.11825   2.65025  -5.25768
  -4.99245   2.59185  -5.15968
  -5.03385   2.52165  -5.21348
  -4.77195   2.57035  -5.14728
  -4.63985   2.46205  -5.02618
  -4.47695   2.68555  -5.17888
  -4.24315   2.38625  -5.17628
  -4.22045   2.50465  -5.06998
  -4.05605   2.54925  -5.06738
  -3.71045   2.33695  -4.96358
  -3.58025   2.41225  -4.92568
  -3.39555   2.38025  -4.92658
  -3.36025   2.32665  -4.81928
  -3.03195   2.47445  -4.75168
  -2.86925   2.33485  -4.71758
  -2.67965   2.34725  -4.61748
  -2.40775   2.43915  -4.33178
  -2.17695   2.29655  -4.54008
  -1.87395   2.36895  -4.32758
  -1.76055   2.39615  -4.31688
  -1.57325   2.30895  -4.37038
  -1.30925   2.17915  -4.35148
  -0.96095   2.22405  -4.11758
  -0.86975   2.18845  -4.04398
  -0.63875   2.23315  -4.17138
  -0.32075   2.10105  -4.03068
   0.01855   2.10475  -3.97568
   0.30025   2.17685  -3.85668
   0.46815   2.03655  -3.84808
   0.71195   1.96945  -3.86348
   0.98995   1.96245  -3.69838
   1.28205   2.03865  -3.66128
   1.50975   1.82935  -3.62358
   1.60705   1.67575  -3.51978
   2.04375   1.62785  -3.35918
   2.07045   1.65405  -3.50268
   2.45125   1.48195  -3.40638
   2.61805   1.39725  -3.33628
   2.84055   1.31875  -3.22358
   3.26795   1.26475  -3.22048
   3.46625   1.09165  -3.06738
   3.58245   1.16955  -2.99488
   4.02975   1.03375  -2.80928
   4.06765   0.76835  -2.92218
   4.39985   0.80065  -2.69798
   4.77585   0.70945  -2.64438
   4.73745   0.46555  -2.56538
   5.00985   0.24225  -2.43098
   5.31385   0.27875  -2.40268
   5.34305   0.12915  -2.35918
   5.57915   0.07815  -2.37478
   6.00965  -0.03455  -2.39678
   6.13495  -0.18135  -2.19528
   6.55275  -0.24105  -2.13168
   6.78895  -0.35675  -2.26118
   6.88315  -0.50915  -1.78768
   7.15645  -0.62495  -1.69798
   7.39655  -0.69625  -1.61588
   7.63155  -0.87725  -1.33348
   7.80085  -1.14045  -1.28078
   8.14335  -1.18555  -1.18478
   8.56255  -1.23495  -0.96498
   8.73655  -1.41355  -0.67548
   8.85015  -1.42825  -0.39558
   9.14195  -1.62515  -0.49948
   9.39545  -1.67755  -0.15878
   9.61515  -1.65855   0.01382
  10.05405  -1.83515   0.20062
  10.27435  -2.04765   0.41872
  10.47845  -2.04785   0.62872
  10.82585  -2.18165   0.91602
  11.06105  -2.20215   0.99792
  11.26795  -2.32145   1.34552
  11.51585  -2.51035   1.54152
  11.83125  -2.50385   1.60272
  12.02435  -2.49985   1.94102
  12.29135  -2.53255   2.10142
  12.41295  -2.66145   2.39352
  12.68485  -2.70935   2.62242
  12.97475  -2.70555   2.98662
  13.09265  -2.80545   3.23452
  13.27645  -2.82535   3.40892
  13.43895  -2.85565   3.77272
  13.53505  -2.83485   4.20552
  13.77165  -2.99205   4.33172
  13.88925  -2.86975   4.97772
  13.99915  -2.91835   5.15242
  14.06155  -2.85335   5.35532
  14.46115  -2.96165   5.81362
  14.31075  -2.88885   5.96022
  14.45135  -2.80915   6.36962
  14.49615  -2.76665   6.65092
  14.43845  -2.76775   7.04162
  14.61235  -2.71425   7.35892
  14.66075  -2.66465   7.59592
  14.65615  -2.82205   8.05332
  14.53075  -2.57555   8.32032
  14.73795  -2.52115   8.62212
  14.68905  -2.63145   8.89972
  14.62475  -2.67515   9.51602
  14.58105  -2.61905   9.77852
  14.61755  -2.59855   9.83962
  14.41455  -2.37915  10.10752
  14.39165  -2.40355  10.37552
  14.28855  -2.31515  10.69482
  14.07065  -2.46945  11.11592
  14.08495  -2.34365  11.27592
  13.77795  -2.31025  11.45052
  13.62295  -2.29175  11.73932
  13.60425  -2.16895  11.95462
  13.30965  -2.07055  12.18512
  12.97195  -2.00655  12.57612
  12.90025  -2.01565  12.70862
  12.73865  -1.98035  13.02052
  12.27545  -2.00725  13.14732
  12.19945  -1.90835  13.59802
  11.93575  -1.79775  13.84382
  11.59765  -1.88165  13.88052
  11.22075  -1.93305  14.22042
  11.09965  -1.92375  14.49312
  10.81625  -1.83445  14.57772
  10.31685  -1.67095  14.91512
  10.07445  -1.81265  15.27372
   9.83075  -1.76125  15.44912
   9.41345  -1.64575  15.84172
   9.32435  -1.64505  15.97562
   8.85645  -1.66535  16.42952
   8.36735  -1.70255  16.53962
   8.02035  -1.56465  16.73042
   7.81235  -1.41545  16.97262
   7.51845  -1.58405  17.17302
   7.15015  -1.45685  17.37482
   6.84875  -1.37525  17.62102
   6.49155  -1.38035  17.76522
   6.10035  -1.56085  17.98432
   5.80385  -1.40705  17.95762
   5.49965  -1.40095  18.11712
   5.11065  -1.48885  18.47132
   4.71555  -1.48375  18.51342
   4.40075  -1.51055  18.54682
   4.05005  -1.49585  18.70682
   3.68905  -1.36685  18.88092
   3.30545  -1.33035  18.87742
   3.01475  -1.29085  19.07502
   2.43305  -1.41635  19.15872
   1.99425  -1.45195  19.12722
   1.83075  -1.42855  19.30132
   1.44705  -1.27815  19.34742
   0.99205  -1.30715  19.48702
   0.60305  -1.33175  19.46382
   0.22895  -1.33965  19.33552
  -0.05115  -1.35975  19.46782
  -0.51265  -1.33475  19.43092
  -0.95805  -1.12505  19.42882
  -1.32685  -1.15875  19.33292
  -1.90435  -1.09625  19.33802
  -2.19125  -1.05705  19.38902
  -2.47135  -1.00605  19.32192
  -3.22675  -0.79605  19.11102
  -3.34245  -0.66535  19.14912
  -3.66795  -0.79565  19.00512
  -4.30225  -0.68685  18.84002
  -4.58195  -0.54445  18.64222
  -5.04205  -0.44765  18.53212
  -5.48485  -0.29505  18.41872
  -5.79515  -0.27095  18.11622
  -6.15265  -0.26555  18.03132
  -6.41985   0.01825  17.95022
  -6.84255   0.20645  17.74022
  -7.15145   0.22705  17.54172
  -7.40585   0.39825  17.40302
  -7.53135   0.66175  17.16852
  -7.74585   0.55325  17.06362
  -8.21665   0.75505  16.69902
  -8.27745   0.86235  16.46432
  -8.49845   1.12885  16.30442
  -8.71915   1.16885  15.83262
  -9.02915   1.26635  15.72202
  -9.02635   1.43465  15.35212
  -9.12295   1.42835  15.09822
  -9.39085   1.39025  14.80542
  -9.38195   1.51935  14.59132
  -9.51855   1.73495  14.20972
  -9.73175   1.76245  13.78742
 -10.01145   1.87405  13.56862
 -10.02125   2.03725  13.31772
  -9.92745   2.10995  12.69412
 -10.04465   2.12565  12.41542
 -10.00555   2.38165  12.15502
 -10.10825   2.48425  11.62382
 -10.26435   2.51935  11.34532
 -10.20785   2.57875  10.88402
 -10.12155   2.78445  10.37192
 -10.14145   2.77695  10.09632
 -10.15125   2.91685   9.78932
 -10.18415   3.08535   9.48702
 -10.21135   3.13305   8.98992
 -10.18885   3.36335   8.74772
 -10.20405   3.58295   8.45782
 -10.14235   3.49525   8.08412
 -10.17535   3.80275   7.92682
 -10.07105   3.76925   7.49452
  -9.94645   3.88755   7.19892
  -9.99365   3.89315   6.89642
  -9.88745   4.04865   6.54122
  -9.86455   4.11275   6.36662
  -9.76355   4.14505   5.86462
  -9.67845   4.35055   5.76542
  -9.49795   4.30425   5.38812
  -9.56715   4.32975   5.14052
  -9.58615   4.36545   4.92632
  -9.35745   4.42375   4.48162
  -9.22725   4.42535   4.27352
  -9.05135   4.35945   4.10262
  -8.89285   4.38795   3.73532
  -8.80935   4.21635   3.59922
  -8.74555   4.30285   3.23772
  -8.54825   4.29745   2.95762
  -8.22235   4.18965   2.76572
  -8.13505   4.20575   2.51152
  -7.82315   4.07975   2.37172
  -7.54945   4.13865   2.07452
  -7.40395   4.06035   1.70862
  -7.27845   4.04565   1.60652
  -7.02945   3.80645   1.37342
  -6.89125   3.81155   1.00002
  -6.71895   3.76135   0.84842
  -6.42245   3.76995   0.65562
  -6.31535   3.57615   0.27472
  -5.98755   3.61985   0.01732
  -5.59785   3.53315  -0.39538
  -5.51595   3.34635  -0.57638
  -5.40985   3.22945  -1.01918
  -5.16505   3.25115  -1.20718
  -5.08735   3.06875  -1.52538
  -4.76685   2.92145  -1.94698
  -4.63895   2.88715  -2.15948
  -4.50175   2.62895  -2.74468
  -4.38035   2.48495  -3.14658
  -4.17325   2.31565  -3.31288
  -3.94965   2.27075  -3.72948
  -3.78645   2.08865  -4.16388
  -3.68995   2.02715  -4.54968
  -3.63805   1.91145  -4.85718
  -3.47765   1.60885  -5.49338
  -3.28705   1.64135  -5.82628
  -3.30465   1.53925  -6.28248
  -3.14635   1.36545  -6.81648
  -3.10255   1.23665  -6.98298
  -3.14425   1.03325  -7.53148
  -2.99105   0.92845  -7.92238
  -2.83695   0.84995  -8.43098
  -2.68575   0.73235  -9.02198
  -2.56015   0.37275  -9.41408
  -2.43535   0.19785  -9.90978
  -2.47525   0.21005 -10.32458
  -2.24405   0.16115 -10.75148
  -2.14215  -0.05045 -11.32528
  -2.28305  -0.18325 -11.69238
  -2.08765  -0.19825 -12.13518
  -1.95295  -0.37335 -12.53828
  -1.91115  -0.44915 -12.90278
  -1.67095  -0.61415 -13.32918
  -1.58305  -0.67775 -13.77748
  -1.46665  -0.77365 -14.36408
  -1.32615  -0.88815 -14.76598
  -1.28755  -1.02565 -15.11338
  -0.88515  -1.11495 -15.44968
  -0.76475  -1.13275 -15.80858
  -0.51365  -1.20685 -16.13888
  -0.30925  -1.21065 -16.52068
  -0.35835  -1.31555 -16.82208
   0.00375  -1.59575 -17.19108
   0.19925  -1.61015 -17.50828
   0.41715  -1.68595 -17.83868
   0.60235  -1.92845 -18.11158
   0.63675  -1.95105 -18.40408
   0.98415  -2.06515 -18.73468
   1.15435  -2.06615 -19.05868
   1.15365  -2.24315 -19.05548
   1.31845  -2.22045 -19.44188
   1.35025  -2.19965 -19.68998
   1.77535  -2.34835 -19.77228
   1.83215  -2.44255 -20.06218
   2.04915  -2.54495 -20.09448
   2.10335  -2.61415 -20.09538
   2.36245  -2.53355 -20.24548
   2.49335  -2.67165 -20.41788
   2.84525  -2.82605 -20.48708
   3.03275  -2.90385 -20.61588
   3.15295  -2.91815 -20.44848
   3.30615  -3.11195 -20.64998
   3.36575  -3.03015 -20.59598
   3.55395  -3.09415 -20.51998
   3.74805  -3.28755 -20.42978
   3.89485  -3.23165 -20.22328
   4.06555  -3.30115 -20.32148
   4.31845  -3.23445 -20.23778
   4.43045  -3.36935 -20.17818
   4.69775  -3.47555 -20.07248
   4.94675  -3.51505 -19.98458
   5.11325  -3.55785 -19.87098
   5.26075  -3.41425 -19.61778
   5.33745  -3.65435 -19.48848
   5.57615  -3.57625 -19.39138
   5.66925  -3.66935 -19.16858
   5.69655  -3.61975 -19.01708
   5.90045  -3.67775 -18.76528
   5.88435  -3.66705 -18.66798
   6.16345  -3.57065 -18.36458
   6.13475  -3.58515 -18.27688
   6.28065  -3.61695 -18.12018
   6.29325  -3.66115 -18.02968
   6.35315  -3.52435 -17.53148
   6.32385  -3.62845 -17.42558
   6.38675  -3.53535 -17.35748
   6.45085  -3.53775 -17.17328
   6.53545  -3.36215 -16.86628
   6.49475  -3.33805 -16.53938
   6.67645  -3.39325 -16.33248
   6.66285  -3.24035 -16.05968
   6.60775  -3.23965 -15.85338
   6.58975  -3.11685 -15.63508
   6.65705  -3.08385 -15.47538
   6.61075  -2.90525 -15.18728
   6.57545  -2.90805 -14.84498
   6.71805  -2.68475 -14.74938
   6.69655  -2.68945 -14.41078
   6.79805  -2.41335 -14.06288
   6.73935  -2.38485 -13.90578
   6.69465  -2.34365 -13.66588
   6.79665  -2.20545 -13.44288
   6.77395  -2.20805 -13.13118
   6.58125  -2.04535 -13.13238
   6.74945  -1.93165 -12.59528
   6.52195  -1.97795 -12.60508
   6.43775  -1.91715 -12.26988
   6.51375  -1.75955 -11.96938
   6.36125  -1.70655 -11.87958
   6.36175  -1.46875 -11.59128
   6.31775  -1.50405 -11.49218
   6.08445  -1.42455 -11.21508
   6.00775  -1.33965 -11.17468
   6.20885  -1.27515 -10.89828
   5.82795  -1.14675 -10.74678
   5.64025  -1.12505 -10.57638
   5.72695  -1.10445 -10.31028
   5.49315  -0.94245 -10.16158
   5.39655  -0.96395 -10.05168
   5.37505  -0.81595  -9.68718
   5.22385  -0.90335  -9.52188
   5.24115  -0.74835  -9.51508
   4.95375  -0.70655  -9.28148
   4.86515  -0.64695  -9.21418
   4.73565  -0.42805  -8.77748
   4.58925  -0.38785  -8.67388
   4.36925  -0.34925  -8.37578
   4.23975  -0.12275  -8.25888
   4.21605  -0.04045  -7.87308
   3.79055  -0.06125  -7.85228
   4.00965   0.15805  -7.70868
   3.70245   0.10125  -7.40968
   3.64555   0.33365  -7.27988
   3.48375   0.40335  -7.15648
   3.32435   0.45765  -6.92918
   3.22615   0.84875  -6.55108
   2.90885   0.77955  -6.43748
   2.81465   0.97995  -6.21228
   2.63415   1.00585  -5.85128
   2.25515   1.11715  -5.52868
   2.30775   1.31915  -5.30488
   2.08075   1.30075  -4.86838
   1.94135   1.37155  -4.83818
   1.72605   1.46065  -4.59858
   1.58015   1.59395  -4.04868
   1.49335   1.45155  -3.96168
   1.13425   1.57315  -3.83798
   1.09915   1.57985  -3.36848
   0.83915   1.66265  -3.13168
   0.74355   1.71265  -2.80268
   0.57965   1.62785  -2.48918
   0.27385   1.71735  -2.15438
   0.18055   1.57565  -1.63408
   0.07605   1.75875  -1.55138
  -0.04605   1.64395  -1.27498
  -0.43415   1.77305  -0.88828
  -0.66775   1.76955  -0.64038
  -0.77435   1.83055  -0.34978
  -0.96345   1.83405   0.13072
  -1.01585   1.79685   0.30442
  -1.03825   1.69025   0.61862
  -1.27705   1.77905   0.84242
  -1.51365   1.60515   1.07412
  -1.66725   1.66685   1.34162
  -2.08595   1.73845   1.54892
  -2.18935   1.64255   1.75492
  -2.34105   1.65425   1.80262
  -2.60295   1.70385   2.14422
  -2.54875   1.60025   2.28522
  -2.97615   1.50205   2.43932
  -3.06825   1.71855   2.64882
  -3.25365   1.62855   2.66752
  -3.44345   1.73515   3.03992
  -3.60315   1.67875   3.19922
  -3.93565   1.78215   3.29952
  -4.01075   1.70105   3.48792
  -4.22305   1.63035   3.68572
  -4.45615   1.71575   3.74282
  -4.65015   1.65685   4.08792
  -4.72145   1.71315   4.24662
  -4.95695   1.53455   4.41052
  -5.21645   1.60675   4.51272
  -5.25315   1.52775   4.64062
  -5.32025   1.40665   4.73862
  -5.47625   1.41205   4.83682
  -5.48085   1.42095   5.08092
  -5.60315   1.36785   5.10732
  -5.72005   1.37435   5.25742
  -5.93445   1.25655   5.32572
  -5.88355   1.37535   5.39512
  -5.96375   1.21325   5.57582
  -6.12435   1.18265   5.64342
  -6.25175   1.16045   5.79752
  -6.18605   0.96775   5.87112
  -6.22115   0.91215   5.90572
  -6.32635   0.91825   5.93332
  -6.51035   0.93155   5.97772
  -6.44975   0.94765   6.04392
  -6.55645   0.85785   6.37012
  -6.74535   0.77485   6.35932
  -6.70905   0.85155   6.35702
  -6.92815   0.58365   6.47082
  -6.73455   0.65375   6.57752
  -6.89945   0.68675   6.61182
  -6.93195   0.59975   6.69412
