********************************************************************************
              CENTRO DE INSTRUMENTACION Y REGISTRO SISMICO  A.C.

    Anaxagoras 814, Col. Narvarte, Benito Juarez, C.P. 03020 Mexico, D.F.
           Tels. 5687 45 42/ 5687 45  82             Fax. 5669 25 12
********************************************************************************
ARCHIVO ESTANDAR DE ACELERACION:
VERSION DEL FORMATO                    : 2.0
NOMBRE DEL ARCHIVO                     : CO4720210908014746
FECHA Y HORA DE CREACION               : 07/SEP/21, 23:16
REF. CATALOGO ACELEROGRAMAS, SMIS 1996 : REGISTRO No.     /PAG.


================================================================================
DATOS DE LA ESTACION:
NOMBRE DE LA ESTACION                  : COYOACÁN
CLAVE DE LA ESTACION                   : CO47
LOCALIZACION DE LA ESTACION            : Del. Benito Juárez, Col. del Valle,    
                                       : Av. Coyoacán entre Av. Félix Cuevas    
                                       : y calle San Lorenzo.                   
                                       :                                        
                                       : 
COORDENADAS DE LA ESTACION             : 19.3714 LAT. N
                                       : 99.1703 LONG. W
ALTITUD (msnm)                         : 2247
TIPO DE SUELO                          : Terreno estratificado               
                                       : (arcillas, limos, arenas) 
                                       : 
INSTITUCION RESPONSABLE                : CIRES, A. C.
                                       : 

================================================================================
DATOS DEL ACELEROGRAFO:
MODELO DEL ACELEROGRAFO                : RAD_IO14
NUMERO DE SERIE DEL ACELEROGRAFO       : 
NUMERO DE CANALES                      : 3
ORIENTACION C1-C6 (rumbo;orientacion)  : /S00E/+V/N90W
ORIENTACION C7-C12 (rumbo;orientacion) : 
VEL. DE MUESTREO, C1-C6 (muestras/s)   : /100/100/100
VEL. DE MUESTREO, C7-C12 (muestras/s)  : 
ESC. COMPLETA DE SENSORES, C1-C6, (g)  : /2.0/2.0/2.0
ESC. COMPLETA DE SENSORES, C7-C12, (g) : 
FREC. NAT. DE SENSORES, C1-C6, (Hz)    : /53.07/51.93/52.78
FREC. NAT. DE SENSORES, C7-C12, (Hz)   : 
AMORTIGUAMIENTO DE SENSORES, C1-C6     : /0.5715/0.5589/0.5715
AMORTIGUAMIENTO DE SENSORES, C7-C12    : 
INTERVALO DE MUESTREO, C1-C6, (s)      : /0.01/0.01/0.01
INTERVALO DE MUESTREO, C7-C12, (s)     : 
UMBRAL DE DISPARO, C1-C6, (Gal)        : / / /
UMBRAL DE DISPARO, C7-C12, (Gal)       : 
MEMORIA DE PREEVENTO (s)               : 60
TIEMPO DE POSEVENTO (s)                : 90


================================================================================
DATOS DEL SISMO:
FECHA DEL SISMO (GMT)                  : 08/SEP/21
HORA EPICENTRO (GMT)                   : 01:47:46.0
MAGNITUD(ES)                           : /Mc=7.1
COORDENADAS DEL EPICENTRO              : 16.78 LAT. N
                                       : 99.93 LONG. W
PROFUNDIDAD FOCAL (km)                 : 10
FUENTE DE LOS DATOS EPICENTRALES       : SSN
                                       : INSTITUTO DE GEOFISICA, UNAM

================================================================================
DATOS DE ESTE REGISTRO:
HORA DE LA PRIMERA MUESTRA (GMT)       : 20:54:01.00
EXACTITUD DEL TIEMPO (s)               : 
DURACION DEL REGISTRO (s), C1-C6       : /657.21/657.21/657.21
DURACION DEL REGISTRO (s), C7-C12      : 
NUM. TOTAL DE MUESTRAS, C1-C6          : /65721/65721/65721
NUM. TOTAL DE MUESTRAS, C7-C12         : 
ACEL. MAX. (Gal), C1-C6                : /22.77542/4.96668/13.57759
ACEL. MAX., C1-C6, EN LA MUESTRA       : /13337/12925/13078
ACEL. MAX. (Gal), C7-C12               : 
ACEL. MAX., C7-C12, EN LA MUESTRA      : 
UNIDADES DE LOS DATOS                  : Gal (cm/s/s)
FACTOR DE DECIMACION                   : 1
FORMATO DATOS (FORTRAN,10 campos/dato) : 3F10.5


================================================================================
CALIDAD DEL ACELEROGRAMA:
REGISTRO DIGITAL COMPLETO CON TIEMPO ABSOLUTO CORRECTO.


================================================================================
COMENTARIOS:














================================================================================
DATOS DE ACELERACION:
---------+---------+---------+---------+---------+---------+---------+---------+
   CANAL-1   CANAL-2   CANAL-3   CANAL-4   CANAL-5   CANAL-6   CANAL-7   CANAL-8
      N00E        +V      N90W
---------+---------+---------+---------+---------+---------+---------+---------+
[...]
 -20.64792   0.67608   2.33069
 -19.86892   1.04458   1.44849
 -18.74472   1.43788   0.68719
 -17.51822   1.91578  -0.59661
 -16.24792   2.40718  -1.36941
 -14.94442   2.86898  -2.51101
 -13.60682   3.00088  -3.56951
 -12.35682   3.17228  -4.45261
 -10.85232   3.22648  -5.05251
  -9.14992   2.91898  -5.28611
  -7.66482   2.52268  -5.16011
  -6.10572   1.94428  -4.85961
  -4.60682   1.44318  -4.57881
  -3.32412   1.10838  -4.23511
  -1.83942   0.48598  -3.62051
  -0.46512   0.43228  -2.91341
   0.86598   0.34108  -2.47831
   2.10978   0.13088  -1.95851
   3.59288   0.24288  -1.41141
   4.80938  -0.06902  -1.05181
   6.10818   0.15448  -0.43551
   7.15428   0.09418   0.13569
   8.25828  -0.02742   0.41089
   9.11218   0.02918   0.57659
   9.50048   0.08008   0.28649
   9.70718   0.07238   0.01879
   9.69038   0.14468  -0.24571
   9.50918   0.08148  -0.65271
   9.18368  -0.08612  -1.27281
   8.55938  -0.23502  -1.68691
   7.57488  -0.55092  -1.74511
   6.63658  -0.75182  -1.99811
   5.05678  -0.90892  -2.03971
   3.65478  -0.81162  -2.26671
   1.88578  -0.75222  -2.51761
   0.24778  -0.61222  -2.48131
  -1.34772  -0.51162  -2.49351
  -2.87172  -0.19082  -2.29871
  -4.37532   0.39688  -1.85451
  -5.77142   0.75418  -1.66111
  -6.93412   1.04058  -1.29291
  -8.12722   1.34108  -0.67521
  -9.10252   1.55028  -0.12951
 -10.11112   1.75208   0.49779
 -11.35102   1.61418   0.78219
 -12.47802   1.18558   0.71219
 -13.48612   0.77708   0.42189
 -14.54762   0.16008   0.10529
 -15.15322  -0.58482  -0.41591
 -15.35452  -1.04992  -0.86851
 -15.35152  -1.44172  -1.37101
 -14.96102  -1.85792  -1.80491
 -14.08382  -1.98162  -2.32001
 -13.06552  -2.07142  -2.76921
 -11.72882  -1.78992  -3.21921
 -10.46982  -1.34122  -3.79701
  -9.08172  -0.66342  -4.47321
  -7.80762  -0.19692  -4.92821
  -6.97532   0.36438  -5.37871
  -6.02042   0.64378  -5.76401
  -5.37062   0.82288  -6.07551
  -4.66432   0.67938  -5.91791
  -3.86772   0.23508  -5.07291
  -2.95212  -0.21402  -4.10661
  -2.16302  -0.92452  -2.48881
  -0.99982  -1.69262  -0.70371
   0.24168  -2.47662   1.45859
   1.77218  -2.84362   3.49809
   3.40578  -3.20672   5.52659
   4.99758  -3.29352   7.80339
   6.41708  -3.12422   9.77299
   7.46518  -2.93062  11.51089
   7.80568  -2.76272  12.74919
   8.03168  -2.70412  13.33649
   7.76358  -2.62202  13.57759
   7.24288  -2.69632  13.47419
   6.35088  -2.84062  13.19949
   5.57298  -2.92272  12.86469
   4.62018  -2.88012  12.68719
   3.75978  -2.85842  12.44199
   3.28588  -2.93552  12.22379
   3.01368  -2.54532  11.81929
   2.85238  -2.75622  11.38209
   2.64178  -2.70902  10.56749
   2.33728  -2.76232   9.36809
   2.02238  -2.78782   7.76509
   1.11918  -2.97462   6.24229
   0.31888  -2.75922   4.78379
  -0.61782  -2.57452   3.34839
  -1.63202  -2.28672   1.98909
  -2.17752  -1.91662   1.03229
  -2.79622  -1.80882   0.36149
  -3.26452  -1.47662  -0.32351
  -3.64442  -1.33792  -0.57231
  -4.15672  -1.36882  -0.96581
  -4.35922  -1.84042  -1.59291
  -4.52642  -2.37652  -1.92211
  -4.31852  -3.19532  -2.60781
  -4.25862  -3.83152  -2.85401
  -4.34142  -4.12682  -3.24801
  -4.59422  -4.28182  -3.55341
  -4.88952  -4.48732  -3.68761
  -5.00892  -4.04262  -3.58021
  -4.99682  -3.55612  -3.36891
  -4.55462  -2.80692  -2.96511
  -3.97202  -2.11672  -2.11781
  -3.41902  -1.36042  -1.58091
  -2.70082  -0.49012  -1.01141
  -1.96012   0.46288  -0.71911
  -1.32082   1.10088  -0.99851
  -0.71622   1.70558  -1.40111
  -0.34452   2.04858  -1.94901
   0.05718   2.33518  -2.60181
   0.23838   2.29708  -3.44091
   0.49538   2.22598  -4.14191
   0.50238   2.07938  -4.65231
   0.94338   1.43178  -5.55521
   1.38498   0.94638  -5.92841
   2.16808   0.42218  -6.09351
   2.95008  -0.24442  -6.23301
   3.91808  -0.63342  -6.28381
   5.16338  -0.75642  -6.29521
   6.06138  -0.99892  -6.40561
   6.94498  -0.88762  -6.57441
   7.74488  -0.72532  -6.85991
   8.80868  -0.40062  -7.17131
   9.42218  -0.23362  -7.71381
   9.75018   0.05628  -8.00231
   9.61838   0.20408  -8.04461
   9.23258   0.34808  -7.75861
   8.83858   0.47108  -7.32521
   8.21688   0.31528  -6.65741
   7.40368   0.31138  -5.94031
   6.69878   0.26388  -5.12031
   5.98148  -0.01152  -4.56881
   5.22948  -0.26312  -3.98781
   4.47288  -0.28062  -3.50521
   3.68848  -0.48032  -3.22371
   2.93028  -0.81752  -3.17041
   2.02958  -0.91002  -3.03691
   1.51848  -0.81302  -3.17441
   1.07918  -0.77232  -3.12881
   0.57208  -0.78242  -3.17861
   0.65878  -0.85212  -3.51971
   0.55308  -1.05622  -3.50571
   0.91408  -1.21352  -3.41801
   1.46588  -1.47072  -3.17341
   1.91648  -1.80972  -3.03521
   2.53208  -2.02252  -2.71611
   3.08858  -1.79482  -2.35931
   3.52228  -1.27152  -1.72681
   4.00368  -0.58952  -1.24891
   4.43388   0.22458  -0.65511
   4.73598   0.90588  -0.52181
   5.15168   1.57928  -0.38991
   5.49958   2.11028  -0.64591
   5.53488   2.29588  -1.14561
   5.48788   2.29758  -1.59381
   5.29238   1.96628  -1.95571
   4.91528   1.58908  -2.45731
   4.78108   1.51498  -2.65161
   4.57978   1.25618  -2.89781
   4.54118   1.30478  -3.18441
   4.67568   1.28538  -3.19961
   4.67988   1.45488  -3.17081
   5.02028   1.53138  -3.26881
   5.10068   1.73248  -3.48351
   4.74598   1.92998  -3.87161
   4.18298   2.37448  -4.26581
   3.32748   2.78088  -4.60951
   2.31908   2.98868  -4.41121
   1.25288   3.14648  -4.21061
   0.42638   3.17058  -3.89991
  -0.10202   3.14118  -3.01771
  -0.05382   2.81898  -2.15241
   0.16478   2.52368  -0.99951
   0.93468   1.84468   0.11719
   1.69248   1.14018   1.25799
   2.60478   0.26688   2.44059
   2.91738  -0.39382   3.37859
   3.09228  -1.20232   4.56639
   3.05088  -1.83642   5.79599
   2.94358  -2.00752   6.91329
   2.75398  -2.31642   7.92409
   2.68778  -2.30262   8.64299
   2.62468  -2.10202   9.58479
   2.32768  -1.67692  10.40989
   2.09108  -1.16142  11.16539
   1.83178  -0.72842  11.89299
   1.28518  -0.59002  12.35619
   0.85358  -0.67722  12.61519
   0.07938  -0.68282  12.66149
  -0.73912  -0.84112  12.82769
  -1.59182  -0.83762  12.87119
  -2.71762  -0.74612  12.84509
  -3.46882  -0.83922  12.66219
  -4.29982  -0.51722  12.28929
  -4.95452  -0.30452  11.81859
  -5.22852  -0.19302  11.24559
  -5.33982   0.12498  10.42069
  -5.24652   0.24008   9.32269
  -5.03962   0.18458   8.38369
  -4.51212   0.50918   7.29819
  -4.16442   0.57068   6.62199
  -3.42722   0.60218   5.97739
  -2.61922   0.87298   5.22779
  -1.51542   0.87598   4.51799
  -0.11982   0.89068   3.48239
   0.99738   0.61278   2.81559
   2.47128   0.25408   1.80089
   3.90008   0.12498   0.97649
   5.23188   0.24028  -0.09041
   6.35628   0.27998  -0.93891
   7.33798   0.34738  -1.74601
   7.90148   0.38268  -2.45101
   8.19558   0.37538  -2.88891
   8.43808   0.20118  -3.20621
   8.26928  -0.16142  -3.39251
   8.16078  -0.40172  -3.52671
   8.35108  -0.40412  -3.45471
   8.34058  -0.43822  -3.35601
   8.72848  -0.46182  -3.42831
   8.80638  -0.52472  -3.50541
   9.19958  -0.55912  -3.68691
   9.35838  -0.49152  -3.77451
   9.31038  -0.51302  -3.87391
   9.14748  -0.31522  -3.78811
   8.90708  -0.19132  -3.82431
   8.31958   0.20568  -4.05561
   7.74278   0.41538  -4.48021
   7.59428   0.77128  -4.76891
   6.97308   0.93448  -5.29411
   6.59268   1.05248  -5.64571
   6.25388   1.00548  -5.42431
   5.45398   1.00128  -4.82931
   4.92208   0.75468  -3.93751
   4.36518   0.62138  -3.03031
   3.99318   0.41568  -1.93071
   3.60148   0.07758  -0.74601
   3.51388  -0.07562   0.07469
   3.93448  -0.16542   1.00259
   4.58188   0.01858   1.55299
   5.09768   0.15588   1.80179
   5.58468   0.22558   1.96869
   5.96718   0.48208   1.70219
   6.22998   0.82218   1.22869
   6.06868   1.17408   0.67759
   5.69088   1.66838   0.31569
   5.20078   1.82548  -0.05511
   4.27768   2.66928  -0.23001
   3.51108   3.26788  -0.16991
   2.18788   3.98428  -0.10631
   0.90338   4.36398  -0.36441
  -0.46912   4.81308  -0.28751
  -1.78822   4.85078  -0.50681
  -3.09872   4.50868  -0.72431
  -4.08962   4.21268  -1.40861
  -5.02092   3.91198  -1.53841
  -5.78332   3.65948  -1.91741
  -6.83622   3.40608  -2.45841
  -8.03862   3.11118  -3.04231
  -9.22992   3.04478  -4.05181
 -10.59422   2.87598  -5.18071
 -11.74362   2.85288  -6.47951
 -12.73072   2.89538  -7.97441
 -13.62832   2.54888  -9.23121
 -14.26822   2.55338 -10.14261
 -14.76552   2.33728 -10.64381
 -14.92412   1.92088 -10.58941
 -14.79412   1.92958 -10.52721
 -14.46912   1.71518 -10.05281
 -14.12122   1.71018  -9.23491
 -13.22832   1.65968  -8.36841
 -12.26642   1.59238  -7.60991
 -10.82172   1.53648  -7.02031
  -9.30452   1.46778  -6.48061
  -7.39852   1.45048  -6.09111
  -5.78382   1.47478  -5.89571
  -4.20882   1.53158  -5.68131
  -2.67722   1.52108  -5.49561
  -1.39262   1.18858  -4.93841
  -0.13082   0.53348  -4.44211
   0.64548  -0.19162  -3.47431
   1.47668  -0.67232  -2.72471
   2.04198  -1.47402  -1.65161
   2.48858  -1.91782  -0.63311
   2.92508  -2.05312   0.45339
   3.16378  -2.54372   1.87899
   3.48438  -2.56262   3.12839
   3.67328  -2.76982   4.46529
   3.68898  -2.61972   5.53599
   3.74598  -2.44172   6.62079
   3.50468  -2.63092   7.50999
   3.14418  -2.73632   8.11489
   3.05928  -2.50092   8.55069
   2.79648  -2.37302   8.82309
   2.50098  -2.08962   8.86539
   2.15988  -1.72792   8.94579
   1.42878  -1.24282   9.05009
   0.61668  -0.95002   9.26399
  -0.20372  -0.53432   9.38769
  -1.06972  -0.24882   9.71339
  -1.51302  -0.43352   9.89929
  -2.01712  -0.64562  10.01059
  -2.53802  -0.94582  10.08939
  -2.90122  -1.06412   9.78399
  -3.05972  -1.38802   9.11559
  -3.09852  -1.59562   8.19899
  -3.15742  -1.77982   7.18169
  -2.94962  -1.86562   5.65079
  -2.84502  -1.72842   4.38699
  -2.67602  -1.70692   3.18779
  -2.72882  -1.51022   2.16839
  -2.89112  -1.36602   1.11139
  -3.06552  -1.10222   0.69119
  -3.61892  -0.72492   0.42049
  -4.22592  -0.60892   0.14989
  -4.82262  -0.52332   0.01779
  -5.44902  -0.45862  -0.27611
  -6.32652  -0.37602  -0.59971
  -7.43072  -0.15202  -1.49631
  -8.34872   0.45818  -2.31021
  -9.29072   1.09698  -3.23331
 -10.40172   1.56388  -4.04181
 -11.41512   1.84018  -4.33591
 -12.72652   2.02358  -4.46901
 -14.44732   2.13018  -4.34061
 -15.91172   2.08758  -4.07381
 -17.46142   1.96038  -3.75721
 -18.99022   1.78578  -3.76261
 -20.42162   1.45068  -3.68731
 -21.41692   1.04578  -3.42481
 -22.48222   0.54938  -3.34251
 -22.77542   0.08948  -3.16171
 -22.60212  -0.34072  -3.03241
 -22.05692  -0.70942  -2.61021
 -21.14312  -1.31062  -2.23801
 -20.16962  -1.62852  -1.55171
 -18.95142  -1.70802  -0.42661
 -17.61172  -1.82592   0.80109
 -16.26222  -1.68842   2.02979
 -14.65872  -1.37442   3.17049
 -13.07462  -1.11772   4.25539
 -11.31832  -0.92312   4.82279
  -9.49432  -0.79292   5.32179
  -7.67182  -0.83942   5.61729
  -5.36692  -0.94372   6.00079
  -3.35662  -0.97692   6.36499
  -1.19132  -1.08662   6.96309
   0.75508  -1.13752   7.67339
   2.73198  -1.21312   8.29509
   4.48698  -1.32322   8.90749
   6.04318  -1.30052   9.37879
   7.17458  -1.30802   9.85159
   8.30228  -1.20092  10.03509
   9.06988  -1.46812   9.98139
   9.58028  -1.64022  10.15929
   9.72328  -1.74992   9.92289
   9.81148  -2.00592   9.63179
   9.52668  -1.99422   9.46139
   9.15098  -2.19742   8.98039
   8.21268  -2.21682   8.51489
   7.04718  -2.46022   7.88359
   5.88978  -2.57942   7.49879
   4.38638  -2.81282   6.75199
   2.85258  -2.98602   6.10829
   1.14768  -3.04192   5.49809
  -0.35382  -3.10972   4.89159
  -1.87592  -3.13682   4.56519
  -3.28322  -3.22192   4.26989
  -4.75342  -3.17242   3.98039
  -6.34142  -3.01322   3.69779
  -7.84572  -3.04122   3.41999
  -9.40522  -2.81492   3.23059
 -10.64612  -2.56312   2.89599
 -11.38142  -2.17922   2.60119
 -11.80322  -1.38682   2.29609
 -11.66872  -0.80392   2.00399
 -11.10532   0.04438   1.52469
 -10.25892   0.54448   1.32969
  -9.43422   1.33408   0.64539
  -8.33792   1.79348   0.13749
  -7.33392   2.19308  -0.33051
  -6.35642   2.13718  -0.90221
  -5.17922   2.22578  -1.33101
  -3.68442   2.35628  -1.89431
  -2.19202   2.66088  -2.21741
  -0.18972   2.58958  -2.97261
   1.58118   2.50328  -3.46011
   3.53208   2.22838  -3.85241
   5.36978   2.18598  -4.25831
   6.98328   1.80518  -4.34851
   8.28188   1.41488  -4.11151
   9.66368   1.00698  -3.98991
  10.87248   0.60808  -3.62001
  12.01508   0.24958  -3.27771
  13.20588   0.04058  -2.84281
  14.41138   0.05648  -2.38951
  15.33658  -0.14152  -2.12531
  16.17478  -0.09152  -1.85011
  16.80588   0.06908  -1.56581
  16.84098  -3.2E-40  -1.14141
  16.52268  -0.27972  -0.81031
  15.89288  -0.52052  -0.36871
  14.86638  -0.52402   0.37949
  13.60428  -0.46842   0.60729
  12.51288  -0.33002   1.04709
  11.38058  -0.03822   1.52119
  10.59708   0.38478   1.70729
  10.07568   1.09908   1.88529
   9.75698   1.64308   2.02059
   9.66138   1.80938   1.96779
   9.81288   1.99528   2.04639
   9.72428   2.20548   1.65469
   9.59968   2.13738   1.53739
   9.38988   2.15378   1.19999
   9.05158   1.85398   0.87499
   8.88328   1.56688   0.87079
   8.58098   1.56548   0.84719
   8.34338   1.40138   0.59599
   8.10258   1.33048   0.14359
   8.05108   1.34288  -0.11781
   7.85518   1.28608  -1.02611
   7.88258   1.41658  -1.90101
   7.41658   1.48298  -2.99711
   7.07758   1.76748  -4.12031
   6.63848   1.98988  -5.19891
   6.20268   2.42618  -6.24361
   5.75578   2.85428  -7.02801
   5.27328   3.07238  -7.91861
   4.99318   2.88558  -8.51971
   4.49558   2.63498  -9.15781
   4.04228   2.08178  -9.77081
   3.80818   1.55828 -10.38341
   3.78128   0.88748 -10.75631
   3.78338   0.37588 -10.90411
   3.87668  -0.09552 -11.17181
   4.08788  -0.33112 -11.33261
   4.27698  -0.28412 -11.38601
   4.43268  -0.05872 -11.39551
   4.59218  -0.01642 -11.14911
   5.09558   0.06868 -10.73131
   5.47948   0.00628 -10.20291
   5.87278   0.24048  -9.50501
   6.32818   0.51268  -8.46121
   6.73388   0.69268  -7.53891
   7.21268   1.08528  -6.41521
   7.30928   1.37918  -5.75191
   7.71628   1.49768  -5.06471
   7.64078   1.27578  -4.41051
   7.71328   1.42728  -4.00481
   7.80938   1.39978  -3.21041
   7.88838   1.17318  -2.51011
   7.68568   1.06798  -2.05351
   7.45188   1.27888  -1.59801
   7.15658   1.43078  -1.76991
   6.69858   1.67868  -1.82691
   6.17158   1.99988  -2.16501
   5.48418   2.31388  -2.72711
   4.78978   2.38828  -3.31021
   4.07658   2.53298  -4.19141
   3.57418   2.57958  -4.93191
   3.03148   2.71258  -5.71281
   2.48558   2.35178  -6.42481
   2.02258   2.12498  -7.16661
   1.51458   1.76798  -7.37541
   0.99848   1.37638  -7.39831
   0.37498   0.97158  -6.95271
  -0.22542   0.41168  -6.23401
  -0.59232  -0.09362  -5.12151
  -1.01952  -0.39382  -3.92491
  -1.09262  -0.64212  -2.87131
  -1.35522  -0.85142  -1.79931
  -1.44802  -0.83132  -0.95321
  -1.61122  -0.66972  -0.32051
  -1.64472  -0.32882   0.27639
  -1.89722   0.20778   0.53339
