********************************************************************************
              CENTRO DE INSTRUMENTACION Y REGISTRO SISMICO  A.C.

    Anaxagoras 814, Col. Narvarte, Benito Juarez, C.P. 03020 Mexico, D.F.
           Tels. 5687 45 42/ 5687 45  82             Fax. 5669 25 12
********************************************************************************
ARCHIVO ESTANDAR DE ACELERACION:
VERSION DEL FORMATO                    : 2.0
NOMBRE DEL ARCHIVO                     : EX0820210908014746
FECHA Y HORA DE CREACION               : 08/SEP/21, 01:49
REF. CATALOGO ACELEROGRAMAS, SMIS 1996 : REGISTRO No.     /PAG.


================================================================================
DATOS DE LA ESTACION:
NOMBRE DE LA ESTACION                  : ESC. SEC. NO. 3, AZOTEA - CENTRO EDIF.1
CLAVE DE LA ESTACION                   : EX08
LOCALIZACION DE LA ESTACION            : Del. Cuauhtémoc, Col. Juárez,          
                                       : Av. Chapultepec, entre Venecia         
                                       : y Niza.                                
                                       :                                        
                                       : 
COORDENADAS DE LA ESTACION             : 19.4236 LAT. N
                                       : 99.1602 LONG. W
ALTITUD (msnm)                         : 2233
TIPO DE SUELO                          : Alto riesgo sísmico                 
                                       :                           
                                       : 
INSTITUCION RESPONSABLE                : CIRES, A. C.
                                       : 

================================================================================
DATOS DEL ACELEROGRAFO:
MODELO DEL ACELEROGRAFO                : RAD_IO14
NUMERO DE SERIE DEL ACELEROGRAFO       : 
NUMERO DE CANALES                      : 3
ORIENTACION C1-C6 (rumbo;orientacion)  : /N00E/+V/N90W
ORIENTACION C7-C12 (rumbo;orientacion) : 
VEL. DE MUESTREO, C1-C6 (muestras/s)   : /100/100/100
VEL. DE MUESTREO, C7-C12 (muestras/s)  : 
ESC. COMPLETA DE SENSORES, C1-C6, (g)  : /2.0/2.0/2.0
ESC. COMPLETA DE SENSORES, C7-C12, (g) : 
FREC. NAT. DE SENSORES, C1-C6, (Hz)    : /30/30/30
FREC. NAT. DE SENSORES, C7-C12, (Hz)   : 
AMORTIGUAMIENTO DE SENSORES, C1-C6     : /0.700/0.700/0.700
AMORTIGUAMIENTO DE SENSORES, C7-C12    : 
INTERVALO DE MUESTREO, C1-C6, (s)      : /0.01/0.01/0.01
INTERVALO DE MUESTREO, C7-C12, (s)     : 
UMBRAL DE DISPARO, C1-C6, (Gal)        : / / /
UMBRAL DE DISPARO, C7-C12, (Gal)       : 
MEMORIA DE PREEVENTO (s)               : 60
TIEMPO DE POSEVENTO (s)                : 90


================================================================================
DATOS DEL SISMO:
FECHA DEL SISMO (GMT)                  : 08/SEP/21
HORA EPICENTRO (GMT)                   : 01:47:46.0
MAGNITUD(ES)                           : /Mc=7.1
COORDENADAS DEL EPICENTRO              : 16.78 LAT. N
                                       : 99.93 LONG. W
PROFUNDIDAD FOCAL (km)                 : 10
FUENTE DE LOS DATOS EPICENTRALES       : SSN
                                       : INSTITUTO DE GEOFISICA, UNAM

================================================================================
DATOS DE ESTE REGISTRO:
HORA DE LA PRIMERA MUESTRA (GMT)       : 20:45:19.00
EXACTITUD DEL TIEMPO (s)               : 
DURACION DEL REGISTRO (s), C1-C6       : /540.01/540.01/540.01
DURACION DEL REGISTRO (s), C7-C12      : 
NUM. TOTAL DE MUESTRAS, C1-C6          : /54001/54001/54001
NUM. TOTAL DE MUESTRAS, C7-C12         : 
ACEL. MAX. (Gal), C1-C6                : /43.89839/12.91233/48.88898
ACEL. MAX., C1-C6, EN LA MUESTRA       : /15035/14960/14548
ACEL. MAX. (Gal), C7-C12               : 
ACEL. MAX., C7-C12, EN LA MUESTRA      : 
UNIDADES DE LOS DATOS                  : Gal (cm/s/s)
FACTOR DE DECIMACION                   : 1
FORMATO DATOS (FORTRAN,10 campos/dato) : 3F10.5


================================================================================
CALIDAD DEL ACELEROGRAMA:
REGISTRO DIGITAL COMPLETO CON TIEMPO ABSOLUTO CORRECTO.


================================================================================
COMENTARIOS:














================================================================================
DATOS DE ACELERACION:
---------+---------+---------+---------+---------+---------+---------+---------+
   CANAL-1   CANAL-2   CANAL-3   CANAL-4   CANAL-5   CANAL-6   CANAL-7   CANAL-8
      N00E        +V      N90W
---------+---------+---------+---------+---------+---------+---------+---------+
[...]
  -2.99309  -3.16493   0.44442
  -2.10769  -3.48453   3.39072
  -1.09389  -3.22803   5.75032
   0.36811  -4.14593   8.48262
   1.11791  -4.55303  11.49402
   2.71901  -4.56933  13.85412
   4.18391  -3.57503  16.02942
   5.26521  -3.02393  18.28382
   6.28881  -3.33553  20.16482
   6.83411  -3.58783  21.61142
   7.21731  -3.58363  22.19732
   7.13131  -3.73373  22.50012
   6.40431  -4.16913  21.84612
   5.45321  -3.18663  20.23172
   4.21711  -2.43653  18.17022
   2.28091  -2.47863  15.75172
  -0.12639  -1.87403  13.21552
  -2.03099  -1.55373  10.37732
  -4.38309  -1.11083   7.90322
  -6.31389  -0.82563   5.72742
  -8.00949  -0.24553   3.83632
  -9.62489   0.99667   2.74792
 -10.61649   2.15307   1.71782
 -11.31179   2.93287   1.63132
 -11.85519   3.12597   2.00562
 -11.72889   3.32287   3.50732
 -11.16029   2.77077   5.18022
 -10.65499   2.77247   7.16272
  -9.55639   3.26437   9.21792
  -8.06369   3.30647  11.19222
  -6.31129   4.34387  12.98692
  -4.35929   4.40557  14.59132
  -1.69829   4.81777  15.74332
   0.50931   5.13347  16.40772
   3.53951   5.41097  16.98312
   6.48551   5.73667  16.32752
   9.71061   6.90107  15.53612
  12.98301   6.84677  14.07322
  15.99101   7.17457  12.47582
  19.00921   6.77267  10.16852
  21.83271   6.27977   8.02292
  24.52151   5.03477   5.86742
  26.88721   3.86877   3.41052
  29.02441   3.55997   1.31442
  30.61621   3.23257  -0.66448
  31.75461   2.55967  -2.28548
  32.35201   1.29997  -3.43278
  32.92781  -0.26733  -3.98438
  32.44011  -1.19243  -3.83308
  32.06391  -3.08753  -3.42858
  31.09241  -4.44543  -2.96068
  29.61411  -4.90843  -1.90628
  28.25591  -6.29863  -1.08648
  26.37861  -5.86323  -0.22498
  25.11001  -6.83073   0.94852
  23.26451  -7.46183   1.77252
  20.08641  -8.11373   3.55152
  17.43051  -9.00683   4.33852
  14.61081  -8.09593   4.80432
  12.90281  -7.96823   5.21232
  11.71161  -7.48003   5.41172
  10.63531  -6.33273   5.71542
  10.35551  -5.66153   5.82372
   9.55961  -4.63463   6.10262
   9.28931  -3.75713   6.44892
   8.92741  -3.14973   7.01332
   9.12031  -2.92543   7.67762
   9.62131  -1.82303   8.10212
  10.11631  -0.71483   8.57872
  11.17261   0.73107   9.01382
  11.56261   2.74557   9.69252
  12.16491   4.06987   9.91252
  13.41351   4.41427  10.45962
  13.60681   5.29827  11.09402
  14.49481   6.38317  11.74722
  15.17661   6.90217  11.75142
  15.95121   7.73367  12.04022
  16.27271   7.86997  12.24132
  16.54491   8.67547  12.21932
  16.77591   9.18747  11.78442
  16.53641   9.17157  11.71922
  16.61991   8.94987  11.27282
  16.34661   8.19777  10.92522
  16.26831   6.84187  10.34322
  16.18291   6.31397  10.19432
  15.78081   6.34697   9.70722
  16.03731   6.87117   9.27522
  15.97691   6.62987   9.34202
  16.14321   6.98967   9.26512
  16.51311   6.24967   9.44892
  16.92551   5.84497  10.16082
  17.26851   5.53047  10.76032
  17.24701   5.56717  11.53452
  17.73051   6.30807  11.69092
  17.96411   7.88117  12.19032
  18.34051   7.65157  12.27962
  17.95611   8.27067  11.99932
  17.55491   8.15617  11.35612
  16.96291   7.54407   9.82342
  15.85891   6.43087   7.76942
  14.54811   5.99597   4.90292
  13.21191   6.35047   0.67612
  11.58761   6.57797  -4.00328
   9.75251   7.05067  -9.28038
   8.12421   6.55807 -14.74588
   6.02091   6.36797 -19.75378
   4.11771   5.57347 -24.37478
   1.95451   3.86877 -27.91118
   0.07281   3.10117 -31.13258
  -1.62159   2.49137 -32.96728
  -2.92439   1.54027 -34.15758
  -4.29969   1.58747 -34.48558
  -5.11569   0.75117 -33.41288
  -5.81819  -0.85953 -30.58008
  -6.58159  -3.18893 -27.00628
  -7.20799  -5.24973 -23.09848
  -8.10749  -7.13193 -18.72438
  -9.13319  -7.72393 -14.33548
 -10.13249  -7.73963 -10.38388
 -10.90239  -8.14713  -7.16788
 -12.08059  -8.19643  -3.99928
 -12.88139  -8.59323  -1.67738
 -13.66209  -8.87473  -0.42668
 -14.98869  -9.25563  -0.11508
 -16.03049 -10.16323  -0.61818
 -16.66769  -9.98513  -2.11388
 -17.41099  -9.32173  -4.49658
 -18.13599  -9.09803  -6.79188
 -18.79839  -7.83893  -9.36218
 -19.01489  -7.04773 -11.81038
 -19.53249  -7.37013 -13.97098
 -19.77449  -8.20793 -15.48028
 -20.16409  -7.94233 -16.26728
 -20.32159  -7.38113 -16.97408
 -20.74689  -6.44453 -16.73508
 -21.00159  -5.12563 -16.32408
 -20.62979  -3.53153 -14.98688
 -20.47059  -2.69613 -13.48488
 -20.50799  -3.14153 -11.75078
 -19.80279  -3.22823  -9.06688
 -19.29619  -2.61283  -7.18518
 -18.66529  -2.47003  -4.73108
 -18.05109  -2.85813  -2.41318
 -16.92489  -2.43893  -0.43298
 -15.87129  -1.17563   1.63032
 -15.24259  -1.15363   3.56862
 -14.38079  -1.21163   5.84382
 -13.58419  -0.70543   7.22822
 -12.95219  -0.37273   8.20712
 -12.96949   0.51387   9.51552
 -12.84439   1.11587  10.03132
 -12.85779   2.49117  10.84122
 -13.28609   3.85427  11.19802
 -13.94289   4.38547  11.55712
 -14.71489   4.66277  11.88192
 -16.01769   5.20567  11.85782
 -17.17009   5.61697  11.75682
 -18.96319   6.48347  11.48822
 -20.62789   7.12577  10.99232
 -22.55329   7.10217  10.64812
 -24.43849   7.59027   9.98012
 -26.72259   7.52957   9.54432
 -28.58209   6.71587   8.33602
 -30.95289   6.35957   7.52702
 -32.91009   6.03477   6.49402
 -34.54799   5.40837   4.74422
 -36.24329   5.36027   3.34022
 -37.59499   5.14537   1.64132
 -38.60599   4.34907   0.00512
 -39.51689   3.57767  -1.40148
 -39.85569   2.56527  -2.73228
 -40.07379   1.24407  -3.80248
 -40.32329   0.93307  -4.47488
 -39.83879   0.46267  -5.30468
 -39.52249   0.08737  -5.31428
 -39.05439  -0.45973  -5.66678
 -38.36399  -1.10523  -4.63108
 -37.67139  -1.78193  -4.17698
 -36.88209  -2.52283  -3.26518
 -36.18139  -2.59533  -2.29878
 -35.05349  -2.25073  -1.30368
 -33.98869  -1.39023  -0.98718
 -32.35899  -0.75523  -0.90278
 -30.56809  -1.13913  -1.13448
 -28.94399  -0.91703  -1.71098
 -26.56639  -2.01243  -2.68578
 -24.42029  -2.09263  -4.27728
 -21.93189  -2.54643  -5.65418
 -19.39339  -2.92663  -7.79498
 -16.78619  -2.80603  -9.43228
 -13.07099  -2.89323 -11.32668
  -9.79179  -3.65823 -12.99818
  -5.88769  -3.93033 -14.15128
  -2.38429  -5.07043 -15.10868
   1.72681  -6.11373 -16.07198
   5.60471  -6.83243 -15.86278
   9.06411  -7.40103 -15.92778
  12.95191  -7.72553 -15.19028
  16.06721  -7.90073 -13.95888
  18.98181  -8.24253 -12.23148
  21.89651  -8.33723  -9.46438
  23.74621  -8.28273  -7.59018
  25.74061  -9.12633  -4.88478
  26.76491  -9.58813  -2.35348
  27.77941  -9.38443   0.63642
  27.98181  -9.30893   3.01542
  27.44951  -9.01943   5.35372
  26.17541  -8.98133   7.88122
  24.40851  -8.03603  10.21602
  22.47851  -7.91233  11.84752
  20.34961  -7.93363  13.57872
  17.93041  -7.54083  15.24132
  15.64451  -6.98483  16.48332
  12.97761  -6.18033  17.55412
  10.55981  -5.76883  18.66772
   8.77611  -5.36873  19.39252
   7.12381  -3.79103  20.54942
   6.19811  -3.98203  21.51692
   5.16751  -3.31293  23.17842
   4.91681  -3.11463  24.35682
   5.04471  -2.92123  25.76152
   5.58971  -1.86463  27.22372
   6.43801  -0.69093  28.38882
   7.79411   0.14697  28.81152
   9.41771   0.92417  29.57162
  10.74381   0.97427  29.51302
  12.68371   1.73807  28.92402
  14.14791   1.43137  27.92662
  15.44711   1.27797  26.40452
  17.18131   1.27307  24.17532
  18.34891   1.71817  20.96072
  19.65431   2.04767  17.62872
  20.51471   2.14237  13.78302
  20.79271   2.43367   9.41502
  20.72301   2.32797   5.67432
  20.55401   2.15827   1.32312
  19.55871   2.45147  -2.86088
  19.20861   2.16457  -7.17748
  18.41461   2.30317 -10.72058
  17.37751   2.23567 -13.51628
  16.38541   2.06587 -15.97408
  15.02041   2.54917 -17.23428
  13.68071   2.82697 -17.88688
  12.53431   2.87557 -17.68878
  11.43681   2.96787 -17.08088
  10.59651   3.92627 -15.15108
   9.80531   3.35507 -13.12418
   8.95101   4.44047 -10.09048
   8.04311   4.59217  -8.01728
   8.03961   4.79117  -4.93948
   7.59281   5.09767  -3.05028
   7.89001   6.46247  -1.12178
   8.13971   6.70957   0.18772
   8.16801   6.96677   1.14802
   8.38381   7.05767   1.71312
   8.81751   6.80847   1.89312
   8.67061   7.02197   1.67662
   8.54111   7.16757   1.09302
   8.64961   7.01917   0.14982
   8.70741   6.58187  -0.03088
   8.87501   5.54727  -0.72968
   8.32671   5.05837  -1.20878
   8.45951   4.14747  -1.23518
   7.77941   3.72807  -1.06128
   7.98611   2.95087  -0.56368
   7.41861   1.61227  -0.14268
   7.15371   1.38107   0.94482
   6.86351  -0.03723   2.33172
   6.77381   0.49707   3.74842
   6.76531  -0.10033   4.61262
   7.25961   0.08037   6.23102
   7.38591  -0.23623   7.45362
   8.59791  -1.15763   8.12902
   9.68681  -1.68373   8.52112
  10.98701  -1.68933   8.11622
  12.79111  -2.09893   7.39232
  14.40251  -1.55863   6.12902
  16.49531  -1.90883   4.12862
  18.03161  -0.12043   1.93572
  19.92531  -0.28923  -0.75588
  20.90841  -0.90393  -3.03488
  22.51401  -1.55393  -5.20718
  23.17711  -1.88083  -7.51808
  23.65261  -1.03393  -8.73418
  23.57291  -1.07343  -9.80988
  23.35431   0.47577  -9.95578
  22.88221   1.52997  -9.49378
  22.46371   2.34737  -7.76808
  20.94021   2.06587  -5.00028
  20.07931   1.63407  -1.56188
  18.40041   0.65317   2.29762
  16.85001   1.70227   6.63012
  14.87571   0.70417  10.64932
  13.34191   1.61557  14.98922
  11.39691   1.72497  18.58962
   9.56681   1.78627  21.56932
   8.00291   1.23657  23.95812
   6.12561   0.42967  25.35652
   4.45371  -0.33163  26.02782
   2.83741  -1.33693  25.74892
   1.54561  -1.74733  23.95092
   0.41861  -0.80953  21.39232
  -0.54259  -0.85323  18.26462
  -1.53229  -0.55583  14.79092
  -1.28279  -0.49523  11.77412
  -1.56619  -1.75453   8.17142
  -1.60409  -1.69333   6.11712
  -1.83479  -2.65493   3.59832
  -1.40019  -2.56703   1.62122
  -1.67089  -2.03953   0.05402
  -0.96159  -1.73393  -1.02758
  -0.83839  -1.51323  -1.79778
  -0.32019  -1.75453  -2.31188
  -0.34779  -2.08053  -3.20878
  -0.20169  -1.95333  -2.96448
  -0.40669  -3.42303  -3.76388
  -0.49789  -3.60143  -4.24178
  -0.74879  -2.88103  -5.03698
  -0.88959  -2.34283  -6.67078
  -1.28119  -2.01943  -8.20858
  -1.89469  -1.82563 -10.69928
  -2.74649  -1.53973 -13.85228
  -3.62999  -1.49973 -16.72318
  -5.48199  -2.25253 -20.79608
  -6.73499  -2.05643 -24.38348
  -8.22859  -1.70293 -28.51228
  -9.96229  -0.87493 -32.93708
 -11.51499  -0.30233 -36.60578
 -13.22949   0.05307 -40.17068
 -14.78969   0.91507 -43.43558
 -16.36559   1.54257 -46.01408
 -18.16149   2.18117 -47.74488
 -19.64219   3.21697 -48.60628
 -21.05249   3.70437 -48.88898
 -22.42189   4.52717 -47.83028
 -23.80799   5.17997 -46.57168
 -25.02239   5.95697 -43.57498
 -25.59289   6.21507 -40.54148
 -26.83839   6.67777 -36.86908
 -27.19959   6.82997 -33.84098
 -28.36839   7.19637 -29.75288
 -28.72219   7.41307 -25.78768
 -28.81379   6.92677 -22.28108
 -29.12659   7.75917 -18.56678
 -28.83089   8.00067 -15.18868
 -28.86569   8.10637 -11.85058
 -28.55989   8.93587  -8.90858
 -27.92669   8.14867  -6.74938
 -27.05949   8.40377  -4.55998
 -25.87439   7.72687  -2.93288
 -24.80799   7.27557  -1.90948
 -23.47549   6.57657  -1.11898
 -22.00059   6.85197  -1.34278
 -20.43529   6.73717  -1.64668
 -18.20539   5.70867  -2.13448
 -16.50469   5.37617  -2.58198
 -13.88109   4.29147  -2.83358
 -11.84419   2.54917  -3.56068
  -9.46749   1.33807  -3.02428
  -6.39929  -0.16183  -2.71058
  -3.50889  -1.43403  -2.13468
  -0.35599  -1.96733  -1.11158
   1.87011  -2.71013   0.29182
   4.44221  -3.10903   2.20062
   6.46301  -3.77773   3.92212
   8.16351  -4.78913   5.98082
   9.30051  -6.04473   8.57302
  10.68491  -6.44753  10.68572
  11.26851  -7.62243  12.55832
  11.71581  -6.72233  14.06502
  11.45041  -6.17873  15.48212
  11.21611  -5.66573  16.09772
  10.13381  -5.61453  16.85712
   9.35241  -6.35313  15.98662
   7.73001  -6.50973  15.35302
   5.92081  -6.86093  13.90222
   4.25541  -6.34933  12.33832
   2.15701  -5.10293  10.07762
   0.23201  -4.59093   7.20322
  -2.38449  -2.79293   5.14382
  -4.22579  -2.42343   2.49282
  -5.90239  -1.87733   0.42252
  -8.01349  -1.44733  -1.19008
  -9.85539  -2.40473  -3.00238
 -11.55539  -0.78233  -3.44538
 -13.19049  -1.38143  -4.74378
 -14.08529  -0.87633  -4.81488
 -15.51799  -0.46883  -4.90648
 -15.66459  -0.07973  -4.56088
 -16.42219  -0.22993  -3.13798
 -16.50959  -0.49853  -1.58988
 -16.56199  -0.40173   0.33172
 -16.65199   0.21927   2.34762
 -16.72189   0.31137   4.81112
 -16.56549   0.40447   7.11312
 -16.45209   1.14747   9.42112
 -16.16099   1.20127  11.96582
 -15.86309   0.44887  14.49282
 -15.33919   0.44157  16.65812
 -14.70019   0.77577  18.88122
 -14.34919   0.70277  20.69492
 -13.89979   0.97517  22.34412
 -13.19629   0.85547  23.19642
 -12.15679   1.20357  23.64252
 -11.48199   0.57417  23.45292
 -10.33329  -0.16213  23.05282
  -9.49889  -1.38113  21.85952
  -8.42029  -1.39003  20.66702
  -7.12099  -1.17513  18.54382
  -5.90269  -0.87243  17.09612
  -4.26269  -0.71523  15.14522
  -2.55239  -0.64353  13.20902
  -0.64379  -1.54903  11.28852
   1.07751  -1.99463  10.23542
   3.37441  -2.61353   9.06192
   5.74241  -3.25353   7.87842
   7.71161  -2.47723   7.23432
   9.55941  -2.61313   6.72292
  11.53991  -1.91283   6.94042
  12.95361  -2.34113   7.07622
  14.58301  -3.49573   8.87752
  15.64681  -4.74073  10.59432
  16.97461  -5.64603  12.72642
  17.81001  -5.85043  14.93082
  18.47521  -5.53733  17.22122
  19.06631  -4.40473  19.19472
  19.42161  -3.79593  20.80402
  18.93561  -3.93993  22.74352
  18.94191  -3.92433  24.59062
  18.35241  -4.29393  25.57722
  17.98961  -3.71663  25.74682
  17.87871  -3.00663  26.11432
  18.16051  -2.72813  24.83932
  18.36861  -1.33233  22.89522
  18.55511  -1.14853  20.70612
  18.72261  -1.01943  17.67502
  18.67561  -0.30233  14.82952
  19.08031  -0.47043  11.91652
  18.93271  -0.03393   8.74752
  19.10341   1.44587   6.62992
  19.08291   1.45377   3.69022
  18.99491   3.24947   1.61982
  18.27111   3.93307   0.26302
  17.86071   3.98077  -1.08558
  16.86191   4.53167  -0.98478
  15.61151   3.62797  -1.32238
  14.49951   3.93447  -0.08768
  13.14621   4.21407   1.31122
  11.72491   5.00347   2.65422
   9.65241   6.06237   4.63732
   8.20631   6.49707   6.51722
   6.38911   6.63547   8.73532
   4.77751   5.31257  11.29552
   2.99401   4.22157  13.24132
   1.56711   3.82317  15.62822
   0.41181   3.87767  16.39772
  -0.78319   4.57887  17.55712
  -1.95599   4.44187  17.73252
  -2.49609   4.43507  17.33012
  -2.90689   4.06897  16.58052
  -2.94639   2.94897  15.41382
  -3.09509   1.65347  13.64252
  -3.03549   2.03037  11.28522
  -2.76839   1.73157   8.47182
  -2.16829   1.12087   5.50832
  -1.59639   1.00747   2.48982
  -0.81469   0.07247  -0.91868
   0.15391  -0.44223  -3.74938
   0.92271  -1.31053  -6.81018
   2.03631  -1.86093  -9.80528
   2.33191  -2.67363 -12.90418
   3.40061  -3.83823 -15.63388
   3.61921  -3.72323 -18.54548
   4.52191  -3.99533 -20.87958
   4.86631  -4.21143 -22.45668
   4.37681  -3.40573 -23.66708
   4.46051  -2.81273 -24.16158
