********************************************************************************
              CENTRO DE INSTRUMENTACION Y REGISTRO SISMICO  A.C.

    Anaxagoras 814, Col. Narvarte, Benito Juarez, C.P. 03020 Mexico, D.F.
           Tels. 5687 45 42/ 5687 45  82             Fax. 5669 25 12
********************************************************************************
ARCHIVO ESTANDAR DE ACELERACION:
VERSION DEL FORMATO                    : 2.0
NOMBRE DEL ARCHIVO                     : FJ7420210908014746
FECHA Y HORA DE CREACION               : 07/SEP/21, 23:16
REF. CATALOGO ACELEROGRAMAS, SMIS 1996 : REGISTRO No.     /PAG.


================================================================================
DATOS DE LA ESTACION:
NOMBRE DE LA ESTACION                  : FUNDACIÓN JAVIER BARROS SIERRA
CLAVE DE LA ESTACION                   : FJ74
LOCALIZACION DE LA ESTACION            : Del. Tlalpan, Col. Jardines en la      
                                       : Montaña, Carretera al Ajusco, No.203   
                                       :                                        
                                       :                                        
                                       : 
COORDENADAS DE LA ESTACION             : 19.2990 LAT. N
                                       : 99.2100 LONG. W
ALTITUD (msnm)                         : 2240
TIPO DE SUELO                          : Arenoso, limoso, compacto           
                                       :                           
                                       : 
INSTITUCION RESPONSABLE                : CIRES, A. C.
                                       : 

================================================================================
DATOS DEL ACELEROGRAFO:
MODELO DEL ACELEROGRAFO                : RAD_IO14
NUMERO DE SERIE DEL ACELEROGRAFO       : 
NUMERO DE CANALES                      : 3
ORIENTACION C1-C6 (rumbo;orientacion)  : /N00E/+V/N90W
ORIENTACION C7-C12 (rumbo;orientacion) : 
VEL. DE MUESTREO, C1-C6 (muestras/s)   : /100/100/100
VEL. DE MUESTREO, C7-C12 (muestras/s)  : 
ESC. COMPLETA DE SENSORES, C1-C6, (g)  : /2.0/2.0/2.0
ESC. COMPLETA DE SENSORES, C7-C12, (g) : 
FREC. NAT. DE SENSORES, C1-C6, (Hz)    : /30/30/30
FREC. NAT. DE SENSORES, C7-C12, (Hz)   : 
AMORTIGUAMIENTO DE SENSORES, C1-C6     : /0.700/0.700/0.700
AMORTIGUAMIENTO DE SENSORES, C7-C12    : 
INTERVALO DE MUESTREO, C1-C6, (s)      : /0.01/0.01/0.01
INTERVALO DE MUESTREO, C7-C12, (s)     : 
UMBRAL DE DISPARO, C1-C6, (Gal)        : / / /
UMBRAL DE DISPARO, C7-C12, (Gal)       : 
MEMORIA DE PREEVENTO (s)               : 60
TIEMPO DE POSEVENTO (s)                : 90


================================================================================
DATOS DEL SISMO:
FECHA DEL SISMO (GMT)                  : 08/SEP/21
HORA EPICENTRO (GMT)                   : 01:47:46.0
MAGNITUD(ES)                           : /Mc=7.1
COORDENADAS DEL EPICENTRO              : 16.78 LAT. N
                                       : 99.93 LONG. W
PROFUNDIDAD FOCAL (km)                 : 10
FUENTE DE LOS DATOS EPICENTRALES       : SSN
                                       : INSTITUTO DE GEOFISICA, UNAM

================================================================================
DATOS DE ESTE REGISTRO:
HORA DE LA PRIMERA MUESTRA (GMT)       : 20:54:01.00
EXACTITUD DEL TIEMPO (s)               : 
DURACION DEL REGISTRO (s), C1-C6       : /657.35/657.35/657.35
DURACION DEL REGISTRO (s), C7-C12      : 
NUM. TOTAL DE MUESTRAS, C1-C6          : /65735/65735/65735
NUM. TOTAL DE MUESTRAS, C7-C12         : 
ACEL. MAX. (Gal), C1-C6                : /14.17168/8.47099/12.93478
ACEL. MAX., C1-C6, EN LA MUESTRA       : /13293/13390/12742
ACEL. MAX. (Gal), C7-C12               : 
ACEL. MAX., C7-C12, EN LA MUESTRA      : 
UNIDADES DE LOS DATOS                  : Gal (cm/s/s)
FACTOR DE DECIMACION                   : 1
FORMATO DATOS (FORTRAN,10 campos/dato) : 3F10.5


================================================================================
CALIDAD DEL ACELEROGRAMA:
REGISTRO DIGITAL COMPLETO CON TIEMPO ABSOLUTO CORRECTO.


================================================================================
COMENTARIOS:














================================================================================
DATOS DE ACELERACION:
---------+---------+---------+---------+---------+---------+---------+---------+
   CANAL-1   CANAL-2   CANAL-3   CANAL-4   CANAL-5   CANAL-6   CANAL-7   CANAL-8
      N00E        +V      N90W
---------+---------+---------+---------+---------+---------+---------+---------+
[...]
  -3.29782  -0.54109   0.61372
  -1.95652  -0.73359   0.59152
  -0.65652  -0.89999   0.15502
   0.28018  -1.00589   0.05612
   1.29838  -0.92179   0.06822
   1.94488  -0.91149   0.21932
   2.74968  -0.95849   0.34022
   3.20858  -0.64519   0.54592
   3.50158  -0.66179   0.86672
   3.43798  -0.43149   1.31142
   3.13378  -0.31479   1.55922
   2.85698  -0.31919   1.83542
   2.14458  -0.22849   2.09162
   1.39048  -0.50209   2.69372
   0.37278  -0.72439   3.01592
  -0.36142  -0.82989   3.20642
  -1.06422  -1.26639   3.46692
  -1.92042  -1.51959   3.25932
  -2.61212  -1.68419   3.16622
  -3.46662  -1.74379   2.90182
  -4.32942  -1.75459   2.77762
  -5.21622  -1.73049   2.66522
  -5.89642  -1.88459   3.05732
  -6.66652  -1.99569   3.28332
  -6.79562  -1.86429   4.05372
  -6.60952  -1.55379   4.61072
  -6.25882  -1.05479   5.04742
  -5.64202  -0.44989   5.75492
  -5.20242   0.04831   6.31652
  -4.76032   0.51481   6.80942
  -4.51392   1.13501   7.64432
  -4.26112   1.54541   8.31142
  -4.59552   1.78501   8.75522
  -4.66982   2.38901   8.83442
  -4.53722   2.69031   8.53912
  -3.96072   3.13431   7.64432
  -3.23022   3.51221   6.36262
  -2.15752   3.79251   4.69492
  -0.94032   4.13201   2.94152
   0.83238   4.08171   0.83372
   2.59018   4.39361  -1.16808
   4.34628   4.32371  -2.94528
   6.13708   4.21361  -4.63718
   7.64088   4.63211  -5.88638
   8.52938   4.74201  -7.47418
   8.79238   4.87321  -8.55628
   8.79638   4.94431  -9.57308
   8.35968   4.62441 -10.55578
   7.77398   4.52531 -11.37968
   7.06008   4.31111 -12.17728
   6.33558   4.19231 -12.63618
   5.38438   4.01721 -12.64558
   4.74048   3.78431 -12.38958
   3.88008   3.30831 -11.44638
   3.20628   2.57811 -10.02948
   2.29698   2.00011  -8.19758
   1.45598   1.29381  -6.23638
   0.44758   1.15281  -4.65138
  -0.66492   0.79771  -3.20788
  -1.67122   0.83411  -1.92538
  -2.81382   0.77191  -0.77998
  -3.91202   0.85731   0.29112
  -4.79752   0.79981   1.29132
  -5.64852   1.11261   2.24642
  -6.48212   1.07221   3.43532
  -6.68082   0.97861   4.55952
  -6.97822   0.92531   5.38622
  -6.75752   0.69341   6.36962
  -6.21552   0.60011   6.86022
  -5.54262   0.52481   7.29782
  -4.47762   0.73971   7.41592
  -3.06402   1.07331   7.60742
  -1.78182   1.16571   7.68922
  -0.46852   1.58771   7.59292
   0.90018   1.80541   7.43932
   2.04778   2.21241   6.96932
   3.08798   2.53721   6.17422
   3.71248   2.84441   5.04582
   4.17538   2.96931   3.83352
   4.51138   2.84281   2.31022
   4.34308   2.75911   0.98012
   4.04168   2.43571  -0.36898
   3.48168   2.27491  -1.81788
   2.95348   1.99991  -3.11298
   2.57778   1.89891  -4.07198
   2.20228   1.80941  -4.84638
   1.92638   1.54021  -5.60858
   1.24598   1.14211  -6.30658
   0.52218   0.75931  -6.76438
  -0.59362   0.25061  -7.31818
  -1.64392   0.20361  -7.60488
  -2.63312   0.10861  -7.83238
  -3.63242   0.48341  -7.93758
  -4.32982   0.76891  -7.80568
  -4.76382   1.26721  -7.81908
  -5.17182   1.31841  -7.02128
  -5.43392   1.28541  -5.76788
  -5.66632   1.05491  -4.22048
  -5.61722   1.20151  -2.47298
  -5.63802   1.28611  -0.83188
  -5.54752   1.53881   0.79772
  -5.66232   1.74651   2.53752
  -5.53892   1.90901   3.80402
  -5.35392   1.87931   5.21672
  -5.31072   1.38031   6.65072
  -5.07642   0.80751   8.15622
  -4.68572   0.23681   9.41972
  -3.99132  -0.20939  10.28032
  -3.42922  -0.60919  11.07622
  -3.10472  -0.83989  11.15992
  -2.53282  -1.02839  11.28052
  -2.07872  -0.89749  10.79072
  -1.71702  -0.69749   9.90902
  -1.32102  -0.37769   9.06542
  -0.92282  -0.13729   8.06292
  -0.52202  -0.08169   6.79732
  -0.00982   0.07661   5.66052
   0.35378   0.22551   4.12832
   0.86518   0.13131   2.93332
   1.31378   0.03541   1.86552
   1.85698   0.00461   1.10642
   2.57098  -0.25749   0.35352
   3.46138  -0.38029  -0.00168
   4.43138  -0.44389  -0.46038
   5.14218  -0.55539  -0.58598
   5.72088  -0.86919  -0.78068
   6.13028  -0.91549  -0.90808
   6.26288  -1.02809  -0.56088
   5.96258  -0.98859  -0.28008
   5.94088  -1.16309   0.36752
   5.79168  -1.52519   1.05192
   5.89038  -1.53949   1.53492
   6.00328  -1.80179   1.84382
   6.28248  -1.88719   2.16742
   6.90648  -2.08449   2.39982
   7.37718  -2.33049   2.57162
   7.76088  -2.39129   2.99272
   8.05378  -2.47589   3.78282
   8.57988  -2.21499   4.55972
   8.59438  -2.01179   5.38902
   8.50298  -1.43009   6.11292
   8.28828  -0.72609   6.60272
   8.11668   0.08031   6.68182
   7.89198   1.20261   6.56562
   7.73678   2.22181   6.33412
   7.28998   3.06401   5.97752
   7.02528   3.64481   5.76152
   6.75778   3.83951   5.44122
   5.97618   3.56991   5.13442
   5.23318   3.54351   4.68742
   4.70028   3.37241   4.06402
   4.40058   3.10211   3.29532
   3.99678   2.72421   2.44842
   3.67578   2.19281   1.59432
   3.19998   1.71911   0.82042
   2.35468   1.16171  -0.15548
   1.17068   0.53091  -1.18428
  -0.27912  -0.20159  -2.32548
  -2.24752  -0.97859  -3.42348
  -3.72692  -1.63679  -4.51438
  -5.46152  -1.88969  -5.99858
  -7.02802  -2.05919  -7.37508
  -8.75302  -2.08729  -8.62478
 -10.14372  -1.90939  -9.76248
 -11.35812  -1.95149 -10.32668
 -12.18652  -2.01549 -10.56488
 -12.61742  -2.26449 -10.34368
 -12.68272  -2.45439  -9.92098
 -12.76122  -2.54859  -9.50528
 -12.56372  -2.51279  -9.00518
 -12.62582  -2.44709  -8.67738
 -12.41502  -2.63789  -8.06358
 -12.37382  -2.87449  -7.64248
 -12.15332  -3.10809  -7.25488
 -11.71592  -3.47449  -6.79378
 -11.35422  -3.75039  -6.27798
 -10.84382  -4.08519  -5.63648
 -10.29382  -4.24579  -5.00658
  -9.91042  -4.31969  -4.06478
  -9.26512  -4.56519  -2.69188
  -8.75472  -4.54419  -1.34928
  -8.17812  -4.55819   0.15922
  -7.81242  -4.56499   1.54502
  -7.68242  -4.62339   2.96022
  -7.29712  -4.57689   3.90572
  -6.96322  -4.46959   4.50942
  -6.52162  -3.94209   4.73812
  -6.00812  -3.57359   4.76592
  -5.19562  -2.82259   4.53002
  -4.18722  -1.95219   4.12882
  -3.05962  -1.02979   3.70682
  -2.05422  -0.29629   3.14632
  -0.78272   0.53231   2.80242
   0.39798   1.28961   2.16182
   1.79568   1.89561   1.81152
   2.92708   2.43221   1.18052
   3.95048   2.79181   0.77042
   4.70448   3.03781   0.35702
   5.03908   3.27231   0.09052
   5.08448   3.18911  -0.01638
   4.82698   2.90311  -0.32528
   4.68468   2.35251  -0.91728
   4.55158   1.61271  -1.21998
   4.25938   0.85781  -1.32148
   4.14848   0.07031  -1.20318
   4.39918  -0.73819  -0.70288
   4.58458  -1.21729   0.02942
   4.80858  -1.72139   0.98502
   4.95748  -2.01199   1.94952
   4.92938  -2.08429   2.94272
   5.05828  -1.89459   3.78112
   5.10878  -1.43289   4.20462
   5.11598  -0.82939   4.64882
   4.96118  -0.27579   4.79192
   4.81458   0.01371   4.69912
   4.61968   0.04041   4.39282
   4.49338   0.26761   4.11902
   4.51158   0.54681   3.29182
   4.08698   0.39901   2.19332
   3.90278   0.37801   1.17742
   3.95188   0.33361  -0.09118
   4.28318   0.79811  -1.04188
   4.88898   1.27631  -1.79518
   5.64628   1.81851  -2.03878
   6.31338   2.08811  -2.16858
   7.35428   2.65971  -1.90368
   8.06968   3.07081  -1.15428
   8.43348   3.34571  -0.68878
   8.25538   3.61531  -0.09868
   7.18568   3.82971   0.34552
   5.48398   4.09481   0.41692
   3.48518   4.43361   0.26442
   1.60258   4.72281   0.29762
  -0.07902   4.74301   0.20502
  -1.70072   4.32651   0.53242
  -2.97562   4.01041   0.95952
  -4.10472   3.19001   1.36542
  -4.74932   2.57861   1.96512
  -5.22562   1.65921   2.20152
  -5.46522   0.98121   2.49632
  -5.68412   0.58681   2.63312
  -5.66722   0.09721   2.36712
  -5.27422  -0.41669   2.23732
  -4.65582  -0.98509   2.13492
  -3.74162  -1.36739   1.78722
  -2.58282  -1.91729   1.60232
  -1.12182  -2.11889   1.42952
   0.21468  -2.19859   1.50102
   2.00988  -2.16629   1.77902
   3.66148  -1.82429   1.98782
   5.03348  -1.07259   2.18332
   6.30048   0.03471   2.02902
   7.14058   0.92811   1.65492
   7.80928   1.90901   1.24412
   7.77748   2.98591   0.62212
   7.61918   3.44371  -0.03768
   7.21378   3.79511  -0.81268
   6.19268   3.77521  -1.34508
   4.83708   3.70301  -1.71668
   3.32928   3.58891  -1.99088
   1.83798   3.45491  -1.93758
   0.35238   3.02521  -1.76178
  -1.14232   2.67821  -1.36568
  -2.64742   2.41261  -1.08888
  -3.80752   2.08851  -0.49308
  -5.10402   1.59641   0.47722
  -6.01862   0.98051   1.28172
  -6.78182   0.68921   2.02992
  -7.19662   0.28841   2.72692
  -7.37962   0.03361   3.10802
  -7.27932  -0.28559   3.21582
  -7.12902  -0.39619   2.99742
  -6.95952  -0.41909   2.63502
  -6.79002  -0.49249   2.38742
  -6.60602  -0.52829   1.67712
  -6.33412  -0.76559   1.04912
  -5.77032  -1.10459   0.14072
  -5.07782  -1.26129  -0.77858
  -4.26982  -1.32159  -1.72128
  -3.04342  -1.39169  -2.28898
  -1.83232  -1.57289  -2.78838
  -0.58772  -1.44949  -3.14218
   0.64768  -1.57339  -3.05638
   1.69608  -1.38099  -2.98878
   2.55818  -1.21469  -2.46788
   2.94018  -1.08099  -2.06548
   3.09688  -0.40289  -1.52518
   3.03068   0.24491  -1.38858
   2.78448   1.14951  -1.24058
   2.04988   2.13601  -1.29668
   1.05408   3.17571  -0.96988
   0.26358   4.06401  -0.95258
  -0.89032   4.98261  -1.21718
  -2.03342   5.70461  -1.23548
  -3.18822   5.87371  -1.41078
  -4.15992   5.66301  -1.94228
  -5.05862   5.28681  -2.74778
  -6.09582   4.77621  -3.71428
  -6.68832   4.03261  -5.13138
  -7.31072   3.32911  -6.67038
  -7.90602   2.60691  -8.01428
  -8.18392   1.89471  -9.34718
  -8.22602   1.19791 -10.44938
  -8.19492   0.96511 -10.97098
  -8.03222   0.54941 -11.53238
  -7.66542   0.21341 -11.62008
  -7.03082   0.01161 -11.58598
  -6.49212  -0.33209 -11.40548
  -5.60202  -0.29379 -10.82188
  -4.78182  -0.16959 -10.24648
  -3.94342   0.27001  -9.57818
  -2.88682   0.59891  -8.85388
  -1.90972   0.84961  -8.06218
  -0.90812   0.80051  -7.16948
   0.09518   0.92041  -6.50408
   1.38748   1.09251  -5.58968
   2.51278   1.11631  -4.52418
   3.72388   0.99431  -3.39958
   5.04328   0.68121  -2.33338
   6.54858   0.47901  -0.96148
   7.97708   0.41941   0.13232
   9.24628   0.02701   1.21022
  10.45808  -0.14719   2.00982
  11.33208  -0.39519   2.26532
  11.81578  -0.53079   2.23542
  11.87078  -0.82709   1.96772
  12.20438  -1.45949   1.16482
  12.36548  -1.94629   0.26372
  12.86228  -2.20959  -0.63038
  13.43168  -2.57389  -1.49098
  13.70898  -2.46349  -2.16508
  14.07368  -2.24139  -2.72108
  14.15058  -1.77379  -3.21908
  14.17168  -1.05739  -3.23428
  13.94908  -0.27689  -3.12228
  13.30398   0.33071  -2.75338
  12.14708   1.04291  -2.27588
  10.61308   1.72961  -1.54668
   8.61168   2.12641  -0.86698
   6.70778   2.86061  -0.04748
   4.38278   3.33261   0.75312
   2.28158   3.87741   1.32192
  -0.05492   4.19211   1.82842
  -2.25152   4.21691   2.12582
  -4.36372   3.74951   2.64152
  -6.53402   3.19681   3.04632
  -8.63452   2.47381   3.27592
 -10.48182   1.59591   3.54152
 -11.96582   0.38901   4.13442
 -13.03172  -0.80629   4.46622
 -13.69302  -1.32769   4.72242
 -13.66332  -1.83099   5.15692
 -13.48932  -2.34239   5.53842
 -13.10382  -2.67739   5.84502
 -12.44352  -3.04549   6.08762
 -11.94572  -3.35879   6.37012
 -11.24262  -3.84479   6.56162
 -10.56692  -4.32719   6.79772
  -9.54142  -4.64139   7.10262
  -8.62402  -4.99329   7.23662
  -7.66792  -5.17829   7.25902
  -6.34152  -5.37839   7.28262
  -5.03082  -5.67859   7.30042
  -3.59292  -5.74479   7.28152
  -2.29642  -5.88159   7.24592
  -0.82132  -5.93089   7.15572
   0.11248  -5.89139   6.86302
   1.22518  -5.79339   6.61912
   2.01458  -5.71949   6.08182
   2.55748  -5.65799   5.56672
   3.13938  -5.44009   4.79892
   3.54388  -4.85769   3.51622
   3.75848  -4.51349   2.13512
   3.46808  -4.03169   0.75122
   3.30418  -3.43989  -0.81528
   2.87028  -2.93789  -2.12998
   2.34328  -2.30379  -3.03368
   1.78428  -1.72649  -3.51208
   1.18988  -1.19879  -3.93038
   0.92408  -0.45299  -3.47118
   0.60658  -0.02769  -2.74348
  -0.07152   0.35341  -2.32478
  -0.47812   0.56221  -1.64738
  -0.74132   0.98171  -1.06288
  -1.17372   1.33941  -0.46268
  -1.36122   1.73641   0.20762
  -1.28242   2.00511   0.67362
  -1.03642   2.55011   1.27312
  -0.63452   2.89001   1.83562
   0.04748   3.24561   2.25042
   0.68838   3.29891   2.66752
   1.78328   3.36181   2.61722
   3.18518   3.34131   2.71262
   4.66128   3.11561   2.67682
   6.11278   2.80421   2.61442
   7.38698   2.65041   2.69322
   8.51628   2.30221   2.56532
   9.67648   2.02961   2.38882
  10.36948   1.84211   2.03532
  11.01128   2.21201   1.72342
  11.63858   2.22131   1.62802
  11.76268   2.57981   1.04742
  11.64928   3.10931   0.81012
  11.31358   3.54191   0.49332
  10.89318   4.17691   0.22652
  10.40878   4.47551  -0.01408
   9.53898   4.87741  -0.24968
   8.64538   5.11731  -0.48518
   7.74258   5.13201  -0.93618
   6.64118   4.96951  -1.58198
   5.60348   4.65571  -2.43838
   4.58078   3.91041  -3.18868
   3.44968   3.18251  -3.98038
   2.59388   2.53561  -4.61678
   1.98038   1.92461  -5.01128
   1.49358   1.07431  -5.19288
   1.00748   0.11141  -5.07808
   0.67618  -0.90769  -4.48188
   0.30378  -1.77239  -4.11478
   0.29418  -2.86919  -3.70888
   0.23618  -3.72859  -3.19428
   0.33248  -4.53319  -2.54338
   0.69418  -5.31829  -2.16318
   0.85648  -5.91119  -1.80058
   0.81818  -6.50889  -1.38508
   0.71108  -6.92549  -0.85128
   0.51978  -7.39549  -0.29038
   0.06458  -7.70129   0.28972
  -0.32282  -8.10579   0.78632
  -0.65132  -8.39359   1.16572
  -1.14562  -8.47099   1.91252
  -1.49752  -8.30309   2.26392
  -2.06312  -8.01249   2.89732
  -2.35862  -7.51909   3.62032
  -2.85942  -6.74689   4.13092
  -3.58052  -6.11979   4.66142
  -4.00272  -5.35219   5.18022
  -4.44702  -4.37399   5.26142
  -4.79072  -3.41159   5.49702
  -5.28192  -2.43329   5.23262
  -5.66052  -1.53759   4.74682
  -5.89472  -0.40249   3.77322
  -6.09882   0.49561   2.25582
  -6.25552   1.31111   0.73092
  -6.47362   2.22341  -1.06948
  -6.58912   3.02211  -2.48958
  -6.62982   3.44371  -3.83988
  -6.77482   3.58561  -4.85158
  -6.69272   3.68431  -5.61188
  -6.55082   3.48271  -6.04658
  -6.53282   3.41001  -6.57028
  -5.90272   3.08971  -6.93688
  -5.35162   2.71281  -7.27238
  -4.34202   2.46961  -7.36918
  -2.97912   2.21221  -6.99488
  -1.59732   1.95431  -6.53798
  -0.20802   1.69361  -5.78098
   1.22618   1.54071  -4.84148
   2.73188   1.87951  -3.83888
   3.86298   2.05091  -3.01428
   5.18898   2.32631  -2.34578
   5.82798   2.72471  -1.67198
   6.20508   2.88531  -0.93428
   6.44828   3.26741  -0.61818
   6.33788   3.28141  -0.06478
   5.84288   3.30271   0.37942
   5.12298   3.02611   0.97712
   4.10708   2.68871   1.09442
   3.14338   2.37001   1.27592
   1.92448   1.74581   1.20082
   0.62498   1.21171   1.04042
  -0.56582   0.12521   1.21742
  -1.61252  -0.49389   1.03272
  -2.67852  -1.00199   0.97592
  -3.45262  -1.55399   0.87022
  -4.19172  -1.88249   0.85412
  -4.92232  -1.80459   0.76572
