********************************************************************************
              CENTRO DE INSTRUMENTACION Y REGISTRO SISMICO  A.C.

    Anaxagoras 814, Col. Narvarte, Benito Juarez, C.P. 03020 Mexico, D.F.
           Tels. 5687 45 42/ 5687 45  82             Fax. 5669 25 12
********************************************************************************
ARCHIVO ESTANDAR DE ACELERACION:
VERSION DEL FORMATO                    : 2.0
NOMBRE DEL ARCHIVO                     : GR0420210908014746
FECHA Y HORA DE CREACION               : 13/SEP/21, 17:52
REF. CATALOGO ACELEROGRAMAS, SMIS 1996 : REGISTRO No.     /PAG.


================================================================================
DATOS DE LA ESTACION:
NOMBRE DE LA ESTACION                  : CACALUTLA
CLAVE DE LA ESTACION                   : GR04
LOCALIZACION DE LA ESTACION            : Atoyac de Álvarez y Zacualpan,Guerrero.
                                       :                                        
                                       :                                        
                                       :                                        
                                       : 
COORDENADAS DE LA ESTACION             : 17.13 LAT. N
                                       : 100.35 LONG. W
ALTITUD (msnm)                         : 0
TIPO DE SUELO                          : Rocas Metamórficas                  
                                       :                           
                                       : 
INSTITUCION RESPONSABLE                : CIRES
                                       : 

================================================================================
DATOS DEL ACELEROGRAFO:
MODELO DEL ACELEROGRAFO                : RADESD
NUMERO DE SERIE DEL ACELEROGRAFO       : 4
NUMERO DE CANALES                      : 3
ORIENTACION C1-C6 (rumbo;orientacion)  : /N00E/+V/N90W
ORIENTACION C7-C12 (rumbo;orientacion) : 
VEL. DE MUESTREO, C1-C6 (muestras/s)   : /100/100/100
VEL. DE MUESTREO, C7-C12 (muestras/s)  : 
ESC. COMPLETA DE SENSORES, C1-C6, (g)  : /1.0/1.0/1.0
ESC. COMPLETA DE SENSORES, C7-C12, (g) : 
FREC. NAT. DE SENSORES, C1-C6, (Hz)    : /0/0/0
FREC. NAT. DE SENSORES, C7-C12, (Hz)   : 
AMORTIGUAMIENTO DE SENSORES, C1-C6     : /0.000/0.000/0.000
AMORTIGUAMIENTO DE SENSORES, C7-C12    : 
INTERVALO DE MUESTREO, C1-C6, (s)      : /0.01/0.01/0.01
INTERVALO DE MUESTREO, C7-C12, (s)     : 
UMBRAL DE DISPARO, C1-C6, (Gal)        : /0.48/0.96/0.48
UMBRAL DE DISPARO, C7-C12, (Gal)       : 
MEMORIA DE PREEVENTO (s)               : 24.0
TIEMPO DE POSEVENTO (s)                : 0.0


================================================================================
DATOS DEL SISMO:
FECHA DEL SISMO (GMT)                  : 08/SEP/21
HORA EPICENTRO (GMT)                   : 01:47:46.0
MAGNITUD(ES)                           : /Mw=7.1
COORDENADAS DEL EPICENTRO              : 16.78 LAT. N
                                       : 99.93 LONG. W
PROFUNDIDAD FOCAL (km)                 : 10
FUENTE DE LOS DATOS EPICENTRALES       : SSN
                                       : INSTITUTO DE GEOFISICA, UNAM

================================================================================
DATOS DE ESTE REGISTRO:
HORA DE LA PRIMERA MUESTRA (GMT)       : 20:47:35.63
EXACTITUD DEL TIEMPO (s)               : 0.01
DURACION DEL REGISTRO (s), C1-C6       : /124.5/124.5/124.5
DURACION DEL REGISTRO (s), C7-C12      : 
NUM. TOTAL DE MUESTRAS, C1-C6          : /12450/12450/12450
NUM. TOTAL DE MUESTRAS, C7-C12         : 
ACEL. MAX. (Gal), C1-C6                : /72.25654/44.64738/56.22997
ACEL. MAX., C1-C6, EN LA MUESTRA       : /3541/3618/3631
ACEL. MAX. (Gal), C7-C12               : 
ACEL. MAX., C7-C12, EN LA MUESTRA      : 
UNIDADES DE LOS DATOS                  : Gal (cm/s/s)
FACTOR DE DECIMACION                   : 1
FORMATO DATOS (FORTRAN,10 campos/dato) : 3F10.5


================================================================================
CALIDAD DEL ACELEROGRAMA:
REGISTRO DIGITAL COMPLETO CON TIEMPO ABSOLUTO CORRECTO.


================================================================================
COMENTARIOS:














================================================================================
DATOS DE ACELERACION:
---------+---------+---------+---------+---------+---------+---------+---------+
   CANAL-1   CANAL-2   CANAL-3   CANAL-4   CANAL-5   CANAL-6   CANAL-7   CANAL-8
      N00E        +V      N90W
---------+---------+---------+---------+---------+---------+---------+---------+
[...]
  22.93599   9.69204  -7.38826
  -3.87907  -1.80013 -19.35926
 -30.69413  -8.50390 -27.49955
 -38.83441   0.59407 -27.02071
 -35.00369  13.04392 -20.79579
 -29.25761  18.31116  -8.34594
 -10.10399  11.12856   6.97695
  25.80903   0.59407  17.99028
  52.14525  -1.80013  22.77868
  58.84902   0.11523  19.42680
  55.01829  -6.58854   9.85000
  45.44149 -16.64418   3.62507
  35.38584  -6.58854   6.49811
  25.33019  12.56508   7.45579
   8.09194  31.71869   6.49811
 -15.85008  32.19753   5.06159
 -41.22861  29.32449   3.62507
 -50.32658  31.71869   1.70971
 -42.66514  25.01493   1.23087
 -35.96137  10.17088   8.41347
 -27.34224 -10.41926  11.28652
 -16.80776 -18.08070   3.14623
  -1.48487 -22.39027 -11.21898
  20.06295 -29.57287 -18.40158
  40.65308 -28.13635 -16.00738
  44.96265 -21.43259  -5.95174
  27.72439 -16.16534   6.49811
   2.82470 -13.77114  16.55376
 -11.54051 -13.29230  24.21521
 -23.99036  -8.02506  26.13057
 -38.83441   3.46711  17.03260
 -48.89006   9.69204   3.62507
 -46.49586  11.60740  -2.59985
 -28.77877   2.50943  -5.47289
  -9.62515  -8.50390 -12.17666
  -0.52719  -9.46158 -16.00738
   4.74006 -11.37694 -10.26130
   6.65542 -15.68650   1.23087
   1.86702  -7.54622  12.24420
  -0.52719   2.03059  14.15956
   1.86702   0.59407   5.54043
   3.30354   6.34015  -0.68449
   3.78238  12.56508  -2.59985
   4.26122  10.17088  -2.59985
   8.09194   0.11523  -4.51521
   8.09194  -8.02506  -3.55753
   4.26122 -12.33462  -0.20565
   4.74006 -15.68650  -0.20565
  10.48614 -18.08070  -4.03637
  18.62643 -14.24998  -5.95174
  21.02063  -3.23665  -4.51521
  15.27455   5.86131  -4.03637
   7.61310   8.73436  -2.12101
   0.90934  13.04392   2.18855
  -9.14631  17.35348   3.62507
 -20.63848  15.91696   1.23087
 -23.99036   3.94595  -4.51521
 -13.45587  -4.67317 -11.69782
   3.30354  -9.94042 -13.13434
  13.83802 -12.81346  -9.30362
  13.35918  -9.46158  -4.51521
   8.57078  -0.84245   0.27319
   8.57078   0.59407  -1.16333
   9.04962  -0.36361  -5.95174
  -2.44255   0.59407  -5.95174
 -21.11732   7.77667  -3.55753
 -31.17297  18.31116  -3.55753
 -25.42688  14.95928  -3.55753
 -11.54051   8.73436   0.27319
   1.86702   0.11523   2.66739
  11.92266 -10.89810   5.06159
  19.58411 -16.64418   9.85000
  23.41483 -18.55954   8.41347
  20.06295 -19.03838   2.18855
   9.04962 -18.55954  -0.20565
  -4.35791  -8.50390   1.23087
 -14.89240   2.98827   4.58275
 -22.07500  11.12856   6.97695
 -26.86340  18.79000   6.01927
 -25.42688  25.49377   2.66739
 -18.24428  21.18420   0.27319
  -9.62515  14.95928  -1.16333
   4.26122   9.21320  -2.12101
  21.02063   4.42479   0.27319
  34.42816   7.29783   2.66739
  34.42816  14.00160  -0.68449
  21.97831  18.79000 -12.17666
  11.92266  19.74768 -23.66883
  15.75339  14.95928 -28.45723
  21.02063   7.29783 -26.06303
  13.35918   0.11523 -16.48622
  -2.92139  -4.67317   1.23087
 -10.10399  -9.94042  22.29984
  -3.40023 -24.30563  34.27085
   5.69774 -34.84011  39.05926
   9.52846 -28.61519  41.93230
   8.09194  -8.50390  35.22853
  -2.92139  11.60740  12.72304
 -14.89240  20.22652 -11.69782
 -17.76544  32.19753 -24.62651
 -16.80776  40.33782 -28.93607
 -21.11732  27.40913 -26.06303
 -17.28660   3.46711 -19.35926
  -4.35791 -12.81346 -13.61318
   6.17658 -19.99606  -5.95174
  13.35918 -31.96707  -0.20565
  17.18991 -33.40359   6.01927
  12.88034 -23.82679  18.94796
   4.26122  -4.19433  30.44013
   4.74006  14.95928  28.04593
  10.00730  18.79000  16.55376
  10.00730  15.91696   4.10391
   5.69774   8.73436  -5.95174
  -1.96371   0.59407  -9.78246
 -17.28660  -6.10969  -6.90942
 -39.31325  -5.15201  -1.16333
 -55.59382  -7.06738  -3.55753
 -57.50919  -8.98274  -9.30362
 -42.18629  -0.36361 -10.74014
 -20.63848   4.90363 -11.21898
  -6.75211   6.34015 -15.04970
   3.30354   6.34015 -16.96506
  15.27455  -3.71549 -17.92274
  21.02063 -15.20766 -15.04970
  25.80903 -19.03838  -8.82478
  37.78004 -21.91143   1.23087
  40.65308 -20.95375   9.37116
  26.28787  -6.58854   4.58275
   4.74006  11.12856  -9.78246
  -6.75211   6.34015 -24.14767
 -10.58283  -7.06738 -28.93607
 -10.58283 -17.60186 -16.48622
  -4.83675 -29.09403   0.75203
   2.34586 -26.22099  13.68072
   7.61310 -10.41926  29.00361
   8.09194  -0.36361  36.66505
  -0.04835   3.46711  25.65173
  -7.70979  11.12856   2.66739
  -1.00603  16.39580 -18.88042
  11.92266  10.64972 -29.89375
  10.00730  -0.36361 -27.02071
  -3.40023  -6.10969 -11.69782
 -10.58283  -8.02506   3.62507
  -6.75211 -10.89810  14.15956
   5.69774 -12.81346  18.46912
  20.54179  -8.02506  16.07492
  30.59744  12.56508   8.41347
  28.20323  31.23985  -5.95174
  15.75339  41.29550 -22.23231
   4.26122  37.94362 -34.68216
  -1.00603  23.57841 -35.63984
  -5.31559   4.42479 -23.18999
 -12.49819 -11.37694  -0.68449
 -13.93472 -14.24998  23.25752
  -5.31559 -21.91143  32.83433
  -5.31559 -25.26331  26.60941
 -12.01935 -13.77114  17.03260
  -7.70979  -1.32129  12.72304
   6.17658   7.29783  12.72304
  18.14759   9.69204  14.63840
  20.06295  13.52276  15.11724
  14.79570  16.87464  11.28652
  -0.04835  12.56508   2.18855
 -21.11732   1.07291  -1.16333
 -27.34224  -7.54622   1.23087
 -21.11732  -7.06738   3.14623
 -17.28660   0.59407  -0.68449
  -8.18863   2.98827  -8.82478
   7.61310   6.81899 -14.09202
  18.14759  13.52276 -13.13434
  16.23223   8.25552  -8.82478
   8.57078   2.03059   1.70971
   8.09194  -2.75781  14.15956
  13.83802 -13.29230  19.90564
   9.52846 -20.47490  18.46912
 -10.58283 -11.85578  16.55376
 -22.55384   3.46711   7.93463
 -11.06167  16.39580  -3.55753
   4.26122  26.45145 -11.69782
   1.86702  27.40913 -14.57086
  -4.35791  26.93029 -14.57086
   2.34586  22.14188 -12.17666
  16.71107   4.42479  -9.30362
  23.41483 -13.77114  -3.07869
  20.54179 -17.12302   1.70971
  16.71107 -14.72882   1.70971
  15.75339 -16.16534  -2.59985
  11.44382 -13.77114  -9.30362
   3.78238  -3.71549  -4.03637
  -4.83675   6.34015  13.20188
 -18.24428  15.43812  24.21521
 -32.60949  23.57841  20.86332
 -35.00369  19.26884   8.89231
 -26.86340   6.34015  -7.38826
 -21.59616  -3.23665 -15.52854
 -21.59616 -12.33462 -14.57086
 -20.63848 -12.33462 -13.13434
 -18.72312  -2.75781  -6.90942
 -14.89240   0.59407   2.66739
  -6.27327   2.50943   6.01927
   4.26122   4.90363   5.06159
  10.96498   4.42479   2.18855
  15.27455  -0.36361 -12.65550
  20.54179 -17.12302 -31.80911
  19.58411 -25.74215 -33.24563
  13.83802 -26.22099 -20.79579
   3.78238 -19.51722  -3.55753
  -9.62515 -17.12302  10.80768
 -13.93472 -18.08070  20.86332
  -4.83675  -4.19433  36.66505
   1.86702   2.98827  43.36882
 -12.97703  16.87464  33.31317
 -34.52485  30.28217  17.03260
 -43.62282  25.01493  -3.55753
 -42.66514  15.91696 -22.71115
 -35.96137   3.94595 -37.07636
 -21.11732 -10.41926 -43.30128
  -1.48487 -19.99606 -31.33027
  21.97831 -28.61519  -4.99405
  37.78004 -35.31896  19.90564
  43.52612 -26.69983  35.70737
  50.22989 -17.60186  41.45346
  47.35685 -10.89810  37.14389
  32.03396   1.55175  25.17289
  17.66875   9.69204   4.58275
   7.61310  14.00160 -18.40158
  -7.23095  24.53609 -36.11868
 -29.73645  34.11289 -40.42824
 -48.89006  28.36681 -31.80911
 -45.53818  18.31116 -10.74014
 -17.28660  12.08624  11.76536
  11.44382   6.81899  21.82100
  21.02063  -0.84245  20.86332
  20.06295  -4.67317  14.63840
  23.41483  -3.71549   5.54043
  24.37251  -0.84245  -6.90942
  16.23223  10.17088 -18.40158
   8.09194  17.35348 -21.75347
   0.90934   5.38247 -17.92274
  -8.18863  -7.06738  -9.30362
  -7.70979  -9.94042  -0.20565
  -3.40023  -2.27897   7.93463
  -9.14631   0.59407  13.68072
 -20.63848  -4.19433  15.59608
 -22.07500  -4.19433   9.37116
 -10.10399   6.81899  -3.07869
   3.30354  11.60740 -22.23231
   3.78238   3.46711 -40.90708
 -12.01935   5.86131 -37.55520
 -31.17297  17.83232  -9.30362
 -39.79209  27.88797  16.55376
 -38.83441  22.14188  30.91897
 -34.04601  -0.36361  41.45346
 -14.89240 -17.12302  44.32650
  21.02063 -26.22099  35.22853
  51.66641 -31.96707  22.29984
  57.89133 -33.88243  11.76536
  41.61076 -22.86911   6.49811
  20.54179  -3.71549   1.23087
  -1.96371   9.21320  -8.34594
 -20.63848  12.56508 -16.96506
 -27.34224  10.64972 -16.48622
 -22.55384  13.52276 -11.69782
 -15.37124  12.08624 -15.04970
 -13.45587   4.42479 -23.18999
 -10.10399  -7.54622 -21.27463
  -3.40023 -19.03838 -13.61318
  -0.04835 -17.60186  -4.51521
   3.30354 -14.24998   3.62507
  11.92266 -20.47490   3.14623
  19.58411 -20.95375  -3.55753
  17.66875  -7.54622  -5.47289
  10.00730   3.46711  -1.16333
   9.04962  10.64972   0.75203
   8.57078  19.74768  -1.16333
  -2.44255  24.53609  -0.68449
 -17.28660  17.83232   2.18855
 -22.07500   2.50943   6.01927
 -15.85008 -21.91143   6.49811
  -9.62515 -27.65751   4.10391
  -6.27327 -19.03838   2.66739
  -1.48487 -13.77114   5.06159
   9.04962   1.55175   7.93463
  21.97831  19.74768   3.14623
  27.72439  24.53609  -5.95174
  21.49947  28.84565 -12.65550
  10.96498  32.19753 -14.57086
   5.21890  28.36681 -12.65550
   6.65542  11.60740 -16.00738
   9.04962 -10.41926 -19.35926
   4.26122 -24.78447 -11.21898
  -1.00603 -23.82679   1.70971
  -3.40023 -18.55954   8.41347
  -3.40023 -11.85578  11.28652
  -0.52719  -8.50390  15.11724
   1.86702  -4.67317  21.34216
   6.65542   7.77667  22.77868
   8.57078  19.26884  14.63840
  -4.83675  20.70536   6.49811
 -25.90572   9.69204   2.66739
 -33.08833  -4.67317   6.49811
 -14.41356 -24.30563  12.24420
  10.48614 -37.71316   9.37116
  27.24555 -39.62852   0.75203
  35.86468 -37.23432  -8.34594
  29.63976 -20.95375 -14.09202
  10.00730   5.38247 -14.09202
  -8.18863  13.04392 -12.65550
 -16.80776  11.12856  -7.38826
 -17.28660  11.60740   2.18855
 -13.45587   9.21320   2.66739
 -12.49819   6.34015  -6.90942
 -14.41356  -3.23665 -14.57086
 -11.06167 -15.68650 -10.74014
   1.38818 -14.72882   2.66739
  19.58411  -9.94042  17.99028
  32.99164  -4.67317  28.04593
  37.78004   0.11523  21.34216
  41.61076   2.98827   1.23087
  49.27221   2.98827 -18.88042
  49.27221  -1.32129 -29.89375
  32.51280   2.03059 -25.58419
  11.92266   7.29783  -8.82478
  -1.00603  10.64972   8.89231
 -13.45587  14.95928  23.25752
 -30.69413  18.79000  31.39781
 -49.36890  19.26884  31.39781
 -57.03035  18.31116  26.60941
 -48.89006  23.57841  20.38448
 -35.00369  27.40913   8.41347
 -16.32892  23.09957 -14.09202
   7.61310  14.48044 -34.20331
  35.38584   9.69204 -39.47056
  60.76438   8.73436 -32.28795
  72.25654   5.86131 -23.18999
  69.38350   2.50943  -8.82478
  52.62409  -3.71549   9.37116
  27.24555  -6.58854  20.38448
   3.30354  -5.63085  18.46912
 -17.28660 -13.77114  12.24420
 -35.00369 -21.91143  11.28652
 -45.05934 -24.30563  10.80768
 -44.10166 -15.68650   2.18855
 -33.08833  -8.02506  -9.78246
 -23.51152 -13.77114 -13.61318
 -21.59616  -6.10969  -6.43058
 -12.49819  10.64972   1.70971
   4.26122  13.04392   3.14623
  10.48614   4.90363   0.75203
   0.43049  -0.36361   1.23087
 -12.97703   4.42479   5.54043
  -7.70979   6.81899   2.18855
   8.57078   5.86131 -12.17666
  11.92266   8.25552 -26.06303
  -1.48487  17.83232 -26.54187
 -16.80776  28.84565 -15.04970
 -28.29993  32.19753  -1.64217
 -34.52485  26.93029   8.41347
 -28.77877  17.35348  14.63840
 -10.58283  11.12856  17.51144
  10.00730   1.55175  12.72304
  29.16091 -11.85578   1.23087
  44.48381 -24.78447  -5.95174
  47.83569 -30.05171  -1.16333
  30.59744 -24.78447  11.76536
   1.38818 -10.89810  25.17289
 -22.55384  -3.23665  29.00361
 -39.31325  -5.63085  20.86332
 -47.93238  -4.67317   9.37116
 -43.62282   4.90363  -0.68449
 -28.29993  13.04392 -14.57086
 -10.10399  10.64972 -33.72447
   8.09194   1.07291 -45.21664
  23.41483  -9.94042 -39.94940
  32.51280 -16.16534 -18.88042
  37.78004 -24.30563   3.14623
  35.38584 -33.88243  14.15956
  20.06295 -25.74215  23.25752
   0.90934  -7.54622  34.27085
  -9.14631   3.46711  41.45346
 -14.89240   6.81899  39.53810
 -23.03268  11.12856  30.91897
 -33.08833  19.26884  11.76536
 -40.74977  19.74768 -12.65550
 -43.14398  10.17088 -30.85143
 -37.39789   5.86131 -38.03404
 -25.90572   4.90363 -37.55520
 -14.41356  -0.36361 -31.33027
   0.90934  -1.80013 -17.44390
  19.10527  -2.75781  -0.68449
  33.47048  -7.54622  13.20188
  34.42816 -13.77114  21.82100
  22.93599 -17.60186  23.73637
  14.31686 -24.30563  17.99028
  11.92266 -32.92475   6.01927
   5.69774 -26.69983  -4.03637
  -4.83675  -3.71549  -9.30362
 -14.41356  18.31116 -15.04970
 -16.80776  23.57841 -21.27463
 -10.10399  20.70536 -25.58419
   3.30354  12.08624 -25.58419
  11.44382  -5.63085 -16.96506
   0.90934 -18.08070   0.27319
 -18.24428 -16.16534  18.94796
 -23.99036 -12.33462  34.27085
 -12.01935 -13.29230  36.66505
   0.90934 -11.37694  22.29984
   7.13426   6.34015   3.14623
  15.75339  25.97261 -13.13434
  21.97831  35.54941 -27.97839
  13.35918  43.68970 -33.72447
   0.90934  44.64738 -27.97839
   5.69774  33.15521 -19.83810
  22.93599   7.77667 -11.21898
  32.99164 -14.72882  -2.59985
  30.59744 -24.30563   0.75203
  17.18991 -31.96707   2.66739
   1.38818 -30.05171  10.32884
  -6.75211 -17.60186  24.69405
  -6.27327  -2.75781  35.70737
  -7.70979  12.08624  33.31317
 -13.93472  25.01493  15.59608
 -14.89240  35.54941 -13.13434
  -1.48487  43.68970 -41.86476
  14.79570  35.54941 -56.22997
  12.40150  23.09957 -45.21664
   0.43049  19.26884 -20.31695
   0.43049   4.42479  -2.12101
  10.96498 -15.20766  10.32884
  18.62643 -34.84011  26.60941
  16.71107 -43.45924  41.45346
  13.35918 -34.36127  42.88998
   8.57078 -22.39027  28.04593
  -5.79443 -10.89810  13.20188
 -25.90572  -2.75781   2.66739
 -42.18629   2.50943  -8.82478
 -46.97470   7.29783 -14.09202
 -41.70745  13.04392  -5.95174
 -37.39789  11.12856   2.18855
 -36.44021   3.94595   4.58275
 -25.42688  -2.27897   6.97695
  -2.44255  -9.46158   2.18855
  20.54179 -16.64418  -4.03637
  35.86468 -20.47490   3.14623
  38.73772 -13.29230  20.86332
  32.51280  -1.80013  30.44013
  29.16091   3.46711  24.21521
  32.03396  -0.36361  15.11724
  27.24555  -5.15201  13.68072
   4.74006  -2.75781  14.63840
 -25.90572   5.38247  10.32884
 -47.93238  14.00160   0.75203
 -52.24194  18.79000 -10.26130
 -42.66514  19.26884 -15.04970
 -21.59616  14.48044 -19.35926
   2.34586   9.21320 -29.41491
  24.37251   8.25552 -32.76679
  40.17424   9.21320 -21.75347
  41.13192   9.69204  -9.78246
  32.51280  -1.32129 -13.61318
  27.72439 -12.33462 -21.27463
  30.11860 -12.81346 -16.48622
  22.93599 -15.20766  -3.55753
   2.82470 -21.43259   8.89231
 -12.97703 -22.39027  16.55376
 -20.15964 -10.41926  20.86332
 -26.38456  -5.63085  26.13057
 -29.73645 -12.81346  31.39781
 -24.46920 -11.37694  29.48245
 -10.58283  -8.50390  12.24420
   4.26122   2.50943 -12.17666
  15.27455  18.31116 -27.49955
  16.71107  26.45145 -33.72447
   6.17658  22.62072 -36.59752
  -0.04835  18.79000 -34.68216
  10.96498  12.56508 -32.76679
  14.31686  -6.58854 -21.75347
  -1.48487 -23.82679   1.70971
