********************************************************************************
              CENTRO DE INSTRUMENTACION Y REGISTRO SISMICO  A.C.

    Anaxagoras 814, Col. Narvarte, Benito Juarez, C.P. 03020 Mexico, D.F.
           Tels. 5687 45 42/ 5687 45  82             Fax. 5669 25 12
********************************************************************************
ARCHIVO ESTANDAR DE ACELERACION:
VERSION DEL FORMATO                    : 2.0
NOMBRE DEL ARCHIVO                     : GR0520210908014746
FECHA Y HORA DE CREACION               : 13/SEP/21, 17:52
REF. CATALOGO ACELEROGRAMAS, SMIS 1996 : REGISTRO No.     /PAG.


================================================================================
DATOS DE LA ESTACION:
NOMBRE DE LA ESTACION                  : PÉNJAMO
CLAVE DE LA ESTACION                   : GR05
LOCALIZACION DE LA ESTACION            : El Zapote y Coyuca de Benítez,Guerrero.
                                       :                                        
                                       :                                        
                                       :                                        
                                       : 
COORDENADAS DE LA ESTACION             : 17.02 LAT. N
                                       : 100.11 LONG. W
ALTITUD (msnm)                         : 0
TIPO DE SUELO                          : Rocas Metamórficas                  
                                       :                           
                                       : 
INSTITUCION RESPONSABLE                : CIRES
                                       : 

================================================================================
DATOS DEL ACELEROGRAFO:
MODELO DEL ACELEROGRAFO                : RADESD
NUMERO DE SERIE DEL ACELEROGRAFO       : 5
NUMERO DE CANALES                      : 3
ORIENTACION C1-C6 (rumbo;orientacion)  : /N00E/+V/N90W
ORIENTACION C7-C12 (rumbo;orientacion) : 
VEL. DE MUESTREO, C1-C6 (muestras/s)   : /100/100/100
VEL. DE MUESTREO, C7-C12 (muestras/s)  : 
ESC. COMPLETA DE SENSORES, C1-C6, (g)  : /1.0/1.0/1.0
ESC. COMPLETA DE SENSORES, C7-C12, (g) : 
FREC. NAT. DE SENSORES, C1-C6, (Hz)    : /0/0/0
FREC. NAT. DE SENSORES, C7-C12, (Hz)   : 
AMORTIGUAMIENTO DE SENSORES, C1-C6     : /0.000/0.000/0.000
AMORTIGUAMIENTO DE SENSORES, C7-C12    : 
INTERVALO DE MUESTREO, C1-C6, (s)      : /0.01/0.01/0.01
INTERVALO DE MUESTREO, C7-C12, (s)     : 
UMBRAL DE DISPARO, C1-C6, (Gal)        : /0.48/0.48/0.48
UMBRAL DE DISPARO, C7-C12, (Gal)       : 
MEMORIA DE PREEVENTO (s)               : 24.0
TIEMPO DE POSEVENTO (s)                : 0.0


================================================================================
DATOS DEL SISMO:
FECHA DEL SISMO (GMT)                  : 08/SEP/21
HORA EPICENTRO (GMT)                   : 01:47:46.0
MAGNITUD(ES)                           : /Mw=7.1
COORDENADAS DEL EPICENTRO              : 16.78 LAT. N
                                       : 99.93 LONG. W
PROFUNDIDAD FOCAL (km)                 : 10
FUENTE DE LOS DATOS EPICENTRALES       : SSN
                                       : INSTITUTO DE GEOFISICA, UNAM

================================================================================
DATOS DE ESTE REGISTRO:
HORA DE LA PRIMERA MUESTRA (GMT)       : 20:47:31.22
EXACTITUD DEL TIEMPO (s)               : 0.01
DURACION DEL REGISTRO (s), C1-C6       : /129.5/129.5/129.5
DURACION DEL REGISTRO (s), C7-C12      : 
NUM. TOTAL DE MUESTRAS, C1-C6          : /12950/12950/12950
NUM. TOTAL DE MUESTRAS, C7-C12         : 
ACEL. MAX. (Gal), C1-C6                : /144.21218/101.70543/106.4962
ACEL. MAX., C1-C6, EN LA MUESTRA       : /2908/3006/3118
ACEL. MAX. (Gal), C7-C12               : 
ACEL. MAX., C7-C12, EN LA MUESTRA      : 
UNIDADES DE LOS DATOS                  : Gal (cm/s/s)
FACTOR DE DECIMACION                   : 1
FORMATO DATOS (FORTRAN,10 campos/dato) : 3F10.5


================================================================================
CALIDAD DEL ACELEROGRAMA:
REGISTRO DIGITAL COMPLETO CON TIEMPO ABSOLUTO CORRECTO.


================================================================================
COMENTARIOS:














================================================================================
DATOS DE ACELERACION:
---------+---------+---------+---------+---------+---------+---------+---------+
   CANAL-1   CANAL-2   CANAL-3   CANAL-4   CANAL-5   CANAL-6   CANAL-7   CANAL-8
      N00E        +V      N90W
---------+---------+---------+---------+---------+---------+---------+---------+
[...]
  -1.51776 -18.86605 -22.31185
   1.83412  -8.33156 -27.57910
   1.83412   8.42785 -36.67706
   8.53789  23.27190 -39.07126
   8.05905  13.69509 -30.93098
  -3.91196  -8.33156 -14.65041
 -15.88297   2.20292   3.54553
 -14.44645  25.18726  16.95306
  -6.30616  14.17393  21.26262
  -7.74268  -8.81040  28.92406
 -17.31949  -9.76808  42.81043
 -24.98093  -0.67012  50.95072
 -22.10789   3.16061  52.86608
 -13.00993  13.21625  51.90840
  -9.65804  24.22958  44.24695
  -9.17920  14.65277  29.40290
  -8.70036  -8.33156  11.20697
  -7.26384 -21.26025  -8.42548
   0.39760 -22.21793 -22.79069
  14.28397 -38.97734 -35.24054
  24.81846 -41.85039 -54.87299
  30.08570  -0.19128 -72.11125
  41.09903  13.69509 -73.54777
  54.50656 -20.78141 -67.32284
  55.94308 -30.83706 -61.09792
  44.45091  -8.81040 -53.91531
  29.12802  21.83538 -39.07126
  11.88977  39.07363 -17.04461
  -4.39080  14.17393   4.98205
 -10.61572  -4.02200  20.78378
  -7.74268   7.94901  31.79711
 -11.09456  -6.41620  41.85275
 -23.54441 -30.35822  44.72579
 -32.64238  -4.02200  37.06435
 -25.93861  24.22958  23.17798
  -8.70036 -20.30257   4.50321
   1.35528 -60.04632 -13.21389
  -6.30616 -27.96402 -24.22721
 -12.53109  -6.41620 -29.97330
  -3.43312 -13.11997 -31.40982
   4.70717   9.38553 -27.10026
   5.66485  30.93334 -12.25620
  14.76281  42.42551   9.29161
  28.64918  42.42551  24.61450
  24.33962   6.03365  24.61450
  -7.74268  -3.06432  18.86842
 -38.38846  13.69509  16.95306
 -37.43078  -1.62780   8.81277
  -7.26384  -5.45852  -3.63708
  26.25498   0.28756  -2.20056
  38.70483 -17.42953   9.77045
  29.60686  -7.37388  20.78378
  12.36861  26.14494  34.19131
  -7.74268  29.49682  41.37391
 -24.02325   9.38553  25.57218
 -32.64238  -0.19128  -0.28520
 -38.86730   4.59713 -18.00229
 -37.90962   3.63945 -24.22721
 -22.58673  -9.76808 -21.35417
   2.31297  -9.28924 -16.56577
  26.25498   3.63945 -17.04461
  42.53555   2.20292 -19.43881
  42.05671 -17.42953 -17.52345
  21.46658 -12.64113  -4.59476
  -0.08124  21.83538  11.68581
  -3.43312  20.39886  13.60117
   4.22833  -2.58548  -5.55244
   0.87644   9.38553 -24.70605
 -13.48877  18.48350 -23.26953
 -26.41745  10.82205  -0.28520
 -29.29050  18.96234  34.19131
 -17.79833  16.08929  60.52753
  -0.08124  -6.41620  60.52753
   7.10137 -10.24692  42.81043
   2.31297  -4.50084  27.48754
  -1.51776 -24.13329  14.55885
  -2.95428 -43.28691  -3.15824
  -6.30616 -15.51417 -19.43881
  -7.74268  20.39886 -28.05794
  -5.34848  11.30089 -25.18489
  -6.78500   6.51249 -10.81968
  -9.65804  44.34087   9.77045
  -6.30616  62.05797  26.52986
  -6.30616  20.87770  32.27595
 -17.79833 -20.78141  22.69914
 -26.41745 -14.55649   3.54553
 -17.79833 -11.20460  -8.42548
   0.39760 -42.80807 -12.25620
  18.59354 -48.07531 -16.08693
  40.14135  -8.33156 -19.91765
  61.21033  10.82205 -23.26953
  70.30829  -6.41620 -30.93098
  60.25265 -10.24692 -37.63474
  35.35295 -10.72576 -40.50778
   9.49557 -19.82373 -38.11358
  -7.26384 -13.59881 -26.14257
 -16.84065 -12.64113 -13.69273
 -25.93861 -34.18894  -8.90432
 -32.64238 -26.04866   1.63016
 -31.20586   6.51249  27.48754
 -19.71369   2.20292  52.38724
  -2.95428  12.73741  62.44289
   5.18601  45.29855  58.13332
  -6.78500  20.39886  44.72579
 -35.03658   4.59713  31.31827
 -55.14787  44.81971  27.96638
 -36.95194  38.59479  15.03769
  14.28397   6.51249 -24.70605
  55.46424  10.34321 -61.57676
  61.21033   6.03365 -65.88632
  42.05671   0.76640 -38.59242
  25.77614   8.42785  -4.59476
  28.64918 -20.30257  -0.76404
  32.00107 -51.42719 -29.49446
   4.70717 -35.14662 -56.30952
 -39.34614  -3.06432 -53.43647
 -52.27483  20.87770 -17.52345
 -23.54441  20.39886  27.48754
   5.66485 -19.82373  49.99304
  -1.03892 -36.58314  56.21796
 -33.60006  -4.50084  60.04869
 -59.45744  -8.33156  43.28927
 -55.62671 -48.07531  -5.55244
 -30.24818 -21.73909 -40.98662
  -1.03892  31.41218 -27.10026
  24.81846   8.42785   3.54553
  45.40860 -21.26025   8.81277
  46.36628  19.92002   0.19364
  18.59354  43.86203  -3.15824
 -11.57340  17.52581  -4.59476
  -2.47544  18.00466 -14.17157
  35.35295  52.96000 -23.26953
  73.66017  54.87536 -17.04461
  88.02538  -8.81040  -0.28520
  55.46424 -71.05965  16.47422
 -15.40413 -44.24459  29.88174
 -69.03424  26.14494  38.97971
 -74.78033  19.44118  34.19131
 -57.54208 -13.11997  13.12233
 -46.52875  26.62378   1.63016
 -37.43078  52.00232   9.29161
 -14.92529  31.89102  21.26262
   9.01673  19.44118  24.61450
  10.93209  -5.45852  16.47422
   1.83412 -28.92170   3.06669
   1.35528 -21.73909  -3.63708
   7.58021 -28.92170  -2.67940
   3.27065 -26.04866   5.46089
 -15.40413   2.20292  17.91074
 -35.03658  -4.97968  15.51653
 -41.26151  -7.85272  -7.46780
 -36.95194  21.35654 -24.70605
 -24.50209  21.35654 -19.91765
  -9.17920   3.63945   2.10901
   6.14369  -5.45852  25.09334
  18.11470 -33.23126  34.19131
  24.33962 -33.23126  30.83943
  25.29730   6.03365  25.57218
  23.86078  11.30089  17.43190
  17.63586  -2.58548   2.10901
   0.87644  15.13161  -8.90432
 -16.84065  26.62378  -9.86200
 -21.15021  14.65277 -14.17157
 -13.48877   6.03365 -25.18489
 -11.57340  -6.41620 -29.49446
 -21.62905 -12.64113 -19.91765
 -33.60006  -2.10664  -2.67940
 -30.72702  -0.67012  12.64349
  -6.78500 -11.68345  19.34726
  30.08570 -17.90837  17.91074
  60.25265 -21.26025   8.81277
  69.35061 -32.27358  -6.51012
  60.73149 -42.32923 -23.74837
  43.01439 -13.11997 -41.94431
  26.73382  32.84871 -50.56343
  27.21266  24.70842 -51.52111
  42.53555   6.99133 -59.18256
  54.50656  17.52581 -71.15357
  55.94308   1.72408 -74.50545
  40.62019 -22.21793 -59.66140
   4.22833  -7.85272 -25.66373
 -35.99426   3.16061  13.60117
 -52.27483  -8.33156  42.33159
 -48.92295 -10.24692  61.00637
 -47.96527  -4.50084  74.41390
 -48.44411  -6.89504  84.94838
 -39.34614 -13.59881  91.65215
 -34.55774 -15.99301  85.90606
 -41.26151  -3.54316  56.69680
 -34.07890  31.41218  20.78378
  -3.43312  35.72175  -9.38316
  26.25498  -0.19128 -36.67706
  42.05671  14.65277 -56.30952
  54.98540  67.32521 -59.18256
  65.04105  53.43884 -53.43647
  58.33728   3.16061 -46.73271
  26.73382  -4.97968 -36.19822
  -5.34848  18.00466 -18.95997
 -11.57340  28.53914  -0.28520
  -7.26384  -7.37388  10.72813
 -18.27717 -49.03299  14.55885
 -37.43078 -38.97734  23.17798
 -44.13455 -11.68345  35.14899
 -32.64238   0.76640  34.67015
  -7.74268 -10.72576  14.08001
   8.53789 -41.85039 -14.65041
  -2.95428 -44.72343 -30.93098
 -25.93861 -13.11997 -24.22721
 -26.41745   7.94901  -9.38316
   8.05905   6.99133  -7.94664
  49.23932  -1.14896 -13.69273
  62.64685 -10.24692  -8.42548
  46.84512 -15.03533   9.29161
  26.73382 -19.34489  23.65682
  18.11470 -13.59881  18.86842
  11.88977  14.65277  -8.42548
  -4.86964  40.98899 -35.71938
 -25.93861  46.73508 -33.80402
 -35.51542  43.38319  -3.15824
 -20.19253  33.32755  21.74146
  17.63586  13.69509  26.05102
  42.05671 -16.47185  20.30494
  26.25498 -40.89271   2.58785
 -14.44645 -36.58314 -27.10026
 -45.57107 -22.21793 -48.64807
 -51.31715  -6.41620 -48.64807
 -35.03658  22.31422 -34.76170
  -2.95428  25.18726 -25.66373
  25.77614 -18.86605 -18.00229
  22.42426 -29.40054   2.58785
 -12.53109  24.70842  32.27595
 -36.95194  42.42551  50.95072
 -26.41745  -8.81040  48.07768
   2.79181 -27.96402  27.48754
  33.43759  -8.33156   3.06669
  50.67584 -25.09097 -13.69273
  39.66251 -24.61213 -16.56577
  -1.03892  18.00466  -9.38316
 -35.51542  26.62378  -3.15824
 -37.43078  17.04697  -2.20056
 -29.29050  25.18726   0.67248
 -27.85398  28.06030   3.54553
 -14.92529  16.56813  -1.72172
   9.49557  -3.54316 -11.77736
  14.76281 -15.51417 -13.69273
  -1.03892  -6.41620  -2.20056
  -4.86964  -3.54316  13.12233
  18.11470   1.72408  20.30494
  46.36628  15.13161  17.43190
  56.90076  -4.02200   7.85509
  38.70483 -30.35822  -5.07360
  -5.82732 -22.21793 -11.77736
 -45.57107  -2.10664  -6.03128
 -53.23251   7.94901   4.50321
 -36.47310   9.38553  17.43190
 -19.23485   9.38553  28.44522
 -12.05224  24.70842  30.36058
 -10.61572  47.21392  21.26262
 -16.36181  54.87536  12.64349
 -28.33282  47.21392  11.20697
 -43.17687  37.63711  19.34726
 -51.79599  26.14494  33.23363
 -47.00759   1.72408  36.58551
 -26.41745 -18.38721  17.91074
  -0.08124 -27.00634 -10.34084
   9.49557 -53.34255 -24.22721
 -10.13688 -73.93269 -14.65041
 -31.20586 -44.24459  10.24929
 -20.19253  12.73741  28.44522
  17.15702  38.11595  17.43190
  40.62019  34.28523 -11.77736
  23.86078  37.63711 -18.48113
 -17.79833  36.20059   4.98205
 -38.86730  13.69509  28.92406
 -15.88297  -9.76808  41.85275
  14.76281 -30.83706  46.16232
  20.98774 -49.51183  33.23363
  14.28397 -43.28691   4.50321
   0.39760 -17.90837 -21.35417
 -28.33282  -1.14896 -32.36750
 -49.40179  10.34321 -29.49446
 -42.69803  10.34321 -27.10026
 -14.44645  -0.19128 -35.71938
  15.24165   7.94901 -42.90199
  32.95875  27.10262 -38.59242
  33.91643   1.72408 -30.93098
  24.33962 -40.41387 -22.31185
  25.77614 -35.14662 -11.77736
  52.11236 -15.51417 -14.65041
  95.20799 -21.73909 -40.02894
 126.81145 -20.30257 -68.75936
 121.54421 -13.59881 -87.43414
  75.57554 -14.55649 -85.99762
  15.24165   7.47017 -47.69039
 -21.15021  21.83538  16.95306
 -19.71369 -14.07765  58.61216
  -4.39080 -42.80807  56.21796
  -5.82732 -23.65445  26.05102
 -30.72702  -9.76808  -5.55244
 -62.33048 -33.23126 -22.79069
 -82.44177 -41.85039 -20.87533
 -81.96293  13.69509   1.15132
 -41.26151  71.15593  32.75479
  34.87411  45.29855  48.07768
  86.11002 -12.16229  32.75479
  79.40626 -13.11997   8.81277
  32.95875   8.42785  11.20697
  -7.26384   4.11829  27.00870
  -6.78500   4.59713  18.86842
  28.17034  33.32755  -7.94664
  65.99873  40.98899 -24.70605
  77.49090  -7.37388 -32.36750
  54.50656 -45.68111 -42.42315
  14.76281 -13.59881 -45.77503
 -17.31949   9.38553 -35.71938
 -40.78266 -27.48518 -24.22721
 -66.16120 -43.76575 -13.69273
 -92.97626  -3.06432   8.33393
-107.34147  32.84871  39.93739
-106.86263  34.28523  63.87941
-100.63771  28.06030  63.40057
 -90.10322  41.94667  38.50087
 -65.68236  52.96000   6.89741
 -22.10789  26.62378 -14.17157
  26.73382  -5.93736 -25.66373
  65.51989  -4.02200 -21.35417
  96.64451  14.17393  -1.24288
 125.37493  11.77973  12.16465
 138.78246  -6.41620   9.77045
 121.06537 -23.17561   7.37625
  63.60453 -39.93502  15.99537
 -18.75601 -38.49850  29.40290
 -89.14554  -2.10664  41.37391
-129.36813  26.14494  48.55652
-144.21218  21.83538  46.64116
-136.07189  28.53914  36.58551
-106.86263  47.69276  16.47422
 -68.55540  41.94667 -12.25620
 -28.81166  17.04697 -30.45214
   3.74949  -1.14896 -24.70605
  22.42426 -11.68345 -14.17157
  34.87411 -14.07765 -20.39649
  42.53555   4.59713 -26.14257
  36.78947  13.21625 -14.17157
  23.86078  -0.19128   4.50321
  20.03006   0.76640  17.43190
  20.03006  15.13161  23.65682
   8.05905  11.77973  22.69914
 -15.40413  -4.97968  26.52986
 -34.07890 -13.11997  36.10667
 -36.95194  -3.54316  33.23363
 -19.23485   8.42785   6.89741
   6.14369   2.68176 -26.62141
  15.72049  -5.45852 -41.94431
   9.49557  -8.33156 -34.28286
   3.74949 -11.20460 -17.52345
   8.05905   0.76640  -3.15824
  12.84745  13.69509   6.89741
   9.97441   9.38553   8.81277
   8.53789  21.83538   1.63016
  13.32629  36.20059  -6.51012
  18.11470  10.34321 -13.21389
  14.76281 -20.30257 -20.39649
   4.70717 -10.24692 -23.74837
  -1.99660  -1.14896 -16.08693
   2.79181 -20.78141   5.46089
   9.49557 -30.35822  32.75479
   2.31297 -16.47185  47.12000
 -23.06557 -20.78141  41.85275
 -54.66903 -19.34489  27.00870
 -70.94961  17.52581   9.29161
 -54.19019  24.70842 -21.83301
 -10.61572  -7.85272 -56.78836
  24.81846  -4.50084 -67.32284
  39.18367  28.06030 -39.55010
  50.19700  29.01798   9.29161
  65.04105   4.59713  51.42956
  68.39293 -20.78141  72.01969
  52.11236 -46.15995  69.14665
  20.98774 -58.60980  46.64116
 -17.79833 -50.94835  13.12233
 -51.79599 -40.41387 -20.39649
 -64.24584 -28.92170 -40.98662
 -47.00759 -10.24692 -44.33851
 -15.40413  -4.97968 -37.63474
   9.49557 -31.79474 -27.57910
  16.67818 -56.21560 -17.52345
   8.05905 -28.44286 -11.77736
   0.39760  19.44118 -15.60809
  11.88977  25.66610 -23.74837
  32.00107  13.69509 -30.45214
  47.32396   9.86437 -35.24054
  65.51989   3.63945 -30.45214
  90.89843   6.99133 -16.56577
 105.74248  35.72175  -6.98896
  90.41959  52.48116  -8.42548
  49.23932  29.01798 -13.69273
   3.27065   5.55481  -6.98896
 -35.03658  -4.97968  12.16465
 -55.62671 -20.78141  31.79711
 -65.68236 -20.78141  41.37391
 -78.61105  -6.41620  31.79711
 -89.62438 -11.20460   6.41857
 -87.70902 -10.72576  -6.98896
 -69.51308  12.73741   9.29161
 -32.16354   6.51249  34.19131
  18.59354 -22.21793  40.89507
  51.15468  -4.50084  29.40290
  47.32396  32.84871  13.60117
  31.52223  26.14494   2.58785
  28.64918   4.11829  -0.28520
  27.21266   7.94901   6.41857
  20.50890  29.01798  15.99537
  19.55122  37.63711  16.47422
  19.55122  10.34321   0.19364
  11.88977  -5.93736 -20.39649
   2.31297  15.13161 -20.87533
  -5.34848   2.68176   8.33393
 -16.36181 -46.15995  45.20463
 -27.85398 -52.38487  60.04869
 -26.89630  -6.89504  46.16232
 -17.31949  29.01798  14.55885
 -20.67137  28.06030 -18.48113
 -44.61339  29.97566 -36.67706
 -70.47077  40.03131 -30.45214
 -64.24584  14.17393 -11.29852
 -20.19253  -9.28924  -5.07360
  20.03006  -1.62780 -13.69273
  22.42426 -14.07765 -19.91765
  -2.47544 -41.85039 -22.79069
 -15.88297 -59.56748 -30.45214
  -1.51776 -83.50950 -37.15590
  20.50890-101.70543 -40.98662
  31.52223 -76.80573 -45.77503
  34.39527 -10.72576 -51.52111
  34.87411  46.25623 -56.30952
  32.47991  72.59245 -56.78836
  23.38194  83.60578 -46.25387
  11.41093  70.19825 -18.48113
  13.32629  23.75074  21.26262
  25.77614 -15.51417  54.78144
  31.52223 -29.87938  75.37158
  21.46658 -40.41387  90.21563
  -3.91196 -50.94835  98.83475
 -33.60006 -54.30023  90.69447
 -49.40179 -54.77908  68.18897
 -35.51542 -43.76575  39.93739
   1.83412 -12.64113   5.93973
  37.26831  18.96234 -29.01562
  49.71816  28.06030 -49.12691
  38.70483  35.24291 -46.25387
  16.67818  57.26956 -34.28286
   7.58021  58.70608 -40.02894
  19.55122  49.12928 -62.05560
  29.60686  66.36753 -71.63241
  19.55122  73.07129 -61.09792
   1.83412  23.75074 -47.69039
  -9.65804 -25.56981 -40.50778
 -21.62905 -17.90837 -29.97330
 -36.95194  -0.19128 -10.34084
 -37.90962 -18.38721  13.60117
 -20.19253 -33.23126  23.65682
   1.83412 -23.65445   8.81277
  17.15702  -5.45852 -13.69273
  23.86078  26.62378 -19.43881
  19.55122  32.84871 -13.69273
  -1.51776   0.28756  -7.94664
 -24.02325   7.47017   2.58785
 -34.07890  44.34087  21.26262
 -30.24818  29.97566  41.85275
 -19.23485 -11.68345  62.44289
  -8.70036 -19.82373  75.37158
   3.74949 -27.48518  64.83709
  12.36861 -50.94835  26.52986
   4.22833 -45.68111 -19.43881
 -14.92529 -15.51417 -56.30952
 -18.27717  19.44118 -81.68805
   4.70717  45.29855 -89.82834
