********************************************************************************
              CENTRO DE INSTRUMENTACION Y REGISTRO SISMICO  A.C.

    Anaxagoras 814, Col. Narvarte, Benito Juarez, C.P. 03020 Mexico, D.F.
           Tels. 5687 45 42/ 5687 45  82             Fax. 5669 25 12
********************************************************************************
ARCHIVO ESTANDAR DE ACELERACION:
VERSION DEL FORMATO                    : 2.0
NOMBRE DEL ARCHIVO                     : GR0720210908014746
FECHA Y HORA DE CREACION               : 13/SEP/21, 17:52
REF. CATALOGO ACELEROGRAMAS, SMIS 1996 : REGISTRO No.     /PAG.


================================================================================
DATOS DE LA ESTACION:
NOMBRE DE LA ESTACION                  : SAN PEDRO
CLAVE DE LA ESTACION                   : GR07
LOCALIZACION DE LA ESTACION            : Tres Palos y El Bejuco, Guerrero.      
                                       :                                        
                                       :                                        
                                       :                                        
                                       : 
COORDENADAS DE LA ESTACION             : 16.83 LAT. N
                                       : 99.73 LONG. W
ALTITUD (msnm)                         : 0
TIPO DE SUELO                          : Rocas sedimentarias, aluvial        
                                       :                           
                                       : 
INSTITUCION RESPONSABLE                : CIRES
                                       : 

================================================================================
DATOS DEL ACELEROGRAFO:
MODELO DEL ACELEROGRAFO                : RADESD
NUMERO DE SERIE DEL ACELEROGRAFO       : 7
NUMERO DE CANALES                      : 3
ORIENTACION C1-C6 (rumbo;orientacion)  : /N00E/+V/N90W
ORIENTACION C7-C12 (rumbo;orientacion) : 
VEL. DE MUESTREO, C1-C6 (muestras/s)   : /100/100/100
VEL. DE MUESTREO, C7-C12 (muestras/s)  : 
ESC. COMPLETA DE SENSORES, C1-C6, (g)  : /1.0/1.0/1.0
ESC. COMPLETA DE SENSORES, C7-C12, (g) : 
FREC. NAT. DE SENSORES, C1-C6, (Hz)    : /0/0/0
FREC. NAT. DE SENSORES, C7-C12, (Hz)   : 
AMORTIGUAMIENTO DE SENSORES, C1-C6     : /0.000/0.000/0.000
AMORTIGUAMIENTO DE SENSORES, C7-C12    : 
INTERVALO DE MUESTREO, C1-C6, (s)      : /0.01/0.01/0.01
INTERVALO DE MUESTREO, C7-C12, (s)     : 
UMBRAL DE DISPARO, C1-C6, (Gal)        : /0.96/0.96/0.96
UMBRAL DE DISPARO, C7-C12, (Gal)       : 
MEMORIA DE PREEVENTO (s)               : 24.0
TIEMPO DE POSEVENTO (s)                : 0.0


================================================================================
DATOS DEL SISMO:
FECHA DEL SISMO (GMT)                  : 08/SEP/21
HORA EPICENTRO (GMT)                   : 01:47:46.0
MAGNITUD(ES)                           : /Mw=7.1
COORDENADAS DEL EPICENTRO              : 16.78 LAT. N
                                       : 99.93 LONG. W
PROFUNDIDAD FOCAL (km)                 : 10
FUENTE DE LOS DATOS EPICENTRALES       : SSN
                                       : INSTITUTO DE GEOFISICA, UNAM

================================================================================
DATOS DE ESTE REGISTRO:
HORA DE LA PRIMERA MUESTRA (GMT)       : 20:47:29.84
EXACTITUD DEL TIEMPO (s)               : 0.01
DURACION DEL REGISTRO (s), C1-C6       : /300.0/300.0/300.0
DURACION DEL REGISTRO (s), C7-C12      : 
NUM. TOTAL DE MUESTRAS, C1-C6          : /30000/30000/30000
NUM. TOTAL DE MUESTRAS, C7-C12         : 
ACEL. MAX. (Gal), C1-C6                : /404.8078/501.40541/653.10884
ACEL. MAX., C1-C6, EN LA MUESTRA       : /2792/2651/2785
ACEL. MAX. (Gal), C7-C12               : 
ACEL. MAX., C7-C12, EN LA MUESTRA      : 
UNIDADES DE LOS DATOS                  : Gal (cm/s/s)
FACTOR DE DECIMACION                   : 1
FORMATO DATOS (FORTRAN,10 campos/dato) : 3F10.5


================================================================================
CALIDAD DEL ACELEROGRAMA:
REGISTRO DIGITAL COMPLETO CON TIEMPO ABSOLUTO CORRECTO.


================================================================================
COMENTARIOS:














================================================================================
DATOS DE ACELERACION:
---------+---------+---------+---------+---------+---------+---------+---------+
   CANAL-1   CANAL-2   CANAL-3   CANAL-4   CANAL-5   CANAL-6   CANAL-7   CANAL-8
      N00E        +V      N90W
---------+---------+---------+---------+---------+---------+---------+---------+
[...]
  20.88125  -3.29230  60.84209
  51.04819 -20.53055 134.10466
  35.24646 -38.24764 158.04668
 -49.98712 -43.51489 154.69480
-105.53259  48.90130 129.31626
 -61.95812  53.68970  72.33426
 -57.64856 -66.02038  24.45023
 -98.82883-102.41225 -53.12191
 -93.08275 -57.40126-140.74969
   6.99488  41.71869-151.28418
 122.87424 127.43111-111.54043
 159.26611  92.95461-117.28651
 134.84525 -21.48823-156.07258
  94.14382 -78.94907-174.74735
  44.34443 -44.95141-150.80534
 -15.03177 -10.95374 -50.24887
 -87.81550  13.94595  59.40557
-112.23636  49.85898  66.10933
 -34.66423  32.14189   7.69081
  22.79661   8.19987 -26.30685
  18.48705 -36.33228 -28.22221
 -32.74886 -80.86443   8.16965
 -45.19871 -39.20532  41.20964
 -47.11407  64.22419  57.96905
 -29.87582 103.01026  67.54586
 -15.03177  96.78533  69.94006
  31.89458   1.01726  36.90007
  19.44473 -46.38793  19.66182
  43.38675 -32.98040  41.68848
  29.50038 -59.31662  67.54586
 -33.22770 -82.30095   9.60618
-100.26535   6.28451 -92.38682
 -19.34133 106.84098-157.03026
  67.80761  31.18421-115.84999
 -41.36799 -57.88010   8.64849
-151.98011  -4.72882  92.44555
 -35.14307   2.45379 100.58584
  99.88991 -69.85110  56.05369
  50.09051 -55.00705 -37.79902
 -68.18305  19.69204-116.32883
 -61.47928  37.88797-143.14389
  -9.76453 -25.79779-123.99028
 -73.45029   1.49610 -77.54276
 -93.56159  33.57841 -82.33117
 -13.59525 -25.31895 -68.92364
  22.31777  12.50943 -33.01061
  -6.41265 142.75400 -46.41814
  68.76529  92.47577 -64.13524
 118.08584 -68.89342 -36.84134
 -27.96046 -20.53055  21.09834
-157.24735  85.29316  81.43223
-129.47461 107.31982  97.71280
 -65.31001  24.95928  37.85776
 -50.94480-169.92873 -11.94164
 -77.28101-260.90840 -11.94164
 -87.81550-150.29628 -10.98396
 -46.15639 143.71168  -8.11092
 -11.20105 340.51506  15.83110
 -34.18538 205.48209  41.68848
 -83.02710  -3.29230  57.96905
 -54.77552-114.38326  48.87108
 -31.79118-166.57685  38.81544
 -79.67522-137.36759   9.60618
 -97.39231 -97.62384 -19.12424
 -12.15873 -42.07837  12.47922
 139.63366 112.10822  90.53019
 231.09216 220.32614 118.30293
 262.69562 183.45543  84.30527
 196.13681 104.44678  52.70181
  15.61401 144.66936  63.23629
-134.26301 180.58239  91.96671
-126.60157  37.40913 122.61249
 -38.97379-198.18031  97.23396
 -49.02944-288.20230  35.94239
-117.98244-213.02436  13.43690
-157.72619 -16.22099  24.45023
-199.86414 230.86062  -7.63208
-167.30300 320.40377 -77.06392
 -47.11407 131.26183 -81.37349
   0.29112 -65.06270  33.54819
 -41.84683 -43.51489 143.20263
  -2.10308   1.97495 141.76611
  82.65166 -79.42791  59.40557
  89.35542-184.29394  15.83110
  42.90791-213.50320   5.29661
  62.54036-216.85509 -25.34917
 145.37974-134.97339 -34.44714
 242.58433  92.95461 -39.23554
 296.21444 299.33479 -84.72537
 269.87823 385.52605-142.18621
 199.48870 248.57772-155.11490
  86.00354  -5.68650 -66.05060
  -7.84917 -93.31428  74.24962
 -16.94713-136.88875 157.56784
 -60.52160-166.09801 186.29826
-178.31632-109.59485 170.49653
-276.95743-100.01805 108.24728
-319.09538-178.06902  26.36559
-316.70118-206.32060 -55.03727
-238.65021-115.81978-128.77868
 -34.18538  31.66305-160.86098
 260.30142  62.30883-146.49577
 329.25443 108.75634-100.52710
 283.76460 111.62938-102.92130
 260.30142 -55.96474-144.10157
 207.62898 -41.59953-130.21520
 158.30843  99.65837-127.82100
 145.85858  60.87231 -94.78102
  71.15949  30.22652  -7.63208
 -29.39698 137.00792  74.72846
 -30.83350 151.85197 125.48554
  60.14616  35.01493 148.46987
  30.45806-106.24297 131.23162
-121.81317-163.70381  89.57251
-224.76384-189.56119  35.46355
-301.85713-127.31194   5.77545
-317.18002 114.50242   2.42357
 -88.77318 292.63103 -32.05293
 250.72461 100.61605-122.55376
 351.75992-241.75478-212.09690
 226.30376-247.02203-193.90097
  78.82093-187.64583 -86.64073
 -69.14073  46.98594  24.92907
-120.37664 473.15383  -5.23787
 -46.63523 398.93358-153.67838
 -72.97145   1.01726-245.61572
-115.58824-134.01571-267.16354
 -66.74653-140.71947-239.39080
  68.28645 -64.58386 -91.90797
 158.30843  83.85664 142.72379
  85.52470   5.32683 254.29359
-123.24969 -11.91142 250.46286
-287.01308 145.62704 202.57883
-190.76617   1.97495 129.31626
 -48.07175-166.57685 145.11799
 -55.25436 -52.61285 196.35391
  52.96356 -78.94907 165.22928
 175.06784-196.74379  99.62816
 169.80060 -82.30095   2.42357
 146.33742  73.32215-152.24186
  86.00354 150.41545-272.90962
 -84.94246 298.85595-270.03658
-181.18937 211.22817-211.61806
-230.98876  94.39113 -91.42913
-207.04674 124.55807  38.33660
-110.79984  15.38247  81.91107
 -41.36799 -85.65284  36.90007
 -16.46829 -61.23198 -16.73004
   8.91024 -37.28996  39.29428
 -18.86249 -29.62852 150.38523
-113.19404 -34.89576 211.19796
-151.50127 -17.17867 230.83041
 -87.81550  -9.51722 225.08432
 -28.43930  -9.51722 176.24261
  14.17749 -14.78447  49.82876
  33.80994 -51.17633-108.66739
 -10.24337  -7.60186-204.91429
 -54.29668  80.98360-259.02325
 -36.10075  91.51809-274.34614
  -2.10308  82.89896-215.44878
  38.11951  62.78767-134.04592
  17.05053  76.19520 -65.09292
 -65.31001 238.52207 -14.81468
 -64.35233 259.59104   5.29661
 -48.55059  49.38014  46.95572
 -38.97379-133.53687  93.88207
  -3.06076-166.57685 164.27160
  70.68065 -87.08936 271.53184
 195.17913 -33.45924 324.20427
 232.04984 -62.66850 321.81007
  87.91890  88.16620 308.40254
 -45.19871 256.23916 218.38056
  -2.10308 149.45777 170.97537
  55.83660 -15.74215 240.40722
  29.50038 -62.66850 300.26226
 -22.21438 -59.31662 349.58281
 -60.52160 -62.66850 365.38454
-128.51693 -88.04704 287.81241
-201.77950-123.96006 145.59683
-210.87747-129.22731 -24.87033
-197.94878 -88.04704-193.42213
-153.41663 -50.21865-317.92061
 -64.83117 -58.83778-364.84696
  32.37342 -51.17633-317.92061
 112.33976  14.42479-218.32182
 159.74495  -7.60186-132.60940
  80.73629  -6.16534 -94.30218
 -36.57959 203.56672-103.40014
  60.62500 250.97192-153.19954
 202.84058  65.66071-203.47777
 191.82725 -23.88243-261.89629
 124.31076  12.03059-282.48643
 132.92989-134.97339-180.49344
  70.68065-195.78611  70.41890
 -17.42597-199.13799 274.88372
  -3.53960-349.01502 304.09298
  28.06386-430.41787 246.15330
   9.86793-228.34725 178.63681
  -2.58192 114.02358  52.22297
 -61.47928 350.57071 -84.72537
-211.83515 501.40541-112.49811
-300.89945 455.43674 -55.03727
-207.04674 169.09022 -89.03493
  -0.18772 -46.86677-215.44878
 153.04118-126.35426-296.85164
 193.74261-275.27361-310.73801
 152.56234-411.26426-264.29049
  89.35542-429.93903-158.94562
  58.23080-221.64349  38.33660
  79.77861 238.04323 327.55616
 164.53335 318.00956 426.67610
 164.53335 248.57772 361.07498
  21.83893 352.48607 221.73244
-115.58824 148.97893  71.85542
-185.49893-111.98905  21.09834
-208.96211-145.02904   2.90241
-222.36964-184.77278 -15.29352
-235.77716-245.58551 -48.33350
-202.25834-181.89974-131.17288
-145.75518 -36.33228-223.58907
 -47.59291  96.30649-223.58907
  51.04819 191.59572 -94.30218
 -20.77786 275.87161  46.95572
 -46.63523 228.46642  51.26528
   8.43140   5.80567 -97.65406
  -4.97612-167.05569-199.64705
  22.79661-121.56586-234.12355
  97.97455 -69.85110-289.19019
 145.37974 -86.13168-262.37513
 117.60700 103.96794 -33.96829
 103.72063 263.90061 250.94170
 172.67364 130.78299 401.77641
 198.53102  67.09723 451.09696
 123.83192 216.49541 430.98567
  -7.84917 227.98758 341.44253
 -98.34999   7.24219 273.44720
-136.17838-182.85742 254.77243
-145.27634-260.42956 263.39155
-169.21836-308.79243 295.47385
-201.77950-282.45621 355.32890
-201.30066-129.70615 418.05698
-179.75285 -34.41692 360.11730
-191.24501 -41.12068 184.38290
-176.40096  46.02826  -1.40715
 -86.85782 220.80498-201.56241
  -5.45497 353.92259-403.15419
  39.07719 397.01822-533.87760
 133.40873 276.35046-567.87526
 289.03184 -43.03605-481.20516
 357.02717-338.95937-312.17453
 296.69328-399.77209-121.59608
 162.61799-314.05967  68.98238
  -3.53960-136.40991 263.39155
 -62.43696  88.64505 350.54049
  71.15949  12.03059 226.99969
  70.68065-187.16699 119.73945
 -47.11407-182.85742  74.24962
-162.51459 -46.86677  46.95572
-281.26700 196.86296  76.64382
-185.49893 416.65067  25.88675
 -16.94713 302.20783-156.55142
  19.92357  -3.29230-296.85164
  64.45572-175.19598-297.33048
 102.76295-223.08001-191.98560
   2.20648 -90.92008 -30.61641
-148.62822  97.26417 113.99337
 -90.68854 -31.54388 101.54352
  35.24646-217.81277 -12.42048
  58.70964-205.84176 -62.69871
 109.46671-114.86210 -29.17989
 155.91423 -57.40126  79.99570
  75.46905  32.14189 220.77476
  24.23314  84.81432 296.43153
 -23.65090 -29.14968 283.50285
-209.44095 -68.89342 201.14231
-275.52091  45.07057  34.02703
 -18.38365  66.61839-165.17055
 272.27243 -49.73981-266.20586
 385.75759 -76.07603-232.20819
 368.04049  78.11056 -92.38682
 238.75360 197.34180  52.70181
  70.68065 180.58239  37.37891
-110.32100 236.12787-103.40014
-144.79750 138.44444-265.24818
 -45.19871-208.23596-333.24350
 -94.99811-316.45388-271.47310
-220.93311-222.60117-221.67370
-200.82182-262.34492-197.73169
 -76.80217-270.00636 -70.83900
 -13.59525 -96.66616 106.81076
  38.11951 114.98126 209.76143
 150.64698  74.27984 254.29359
 131.97221 -74.16067 341.44253
 -51.90248  27.35348 466.89869
-161.07807 225.59338 508.07896
 -39.93147 248.57772 397.46684
 100.84759  76.67404 227.47853
  96.53803 -76.07603 100.10700
 139.15482-185.25162  -9.06860
 164.53335-198.65915 -82.33117
 124.31076 -59.79546-116.80767
 105.15715 109.23518-176.18387
 127.66265 192.07456-247.05224
 143.46438 126.47343-308.82265
  46.25979  -4.72882-385.91594
 -42.32567-152.21164-424.22317
 -87.81550-235.52986-393.09854
 -74.88681-207.27828-341.38379
  84.08818-167.53453-239.39080
 183.68697  30.70536   5.77545
 202.84058 152.80965 203.53651
 147.29510 -93.31428 193.95970
 -48.07175-127.79078 176.72145
-242.00209 120.24851 124.52786
-261.15570 196.86296 -86.64073
-131.86881 147.54241-277.21918
  16.57169  77.15288-340.42611
 175.54668 -66.49922-330.37046
 291.90488-123.96006-212.09690
 303.39705  38.84565  80.95338
 210.02318 106.36214 362.51150
  26.62734 112.10822 512.86736
-198.90646 205.00325 511.90968
-294.19569  56.08390 372.56715
-316.70118 -72.72415 226.04201
-222.84848  49.38014 103.93772
  34.76762  14.90363  53.65949
 204.27710-224.03769 104.89540
 119.52236-302.08867 198.74811
 -61.95812-203.92640 299.30458
-162.03575 -17.65751 310.31790
-141.44562 194.94760  38.33660
-110.79984 257.19684-352.87596
 -65.31001 171.48442-576.49439
 110.42440  83.85664-653.10884
 278.49735  51.29550-589.42308
 373.78658 -23.40359-334.68002
 391.50367-138.80411 -12.42048
 252.16113-206.32060 204.01535
  15.61401-180.46322 264.82807
-219.01775 -48.30329 244.23794
-404.80780 105.88330 185.34058
-401.45592 143.23284 -24.87033
-179.27401 -18.13635-255.67137
  23.75430-230.26262-255.19253
 163.09683-179.02670 -53.60075
 239.71128 -28.67084 174.32725
 143.46438 -21.96707 327.07732
  27.58502 -77.03371 391.24192
 -70.57725-103.84877 326.59848
-170.65488 -56.44358 175.76377
 -77.75986 -66.02038  44.56152
 160.70263-129.22731   0.50821
 251.68229  32.62073  14.39458
 206.19246 313.22116 -49.29119
 184.16581 364.45708-185.76068
 213.37507 108.75634-340.42611
 171.71596 -92.83544-472.10720
 111.38208 -87.56820-539.62369
  79.77861-134.97339-570.26947
  25.19082-167.05569-527.65268
  -3.06076-112.94673-365.80464
  -1.62424-106.72181-207.78734
 -15.98945 -38.72648-146.97461
  45.78095  30.22652-150.80534
  13.69865   3.89031-136.44013
-154.37431  58.95694 -46.41814
-272.16903  77.15288  74.72846
-254.45194  11.07291 172.89073
-176.40096 -23.40359 233.70345
-159.16271  10.59407 248.06866
-158.68387  71.88563 253.81474
-161.55691 106.84098 305.05066
-195.55458  29.26884 351.49817
-275.04207 -82.77979 347.18861
-298.98409-124.43890 332.34456
-183.10473-134.01571 303.61414
 -51.90248-122.52354 297.86806
  30.45806 -62.18966 332.34456
 132.45105 -42.07837 356.28658
 195.17913 -85.17400 350.06165
 172.67364-108.15833 278.71444
  98.93223 -42.55721 160.91972
  -0.66656 152.80965  32.11167
 -23.65090 257.19684-131.17288
  81.69398  98.22185-265.72702
 141.07018 -32.50156-289.19019
 132.92989 102.53141-277.21918
 188.95421 165.73834-330.84930
 312.01618 -40.16300-372.98725
 338.35239-212.54552-306.90728
 186.08117 -94.27196-232.68703
  20.88125 146.58473-230.77167
 -65.78885 259.59104-173.31083
-106.01143 146.10588 -68.44480
 -84.94246-131.14267 -81.85233
-108.88448-237.92406-144.58041
-125.64389-175.67482-122.07492
 -33.22770 -73.20299 -36.36250
  -8.32801  45.54942  80.47454
 -53.33900  52.25318 159.00436
 -89.25202 -35.37460 178.63681
-161.55691 -81.34327 178.15797
-248.70585  -8.08070 182.94638
-225.24268 121.68503 195.39622
-106.96912 273.95625 245.19562
  25.19082 344.82462 305.52950
 120.00120 124.07923 253.33590
 109.94555-145.02904 113.51453
  38.59835-141.19831 -14.33584
   4.12184 -39.68416-144.10157
  66.84993 -38.72648-274.82498
 170.27944 -87.56820-300.20352
 195.17913 -73.20299-214.49110
 117.60700  -2.33462-203.95661
  55.83660 -26.75547-282.96527
  44.82327 -86.13168-320.31481
  34.28878 -25.31895-334.68002
  55.83660 -19.09403-304.03424
  79.29977-149.33860-189.59140
  72.11717-142.63484 -67.96596
  81.21514 -58.35894   3.38125
  99.41107 -62.18966  88.13599
  64.45572  12.98827 227.95737
  -2.10308 114.50242 316.54283
-152.45895 184.89195 314.14863
-314.30698 217.45309 279.67212
-318.61654  72.84331 195.39622
-232.90412 -68.89342 127.87974
-108.88448 -27.23432 132.18930
  66.84993  15.38247 178.63681
 210.50202 -55.00705 229.39389
 160.22379 -28.67084 258.12431
   7.47372  51.29550 193.95970
 -67.70421  34.53609  39.77312
-135.69954  81.94128-106.75203
-184.06241 145.62704-241.30616
-102.18071  99.17953-334.20118
  52.96356   1.49610-323.66670
 128.62033 -12.86911-279.13454
 195.65797 -89.48356-254.23485
 225.82492-270.00636-180.97228
 120.00120-303.04635 -52.16423
 -68.18305-179.02670  40.25196
-243.91745  13.46711 137.45654
-301.37829 215.53773 249.98402
-184.06241 295.02523 263.39155
 -25.08742 175.79399 191.08666
  54.40008  89.12389 107.28960
 131.97221 108.27750  48.39224
 204.27710 -61.71082  26.84443
 161.18147-219.72813  73.29194
  28.54270-181.42090 117.82409
 -64.83117-207.27828 102.98004
-139.53026-220.20697  84.30527
-158.20503-123.96006  41.68848
 -77.75986   1.01726 -10.50512
 -33.70654 166.21718 -26.78569
   8.43140 340.99390 -47.85466
  79.77861 334.29014 -54.55843
 116.64932 169.56906 -21.99729
  81.21514  56.56274 -61.26219
  51.04819 -52.13401-150.32650
  29.02154-161.30961-180.01460
   7.47372-225.95305-163.73402
  -4.01844-275.27361-144.10157
 -31.31234-225.95305-135.96129
 -33.70654 -23.40359-139.79201
 -15.51061 169.56906-140.74969
  22.31777 137.48676-139.31317
  13.69865  11.55175-122.07492
  10.82561  -8.08070 -84.24653
  62.54036 -25.79779  -2.36483
  49.61167 -23.88243 131.23162
 -44.24103  19.69204 206.40955
-151.98011  44.59173 186.77710
-198.90646  65.18187 163.31392
-145.75518  57.04158 134.10466
