********************************************************************************
              CENTRO DE INSTRUMENTACION Y REGISTRO SISMICO  A.C.

    Anaxagoras 814, Col. Narvarte, Benito Juarez, C.P. 03020 Mexico, D.F.
           Tels. 5687 45 42/ 5687 45  82             Fax. 5669 25 12
********************************************************************************
ARCHIVO ESTANDAR DE ACELERACION:
VERSION DEL FORMATO                    : 2.0
NOMBRE DEL ARCHIVO                     : GR0820210908014746
FECHA Y HORA DE CREACION               : 17/SEP/21, 22:52
REF. CATALOGO ACELEROGRAMAS, SMIS 1996 : REGISTRO No.     /PAG.


================================================================================
DATOS DE LA ESTACION:
NOMBRE DE LA ESTACION                  : EL CORTÉS
CLAVE DE LA ESTACION                   : GR08
LOCALIZACION DE LA ESTACION            : San Juan Chico y La Estancia, Guerrero.
                                       :                                        
                                       :                                        
                                       :                                        
                                       : 
COORDENADAS DE LA ESTACION             : 16.78 LAT. N
                                       : 99.50 LONG. W
ALTITUD (msnm)                         : 0
TIPO DE SUELO                          : Rocas Metamórficas                  
                                       :                           
                                       : 
INSTITUCION RESPONSABLE                : CIRES
                                       : 

================================================================================
DATOS DEL ACELEROGRAFO:
MODELO DEL ACELEROGRAFO                : RADESD
NUMERO DE SERIE DEL ACELEROGRAFO       : 8
NUMERO DE CANALES                      : 3
ORIENTACION C1-C6 (rumbo;orientacion)  : /N00E/+V/N90W
ORIENTACION C7-C12 (rumbo;orientacion) : 
VEL. DE MUESTREO, C1-C6 (muestras/s)   : /100/100/100
VEL. DE MUESTREO, C7-C12 (muestras/s)  : 
ESC. COMPLETA DE SENSORES, C1-C6, (g)  : /1.0/1.0/1.0
ESC. COMPLETA DE SENSORES, C7-C12, (g) : 
FREC. NAT. DE SENSORES, C1-C6, (Hz)    : /0/0/0
FREC. NAT. DE SENSORES, C7-C12, (Hz)   : 
AMORTIGUAMIENTO DE SENSORES, C1-C6     : /0.000/0.000/0.000
AMORTIGUAMIENTO DE SENSORES, C7-C12    : 
INTERVALO DE MUESTREO, C1-C6, (s)      : /0.01/0.01/0.01
INTERVALO DE MUESTREO, C7-C12, (s)     : 
UMBRAL DE DISPARO, C1-C6, (Gal)        : /0.48/0.96/0.96
UMBRAL DE DISPARO, C7-C12, (Gal)       : 
MEMORIA DE PREEVENTO (s)               : 24.0
TIEMPO DE POSEVENTO (s)                : 0.0


================================================================================
DATOS DEL SISMO:
FECHA DEL SISMO (GMT)                  : 08/SEP/21
HORA EPICENTRO (GMT)                   : 01:47:46.0
MAGNITUD(ES)                           : /Mw=71
COORDENADAS DEL EPICENTRO              : 16.78 LAT. N
                                       : 99.93 LONG. W
PROFUNDIDAD FOCAL (km)                 : 10
FUENTE DE LOS DATOS EPICENTRALES       : SSN
                                       : INSTITUTO DE GEOFISICA, UNAM

================================================================================
DATOS DE ESTE REGISTRO:
HORA DE LA PRIMERA MUESTRA (GMT)       : 20:47:33.40
EXACTITUD DEL TIEMPO (s)               : 0.01
DURACION DEL REGISTRO (s), C1-C6       : /128.5/128.5/128.5
DURACION DEL REGISTRO (s), C7-C12      : 
NUM. TOTAL DE MUESTRAS, C1-C6          : /12850/12850/12850
NUM. TOTAL DE MUESTRAS, C7-C12         : 
ACEL. MAX. (Gal), C1-C6                : /150.92622/60.21911/222.14856
ACEL. MAX., C1-C6, EN LA MUESTRA       : /3012/3027/2952
ACEL. MAX. (Gal), C7-C12               : 
ACEL. MAX., C7-C12, EN LA MUESTRA      : 
UNIDADES DE LOS DATOS                  : Gal (cm/s/s)
FACTOR DE DECIMACION                   : 1
FORMATO DATOS (FORTRAN,10 campos/dato) : 3F10.5


================================================================================
CALIDAD DEL ACELEROGRAMA:
REGISTRO DIGITAL COMPLETO CON TIEMPO ABSOLUTO CORRECTO.


================================================================================
COMENTARIOS:














================================================================================
DATOS DE ACELERACION:
---------+---------+---------+---------+---------+---------+---------+---------+
   CANAL-1   CANAL-2   CANAL-3   CANAL-4   CANAL-5   CANAL-6   CANAL-7   CANAL-8
      N00E        +V      N90W
---------+---------+---------+---------+---------+---------+---------+---------+
[...]
  -6.79528 -17.60232  28.76377
   3.26036 -15.20812  18.22928
   8.04877  -4.67363   5.30059
   1.34500   5.38202  -0.44549
  -6.79528  11.60694  -6.19157
  -5.83760  10.64926 -10.97998
  -1.52804   3.46665  -6.19157
   0.38732   6.33970  -0.44549
  -1.52804  10.17042   1.94871
  -2.96456  -3.23711   0.51219
   0.86616 -18.56000  -1.88201
   1.34500 -26.22145   7.21596
  -0.57036 -31.00985  21.58117
   2.78152 -13.29276  23.01769
   4.21804  14.00114  11.04668
   0.38732  15.91650  -0.92433
   4.21804  -8.50435  -6.19157
   8.52761 -25.74261  -3.79737
   1.34500 -12.81392   0.51219
  -8.71065   8.73390  -1.88201
 -10.14717  19.74723  -9.06462
  -7.75297  17.35302 -11.93766
  -2.96456  11.12810 -10.97998
   1.34500  -1.32175 -10.50114
   2.78152 -12.81392  -8.10693
   2.78152 -12.81392   0.99103
   3.73920   3.46665  10.08900
   4.69688  19.74723   8.65248
   2.30268  19.26839  -6.67041
  -0.09152   8.73390 -21.51446
  -2.48572  -6.11015 -13.37418
  -2.96456 -21.43304   6.73712
  -2.48572 -27.65797  16.31392
  -4.87992 -25.26376  15.83508
  -2.48572 -18.56000   9.61016
   4.69688  -7.54667   4.34291
   4.21804   3.94550   5.30059
  -5.83760  17.35302   8.65248
 -13.49905  40.81620   7.21596
 -14.45673  43.21040   3.38523
  -6.79528  13.52230  -4.27621
   5.65456  -6.58899 -14.33186
   9.96413  -7.54667 -15.76838
   7.09108   0.11477 -10.50114
   4.21804  -2.75827  -5.23389
   4.21804 -20.47536   1.94871
   7.56993 -19.99652   8.65248
   5.65456   5.86086  12.48320
  -5.35876  25.49331   6.73712
 -10.62601  26.45099  -7.62809
  -5.35876  13.04346 -14.33186
  -0.57036  -6.58899 -14.33186
  -2.96456 -19.51768 -14.33186
  -6.31644 -14.72928 -13.37418
  -5.83760  -8.02551  -7.62809
  -5.83760  -2.27943  -2.83969
  -9.66833   2.50897   0.03335
 -12.54137  -3.23711   3.86407
  -7.75297 -11.37740   7.69480
   1.34500 -17.12348  12.96204
   3.73920 -18.56000  16.79276
  -1.04920 -16.16580  13.91972
  -4.40108  -1.80059   5.77944
  -8.71065  21.66259   0.03335
 -16.37209  41.77388  -5.23389
 -23.07586  47.04113 -16.24722
 -24.51238  24.53563 -27.73939
 -22.11818 -12.33508 -31.57011
 -13.97789 -35.79825 -23.90867
  -4.87992 -41.06550  -5.23389
   4.21804 -34.36173   8.17364
   9.96413 -14.72928  10.08900
   7.09108  -2.75827  12.48320
   3.73920  -5.63131  23.01769
   2.78152  -0.36407  32.59449
  -2.00688   7.29738  33.07333
 -13.02021  17.35302  20.14465
 -13.02021  20.70491  -1.40317
   0.86616  11.60694 -21.51446
  12.35833   5.38202 -31.09127
   9.96413   1.07245 -27.73939
   3.26036  -4.67363 -18.64142
   4.21804  -3.71595 -13.37418
   7.56993  -1.80059 -10.97998
   8.04877  -6.11015  -6.67041
  11.40065  -8.98319  -0.92433
  13.31601 -13.29276   3.38523
  10.44297 -22.86956   7.69480
   8.52761 -34.36173  13.91972
   6.61224 -35.31941  20.14465
  -0.57036 -23.34840  21.58117
  -6.79528  -2.27943  14.87740
  -4.40108  15.43766  -3.31853
 -10.14717  15.43766 -18.64142
 -24.03354  -1.80059 -15.28954
 -27.38542  -8.02551  -5.23389
 -20.68165  -4.19479   0.03335
 -13.97789  -8.02551  -0.44549
  -7.27412  -7.06783  -6.67041
  -5.35876   2.03013  -6.19157
 -14.93557   1.07245   9.61016
 -24.99122 -11.85624  24.93305
 -28.34310 -18.08116  29.72145
 -27.86426 -16.16580  31.15797
 -25.94890 -15.20812  29.72145
 -23.55470 -14.25044  21.10233
 -17.32977 -11.37740   7.69480
  -9.18949  -7.06783  -7.14925
  -3.44340   4.42434 -17.20490
  -1.04920  11.60694 -18.16258
  -4.40108  14.95882 -17.20490
 -10.62601  22.62027 -21.03562
 -15.41441  21.66259 -23.90867
 -19.72397  10.17042 -17.20490
 -30.25846   4.42434  -3.79737
 -38.39875   0.59361   9.13132
 -33.13150   1.55129  13.44088
 -20.20281   4.42434  13.44088
 -11.58369   8.25506  10.08900
 -10.62601  25.97215  -4.27621
 -13.97789  30.76055 -22.47214
 -13.49905  14.00114 -34.44315
  -5.83760  10.64926 -40.18924
  -2.96456  10.64926 -34.92199
  -1.52804   3.94550 -27.26055
   7.09108  -0.36407 -31.09127
  13.31601  -7.54667 -36.83735
  13.31601 -10.89856 -33.48547
  17.14673   0.59361 -28.69707
  20.49861   2.03013 -26.30287
  17.14673 -10.89856 -21.03562
   9.00645 -12.33508  -6.67041
  -8.23181  -4.67363  23.97537
 -23.07586   5.86086  49.83275
 -29.77962  13.04346  48.87507
 -34.56802   7.77622  30.20029
 -27.86426   8.25506  11.04668
  -8.23181  14.00114  -0.44549
   6.13340   6.81854  -9.54346
  12.35833  -5.15247 -25.82403
  15.23137  -9.46203 -35.87967
  14.75253 -14.72928 -22.47214
  11.40065 -17.12348   3.38523
   1.82384 -16.16580  26.84841
 -15.89325 -19.51768  46.00202
 -24.99122 -20.47536  54.14231
 -17.80861 -16.64464  46.00202
  -7.75297  -9.46203  23.97537
  -2.48572  -8.98319  -2.83969
   1.34500 -12.33508 -22.95098
   7.56993 -18.08116 -28.21823
  15.71021 -31.96753 -23.42983
  22.41398 -29.57333 -20.55678
  25.76586 -11.37740 -24.38751
  25.76586   6.33970 -14.81070
  30.55426  16.87418   3.38523
  40.60991  12.08578  12.00436
  45.87715   2.98781   5.77944
  36.77919 -10.89856  -1.88201
  18.10441 -14.25044  -1.88201
   1.34500 -15.20812   3.38523
 -10.62601 -16.64464   9.61016
 -16.37209  -8.98319   8.65248
 -15.89325  -3.23711  -0.44549
 -13.49905   2.03013  -0.44549
  -7.75297   2.98781  11.04668
  -3.44340  10.17042  19.18696
  -8.23181  16.39534  13.91972
 -17.32977  11.60694   2.90639
 -22.59702  10.17042  -4.75505
 -29.77962   6.81854  -4.75505
 -38.87759   5.86086  -4.27621
 -43.18715   5.38202  -0.92433
 -45.58135   7.77622  12.48320
 -41.27179  12.56462  27.32725
 -32.17382  11.60694  35.94638
 -26.42774   7.29738  40.25594
 -26.42774   7.77622  41.21362
 -29.30078  14.95882  40.25594
 -35.04686  17.83186  39.29826
 -42.22947   8.25506  37.38290
 -50.84860   4.90318  34.03101
 -56.11584  21.18375  23.01769
 -52.28512  25.01447   0.51219
 -37.91991  25.01447 -25.34519
 -17.80861  21.18375 -41.62576
  -2.96456  12.56462 -42.10460
   2.78152   8.25506 -30.13359
   3.73920   2.50897 -20.07794
  11.40065  -4.67363 -18.64142
  31.51194 -12.81392 -20.07794
  52.58092 -13.77160 -27.26055
  66.94613  -5.15247 -34.44315
  70.29801   2.03013 -42.10460
  65.50961  16.39534 -49.28720
  52.10208  36.02780 -48.80836
  33.42730  37.46432 -32.04895
  17.62557  25.97215  -7.62809
   2.78152  21.66259  15.35624
 -12.06253  15.43766  34.98870
 -17.32977  -0.84291  43.60782
  -7.27412 -11.37740  40.25594
   5.65456 -12.33508  34.03101
  10.92181 -12.81392  24.45421
  23.37166  -6.58899  -6.19157
  44.91947   4.90318 -45.45648
  55.93280  -6.58899 -63.17357
  46.83483 -20.47536 -60.30053
  19.54093  -8.50435 -49.76604
 -12.54137   2.03013 -39.23156
 -26.42774  -3.23711 -42.10460
 -22.59702   1.07245 -49.76604
 -19.72397   7.77622 -36.35851
 -21.16049  17.35302   1.46987
 -21.16049  23.57795  46.00202
 -19.24513   8.25506  88.61881
 -15.89325 -15.68696 120.70111
  -8.23181 -26.70029 133.15096
   8.04877 -20.95420 119.74343
  29.59658  -9.94087  78.56317
  46.83483   0.59361  24.45421
  52.58092   5.86086 -19.59910
  50.18671   0.11477 -41.14692
  36.30035  -3.23711 -42.10460
   3.26036  -4.67363 -32.52779
 -29.77962  -2.75827 -19.12026
 -43.66599   4.90318  -3.79737
 -49.41207   5.38202  10.56784
 -58.98888 -17.12348  17.27160
 -63.29844 -30.05217   7.69480
 -51.80628 -18.56000 -20.55678
 -30.25846   1.55129 -55.51213
 -19.72397  23.57795 -72.75038
 -25.47006  47.04113 -56.46981
 -23.07586  59.49097 -21.03562
   3.26036  44.64692   5.77944
  37.73687  14.47998  22.06001
  63.11540 -11.85624  39.77710
  82.26902 -16.64464  56.05767
 102.85915   7.77622  62.76143
 115.30900  31.23939  59.40955
 107.16871  33.15476  49.83275
  83.70554  25.97215  26.84841
  65.03077  21.66259 -10.02230
  47.79251  16.39534 -44.97764
  15.23137   4.42434 -59.34285
 -26.42774   2.03013 -48.80836
 -57.07352  14.47998 -28.21823
 -70.00221  18.78955 -11.45882
 -70.00221  -5.15247  -7.62809
 -65.21381 -29.09449  -3.79737
 -59.46772 -12.81392  21.58117
 -48.93323  16.87418  60.36723
 -36.00454  25.49331  93.88606
 -28.82194  11.12810 112.56083
 -27.86426 -10.89856 120.70111
 -25.47006  -5.15247 117.82807
 -14.45673  16.39534  89.09765
  -8.71065  29.32403  37.86174
 -21.63933  28.84519  -3.79737
 -39.83527  20.22607 -10.50114
 -37.91991  10.64926   4.34291
  -5.83760  -6.58899   4.34291
  35.82150 -25.74261 -23.90867
  65.98845 -40.10782 -59.82169
  73.64989 -48.72694 -79.93298
  57.84816 -36.27709 -83.28487
  39.17339 -21.43304 -90.46747
  26.24470 -27.65797-104.35384
  11.87949 -26.22145-108.66340
   4.69688  -3.23711 -99.56544
   9.48529  10.64926 -76.10226
  16.18905  14.00114 -36.83735
  20.97745  19.74723   6.25828
  11.40065  34.11244  53.18463
 -16.85093  35.07012 105.37822
 -39.35643  16.87418 147.99501
 -29.77962  12.56462 159.48718
   5.65456   6.33970 131.71444
  28.63890 -13.29276  77.12664
  24.80818  -0.84291  21.58117
   9.48529  27.40867 -27.26055
  -0.57036  42.25272 -73.70806
  -6.79528  47.04113-121.59209
 -31.69498  36.50664-146.49179
 -79.57902  12.56462-117.76137
-117.40740  10.64926 -36.35851
-123.63233  24.53563  48.87507
-113.09784  24.53563 102.02634
 -95.85959  18.78955 132.67212
 -59.46772  14.47998 142.72777
  -1.52804   6.81854 128.36256
  48.75019   0.11477 100.11098
  62.15772  -2.75827  61.32491
  35.34266  -0.84291   5.30059
 -16.85093   4.42434 -55.03329
 -65.69265  -3.23711-102.91732
 -88.19814  -2.75827-136.43614
 -82.45206  -0.36407-161.81468
 -54.20048  -7.54667-167.08192
  -4.87992  -7.06783-138.83035
  54.01744  -6.11015 -86.15791
  98.07075 -26.22145 -16.72606
 115.30900 -33.40405  64.67680
 110.99944 -13.29276 131.71444
  93.76119   1.55129 175.28891
  64.07308  15.91650 192.04832
  20.49861  36.50664 182.95036
 -21.63933  41.77388 152.30458
 -40.79295  36.98548  92.44954
 -36.48339  29.32403   5.77944
 -24.51238  22.14143 -85.20023
 -18.76629   8.73390-166.12424
 -21.63933  -6.58899-208.74103
 -24.03354   7.29738-202.99495
 -27.38542   0.11477-175.70105
 -35.04686  -3.71595-111.53645
 -37.44107   2.98781 -39.23156
 -19.72397  -1.32175  -1.40317
   1.34500 -14.72928  26.36957
  14.75253 -18.08116  69.46520
  15.71021  -8.02551 113.03967
   4.21804  -6.11015 151.82574
  -6.31644 -18.08116 181.51384
  -1.52804 -30.53101 181.51384
  17.14673 -37.23477 144.16429
  30.07542 -42.02318  83.83041
  33.90614 -34.36173  23.97537
  38.69455 -22.86956 -29.17591
  43.96179 -19.51768 -73.70806
  52.10208 -24.78492-113.45181
  59.28468 -16.64464-148.40715
  61.67888 -10.89856-185.27786
  66.46729 -11.37740-214.00828
  75.08641  -3.71595-222.14856
  90.40930  -2.27943-221.19088
 114.35132 -18.56000-214.96596
 122.49161 -42.02318-175.70105
 101.90147 -48.72694-105.31152
  77.00177 -38.67129 -30.61243
  70.77685 -15.68696  37.86174
  77.95945  12.56462  86.70345
  96.15539  34.11244  97.23794
 117.22436  44.16808  68.50752
 120.57624  35.07012  22.06001
 107.64755  19.74723 -18.64142
  83.70554   2.03013 -40.18924
  45.39831  -8.98319 -38.27388
   6.13340 -10.41971 -23.42983
 -11.10485 -20.95420 -14.81070
   2.30268 -36.27709 -20.07794
  31.03310 -47.76926 -33.00663
  52.58092 -48.24810 -44.97764
  56.41164 -26.22145 -43.54112
  44.91947   7.29738 -25.34519
  21.45629  17.35302   1.46987
  -7.27412   2.98781  26.36957
 -31.21614  -2.27943  32.59449
 -46.53903  -8.98319  26.36957
 -46.06019 -35.79825  25.89073
 -23.07586 -53.03650  26.84841
   3.73920 -49.68462  29.72145
  18.10441 -43.45970  41.21362
  26.24470 -31.48869  51.74811
  27.68122 -19.03884  57.49419
  18.58325 -13.29276  63.71912
   8.52761  -4.19479  68.50752
   8.52761  -0.36407  69.94404
  16.18905 -10.89856  71.85940
  25.28702 -15.68696  69.46520
  27.20238 -14.72928  57.49419
  20.97745 -17.12348  39.29826
  18.58325 -20.47536  18.22928
  23.37166 -21.91188  -2.36085
  28.63890 -15.68696 -28.21823
  18.58325 -17.12348 -50.24488
  -7.75297  -4.19479 -45.93532
 -35.52570  23.09911 -25.34519
 -55.15816  45.60460 -11.93766
 -74.31177  48.95649  -3.79737
 -92.50770  37.46432  13.44088
 -92.02886  30.28171  35.94638
 -66.17149  28.36635  58.45187
 -34.56802  20.22607  73.77476
 -13.02021  10.64926  74.73244
   7.56993  14.47998  54.14231
  33.42730  21.18375  19.18696
  52.10208  14.47998 -15.28954
  59.76352  11.12810 -51.68140
  46.35599  18.31071 -89.03095
   0.86616  34.11244-107.22688
 -56.59468  51.35069 -96.21356
-100.16915  51.82953 -71.79270
-130.81493  45.60460 -41.62576
-150.92622  37.46432  -5.71273
-147.57434  20.70491  39.77710
-115.97088  15.43766  88.13997
 -76.22713  12.08578 121.17996
 -52.28512  -1.32175 135.06632
 -50.36975 -16.16580 140.33357
 -56.59468 -31.48869 135.06632
 -58.98888 -37.23477 101.06866
 -61.38308 -27.65797  42.17130
 -64.73496  -2.27943 -18.64142
 -58.03120  16.39534 -63.65241
 -26.90658  28.84519 -89.98863
  22.89282  28.36635-100.52312
  60.24236  -3.23711-100.04428
  74.12873 -44.41738 -93.81935
  70.29801 -60.21911 -83.76371
  53.53860 -51.59998 -63.17357
  40.60991 -37.71361 -34.44315
  41.08875 -11.85624 -12.41650
  35.34266  18.78955  -0.44549
  14.75253  30.76055   8.65248
   6.13340  28.84519  10.08900
  20.97745   9.21274  -0.92433
  38.69455 -18.56000 -18.16258
  37.73687 -22.39072 -36.83735
  12.83717  -1.32175 -47.85068
 -24.51238  25.49331 -44.49880
 -57.55236  42.25272 -31.09127
 -78.62133  51.82953  -7.14925
 -80.53670  47.04113  26.36957
 -62.34076  26.92983  61.32491
 -38.87759   7.29738  92.44954
 -21.16049  -7.54667 118.78575
 -14.45673 -17.12348 135.54517
 -16.37209 -16.64464 139.37589
 -17.80861 -20.47536 127.88372
 -13.97789 -40.10782 101.06866
  -1.52804 -48.72694  61.80375
  15.71021 -44.41738  19.66580
  30.07542 -39.15013 -10.50114
  41.56759 -25.26376 -21.99330
  51.62324  -5.15247 -21.51446
  50.66556   4.42434 -16.72606
  36.30035   5.86086 -19.12026
  24.32934   7.77622 -32.52779
  20.49861   4.42434 -51.68140
  24.80818  -2.75827 -69.87734
  37.73687  -7.06783 -82.32719
  58.80584  -5.63131 -80.41182
  79.87482   6.81854 -65.56777
  90.88814  16.39534 -46.41416
  80.83250   7.29738 -23.90867
  50.66556  -7.54667  -0.44549
  18.58325 -13.29276  13.91972
  -7.75297 -12.81392  20.14465
 -28.82194 -19.03884  22.53885
 -36.48339 -25.26376  13.91972
 -28.82194  -2.27943 -11.93766
 -19.24513  25.97215 -42.58344
 -19.24513  39.37968 -65.56777
 -28.34310  47.04113 -76.10226
 -47.49671  36.98548 -67.00430
 -69.52337  13.04346 -33.96431
 -85.32510  -7.06783  14.39856
 -90.11350 -12.33508  57.49419
 -71.91757   1.07245  87.18229
 -15.89325  10.64926  93.88606
  56.41164   3.94550  70.90172
 101.42263  -6.11015  41.21362
 112.43596 -15.20812  23.97537
  99.02843 -19.99652   9.13132
  59.28468 -24.30608  -4.75505
   4.21804 -31.96753 -12.89534
 -37.44107 -31.00985 -19.59910
 -54.20048 -15.20812 -26.78171
 -48.45439   8.25506 -32.04895
 -28.34310  32.67592 -33.96431
 -18.76629  42.25272 -28.69707
 -29.77962  25.01447  -6.19157
 -36.96223   2.98781  27.80609
 -28.34310 -12.81392  57.01535
 -23.07586 -36.75593  79.99969
 -28.82194 -51.59998  96.75910
 -25.47006 -37.23477  97.23794
