********************************************************************************
              CENTRO DE INSTRUMENTACION Y REGISTRO SISMICO  A.C.

    Anaxagoras 814, Col. Narvarte, Benito Juarez, C.P. 03020 Mexico, D.F.
           Tels. 5687 45 42/ 5687 45  82             Fax. 5669 25 12
********************************************************************************
ARCHIVO ESTANDAR DE ACELERACION:
VERSION DEL FORMATO                    : 2.0
NOMBRE DEL ARCHIVO                     : GR3020210908014746
FECHA Y HORA DE CREACION               : 13/SEP/21, 17:52
REF. CATALOGO ACELEROGRAMAS, SMIS 1996 : REGISTRO No.     /PAG.


================================================================================
DATOS DE LA ESTACION:
NOMBRE DE LA ESTACION                  : LAS MESAS
CLAVE DE LA ESTACION                   : GR30
LOCALIZACION DE LA ESTACION            : Las Mesas, Guerrero.                   
                                       :                                        
                                       :                                        
                                       :                                        
                                       : 
COORDENADAS DE LA ESTACION             : 17.00 LAT. N
                                       : 99.46 LONG. W
ALTITUD (msnm)                         : 0
TIPO DE SUELO                          : Rocas Metamórficas                  
                                       :                           
                                       : 
INSTITUCION RESPONSABLE                : CIRES
                                       : 

================================================================================
DATOS DEL ACELEROGRAFO:
MODELO DEL ACELEROGRAFO                : RADESD
NUMERO DE SERIE DEL ACELEROGRAFO       : 30
NUMERO DE CANALES                      : 3
ORIENTACION C1-C6 (rumbo;orientacion)  : /N00E/+V/N90W
ORIENTACION C7-C12 (rumbo;orientacion) : 
VEL. DE MUESTREO, C1-C6 (muestras/s)   : /100/100/100
VEL. DE MUESTREO, C7-C12 (muestras/s)  : 
ESC. COMPLETA DE SENSORES, C1-C6, (g)  : /1.0/1.0/1.0
ESC. COMPLETA DE SENSORES, C7-C12, (g) : 
FREC. NAT. DE SENSORES, C1-C6, (Hz)    : /0/0/0
FREC. NAT. DE SENSORES, C7-C12, (Hz)   : 
AMORTIGUAMIENTO DE SENSORES, C1-C6     : /0.000/0.000/0.000
AMORTIGUAMIENTO DE SENSORES, C7-C12    : 
INTERVALO DE MUESTREO, C1-C6, (s)      : /0.01/0.01/0.01
INTERVALO DE MUESTREO, C7-C12, (s)     : 
UMBRAL DE DISPARO, C1-C6, (Gal)        : /0.48/0.96/0.96
UMBRAL DE DISPARO, C7-C12, (Gal)       : 
MEMORIA DE PREEVENTO (s)               : 24.0
TIEMPO DE POSEVENTO (s)                : 0.0


================================================================================
DATOS DEL SISMO:
FECHA DEL SISMO (GMT)                  : 08/SEP/21
HORA EPICENTRO (GMT)                   : 01:47:46.0
MAGNITUD(ES)                           : /Mw=7.1
COORDENADAS DEL EPICENTRO              : 16.78 LAT. N
                                       : 99.93 LONG. W
PROFUNDIDAD FOCAL (km)                 : 10
FUENTE DE LOS DATOS EPICENTRALES       : SSN
                                       : INSTITUTO DE GEOFISICA, UNAM

================================================================================
DATOS DE ESTE REGISTRO:
HORA DE LA PRIMERA MUESTRA (GMT)       : 20:47:34.79
EXACTITUD DEL TIEMPO (s)               : 0.01
DURACION DEL REGISTRO (s), C1-C6       : /121.0/121.0/121.0
DURACION DEL REGISTRO (s), C7-C12      : 
NUM. TOTAL DE MUESTRAS, C1-C6          : /12100/12100/12100
NUM. TOTAL DE MUESTRAS, C7-C12         : 
ACEL. MAX. (Gal), C1-C6                : /407.24345/253.61473/414.32083
ACEL. MAX., C1-C6, EN LA MUESTRA       : /2933/2939/2933
ACEL. MAX. (Gal), C7-C12               : 
ACEL. MAX., C7-C12, EN LA MUESTRA      : 
UNIDADES DE LOS DATOS                  : Gal (cm/s/s)
FACTOR DE DECIMACION                   : 1
FORMATO DATOS (FORTRAN,10 campos/dato) : 3F10.5


================================================================================
CALIDAD DEL ACELEROGRAMA:
REGISTRO DIGITAL COMPLETO CON TIEMPO ABSOLUTO CORRECTO.


================================================================================
COMENTARIOS:














================================================================================
DATOS DE ACELERACION:
---------+---------+---------+---------+---------+---------+---------+---------+
   CANAL-1   CANAL-2   CANAL-3   CANAL-4   CANAL-5   CANAL-6   CANAL-7   CANAL-8
      N00E        +V      N90W
---------+---------+---------+---------+---------+---------+---------+---------+
[...]
 -11.26300  15.01469  25.50248
   3.58105   2.56484  16.88336
  13.63670 -39.57311   3.47583
  -7.43227  -6.53312   4.43351
 -25.14937  19.80309  -5.62214
   4.05989  -1.74472 -18.07199
  30.39611  -2.22356   0.12394
   6.45409   9.26861  14.48915
  -8.38996 -31.43282   2.03931
  -4.08039 -54.41716   4.43351
  -8.38996   3.52252  13.05263
 -11.74184  46.61815  -8.97402
   0.22917  37.52019 -21.90271
  14.59438  12.14165   2.03931
   4.53873   1.12832  11.61611
  -9.34764 -17.54645  -4.66446
  -5.99575 -14.19457  -0.83374
   0.22917  22.19730   2.99699
  -2.16503  12.14165 -18.55083
   0.22917  -8.92733   2.03931
   2.14453 -11.32153  39.38885
   4.05989 -13.71573  30.29089
   4.53873 -10.84269   0.12394
   3.10221  14.53585 -17.11431
  -2.16503  19.32425 -27.16995
 -23.23401 -25.20790 -21.42387
 -25.14937 -37.17890  15.44684
   6.93294   4.00136  50.88102
  31.83263  10.70513  31.24857
  19.86162  12.14165 -15.19895
  -4.55923  23.63382 -36.26792
 -18.92444  -5.09660 -35.31024
  -8.86880 -32.86934  -7.05866
  14.59438  -5.09660  31.24857
  24.65003  13.09933  40.82537
   2.14453   1.60716  16.88336
 -26.58589  17.88773 -12.80474
 -21.31864   6.39557 -27.16995
   2.14453  -6.05428 -13.76243
  14.59438   1.60716   9.22191
  15.07322 -10.84269  16.40452
   6.45409 -35.26354  14.96799
 -15.09372  -8.92733   4.43351
 -23.71285  28.90106  -3.70678
  -7.91112  13.57817  -2.27026
  -1.20735   7.83209   0.60278
  -5.03807  25.54918  13.53147
   0.22917 -16.58877  14.48915
   4.05989 -39.57311  12.57379
  -5.03807 -13.23689  11.13727
  -9.82648   0.17064 -10.41054
  -3.12271  -0.30820 -19.50851
  -1.68619  13.09933  -1.31258
  -5.03807  27.94338  11.61611
  -3.60155  14.53585  -1.31258
  12.67902 -16.58877  -8.49518
  20.34046 -17.06761  -2.74910
   0.70801  -1.74472  -6.57982
 -10.78416  -1.74472 -11.36822
   2.62337  33.21062   3.47583
  10.76366  28.42222   6.82771
   3.10221 -28.08094  -2.74910
 -14.61488 -33.34818  12.57379
 -14.61488 -18.50413  21.67176
   0.22917   3.04368   5.87003
   3.58105  37.04135 -12.80474
  -6.47459  45.66047 -19.02967
 -17.00908  14.05701  -8.01634
  -5.99575 -27.60210   0.60278
  21.77699 -20.41949   7.30655
  33.74799 -20.41949   9.22191
  15.07322 -26.64442  -4.66446
 -17.00908   4.48020 -11.36822
 -26.58589  26.50686  -9.93170
  -3.12271  45.66047  -3.22794
  14.59438  35.60483  -3.70678
  16.03090 -11.80037 -20.46619
  10.76366 -30.95398  -9.45286
   9.32714 -23.29253   6.82771
  12.67902 -16.10993   4.43351
   0.22917  -8.44848   2.03931
 -17.96676  11.18397  -0.83374
  -4.08039  26.98570  -2.27026
  23.69235  40.39323   1.08163
  25.12887  12.62049  -7.05866
  -5.99575 -23.29253 -17.11431
 -34.24733 -24.25022 -10.41054
 -20.36096 -16.10993   0.60278
   7.41178  -9.88501  13.05263
   7.89062  13.57817  22.15060
  -0.72851  19.32425  16.40452
   4.53873 -10.84269   3.47583
   0.70801  -0.78704   2.03931
 -10.30532  37.52019  -7.53750
   1.18685  17.40889 -19.02967
  10.76366 -16.10993 -17.59315
  11.24250 -18.50413  -6.10098
  12.20018  -8.92733   6.82771
  -1.68619  -5.57544   3.47583
 -19.40328  -8.44848 -11.36822
 -21.79748  -3.18124 -12.80474
 -13.17836  21.71846   1.08163
  14.11554   5.43788   5.87003
  39.49408  -9.88501  15.92568
  29.91727  -4.61776  25.02364
   1.66569   2.08600   7.30655
 -31.37429  -0.78704 -13.76243
 -40.95110 -14.19457 -21.42387
 -20.36096   2.08600 -11.84706
  12.20018   1.60716   2.03931
  30.87495  -9.88501   9.70075
  17.94626 -16.58877  22.62944
  -7.91112 -31.43282  13.53147
 -29.93777 -15.15225  -5.14330
 -28.98009  28.42222   0.60278
   1.66569  28.90106  12.09495
  13.63670  -1.26588   2.51815
   1.66569 -15.63109 -13.28358
   9.32714 -34.78470  -6.57982
  11.72134 -23.77138  -4.18562
  -5.03807   3.52252  -7.05866
 -12.69952  21.71846  18.31988
  -5.99575  20.28194  27.89668
  -0.24967  13.09933  -4.66446
  -2.16503  10.22629 -18.55083
  -3.60155  -8.44848  -7.05866
  -4.08039 -12.75805   8.26423
  -2.64387  -9.88501  20.23524
   5.49641  -3.18124  24.06596
   5.01757  25.07034  13.53147
 -13.17836  38.47787 -16.15663
 -17.00908   6.39557 -25.73343
 -11.74184  -6.53312   2.99699
  -9.82648 -17.06761  26.46016
   4.05989 -41.48847  29.81205
  11.24250 -30.47514   6.82771
   2.62337   7.83209 -31.95836
 -10.30532  10.70513 -42.01400
 -17.48792  12.14165 -25.25459
   2.62337  20.28194  -1.31258
  16.50974   6.39557  16.88336
   1.66569 -11.80037  16.88336
  -6.95343 -38.61543   7.30655
  -3.60155 -54.41716  14.96799
  -2.64387 -25.68674  15.44684
  -4.08039  35.12599  10.65843
  -8.38996  36.08367  10.65843
 -27.54357  23.63382   0.12394
 -34.72617   6.87441 -10.88938
  -2.16503 -19.46181  -5.14330
  29.43843 -22.81369  -1.31258
  35.66336   7.83209 -17.59315
  29.91727  13.09933 -30.52184
  18.42510  -0.30820 -21.42387
  -2.64387  10.22629   1.08163
 -27.54357   4.48020  11.13727
 -26.58589  -2.22356  10.17959
  -4.08039 -20.41949  12.09495
  -6.47459 -29.51746  13.53147
 -20.36096 -27.12326  10.17959
  -5.99575 -18.98297   6.34887
  16.03090  -7.49080  12.09495
  10.28482  -5.09660   5.87003
  -8.38996  26.50686  -0.35490
  -9.34764  14.05701  -3.70678
  -2.16503 -26.64442  -5.62214
  -5.99575  -6.53312  10.17959
 -12.69952   6.87441  22.15060
 -15.09372 -10.84269  18.31988
 -31.37429  -2.70240   9.70075
 -25.62821   8.78977  -5.62214
  -3.60155 -20.41949 -16.63547
   0.70801 -29.51746 -11.84706
   3.10221  -0.30820  -2.27026
   9.32714  38.95671  -0.35490
   9.80598  28.42222 -14.24127
  -2.64387   3.52252 -25.25459
 -22.27632   1.12832 -24.77575
 -15.57256 -12.27921 -23.81807
  18.90394 -18.50413 -13.76243
  31.35379  -2.22356  -4.66446
   0.22917   2.56484  -4.66446
 -35.20501 -21.85601   6.34887
 -33.76849 -18.98297  17.36220
  -0.24967  20.76078  17.36220
  22.73467  49.01236  -0.35490
  16.50974  35.12599 -28.12764
   0.70801 -28.55978 -39.14096
 -16.05140 -67.34585 -22.86039
 -28.02241 -51.06527   0.12394
 -12.22068 -33.82702   8.26423
  11.72134 -14.67341  -5.62214
   2.62337  -1.26588 -24.29691
 -12.22068  -3.66008  -9.93170
  -7.43227 -22.33485  30.29089
  -2.16503 -30.47514  43.69841
  -8.38996 -17.54645  26.46016
 -18.44560 -10.36385  -8.49518
 -22.27632  -3.66008 -42.97169
 -23.71285   4.48020 -50.15429
 -21.31864   0.64948 -23.81807
 -12.69952 -27.12326  20.71408
 -12.69952 -36.70006  48.96566
 -31.37429  -8.92733  31.24857
 -28.98009  25.54918  -9.93170
   0.70801  43.74511 -32.43720
   9.32714  30.81642 -22.86039
 -10.78416 -10.36385  11.13727
 -32.33197 -44.36151  42.74073
 -33.28965 -41.00963  41.30421
 -27.54357 -19.46181 -12.32590
 -40.95110  -3.66008 -67.87138
 -52.44327   4.95904 -72.65979
 -42.38762  -9.88501 -45.84473
 -25.14937 -41.96731 -26.21227
 -13.17836 -50.58643 -13.76243
 -20.36096 -23.29253 -20.46619
 -39.99342 -12.75805 -58.29458
 -51.48559 -25.68674 -76.96935
 -59.62587   4.95904 -45.36589
 -66.80848  28.42222 -10.41054
 -67.76616   8.78977  -4.66446
 -73.03340   3.04368  -8.01634
 -74.46992  25.07034 -14.24127
 -73.03340  30.33758 -22.38155
 -77.34296  16.45121 -31.00068
 -72.55456  19.80309 -32.91604
 -55.31631  23.15498 -17.59315
 -35.68385   0.64948  -6.57982
 -26.58589 -11.32153  -6.57982
 -27.06473 -11.80037 -20.46619
 -18.92444 -19.46181 -54.46385
  -2.16503 -22.33485 -77.44819
  18.90394 -16.58877 -71.70211
  28.95959 -24.25022 -65.47718
  33.26915 -21.85601 -55.42153
  47.15552 -44.84035 -42.49285
  55.77465 -85.06294 -33.39488
  47.15552 -93.20322 -33.87372
  47.15552 -85.06294 -33.39488
  60.08421 -76.92265 -17.11431
  39.97292 -53.93832  -3.22794
 -14.61488 -21.37717   5.87003
 -68.72384  -2.70240  24.06596
-111.34063   3.04368  43.69841
-144.85945  11.18397  48.96566
-160.66118  12.62049  29.33320
-134.80380  11.66281 -10.88938
 -65.85080  33.68946 -40.57748
  19.86162  93.06567 -30.52184
  72.05522 152.44187  10.17959
  56.73233 151.00535  17.84104
 -22.75517  88.75610 -26.21227
-105.59454 -11.80037 -74.57515
-112.77715 -94.16090 -69.78674
 -14.61488 -94.16090 -13.28358
 106.05288 -31.43282  26.93900
 151.06388  31.29526  11.13727
  98.39144  31.77410 -52.06965
 -14.13604   2.56484-118.14962
-108.46758 -26.16558-136.82439
-130.97308 -49.14991-105.22093
 -54.83747 -35.74238 -31.00068
  80.19551 -19.46181  63.33087
 193.20182  -3.18124 131.80504
 231.03021  22.67614 170.11226
 193.68066  27.94338 145.21257
 101.74332  15.01469  54.71174
 -16.53024  10.70513 -31.95836
 -95.53890   7.83209 -71.22327
 -78.77948  35.60483 -57.81574
  22.25583  28.90106 -27.64879
 111.79897  -1.74472  -4.66446
 145.31779 -31.43282  -2.74910
  79.23783 -76.44381 -43.45053
 -22.27632 -69.74005 -70.26558
 -89.31397  -5.57544 -62.60414
-127.62120  59.54684 -53.50617
-102.72150  83.01002 -19.98735
 -21.79748  60.98336  45.13494
  71.09754  47.57583  80.09028
 149.14851  47.09699  67.16159
 162.07720  12.14165  23.58712
 107.48940   4.00136  -1.31258
  28.00191  18.36657  25.98132
 -21.79748  33.21062  71.47115
  -5.99575  37.99903  87.27288
  40.45176  16.45121  25.02364
  52.90161  -1.74472 -84.15195
  27.52307 -22.33485-166.99133
  -7.43227  -0.78704-168.90669
  -0.24967  57.15264 -87.50384
  25.60771  80.61582  24.54480
  49.54972  48.05467 105.46882
  51.46509 -21.85601 109.29954
  16.98858 -86.49946  18.79872
  -8.86880-121.45480 -92.29224
   5.01757-132.46813-138.73975
  58.64769-116.18756-107.61513
 102.22216 -85.54178 -39.14096
  84.02623 -45.31919   5.87003
   2.62337  -0.78704  -4.18562
 -93.14469  52.36424 -53.02733
-167.84379 111.26160 -56.85806
-187.95508 114.13464  -8.49518
-112.77715  80.13698  46.57146
  36.14220  82.53118 121.74939
 183.62502  72.47553 155.26821
 230.07253  40.87207  77.21724
 111.32013  32.73178 -20.94503
 -53.87979  35.60483 -35.31024
-120.43859  25.07034   0.60278
 -43.34530  30.81642  42.26189
 107.96825  12.14165  70.03463
 176.44241   4.00136  83.92100
 198.94791  15.01469  79.13260
 229.11485  21.71846  82.00564
 217.14384 -22.81369 102.59578
 130.47374-116.18756  58.54246
   7.41178-190.88665 -81.27891
 -85.00441-210.04026-204.81972
 -98.41194-193.75969-237.38086
 -85.00441-125.76437-220.62145
-103.20034 -49.62875-223.49449
-136.71916   4.00136-215.35420
-160.66118  83.96770-138.73975
-192.26464 143.82274 -69.78674
-236.31795 158.18795 -64.51950
-246.37360 173.98968 -63.08298
-191.78580 138.55550 -57.33690
-114.69251  83.96770 -35.31024
 -19.88212  31.77410  57.10594
 138.61403  35.12599 224.22122
 316.26379  61.94104 367.87332
 407.24345  67.20829 414.32083
 365.58434 110.30392 393.73070
 246.35310  90.19262 295.08959
 164.95024 -18.98297 148.56445
 101.26448-106.61075  44.65610
  44.76132-199.98462 -58.77342
  37.09988-253.61473-167.94901
 112.27781-130.07393-155.97800
 213.79196  50.92772 -37.70444
 212.83428 118.44420  29.33320
 107.48940 142.86506  68.11927
 -14.61488  70.08133 143.29720
 -78.77948 -55.85368 177.77371
 -73.03340-101.34351 121.27055
   0.22917 -94.63974 -18.55083
  76.84362 -63.03628-177.04698
  74.44942 -10.36385-251.74607
  16.98858  35.12599-198.11595
 -68.72384  98.33291 -45.36589
-153.47858 141.42854  97.32853
-213.33362 118.92304 147.12793
-231.05071  61.46220  74.34420
-189.87044  18.36657 -62.60414
-108.94643 -15.63109-161.24525
 -20.36096  -2.22356-143.52816
  86.42043  51.88540  14.48915
 192.72298  61.94104 174.42183
 191.76530  30.33758 244.33251
  90.72999 -12.75805 199.32152
  -2.16503 -35.74238 100.68041
 -15.57256   7.35325   5.39119
  55.29581  60.02568 -63.08298
 149.62735  76.30625 -25.73343
 149.14851  52.84308  82.96332
  25.12887  11.66281 139.94532
 -86.44093 -47.23455  95.89201
-108.94643-105.65307 -16.15663
-107.98874-121.45480-134.90903
 -74.94876 -39.57311-186.14494
  40.93060  92.10799 -97.08064
 150.58503 132.33057  37.95233
 167.34445 100.24827  92.06129
  87.37811  26.98570  82.00564
  15.07322 -68.78237  23.58712
  19.38278-117.14524 -31.00068
  85.46275 -84.10526 -33.87372
 150.58503 -23.77138   1.08163
 119.93925  20.28194  35.55813
  -4.08039  21.23962  20.71408
-114.69251  -3.66008 -38.18328
-175.02639 -11.32153 -91.81340
-191.78580  11.18397 -84.15195
-108.46758  42.30859 -19.02967
  21.29815  56.67380  39.86769
  69.18218  47.09699  70.03463
  50.02857  37.52019 101.15925
 -30.89545  16.93005 100.68041
 -87.87745 -10.84269  36.99465
 -66.32964   0.17064  15.44684
 -35.68385  27.94338  61.89435
  -9.82648   4.48020  63.33087
  26.56539 -47.71339  -2.27026
  46.19784 -48.67107 -72.18095
  49.07088  32.25294 -78.88471
  49.07088  92.58683 -12.32590
  44.76132  83.01002  61.41551
  27.52307  46.61815 105.94766
 -19.88212  11.18397 133.24156
 -46.69718 -14.67341 119.83403
 -17.00908  -9.88501  65.72507
  11.24250   6.39557   7.30655
  22.25583  12.14165  12.57379
  34.22683 -24.25022  67.16159
  58.16885 -67.34585  99.24389
  48.11320 -68.30353  63.33087
 -21.79748 -30.95398 -49.19661
 -72.07572  -6.05428-166.99133
 -70.16036  -1.26588-218.70609
 -31.85313  -1.26588-192.36987
   3.10221  -8.92733-106.17861
  -2.16503 -29.51746  -4.18562
 -47.17602 -51.06527  33.64277
 -96.01774 -50.58643  -8.49518
-109.90411 -13.71573 -64.51950
 -96.49658  42.78743 -50.15429
 -72.07572  70.08133  33.16393
 -31.37429  28.90106  84.87868
  15.07322 -32.39050  65.72507
   8.84830 -48.67107   5.39119
 -19.88212 -63.51512 -55.90037
 -15.09372 -89.37250-105.22093
  -1.20735 -63.99396-103.30557
   5.01757  16.45121 -25.73343
   8.36946  64.81409  49.92334
 -10.78416  48.53351  47.52914
 -64.41427   4.95904 -14.24127
-116.60787 -17.06761 -54.46385
-114.69251 -22.81369 -30.52184
 -30.89545 -34.30586  34.60045
  62.47841 -29.51746  73.86536
  84.98391  15.49353  75.78072
  20.34046  38.95671  35.07929
 -83.56789  20.28194 -34.83140
-148.21133  13.09933 -80.32123
-135.76148  34.64715 -62.60414
 -51.96443  61.46220  -3.70678
  18.90394  64.33525  30.76973
  29.91727  29.85874  15.44684
  14.11554 -13.71573 -29.08532
 -21.79748 -36.70006 -69.30790
 -27.54357 -13.71573 -60.68878
  10.76366  20.76078   5.39119
  29.91727  23.15498  59.50015
   5.49641   9.74745  57.58478
 -45.26066   5.43788  21.67176
 -75.42760   4.00136  -8.97402
 -66.80848  -4.61776  -9.93170
 -33.76849 -14.67341  -3.22794
   3.10221  -6.53312 -10.88938
  42.36712   8.31093  -9.93170
  74.44942  15.01469   6.82771
  75.88594  23.63382  -7.05866
  42.36712  13.09933 -46.32357
 -12.22068 -12.27921 -40.57748
 -58.66819  -9.88501  24.06596
 -79.25832  -7.01196  55.66942
 -63.93543 -23.29253  16.88336
 -37.59922 -46.75571 -38.18328
 -22.27632 -46.27687 -58.77342
  13.15786  -8.44848 -32.43720
  48.59204  15.97237   1.56047
  34.70567  19.32425  28.85436
 -34.24733  25.07034  38.43117
-102.24266  40.39323  26.46016
-110.38295  27.94338  15.92568
 -49.09138  -7.96964  15.92568
  24.17119 -22.81369  33.16393
  61.04189 -18.02529  53.75406
  43.32480   5.43788  53.75406
  17.94626   9.26861  19.75640
  20.81930  26.98570 -17.59315
  31.83263  49.97004 -21.90271
  37.09988  11.66281 -19.02967
  45.24016 -43.40383 -29.56416
