********************************************************************************
              CENTRO DE INSTRUMENTACION Y REGISTRO SISMICO  A.C.

    Anaxagoras 814, Col. Narvarte, Benito Juarez, C.P. 03020 Mexico, D.F.
           Tels. 5687 45 42/ 5687 45  82             Fax. 5669 25 12
********************************************************************************
ARCHIVO ESTANDAR DE ACELERACION:
VERSION DEL FORMATO                    : 2.0
NOMBRE DEL ARCHIVO                     : GR3120210908014746
FECHA Y HORA DE CREACION               : 17/SEP/21, 22:52
REF. CATALOGO ACELEROGRAMAS, SMIS 1996 : REGISTRO No.     /PAG.


================================================================================
DATOS DE LA ESTACION:
NOMBRE DE LA ESTACION                  : AYUTLA
CLAVE DE LA ESTACION                   : GR31
LOCALIZACION DE LA ESTACION            : Ayutla, Guerrero.                      
                                       :                                        
                                       :                                        
                                       :                                        
                                       : 
COORDENADAS DE LA ESTACION             : 16.96 LAT. N
                                       : 99.08 LONG. W
ALTITUD (msnm)                         : 0
TIPO DE SUELO                          : Rocas Metamórficas                  
                                       :                           
                                       : 
INSTITUCION RESPONSABLE                : CIRES
                                       : 

================================================================================
DATOS DEL ACELEROGRAFO:
MODELO DEL ACELEROGRAFO                : RADESD
NUMERO DE SERIE DEL ACELEROGRAFO       : 31
NUMERO DE CANALES                      : 3
ORIENTACION C1-C6 (rumbo;orientacion)  : /N00E/+V/N90W
ORIENTACION C7-C12 (rumbo;orientacion) : 
VEL. DE MUESTREO, C1-C6 (muestras/s)   : /100/100/100
VEL. DE MUESTREO, C7-C12 (muestras/s)  : 
ESC. COMPLETA DE SENSORES, C1-C6, (g)  : /1.0/1.0/1.0
ESC. COMPLETA DE SENSORES, C7-C12, (g) : 
FREC. NAT. DE SENSORES, C1-C6, (Hz)    : /0/0/0
FREC. NAT. DE SENSORES, C7-C12, (Hz)   : 
AMORTIGUAMIENTO DE SENSORES, C1-C6     : /0.000/0.000/0.000
AMORTIGUAMIENTO DE SENSORES, C7-C12    : 
INTERVALO DE MUESTREO, C1-C6, (s)      : /0.01/0.01/0.01
INTERVALO DE MUESTREO, C7-C12, (s)     : 
UMBRAL DE DISPARO, C1-C6, (Gal)        : /0.96/0.48/0.48
UMBRAL DE DISPARO, C7-C12, (Gal)       : 
MEMORIA DE PREEVENTO (s)               : 24.0
TIEMPO DE POSEVENTO (s)                : 0.0


================================================================================
DATOS DEL SISMO:
FECHA DEL SISMO (GMT)                  : 08/SEP/21
HORA EPICENTRO (GMT)                   : 01:47:46.0
MAGNITUD(ES)                           : /Mw=71
COORDENADAS DEL EPICENTRO              : 16.78 LAT. N
                                       : 99.93 LONG. W
PROFUNDIDAD FOCAL (km)                 : 10
FUENTE DE LOS DATOS EPICENTRALES       : SSN
                                       : INSTITUTO DE GEOFISICA, UNAM

================================================================================
DATOS DE ESTE REGISTRO:
HORA DE LA PRIMERA MUESTRA (GMT)       : 20:47:40.41
EXACTITUD DEL TIEMPO (s)               : 0.01
DURACION DEL REGISTRO (s), C1-C6       : /115.25/115.25/115.25
DURACION DEL REGISTRO (s), C7-C12      : 
NUM. TOTAL DE MUESTRAS, C1-C6          : /11525/11525/11525
NUM. TOTAL DE MUESTRAS, C7-C12         : 
ACEL. MAX. (Gal), C1-C6                : /178.64725/127.11248/102.69731
ACEL. MAX., C1-C6, EN LA MUESTRA       : /3292/3444/3445
ACEL. MAX. (Gal), C7-C12               : 
ACEL. MAX., C7-C12, EN LA MUESTRA      : 
UNIDADES DE LOS DATOS                  : Gal (cm/s/s)
FACTOR DE DECIMACION                   : 1
FORMATO DATOS (FORTRAN,10 campos/dato) : 3F10.5


================================================================================
CALIDAD DEL ACELEROGRAMA:
REGISTRO DIGITAL COMPLETO CON TIEMPO ABSOLUTO CORRECTO.


================================================================================
COMENTARIOS:














================================================================================
DATOS DE ACELERACION:
---------+---------+---------+---------+---------+---------+---------+---------+
   CANAL-1   CANAL-2   CANAL-3   CANAL-4   CANAL-5   CANAL-6   CANAL-7   CANAL-8
      N00E        +V      N90W
---------+---------+---------+---------+---------+---------+---------+---------+
[...]
  12.01081  -4.05051   4.08408
  -0.91788   6.48398   4.08408
  -5.22744   9.35702  -4.05620
  -0.91788   0.73789 -10.28113
   3.39169  -4.05051  -3.09852
   4.34937  -5.00819   7.91480
  -1.87556  -3.09283   7.91480
  -5.70628   4.56861  -0.22548
  -3.31208   8.87818  -7.40809
   0.51864   7.92050  -5.97156
   2.91284   2.65325   1.68988
   4.82821  -2.13515   4.08408
   3.39169   0.25905  -2.61968
  -1.87556   3.61093  -8.84461
  -2.35440   0.73789  -7.40809
   3.39169  -1.17747   0.73220
   5.78589   0.25905   5.52060
  -3.79092   3.61093  -0.70432
 -11.93121   3.13209 -13.63301
  -5.70628   2.17441 -18.90025
   7.70125   5.52630 -12.67533
  10.57429   5.04745   0.25336
   1.47632  -1.65631   9.83017
  -6.18512  -4.05051   5.52060
  -5.22744   2.17441  -7.40809
  -0.91788   8.39934  -6.92925
   3.39169   0.25905   3.12640
   4.34937 -12.19080   5.99944
   1.47632  -8.36007   2.16872
   3.39169   0.73789  -5.97156
   5.78589   1.21673 -11.71765
   2.91284  -2.13515  -6.45041
   3.87053  -6.92355   1.21104
   7.70125 -11.71196   5.04176
   2.43400  -9.79660   8.87249
 -10.01584  -1.65631   7.91480
 -13.36773   7.44166   1.68988
  -0.43904  10.31470  -5.01388
   9.61661   2.65325  -0.70432
   5.78589  -5.00819  12.70321
  -4.26976  -6.44471  15.57625
  -9.53700   0.73789   0.25336
  -1.87556   8.39934 -14.59069
   5.78589   7.92050  -9.32345
  -0.43904  -2.13515   6.95712
 -12.41005 -14.10616  13.18205
 -10.97352 -10.75428   0.25336
  -0.91788   4.56861 -17.46373
   3.39169  12.23006 -16.98489
   3.87053   8.39934   0.73220
   5.78589   8.87818   9.83017
   9.13777  13.18774  -5.97156
  11.05313   1.21673 -17.94257
   1.95516 -19.37340  -5.97156
 -10.49468 -18.41572   6.47828
 -10.49468   6.48398  -0.22548
   5.78589  20.37035 -14.59069
  18.71458   8.39934 -10.75997
  10.09545 -11.71196   4.08408
  -8.10048 -16.97920   8.39365
 -11.45237  -2.61399  -1.18316
  -1.39672  13.66658 -11.23881
   5.30705  16.53962  -5.49272
   4.82821   3.13209   9.35133
   0.03980  -8.83891  15.57625
  -5.70628 -10.75428   5.04176
  -5.22744  -4.05051 -11.71765
   2.43400  12.23006 -20.33677
   4.82821  17.97614 -12.67533
  -3.79092  -0.69863   4.56292
 -10.01584 -16.02152   9.35133
  -5.70628   0.25905  -4.53504
   3.87053  22.28571 -16.98489
  10.57429   6.48398  -8.84461
   2.43400 -19.85224   6.47828
 -11.93121 -14.10616   3.12640
  -4.26976   8.39934 -13.15417
  15.36269  20.37035 -18.42141
  16.32037  18.45498  -6.92925
  -1.87556  -1.17747   8.39365
 -12.88889 -19.85224  10.78785
  -6.18512 -18.41572  -1.66200
   7.70125  -1.17747  -8.36577
  14.88385   5.04745   1.21104
   4.82821   1.21673  15.09741
 -10.01584   4.08977  16.53393
  -7.14280   3.61093   8.39365
   8.65893  -6.92355   7.43596
   8.18009  -9.31776   8.39365
 -10.97352   4.08977  -0.70432
 -15.28309  10.79354  -8.36577
   0.99748  -0.21979  -4.05620
  10.09545 -14.10616   1.68988
  -2.35440 -11.23312   3.12640
 -13.36773   6.00514  -1.66200
  -5.22744  14.14542  -4.53504
  10.09545   2.65325   2.64756
  10.09545 -11.71196  11.26669
  -4.26976  -7.88123   8.39365
 -11.45237   4.56861  -4.05620
  -0.91788   4.08977 -13.63301
  11.05313   1.21673 -11.23881
   2.91284   6.48398  -6.45041
 -11.45237   8.87818  -3.57736
 -10.49468  -4.52935   1.21104
   0.51864 -16.97920   2.64756
   7.22241 -12.19080   2.16872
   2.43400   1.69557   1.68988
  -5.70628  10.79354  -2.61968
  -3.79092   3.13209  -3.09852
   7.70125 -11.23312   5.52060
   9.61661 -11.71196  10.30901
   0.03980   1.69557   5.52060
  -0.43904   6.00514  -1.18316
   5.30705  -3.57167   0.73220
   5.78589  -7.88123  10.78785
  -4.26976  -2.13515   8.87249
 -14.80425   0.25905  -1.18316
 -10.01584  -5.96587  -1.18316
   2.91284 -12.66964   5.04176
   9.61661  -6.44471  13.18205
   6.26473   5.04745  13.18205
  -2.35440   5.04745  -1.66200
  -8.57932  -5.48703  -6.92925
  -4.26976 -11.23312   6.95712
   1.95516  -5.48703  15.09741
  -1.39672   6.96282   6.95712
  -3.79092   2.65325  -3.57736
   0.99748 -17.93688  -0.22548
  -1.87556 -20.33108  10.78785
  -8.10048   1.21673   6.47828
  -7.14280  17.49730  -9.80229
  -2.35440  11.27238 -16.50605
   0.03980  -7.40239  -5.01388
   1.95516 -16.97920  12.70321
   4.34937  -7.88123  13.66089
   2.91284   6.48398  -8.84461
  -0.43904   9.35702 -24.16750
   0.03980   1.69557 -10.75997
   6.26473  -4.52935  10.78785
   8.18009  -1.65631   8.87249
   5.78589   4.08977 -11.23881
   6.26473   3.13209 -19.85793
  -0.43904  -8.83891  -5.97156
  -8.57932 -17.45804  13.18205
  -2.35440 -12.19080  15.57625
   8.18009   7.92050   4.08408
   9.13777  20.84919  -1.66200
   0.99748   6.96282   5.52060
 -10.97352 -12.19080  18.44929
 -11.93121 -15.06384  20.84349
   0.99748  -3.57167   4.08408
   5.78589   6.96282 -11.23881
  -2.35440   9.35702  -0.22548
  -6.66396   5.04745  18.92813
  -3.79092   0.73789  16.53393
   1.47632  -4.05051  -2.14084
   0.03980  -7.88123 -16.02721
 -10.97352  -2.61399 -14.59069
 -12.41005   2.65325  -5.49272
   3.39169  -2.61399   1.21104
  12.01081   2.65325   7.43596
  -0.43904  16.53962   5.04176
  -9.05816  10.79354  -7.40809
  -4.26976  -4.05051  -8.36577
   2.43400  -2.61399   4.08408
   4.34937   6.96282  10.30901
   3.87053   5.52630   2.16872
   1.95516   1.69557  -6.92925
  -3.79092   4.56861  -3.57736
  -5.22744   3.61093   5.52060
   1.47632  -2.13515   5.99944
   7.22241  -5.96587  -0.22548
   0.51864  -8.83891   2.16872
 -11.93121  -9.79660  10.78785
 -12.41005  -3.57167  10.78785
  -3.79092   7.44166   1.21104
   0.99748   6.48398  -3.57736
  -1.39672  -5.48703  -1.66200
  -4.74860  -6.92355  -1.18316
  -5.22744   2.65325  -3.57736
   2.43400   4.08977  -3.09852
   7.70125   1.21673   2.64756
   0.51864   3.61093  -0.70432
  -5.70628   2.65325  -8.84461
  -6.18512  -3.09283  -2.61968
  -2.35440  -2.13515   8.87249
   3.39169   5.52630   9.83017
   6.74357   7.44166   3.12640
   3.39169  -3.57167  -0.22548
  -6.66396 -14.10616   5.52060
 -10.01584  -5.00819  11.26669
  -0.43904   8.87818   5.99944
   5.30705  14.14542  -4.53504
  -1.87556   3.13209  -5.49272
 -12.88889 -15.06384   0.25336
 -16.24077 -15.54268   4.08408
  -9.53700   0.73789   1.68988
   1.47632   9.83586  -3.09852
   7.22241   6.00514   1.21104
   2.91284  -1.17747  11.26669
  -6.18512 -12.19080  12.22437
  -7.62164 -19.37340   8.87249
   0.99748 -11.71196   5.99944
   5.30705   4.56861  -0.70432
   0.03980   6.48398   0.25336
  -9.53700 -10.75428   9.83017
 -13.84657 -18.89456  12.22437
  -7.14280  -2.13515   2.16872
   0.99748  17.01846  -7.40809
   1.47632   9.35702  -0.70432
  -8.10048 -14.10616  14.13973
 -20.55033 -16.97920  14.13973
 -14.32541   4.08977  -3.57736
   4.82821  11.27238 -15.54837
  15.36269  -3.09283  -1.66200
   6.74357 -16.50036  20.84349
 -11.45237  -7.40239  19.88581
 -12.88889   6.96282  -5.01388
   3.39169   1.69557 -19.85793
  12.01081  -1.17747  -6.45041
   4.34937   5.04745  10.78785
  -5.22744   3.61093   4.08408
  -3.79092  -1.17747 -11.23881
   7.22241  -1.17747  -8.84461
  13.44733  -0.69863   6.47828
   4.82821  -3.57167  13.66089
 -11.93121  -8.83891   6.47828
 -19.59265 -13.62732   0.25336
  -7.62164 -16.97920   2.16872
   2.43400  -9.31776   3.12640
  -3.31208   7.92050   4.56292
 -11.93121  10.31470   3.60524
 -14.32541  -1.65631  -4.05620
 -14.32541  -7.88123  -8.84461
 -13.36773  -2.61399  -0.70432
 -10.49468   3.13209   9.83017
  -8.57932   3.61093   5.04176
 -13.36773   2.65325  -7.88693
 -16.24077   0.25905  -6.45041
 -16.24077  -6.44471   5.52060
 -16.24077  -7.88123  11.26669
 -14.32541  -7.88123   2.64756
 -12.88889  -5.96587  -6.92925
 -12.41005  -3.09283  -3.57736
 -12.41005  -3.57167   5.04176
 -10.01584  -2.61399   6.47828
  -8.57932   0.73789   0.73220
  -8.57932   0.73789  -1.18316
  -7.62164  -4.05051   6.47828
  -3.79092  -5.48703  12.70321
   0.99748  -2.61399   9.83017
  -0.43904   0.25905   5.04176
 -10.49468  -9.31776   5.04176
 -21.98685 -19.37340   7.43596
 -28.21178 -10.75428   4.08408
 -28.21178   8.39934  -5.49272
 -28.21178  12.23006  -8.84461
 -36.35206   3.61093  -1.66200
 -46.88655   3.61093   2.64756
 -51.19611   6.48398  -5.01388
 -46.88655   3.13209  -6.92925
 -36.83090  -3.57167   4.56292
 -24.38105  -7.88123  15.09741
 -13.36773 -13.62732  15.57625
 -10.49468 -17.93688   7.91480
  -6.18512 -16.97920  -1.18316
   5.78589 -10.75428  -5.49272
  22.06646  -3.57167  -1.18316
  34.03747  -6.92355   6.95712
  31.64326 -15.06384  14.61857
  22.06646 -22.72528  11.26669
  11.53197 -28.95021  -0.70432
  -5.70628 -29.90789  -7.88693
 -24.85989 -28.95021 -11.23881
 -33.47902 -29.90789 -15.54837
 -24.38105 -26.55601 -15.54837
  -5.22744 -19.85224 -11.71765
   5.30705 -18.41572  -8.36577
   4.34937 -21.28876  -3.57736
   2.91284 -27.99253  -1.18316
   3.87053 -30.86557  -5.01388
   2.43400 -28.47137  -9.32345
  -1.87556 -29.90789 -13.63301
  -7.14280 -29.90789 -15.54837
  -8.57932 -21.76760 -14.11185
  -1.87556 -11.71196 -12.19649
  12.48965  -2.13515  -5.49272
  27.81254  15.10310   7.91480
  34.03747  33.29903  16.53393
  23.50298  29.94715  10.78785
  -5.22744   1.21673  -4.53504
 -40.18278 -16.50036 -17.94257
 -54.06915  -5.00819 -16.02721
 -34.91554  15.10310  -4.53504
  -7.14280  22.76455   2.64756
 -10.01584   9.83586   3.60524
 -35.39438 -16.50036   2.64756
 -39.70394 -34.69629   3.12640
   1.47632 -27.51369   2.16872
  50.79688  -1.17747  -4.53504
  54.14876  15.10310  -8.36577
  11.53197   5.04745  -5.01388
 -28.21178 -19.37340 -11.71765
 -31.56366 -33.25977 -27.04054
  -8.10048 -24.64065 -29.43474
   9.13777 -13.14848 -16.98489
   1.47632  -8.83891  -1.18316
 -13.36773  -1.17747   1.21104
  -9.05816  10.31470 -11.23881
   9.61661  23.24339 -17.46373
  23.98182  28.98947  -5.97156
  24.93950  18.93382  17.01277
  20.15110   6.48398  32.33566
  25.41834 -11.23312  15.09741
  35.95283 -33.25977 -19.37909
  39.30471 -38.52702 -30.87126
  42.17775 -20.33108 -17.46373
  52.23340   2.17441   3.60524
  66.59861   9.83586  17.01277
  76.17542   4.08977  11.74553
  63.24673  -3.57167  -3.57736
  30.20674 -12.66964 -14.59069
   2.91284 -28.47137 -24.16750
 -17.67729 -35.17513 -31.82894
 -51.19611  -9.79660 -25.60402
 -72.26509  25.63759  -9.32345
 -59.33640  29.46831  -3.57736
 -51.67495  -1.17747 -11.23881
 -69.87089 -33.73861 -16.50605
 -93.33406 -54.32875 -16.50605
 -86.63030 -56.24411 -10.28113
 -15.28309 -34.21745   4.08408
 104.90584   5.04745  20.36465
 178.64725  39.52396  28.02610
 174.33768  42.39700  28.98378
 144.17074  -0.21979  20.84349
 125.97481 -47.14614   4.56292
 120.22873 -45.70962  -7.88693
 108.25772 -10.75428 -17.46373
  63.24673   4.56861 -31.35010
 -30.12714  -4.52935 -43.79995
-123.97984 -16.97920 -46.19415
-126.37404 -24.64065 -45.23647
 -53.11147 -16.50036 -42.36343
   7.22241  15.58194 -21.77330
   7.22241  54.84685  16.53393
 -20.55033  49.57961  38.56059
 -23.90221   5.52630  27.06842
   5.78589 -18.89456   3.12640
  42.65659 -18.41572  -6.92925
  62.76789   1.69557   4.56292
  63.24673  28.03179  13.18205
  53.19108  37.12976  -1.66200
  48.40268  23.24339 -23.20982
  51.27572   1.21673 -34.22314
  47.92384  -0.69863 -34.22314
  36.91051  25.15875 -22.73098
  34.03747  58.67757  -1.18316
  45.52963  80.70423  25.63190
  68.51397  76.39466  50.05275
  87.66758  53.41033  62.98144
  84.79454  28.03179  55.32000
  71.38701   2.65325  29.46262
  57.97948  -7.88123   5.52060
  46.48732   8.39934  -0.22548
  51.75456  20.37035  -4.53504
  69.95049  18.45498 -14.59069
  79.52730  14.14542 -22.73098
  66.59861   1.21673 -20.81562
  38.82587 -14.10616 -14.59069
  18.71458 -19.85224 -13.63301
  28.29138 -12.19080 -13.63301
  52.23340  10.31470  -6.45041
  55.10644  40.96048   1.68988
  27.81254  59.63525  -0.22548
 -11.45237  46.22772 -10.28113
 -34.91554   2.65325 -10.28113
 -17.67729 -28.95021   8.39365
  25.89718 -16.02152  20.84349
  53.19108  26.59527   4.56292
  55.58528  48.14308 -19.85793
  50.31804  17.49730 -18.42141
  47.92384 -27.51369   7.91480
  47.92384 -45.70962  21.32233
  37.38935 -39.96354  -5.49272
  -6.66396 -27.03485 -55.77096
 -78.01117 -10.75428 -80.19182
-125.41636  14.14542 -49.06719
-117.27608  39.52396   9.35133
 -75.13813  51.97381  41.91247
 -38.74626  51.01613  39.99711
 -24.38105  45.27004  32.81450
 -21.98685  40.48164  24.67422
 -28.69062  35.69324   7.91480
 -40.66163  30.90483  -0.70432
 -47.84423  39.52396   3.12640
 -54.54799  67.77554   4.08408
 -54.06915  93.15408  -2.61968
 -33.95786  94.11176  -7.40809
  -4.74860  91.71755  -1.66200
  12.96849 103.68856  11.26669
  -5.22744 104.64624  13.18205
 -55.50568  80.70423  -5.49272
 -99.08015  48.62193 -20.81562
-108.17811  30.42599  -6.45041
 -82.32073  30.42599  24.19538
 -55.02684  23.72223  34.72986
 -60.77292  -8.36007  13.18205
 -86.15146 -50.01918 -14.11185
 -82.32073 -80.66496 -18.90025
 -16.71961 -80.18612  -3.09852
  78.09078 -40.44238  13.18205
 139.86118   5.52630   9.35133
 136.98814  20.37035 -17.46373
  75.21774   0.73789 -39.01155
   3.39169 -28.95021 -25.12518
 -29.64830 -34.69629  20.84349
   6.26473 -23.20412  54.36232
  79.52730 -25.59833  37.60291
 100.11743 -39.96354 -12.67533
  40.26239 -45.23078 -44.75763
 -30.12714 -44.75194 -35.18083
 -45.92887 -34.21745  -0.70432
 -11.45237   3.61093  33.29334
  41.22007  50.53729  52.44696
  73.78121  68.73322  53.88348
  54.62760  44.31236  41.43363
   6.26473  -9.79660  20.84349
 -20.07149 -58.15947  -1.18316
 -35.39438 -72.04584 -16.50605
 -59.81524 -41.40006 -21.77330
 -76.57465  20.84919 -16.98489
 -60.77292  68.73322  -4.05620
 -29.16946  70.64858  12.22437
 -25.81757  36.17208  27.54726
 -59.81524 -12.19080  27.06842
-105.30507 -42.83658   5.04176
-142.17578 -43.31542 -26.08286
-163.24475 -27.51369 -50.50372
-161.32939 -12.19080 -57.68632
-140.26041   7.44166 -40.44807
-116.31840  41.43932 -10.75997
 -94.77058  80.22539  12.70321
 -71.78625  99.85784  25.63190
 -43.53467  86.92915  39.03943
 -12.41005  49.57961  43.34899
 -17.67729   9.83586  19.88581
 -70.34973  -3.09283 -17.46373
-112.96652  13.18774 -33.74430
-108.65695  44.31236 -18.42141
 -72.26509  77.83119  12.22437
 -42.57699  93.15408  45.26435
 -44.01351  76.87350  73.51593
 -59.33640  36.17208  77.82549
 -54.06915  -5.00819  44.30667
 -19.11381 -26.55601 -16.50605
  15.36269 -16.97920 -52.89792
  22.06646  29.46831 -20.81562
  27.81254  79.26771  51.48928
  66.59861  89.32335  88.35998
 120.70757  61.55061  77.82549
 158.53595  17.49730  45.74319
 161.40899 -33.73861   1.68988
 125.49597 -80.66496 -42.84227
  73.78121-111.31075 -68.69965
  43.13543-125.67596 -76.36109
  38.34703-123.28175 -71.57269
  25.89718-105.08582 -61.51704
 -29.16946 -71.56700 -45.71531
-107.69927 -29.90789 -23.68866
-145.04882  -6.44471  -3.57736
-108.65695 -16.50036   2.64756
 -44.49235 -38.52702   7.91480
  -8.57932 -48.10382  33.77218
  17.27805 -39.48470  71.12173
  77.61194 -21.28876  86.92346
 114.48264  -2.13515  64.89680
