********************************************************************************
              CENTRO DE INSTRUMENTACION Y REGISTRO SISMICO  A.C.

    Anaxagoras 814, Col. Narvarte, Benito Juarez, C.P. 03020 Mexico, D.F.
           Tels. 5687 45 42/ 5687 45  82             Fax. 5669 25 12
********************************************************************************
ARCHIVO ESTANDAR DE ACELERACION:
VERSION DEL FORMATO                    : 2.0
NOMBRE DEL ARCHIVO                     : HJ7220210908014746
FECHA Y HORA DE CREACION               : 07/SEP/21, 23:17
REF. CATALOGO ACELEROGRAMAS, SMIS 1996 : REGISTRO No.     /PAG.


================================================================================
DATOS DE LA ESTACION:
NOMBRE DE LA ESTACION                  : HOSPITAL JUÁREZ
CLAVE DE LA ESTACION                   : HJ72
LOCALIZACION DE LA ESTACION            : Del. Cuahtemoc. Col. Centro, Hospital  
                                       : Juárez entre Fray Servando             
                                       : y San Pablo.                           
                                       :                                        
                                       : 
COORDENADAS DE LA ESTACION             : 19.4251 LAT. N
                                       : 99.1301 LONG. W
ALTITUD (msnm)                         : 2232
TIPO DE SUELO                          : Alto riesgo sísmico                 
                                       :                           
                                       : 
INSTITUCION RESPONSABLE                : CIRES, A. C.
                                       : 

================================================================================
DATOS DEL ACELEROGRAFO:
MODELO DEL ACELEROGRAFO                : RAD_IO14
NUMERO DE SERIE DEL ACELEROGRAFO       : 
NUMERO DE CANALES                      : 3
ORIENTACION C1-C6 (rumbo;orientacion)  : /N00E/+V/N90W
ORIENTACION C7-C12 (rumbo;orientacion) : 
VEL. DE MUESTREO, C1-C6 (muestras/s)   : /100/100/100
VEL. DE MUESTREO, C7-C12 (muestras/s)  : 
ESC. COMPLETA DE SENSORES, C1-C6, (g)  : /2.0/2.0/2.0
ESC. COMPLETA DE SENSORES, C7-C12, (g) : 
FREC. NAT. DE SENSORES, C1-C6, (Hz)    : /32/30/30
FREC. NAT. DE SENSORES, C7-C12, (Hz)   : 
AMORTIGUAMIENTO DE SENSORES, C1-C6     : /0.750/0.766/0.700
AMORTIGUAMIENTO DE SENSORES, C7-C12    : 
INTERVALO DE MUESTREO, C1-C6, (s)      : /0.01/0.01/0.01
INTERVALO DE MUESTREO, C7-C12, (s)     : 
UMBRAL DE DISPARO, C1-C6, (Gal)        : / / /
UMBRAL DE DISPARO, C7-C12, (Gal)       : 
MEMORIA DE PREEVENTO (s)               : 60
TIEMPO DE POSEVENTO (s)                : 90


================================================================================
DATOS DEL SISMO:
FECHA DEL SISMO (GMT)                  : 08/SEP/21
HORA EPICENTRO (GMT)                   : 01:47:46.0
MAGNITUD(ES)                           : /Mc=7.1
COORDENADAS DEL EPICENTRO              : 16.78 LAT. N
                                       : 99.93 LONG. W
PROFUNDIDAD FOCAL (km)                 : 10
FUENTE DE LOS DATOS EPICENTRALES       : SSN
                                       : INSTITUTO DE GEOFISICA, UNAM

================================================================================
DATOS DE ESTE REGISTRO:
HORA DE LA PRIMERA MUESTRA (GMT)       : 20:55:00.00
EXACTITUD DEL TIEMPO (s)               : 
DURACION DEL REGISTRO (s), C1-C6       : /599.21/599.21/599.21
DURACION DEL REGISTRO (s), C7-C12      : 
NUM. TOTAL DE MUESTRAS, C1-C6          : /59921/59921/59921
NUM. TOTAL DE MUESTRAS, C7-C12         : 
ACEL. MAX. (Gal), C1-C6                : /41.86069/12.76273/40.38391
ACEL. MAX., C1-C6, EN LA MUESTRA       : /8175/8024/8415
ACEL. MAX. (Gal), C7-C12               : 
ACEL. MAX., C7-C12, EN LA MUESTRA      : 
UNIDADES DE LOS DATOS                  : Gal (cm/s/s)
FACTOR DE DECIMACION                   : 1
FORMATO DATOS (FORTRAN,10 campos/dato) : 3F10.5


================================================================================
CALIDAD DEL ACELEROGRAMA:
REGISTRO DIGITAL COMPLETO CON TIEMPO ABSOLUTO CORRECTO.


================================================================================
COMENTARIOS:














================================================================================
DATOS DE ACELERACION:
---------+---------+---------+---------+---------+---------+---------+---------+
   CANAL-1   CANAL-2   CANAL-3   CANAL-4   CANAL-5   CANAL-6   CANAL-7   CANAL-8
      N00E        +V      N90W
---------+---------+---------+---------+---------+---------+---------+---------+
[...]
  -0.57969  -3.04143   9.46041
   1.51711  -3.49533   9.46201
   3.74391  -3.94793   9.58431
   5.81151  -4.19503   9.71831
   7.83631  -4.13313   9.89341
   9.66821  -3.84643  10.32201
  11.07501  -3.22313  10.96731
  12.35161  -2.52993  11.44381
  13.15121  -1.70523  12.18851
  14.07271  -1.18453  12.62361
  14.94661  -0.76763  13.06461
  15.58911  -0.55253  13.60111
  16.57251  -0.14453  14.06081
  17.52251   0.26107  14.62011
  18.76661   0.86567  14.94161
  19.79961   1.53997  15.50291
  20.76221   2.58657  15.80691
  21.71141   3.41637  15.98341
  22.42081   4.42307  16.23731
  22.91341   5.16007  16.23941
  23.36731   5.57297  16.18661
  23.73951   6.04827  16.06711
  23.89571   6.00157  15.92241
  24.30411   5.83717  15.40451
  24.57071   5.44507  14.96991
  24.91721   5.23697  14.24621
  25.31511   4.71187  13.59581
  25.65321   4.48177  12.92331
  26.04531   3.98617  12.11621
  26.37711   3.37987  11.28341
  26.74631   2.86997  10.19291
  27.12271   2.26647   9.41221
  27.19871   1.71347   8.41811
  27.08441   1.28397   7.69561
  26.76851   0.96667   6.92401
  25.94151   0.78717   6.48961
  25.16391   0.42377   6.06221
  24.33101   0.39667   5.80711
  23.58051   0.25567   5.94811
  23.23141   0.24707   6.00891
  22.92301   0.07267   6.16861
  22.97491   0.04507   6.37651
  23.01421   0.11517   6.68741
  23.14231  -0.17383   7.04301
  23.26421  -0.57593   7.54971
  23.22561  -1.26473   8.11531
  23.01751  -1.78213   8.61311
  22.85971  -2.11113   9.42951
  22.60671  -2.41903  10.25841
  22.31721  -2.61223  10.90111
  22.17721  -2.35403  11.40851
  21.98781  -1.99143  11.59741
  22.13721  -1.77843  11.82161
  22.54001  -1.52453  11.57431
  23.16361  -1.05453  11.12141
  23.98381  -0.84503  10.29511
  24.36071  -0.16093   9.47961
  25.03641   0.66437   8.43911
  25.35421   1.40627   7.25111
  25.40611   2.16547   6.02321
  25.07221   2.72867   4.70641
  24.71771   3.21387   3.44961
  24.24551   4.04807   1.88171
  23.99781   4.72477   0.35281
  23.77991   5.34717  -1.54119
  23.88471   5.72287  -3.36919
  24.02051   6.08227  -5.21619
  24.20361   6.29567  -6.97539
  24.08161   6.63847  -8.45609
  24.01821   6.77617 -10.08039
  24.12291   7.10517 -11.16199
  23.82181   7.40257 -11.51739
  23.70421   7.42967 -11.87909
  23.11121   7.02957 -11.89059
  22.34321   6.86497 -11.26319
  21.78861   6.64987 -10.74719
  21.22881   6.50707  -9.91839
  20.55991   6.17227  -9.05659
  19.62751   6.01047  -8.27069
  18.57041   5.47827  -7.24219
  17.29411   4.85987  -6.35089
  15.79771   4.03057  -5.38509
  14.56181   3.37897  -4.41989
  13.24641   2.71767  -3.15499
  11.88161   2.11847  -2.07879
  10.60571   1.51687  -1.04419
   9.06521   1.17877  -0.04039
   7.69371   0.86007   0.99611
   6.51951   0.50497   1.78211
   5.06421   0.30177   2.29861
   3.59761  -0.22873   2.86771
   1.96601  -0.50693   3.32641
   0.08511  -0.90913   3.90631
  -1.70709  -1.38023   4.27921
  -3.50529  -1.74293   4.56751
  -5.22399  -2.12863   4.89711
  -6.62529  -2.54863   5.24461
  -8.08309  -2.69173   5.15811
  -9.57099  -2.73943   5.32901
 -10.89829  -2.46113   5.32201
 -12.43629  -2.06463   5.25701
 -14.18169  -2.06083   4.84691
 -16.10849  -2.24703   4.17351
 -17.90019  -2.57153   3.50251
 -19.78169  -3.04053   2.84831
 -21.52189  -3.25143   1.74751
 -22.87679  -3.55933   0.76431
 -23.96009  -3.75533   0.04351
 -24.55509  -3.82173  -1.00959
 -24.84289  -3.71783  -1.78809
 -24.66199  -3.67343  -2.64689
 -24.32059  -3.39453  -3.48019
 -23.59139  -2.92173  -4.33199
 -22.96049  -2.38003  -5.25019
 -22.16179  -1.96313  -6.29059
 -21.47419  -1.56003  -7.24429
 -20.83239  -1.11723  -7.98729
 -20.44919  -0.63023  -8.79259
 -19.95469  -0.25563  -9.49419
 -19.57099  -0.00893  -9.84029
 -19.07739   0.28587 -10.21179
 -18.75669   0.41427 -10.71609
 -18.41019   0.75417 -10.97779
 -17.80549   1.41917 -11.20779
 -17.42999   2.04647 -11.40889
 -17.20509   2.53907 -11.48419
 -16.96009   3.02777 -11.71429
 -17.26659   3.48157 -11.54759
 -17.62029   3.73107 -11.47249
 -18.12789   4.18017 -11.54779
 -18.72039   4.44677 -11.20619
 -19.03469   4.91997 -10.67849
 -19.28599   5.01607 -10.08369
 -20.08729   5.13577  -9.65699
 -20.63719   5.31157  -8.95839
 -21.45689   5.41047  -8.49209
 -22.16249   5.37967  -7.77479
 -23.07599   5.38147  -7.10379
 -24.05569   5.49087  -6.31679
 -25.14099   5.38897  -5.50009
 -26.35449   5.03147  -4.72409
 -27.38609   4.45237  -3.93869
 -28.65679   3.77107  -3.23309
 -29.87049   2.99317  -2.37169
 -31.08019   2.29827  -1.28429
 -32.20909   1.34857  -0.31469
 -33.31149   0.44107   0.69211
 -34.25279  -0.73753   1.64181
 -35.02949  -1.92453   2.46831
 -35.64839  -2.81793   3.45761
 -36.15409  -3.72493   4.34471
 -36.20629  -4.40503   5.43471
 -36.39819  -4.92803   6.55131
 -36.28829  -5.16163   7.64771
 -36.18479  -5.72303   8.56441
 -36.08839  -6.05293   9.53991
 -35.98789  -6.47683  10.23221
 -35.83079  -6.56453  10.98901
 -35.81529  -6.63273  11.50461
 -35.86349  -6.60373  12.19251
 -35.82209  -6.35573  12.60471
 -36.12509  -6.29043  12.80711
 -36.10829  -6.28813  12.83191
 -35.83619  -6.11463  12.83331
 -35.81349  -6.08843  12.81251
 -35.33629  -5.94743  12.65351
 -34.77959  -6.01133  12.38371
 -34.14429  -5.89973  12.16841
 -33.49059  -5.92523  11.58011
 -32.88899  -5.96403  10.76861
 -32.44899  -5.83783   9.92961
 -32.25699  -5.93083   8.72881
 -31.95839  -6.14133   7.68651
 -31.78239  -6.56143   6.65211
 -31.57689  -7.30753   5.45081
 -31.19789  -8.19883   4.64721
 -30.34209  -9.11633   3.57081
 -29.72069 -10.25423   2.29061
 -28.74399 -11.15133   1.27381
 -27.82399 -12.01573  -0.06289
 -26.89829 -12.48893  -1.38579
 -25.73209 -12.70523  -2.58219
 -24.71179 -12.74123  -3.81339
 -23.31309 -12.76273  -4.87179
 -21.74989 -12.60983  -5.92839
 -20.08379 -12.42753  -6.86019
 -18.42249 -12.11163  -7.48929
 -16.53359 -11.68673  -7.93919
 -14.87819 -11.43633  -8.39019
 -13.52449 -11.13503  -8.91179
 -12.06429 -10.74473  -9.16079
 -10.60769 -10.64303  -9.75589
  -9.15829 -10.40733 -10.24829
  -7.68579 -10.21803 -10.92629
  -6.10219 -10.01203 -11.35509
  -4.67529  -9.57763 -11.88559
  -3.12279  -8.82803 -12.40819
  -1.33419  -8.15253 -12.98129
   0.19051  -7.30283 -13.30299
   1.80211  -6.71013 -13.41849
   3.28991  -6.27013 -13.69649
   4.42061  -6.06293 -14.25669
   5.68691  -5.81913 -14.35469
   6.99131  -5.22973 -14.37029
   8.35981  -4.80863 -14.93869
   9.88491  -4.24913 -15.04229
  11.53231  -3.75063 -15.17089
  13.04911  -3.11393 -15.42149
  14.63311  -2.46743 -15.78299
  16.40441  -2.09403 -16.26299
  18.21481  -1.48363 -16.69809
  20.17161  -0.82423 -17.51039
  21.90181  -0.23853 -18.46169
  23.52741   0.24917 -19.50969
  25.15261   0.73007 -20.44139
  26.49871   1.15357 -21.40259
  27.92091   1.34217 -21.99339
  29.10001   1.42027 -22.45679
  30.38251   1.30897 -22.49919
  31.57891   1.59377 -22.67989
  32.70141   1.89797 -22.47529
  33.77221   2.18257 -22.19639
  34.56511   2.46077 -22.02449
  35.14001   2.74947 -21.64509
  35.67501   3.00977 -21.30109
  36.02941   2.92417 -20.51879
  36.11101   3.01837 -19.46149
  35.83911   3.11257 -18.25389
  35.53771   3.22157 -16.75259
  35.20521   3.29737 -15.09089
  34.93641   3.78927 -13.12109
  34.29971   4.07407 -10.70049
  33.78931   4.39697  -8.49139
  32.91911   4.66067  -6.44299
  32.05681   4.86057  -4.65419
  31.37731   5.10417  -2.89099
  30.63471   5.16917  -1.63059
  29.69131   5.16847  -0.66379
  28.96961   5.52527   0.31011
  28.71961   5.71557   1.41921
  28.52181   5.98357   2.61541
  28.27721   6.01137   3.53381
  28.27051   6.12457   4.39661
  28.72311   6.43687   5.18961
  28.71121   6.45817   6.07231
  28.89541   6.71117   6.91541
  29.06591   6.56997   7.39241
  28.98571   6.87837   7.44101
  28.88541   7.29167   7.18191
  28.73461   7.55777   6.76951
  28.65341   7.99567   6.12751
  28.25971   7.93677   5.67531
  27.93331   8.01157   5.13561
  27.69371   8.01817   4.56371
  27.38181   8.22647   4.46901
  27.33361   8.41917   4.39051
  27.24521   8.48737   4.72461
  26.93961   8.33477   4.98951
  26.60861   7.88837   5.56161
  26.01021   7.45467   6.51021
  25.50121   7.18047   7.10311
  24.94451   6.60497   7.68951
  24.32821   6.30107   8.07341
  23.83351   5.89817   8.58381
  23.82651   5.31907   8.97311
  23.81661   4.71487   9.08821
  23.83371   4.17127   9.23991
  24.17111   3.86247   9.66541
  24.59591   3.60787   9.98551
  25.06351   3.56877  10.59481
  25.77621   3.49347  11.43721
  26.18441   3.51127  12.31641
  26.65791   3.47927  13.30891
  27.56511   3.56737  14.28081
  28.48461   3.54257  15.03881
  29.50431   3.34077  15.58551
  30.05541   3.35737  16.08191
  30.85871   3.31857  16.14991
  31.24971   3.30127  16.41081
  31.90991   3.18047  16.58991
  32.36241   3.36487  16.82701
  32.51271   3.52977  17.07111
  32.22531   3.64707  17.30301
  31.80711   3.66277  17.49291
  31.33011   3.86617  17.54081
  30.73601   4.34927  18.10831
  30.17811   4.80377  18.12751
  29.26881   5.02817  18.17801
  28.16241   5.34877  18.08961
  26.90221   5.57347  17.59111
  25.64711   5.74737  16.95491
  24.40161   5.94917  15.95861
  22.62161   6.17857  14.86001
  20.70211   6.22207  13.72481
  18.77551   6.40907  12.40641
  16.63081   6.29827  11.37061
  14.46991   6.26977  10.43421
  12.51321   6.42127   9.47931
  10.59271   6.58307   8.66611
   8.72571   7.08127   8.06341
   6.86601   7.36397   7.07791
   4.80001   7.78737   6.20161
   2.85941   8.10237   5.25601
   0.56531   8.20027   4.05991
  -1.99929   8.10067   2.91421
  -4.44379   7.70837   1.94511
  -6.62529   7.31017   0.70991
  -9.01639   6.75397   0.05261
 -11.16979   5.98497  -0.15519
 -13.11739   5.47337  -0.15659
 -15.16999   4.67707   0.42951
 -17.05129   3.92467   1.01051
 -18.76319   3.30107   1.86491
 -20.26309   2.47617   2.59391
 -21.74609   1.70747   2.92151
 -23.63759   1.01257   3.27591
 -25.33699  -0.04993   3.52681
 -26.83219  -0.61083   3.56021
 -28.15969  -1.42653   3.46951
 -29.41439  -1.86963   3.52961
 -30.74329  -2.52573   3.37391
 -32.16789  -3.10813   3.24621
 -33.25069  -3.52283   3.48451
 -34.28619  -3.89273   3.60141
 -35.14129  -3.90963   3.56191
 -35.98039  -4.19673   3.78281
 -36.73469  -4.20303   3.86351
 -37.72579  -4.32763   3.83401
 -38.61729  -4.37513   4.04121
 -39.49919  -4.60773   3.93411
 -40.38539  -4.95143   4.04631
 -41.01339  -4.96903   4.20111
 -41.53969  -5.04613   4.51841
 -41.74589  -5.06973   4.64531
 -41.86069  -4.78243   5.05191
 -41.68179  -4.57103   5.21911
 -41.33039  -4.40503   5.54151
 -40.72789  -4.44243   6.05941
 -39.78139  -4.57873   6.61421
 -38.93599  -4.69663   7.14121
 -38.13659  -4.86863   7.53971
 -37.35709  -5.18663   8.08491
 -36.71989  -5.65213   8.79541
 -35.93619  -5.92903   9.65631
 -35.36289  -6.11253  10.63221
 -34.42419  -6.26003  11.33391
 -33.75829  -6.35943  12.27241
 -32.79639  -6.21593  13.08281
 -31.92359  -6.31313  13.61631
 -30.87049  -6.10763  14.25301
 -29.96099  -6.13453  14.90791
 -29.12699  -6.16493  15.67921
 -28.18589  -6.27783  16.56191
 -27.38539  -6.25823  17.34611
 -26.65589  -6.19433  18.13911
 -25.98159  -6.19253  18.52631
 -25.19549  -5.95613  19.08231
 -24.66939  -5.29393  19.34701
 -24.16209  -4.62903  18.88901
 -23.67339  -4.30383  18.46691
 -23.29469  -3.77073  17.65451
 -23.34539  -3.47193  16.72391
 -23.08939  -2.98183  15.65211
 -23.10199  -2.88833  14.54851
 -23.25139  -2.73633  13.27691
 -23.43099  -2.37443  12.22031
 -23.35079  -1.99283  10.92381
 -23.26259  -1.50723   9.78311
 -23.13889  -0.89483   8.99961
 -22.83429  -0.23813   7.69261
 -22.81929   0.21617   6.24441
 -22.62849   0.94477   4.86981
 -22.66239   1.38917   3.20061
 -22.51419   1.66697   1.33341
 -22.37089   1.97347  -0.39089
 -22.14289   1.96887  -2.49049
 -21.27499   2.05697  -4.15339
 -20.19969   2.30827  -5.57399
 -18.99259   2.55847  -6.70119
 -17.69309   2.78227  -7.58049
 -16.51859   2.95947  -8.25619
 -15.25259   3.30647  -9.04299
 -14.20879   3.42897  -9.24499
 -13.29909   3.44907  -9.46339
 -12.65609   3.53977  -9.56229
 -11.92009   3.56527  -9.82229
 -10.97949   3.40467  -9.81969
 -10.13799   3.41287  -9.79869
  -9.33349   3.24027  -9.84729
  -8.53729   3.08547  -9.74139
  -7.73329   2.96887  -9.62399
  -6.96289   3.07967  -9.49189
  -6.12929   3.11797  -9.36569
  -5.29929   3.19167  -8.97219
  -4.45149   3.51287  -8.77429
  -3.68229   3.50427  -8.27259
  -2.86509   3.25267  -7.66819
  -2.13819   3.07777  -6.96629
  -1.60509   2.48487  -6.40139
  -1.04099   2.15867  -5.63359
  -0.54739   1.66487  -4.74819
   0.03501   0.98967  -4.07709
   0.60641   0.61877  -3.38969
   1.05701  -0.12723  -2.72379
   1.73811  -0.68213  -2.13489
   2.18261  -1.28463  -1.71709
   2.58981  -1.77893  -1.36539
   2.92701  -1.78243  -0.95929
   3.16901  -1.73753  -0.60059
   3.31421  -1.54393  -0.18419
   3.33801  -1.57523   0.07251
   3.15801  -1.61573   0.21681
   3.16991  -1.85563   0.39701
   3.35511  -2.12583   0.30071
   3.46031  -2.46023   0.20931
   3.83441  -2.83943   0.11411
   4.33501  -3.17963  -6.9E-40
   4.96231  -3.45933  -0.30949
   5.86781  -3.83033  -0.38389
   7.00721  -4.22993  -0.47039
   8.14161  -4.47753  -0.73059
   9.12431  -4.50373  -0.76899
  10.02801  -4.65823  -0.92589
  11.06471  -4.52713  -0.89829
  11.98031  -4.66853  -1.03429
  12.98691  -4.48033  -0.86549
  14.09531  -4.47403  -1.23239
  15.45051  -4.70503  -1.79119
  16.50451  -4.72323  -2.41119
  17.79211  -4.98303  -3.34039
  18.87741  -5.28093  -4.67539
  19.96771  -5.47683  -6.12369
  21.32071  -5.80833  -7.49919
  22.81571  -6.23643  -9.01909
  24.34251  -6.49743 -10.42409
  25.73111  -6.63983 -11.67099
  26.82511  -6.58643 -12.62329
  27.65181  -6.66313 -13.59239
  28.52561  -6.56263 -14.63449
  29.12531  -6.43823 -15.93359
  29.51151  -6.56263 -17.31909
  30.07871  -6.09433 -18.80329
  30.58191  -5.70593 -19.88119
  31.13861  -5.37653 -21.27959
  31.58001  -4.69353 -22.38969
  31.77151  -4.27853 -23.36469
  31.94081  -3.77473 -24.15869
  31.96721  -3.46883 -24.83539
  31.90811  -2.93933 -25.32659
  31.58401  -2.03753 -25.46529
  31.22281  -1.12563 -25.84329
  30.85871  -0.23693 -25.65089
  30.45631   0.60127 -25.76759
  30.14681   1.31157 -25.84329
  29.42851   1.98007 -26.19219
  29.16461   2.71187 -26.44159
  28.87531   3.30227 -26.65629
  28.65861   3.82897 -26.69949
  28.34081   4.41537 -26.82249
  27.70561   4.79647 -27.15639
  27.12671   4.88517 -27.44279
  26.33731   4.80607 -27.51619
  25.74251   4.93467 -27.37989
  25.09141   4.92437 -27.16739
  24.48001   4.96387 -26.44349
  23.53771   5.03967 -26.18519
  22.49771   4.97397 -25.69229
  21.38531   5.03987 -25.01449
  20.44771   4.90947 -24.37479
  19.68011   4.96597 -23.70279
  18.83531   5.24567 -23.25619
  17.90201   5.45487 -22.68779
  17.02591   5.69437 -22.17139
  16.59361   5.42587 -21.25529
  16.21131   5.23347 -20.22749
  15.93731   4.67447 -18.80099
  15.96861   3.74137 -17.67449
  15.61651   2.96817 -16.62629
