********************************************************************************
              CENTRO DE INSTRUMENTACION Y REGISTRO SISMICO  A.C.

    Anaxagoras 814, Col. Narvarte, Benito Juarez, C.P. 03020 Mexico, D.F.
           Tels. 5687 45 42/ 5687 45  82             Fax. 5669 25 12
********************************************************************************
ARCHIVO ESTANDAR DE ACELERACION:
VERSION DEL FORMATO                    : 2.0
NOMBRE DEL ARCHIVO                     : JC5420210908014746
FECHA Y HORA DE CREACION               : 07/SEP/21, 23:17
REF. CATALOGO ACELEROGRAMAS, SMIS 1996 : REGISTRO No.     /PAG.


================================================================================
DATOS DE LA ESTACION:
NOMBRE DE LA ESTACION                  : PARQUE JARDINES DE COYOACÁN
CLAVE DE LA ESTACION                   : JC54
LOCALIZACION DE LA ESTACION            : Del. Coyoacán, Col. Jardines de        
                                       : Coyoacán, entre calles Dalias e Iris.  
                                       :                                        
                                       :                                        
                                       : 
COORDENADAS DE LA ESTACION             : 19.3130 LAT. N
                                       : 99.1272 LONG. W
ALTITUD (msnm)                         : 2237
TIPO DE SUELO                          : Arcilloso, zona lago                
                                       :                           
                                       : 
INSTITUCION RESPONSABLE                : CIRES, A. C.
                                       : 

================================================================================
DATOS DEL ACELEROGRAFO:
MODELO DEL ACELEROGRAFO                : RAD_IO14
NUMERO DE SERIE DEL ACELEROGRAFO       : 
NUMERO DE CANALES                      : 3
ORIENTACION C1-C6 (rumbo;orientacion)  : /N00E/+V/N90W
ORIENTACION C7-C12 (rumbo;orientacion) : 
VEL. DE MUESTREO, C1-C6 (muestras/s)   : /100/100/100
VEL. DE MUESTREO, C7-C12 (muestras/s)  : 
ESC. COMPLETA DE SENSORES, C1-C6, (g)  : /2.0/2.0/2.0
ESC. COMPLETA DE SENSORES, C7-C12, (g) : 
FREC. NAT. DE SENSORES, C1-C6, (Hz)    : /30/30/30
FREC. NAT. DE SENSORES, C7-C12, (Hz)   : 
AMORTIGUAMIENTO DE SENSORES, C1-C6     : /0.733/0.733/0.733
AMORTIGUAMIENTO DE SENSORES, C7-C12    : 
INTERVALO DE MUESTREO, C1-C6, (s)      : /0.01/0.01/0.01
INTERVALO DE MUESTREO, C7-C12, (s)     : 
UMBRAL DE DISPARO, C1-C6, (Gal)        : / / /
UMBRAL DE DISPARO, C7-C12, (Gal)       : 
MEMORIA DE PREEVENTO (s)               : 60
TIEMPO DE POSEVENTO (s)                : 90


================================================================================
DATOS DEL SISMO:
FECHA DEL SISMO (GMT)                  : 08/SEP/21
HORA EPICENTRO (GMT)                   : 01:47:46.0
MAGNITUD(ES)                           : /Mc=7.1
COORDENADAS DEL EPICENTRO              : 16.78 LAT. N
                                       : 99.93 LONG. W
PROFUNDIDAD FOCAL (km)                 : 10
FUENTE DE LOS DATOS EPICENTRALES       : SSN
                                       : INSTITUTO DE GEOFISICA, UNAM

================================================================================
DATOS DE ESTE REGISTRO:
HORA DE LA PRIMERA MUESTRA (GMT)       : 20:54:01.00
EXACTITUD DEL TIEMPO (s)               : 
DURACION DEL REGISTRO (s), C1-C6       : /288.14/288.14/288.14
DURACION DEL REGISTRO (s), C7-C12      : 
NUM. TOTAL DE MUESTRAS, C1-C6          : /28814/28814/28814
NUM. TOTAL DE MUESTRAS, C7-C12         : 
ACEL. MAX. (Gal), C1-C6                : /8.80823/13.26359/9.58406
ACEL. MAX., C1-C6, EN LA MUESTRA       : /3020/3048/4493
ACEL. MAX. (Gal), C7-C12               : 
ACEL. MAX., C7-C12, EN LA MUESTRA      : 
UNIDADES DE LOS DATOS                  : Gal (cm/s/s)
FACTOR DE DECIMACION                   : 1
FORMATO DATOS (FORTRAN,10 campos/dato) : 3F10.5


================================================================================
CALIDAD DEL ACELEROGRAMA:
REGISTRO DIGITAL COMPLETO CON TIEMPO ABSOLUTO CORRECTO.


================================================================================
COMENTARIOS:














================================================================================
DATOS DE ACELERACION:
---------+---------+---------+---------+---------+---------+---------+---------+
   CANAL-1   CANAL-2   CANAL-3   CANAL-4   CANAL-5   CANAL-6   CANAL-7   CANAL-8
      N00E        +V      N90W
---------+---------+---------+---------+---------+---------+---------+---------+
[...]
   8.40113  12.08659   9.30586
   8.30853  12.28699   9.27876
   8.27753  12.36529   9.38926
   8.26883  12.30989   9.40496
   8.26183  12.37209   9.34936
   8.27323  12.28629   9.27846
   8.30573  12.38279   9.48676
   8.15543  12.30449   9.33946
   8.26303  12.25989   9.33486
   8.27703  12.35129   9.45926
   8.23123  12.33839   9.43276
   8.31423  12.34359   9.19476
   8.28453  12.37509   9.25256
   8.14773  12.28839   9.17346
   8.27323  12.40439   9.24856
   8.21433  12.35339   9.28316
   8.21013  12.25379   9.27336
   8.22413  12.21819   9.28086
   8.32303  12.22479   9.35656
   8.39273  12.22709   9.38256
   8.39043  12.25709   9.34556
   8.30363  12.47709   9.40776
   8.32263  12.24069   9.27566
   8.25033  12.44039   9.29086
   8.22933  12.42749   9.38646
   8.44183  12.42839   9.44586
   8.28773  12.43329   9.25716
   8.27373  12.35899   9.31236
   8.22183  12.27859   9.30986
   8.23583  12.24439   9.28876
   8.34603  12.23019   9.38186
   8.18283  12.21709   9.35286
   8.39373  12.29189   9.32946
   8.44423  12.41999   9.38816
   8.23893  12.15749   9.19786
   8.11683  12.22029   9.31546
   8.25973  12.18039   9.37366
   8.18813  12.17939   9.35656
   8.40933  12.19839   9.27026
   8.24383  12.25069   9.19406
   8.33293  12.22849   9.42176
   8.32333  12.20069   9.30536
   8.36193  12.26129   9.43956
   8.29593  12.34099   9.29926
   8.31253  12.09989   9.16206
   8.16553  12.26569   9.33066
   8.13093  12.24909   9.38816
   8.23143  12.29329   9.34796
   8.21503  12.23509   9.38836
   8.26113  12.31499   9.23456
   8.16523  12.28139   9.29556
   8.22113  12.16189   9.33716
   8.23843  12.06979   9.41806
   8.24033  12.21919   9.38366
   8.25763  12.22109   9.25506
   8.24213  12.11699   9.36316
   8.18583  12.17009   9.33976
   8.27233  12.04499   9.33736
   8.18983  12.32139   9.27356
   8.29663  12.29259   9.31446
   8.23703  12.29729   9.35256
   8.27963  12.37819   9.40876
   8.32403  12.38729   9.29836
   8.18373  12.28649   9.19756
   8.12733  12.19089   9.47046
   8.31813  12.13289   9.24016
   8.41423  12.15539   9.31966
   8.34643  12.26729   9.29326
   8.14513  12.25639   9.21396
   8.18303  12.23689   9.41056
   8.21853  12.24439   9.31026
   8.27003  12.20889   9.27336
   8.17223  12.35359   9.43376
   8.29413  12.29589   9.20486
   8.41103  12.37509   9.33906
   8.28353  12.26289   9.26046
   8.37803  12.40079   9.22896
   8.23933  12.30009   9.33926
   8.32303  12.11119   9.23456
   8.32683  12.38029   9.29206
   8.26183  12.22479   9.41616
   8.32943  12.21589   9.41176
   8.37573  12.33959   9.29206
   8.11263  12.25279   9.31266
   8.20573  12.30589   9.39096
   8.32663  12.29729   9.30796
   8.35623  12.45579   9.30746
   8.14323  12.28319   9.30276
   8.19823  12.30759   9.34606
   8.27443  12.44549   9.30726
   8.16853  12.54859   9.38066
   8.27113  12.22009   9.39466
   8.29943  12.32979   9.29206
   8.26973  12.30639   9.44196
   8.33503  12.34359   9.26936
   8.29243  12.34499   9.41616
   8.29273  12.25799   9.43046
   8.20263  12.15439   9.29346
   8.27563  12.39379   9.25156
   8.42053  12.46419   9.28736
   8.16733  12.28999   9.39656
   8.32123  12.29939   9.39306
   8.22023  12.37439   9.39066
   8.29293  12.34399   9.21696
   8.14233  12.30799   9.30256
   8.31653  12.20749   9.29206
   8.27163  12.29259   9.31286
   8.45093  12.22199   9.46806
   8.33403  12.39059   9.29676
   8.16973  12.34259   9.30746
   8.35513  12.19369   9.37596
   8.23333  12.26149   9.33226
   8.22843  12.30099   9.35446
   8.30323  12.13339   9.29176
   8.36513  12.17309   9.25976
   8.32093  12.15909   9.40406
   8.21273  12.15559   9.05546
   8.19023  12.21919   9.36406
   8.31163  12.26759   9.26116
   8.23983  12.24609   9.47626
   8.23263  12.31669   9.36916
   8.31043  12.40549   9.39286
   8.31563  12.34539   9.43886
   8.23123  12.27159   9.37056
   8.19963  12.17269   9.34696
   8.15593  12.31779   9.21086
   8.33893  12.08499   9.33506
   8.24283  12.11539   9.38886
   8.17203  12.22059   9.22826
   8.35533  12.25609   9.33576
   8.38693  12.16839   9.34466
   8.19593  12.33679   9.13426
   8.29803  12.37559   9.31026
   8.24003  12.34119   9.38506
   8.32563  12.24929   9.21726
   8.11943  12.38309   9.20456
   8.35693  12.30289   9.27166
   8.24643  12.28179   9.30116
   8.21253  12.23809   9.34046
   8.29453  12.24909   9.32966
   8.36793  12.26429   9.38556
   8.24263  12.36199   9.39656
   8.32423  12.27269   9.33176
   8.37753  12.22899   9.30626
   8.34923  12.21079   9.35706
   8.38293  12.39729   9.31706
   8.20993  12.45909   9.28616
   8.41683  12.30169   9.29156
   8.18703  12.28769   9.29746
   8.26163  12.24999   9.18056
   8.22813  12.24999   9.28926
   8.31793  12.18899   9.22466
   8.33963  12.08079   9.25886
   8.09533  12.21119   9.18376
   8.25903  12.37929   9.42766
   8.35843  12.50819   9.29106
   8.35883  12.37769   9.40776
   8.28263  12.41279   9.33626
   8.30713  12.40249   9.29786
   8.21393  12.27829   9.31056
   8.26483  12.08869   9.21016
   8.34063  12.06179   9.43936
   8.33313  12.28789   9.31936
   8.21393  12.32909   9.34376
   8.29273  12.34009   9.36566
   8.43503  12.26849   9.33806
   8.26483  12.17479   9.17746
   8.19333  12.19209   9.29606
   8.25573  12.25329   9.35846
   8.26063  12.35779   9.24486
   8.33153  12.30869   9.46836
   8.23353  12.26499   9.41156
   8.31463  12.32319   9.27446
   8.20363  12.29279   9.46176
   8.35323  12.36909   9.36126
   8.23793  12.24049   9.45666
   8.33643  12.24679   9.39066
   8.34203  12.17729   9.33136
   8.19913  12.24489   9.31796
   8.23893  12.23269   9.24266
   8.22933  12.39289   9.32036
   8.38433  12.40179   9.36456
   8.15283  12.18569   9.38396
   8.29453  12.20049   9.31266
   8.07433  12.17639   9.31196
   8.23493  12.14299   9.07576
   8.30553  12.27619   9.11576
   8.28733  12.38169   9.43446
   8.32283  12.31409   9.33106
   8.28873  12.42819   9.44146
   8.32303  12.33799   9.28756
   8.18533  12.31739   9.29906
   8.22323  12.14479   9.31356
   8.26463  12.17899   9.16136
   8.24383  12.24769   9.33806
   8.21253  12.16099   9.34676
   8.25203  12.23649   9.10286
   8.31983  12.35779   9.23426
   8.30933  12.23599   9.32876
   8.28453  12.29769   9.15176
   8.27793  12.30359   9.33436
   8.34413  12.22899   9.29856
   8.24713  12.11629   9.35796
   8.23003  12.24769   9.36496
   8.19193  12.33469   9.28926
   8.14003  12.49879   9.47626
   8.14443  12.62409   9.34046
   8.26023  12.49179   9.34766
   8.34483  12.07629   9.27166
   8.26393  11.79479   9.37946
   8.25343  11.93949   9.54156
   8.34883  12.21749   9.40776
   8.34153  12.22499   9.29836
   8.28123  12.33209   9.31916
   8.21903  12.04449   9.37246
   8.29433  12.03609   9.32806
   8.31813  12.14229   9.32496
   8.20153  12.39919   9.35076
   8.43603  12.66389   9.37766
   8.28913  12.47989   9.24996
   8.27583  12.36809   9.20366
   8.23633  12.32139   9.25626
   8.27983  12.22759   9.22566
   8.31163  12.37159   9.33386
   8.32473  12.36089   9.41506
   8.35253  12.24489   9.37576
   8.33503  12.24859   9.40096
   8.29643  12.22829   9.16676
   8.35723  12.27759   9.22986
   8.20103  12.30709   9.31406
   8.35303  12.39059   9.39726
   8.35673  12.13919   9.43766
   8.25573  12.25099   9.22326
   8.24963  12.24579   9.35796
   8.32663  12.39589   9.25536
   8.29103  12.37859   9.35866
   8.13623  12.53739   9.32146
   8.12643  12.61269   9.25506
   8.18303  12.48529   9.20136
   8.21883  12.40739   9.34226
   8.15173  12.32909   9.23806
   8.21783  12.27859   9.40006
   8.35693  12.01059   9.45876
   8.37453  12.03819   9.34976
   8.36933  12.03049   9.28176
   8.20523  12.21399   9.37856
   8.29923  12.33749   9.26636
   8.30133  12.28459   9.41786
   8.34833  12.32879   9.44566
   8.29943  12.46019   9.33316
   8.30953  12.36619   9.41476
   8.23143  12.54669   9.28056
   8.21203  12.44689   9.16206
   8.20853  12.33699   9.41456
   8.11403  12.15209   9.28456
   8.30343  12.15209   9.41716
   8.21953  12.39729   9.45996
   8.39973  12.33019   9.39566
   8.36263  12.43969   9.36616
   8.34783  12.24579   9.29956
   8.17673  12.26379   9.23616
   8.18163  12.19299   9.36456
   8.28353  12.22029   9.32476
   8.44113  12.31219   9.24486
   8.44423  12.60429   9.27946
   8.24713  12.57829   9.26566
   8.14933  12.39659   9.13846
   8.15963  12.28889   9.25886
   8.07403  12.12469   9.37506
   8.16013  12.14389   9.24946
   8.17503  12.16869   9.22116
   8.27933  12.29399   9.35006
   8.39653  12.41529   9.34186
   8.31633  12.30189   9.31376
   8.21903  12.14649   9.25256
   8.08063  11.98019   9.49006
   8.32543  12.04729   9.38346
   8.33643  12.00359   9.24226
   8.45543  12.02369   9.23196
   8.39623  12.27669   9.30046
   8.45213  12.17119   9.30486
   8.27023  12.29419   9.28946
   8.30903  12.40879   9.40986
   8.25433  12.32109   9.34376
   8.25243  12.38169   9.24906
   8.18463  12.25609   9.40946
   8.31423  12.24559   9.31476
   8.28563  12.55979   9.32786
   8.32193  12.64259   9.36286
   8.31373  12.31639   9.32826
   8.20663  12.32909   9.26606
   8.26463  12.18739   9.26846
   8.27143  12.34799   9.30256
   8.15193  12.33299   9.25116
   8.19373  12.37509   9.34816
   8.24783  12.30189   9.41506
   8.24123  12.09179   9.38486
   8.36233  12.09899   9.40986
   8.20083  12.45459   9.42156
   8.24193  12.76259   9.41596
   8.05863  13.24189   9.26306
   7.91413  12.96129   9.14546
   8.04463  11.87829   9.16346
   8.32333  11.12609   9.20696
   8.50333  10.99709   9.27236
   8.80823  11.48239   9.37946
   8.76473  12.27019   9.46016
   8.62353  12.60189   9.30306
   8.15593  12.45209   9.20086
   8.04013  12.10269   9.02246
   8.02593  11.77399   9.25396
   8.09043  12.09459   9.34346
   8.37263  12.79219   9.32106
   8.41543  12.75879   9.22396
   8.19663  12.57459   9.39566
   7.96183  12.33869   9.27656
   8.23123  12.39059   9.21816
   8.25503  12.54739   9.22446
   8.42193  12.59349   9.23736
   8.45213  12.55659   9.38046
   8.28313  12.23319   9.40096
   8.18913  12.18639   9.41296
   8.13323  12.31009   9.34936
   8.14163  12.39009   9.33876
   8.27373  12.42589   9.35746
   8.25453  12.32369   9.27236
   8.15493  12.23439   9.33876
   8.02683  12.05079   9.39466
   8.13233  12.22129   9.34486
   8.26953  12.26619   9.29646
   8.27213  12.34939   9.28316
   8.04573  12.49689   9.31826
   7.97543  12.84789   9.48446
   8.10723  13.26359   9.31006
   8.09063  12.89769   9.13956
   8.22183  12.34959   9.21796
   8.36563  11.52619   9.29436
   8.40703  11.02249   9.34866
   8.60133  11.44669   9.20526
   8.59643  11.77609   9.47836
   8.56623  12.16519   9.39536
   8.11943  12.53549   9.46736
   7.86713  12.52829   9.35356
   7.90083  12.48969   9.31216
   7.99813  12.37349   9.30416
   8.26973  12.13079   9.27916
   8.35273  12.07699   9.41036
   8.39253  12.07399   9.38136
   8.28173  12.32649   9.33436
   8.39043  12.58459   9.42906
   8.33733  12.76419   9.22966
   8.28423  12.36719   9.18826
   8.07613  12.25819   9.10616
   8.32773  12.19319   9.24786
   8.33503  12.16169   9.41736
   8.35463  12.20069   9.23106
   8.28873  12.28419   9.32966
   8.21413  12.47009   9.36006
   8.20993  12.48639   9.28666
   8.03313  12.36979   9.47326
   8.31773  12.05599   9.19216
   8.33663  12.06559   9.34466
   8.31463  12.13059   9.27586
   8.29763  12.35829   9.31286
   8.26043  12.57199   9.40006
   8.27253  12.70849   9.34116
   8.36023  12.49789   9.31706
   8.25153  12.30049   9.33036
   8.25783  12.32789   9.43956
   8.23843  12.35319   9.37506
   8.29713  12.35989   9.29296
   8.30413  12.15889   9.23266
   8.21433  12.25609   9.24506
   8.17763  12.25429   9.26636
   8.27613  12.42799   9.28456
   8.14303  12.32279   9.33666
   8.12733  12.31689   9.29436
   8.28663  12.13989   9.35636
   8.34763  12.03889   9.14056
   8.23073  11.88409   9.34556
   8.34743  12.30029   9.45546
   8.28403  12.52659   9.50156
   8.09673  12.62089   9.45336
   8.01753  12.47189   9.28296
   8.00253  12.31289   9.24786
   8.31513  12.14409   9.22656
   8.36093  12.17919   9.15666
   8.45943  12.24999   9.30656
   8.30853  12.21779   9.53006
   8.24333  12.32669   9.32926
   8.11523  12.40509   9.51256
   8.13463  12.40929   9.34626
   8.08393  12.25779   9.34956
   8.26113  12.27669   9.26256
   8.23583  12.26589   9.19146
   8.14913  12.12729   9.17586
   8.16203  12.21009   9.22286
   8.41243  12.20119   9.32666
   8.26673  12.22549   9.35426
   8.40113  12.04519   9.33486
   8.17433  12.30549   9.29016
   8.09183  12.37679   9.31216
   8.18353  12.50259   9.33346
   8.29663  12.36249   9.43116
   8.17063  12.44129   9.34866
   8.25973  12.35759   9.30626
   8.20473  12.13099   9.23526
   8.32053  12.05339   9.21446
   8.29193  12.07399   9.31586
   8.41123  12.39659   9.35306
   8.45023  12.32979   9.48886
   8.15893  12.48029   9.35536
   8.12623  12.44599   9.45286
   8.11243  12.42379   9.25396
   8.13723  12.33489   9.17556
   8.35133  12.33729   9.12136
   8.36753  12.29979   9.21656
   8.39233  12.27999   9.27056
   8.31283  12.34119   9.21276
   8.19163  12.28889   9.31936
   8.21363  12.42399   9.21586
   8.10193  12.35319   9.32496
   8.31393  12.43709   9.29816
   8.14183  12.43759   9.39606
   8.24993  12.27439   9.35426
   8.13413  12.14229   9.33456
   8.15383  12.25469   9.30206
   8.25553  12.23019   9.27096
   8.16763  12.41139   9.43906
   8.27443  12.37299   9.47906
   8.17793  12.33489   9.35586
   8.33103  12.18429   9.34186
   8.27303  12.14929   9.23126
   8.33263  12.39409   9.22896
   8.31533  12.22669   9.30486
   8.31723  12.47049   9.32926
   8.24943  12.52169   9.51256
   8.33753  12.46329   9.38436
   8.32873  12.39499   9.22826
   8.29363  12.27529   9.28316
   8.18603  12.16889   9.10476
   8.30743  12.32159   9.24506
   8.23283  12.25539   9.49196
   8.22203  12.34819   9.47746
   8.17083  12.34659   9.41436
   8.27793  12.49269   9.44376
   8.23613  12.35099   9.15126
   8.22043  12.36199   9.09216
   8.26483  12.23369   9.23076
   8.35603  12.21219   9.22846
   8.24033  12.29939   9.40056
   8.20753  12.12919   9.37526
   8.30743  12.21009   9.36616
   8.43603  12.24769   9.34536
   8.41193  12.25379   9.25766
   8.31003  12.14409   9.36916
   8.19613  12.20139   9.27476
   8.06803  12.04379   9.40566
   8.17133  12.14479   9.36896
   8.31163  12.18009   9.30396
   8.43673  12.08799   9.37576
   8.36493  12.30079   9.18306
   8.29993  12.28279   9.34746
   8.32423  12.07209   9.35846
   8.15703  12.17799   9.22606
   8.26253  12.29729   9.34086
   8.13973  12.31039   9.31056
   8.36213  12.26199   9.23946
   8.27703  12.33679   9.39606
   8.22843  12.44179   9.33346
   8.37173  12.43309   9.47486
   8.27183  12.34729   9.25996
   8.20363  12.26379   9.26396
   8.31603  12.22249   9.38116
   8.24453  12.05459   9.36846
   8.23863  12.28719   9.31496
   8.18113  12.34889   9.36546
