********************************************************************************
              CENTRO DE INSTRUMENTACION Y REGISTRO SISMICO  A.C.

    Anaxagoras 814, Col. Narvarte, Benito Juarez, C.P. 03020 Mexico, D.F.
           Tels. 5687 45 42/ 5687 45  82             Fax. 5669 25 12
********************************************************************************
ARCHIVO ESTANDAR DE ACELERACION:
VERSION DEL FORMATO                    : 2.0
NOMBRE DEL ARCHIVO                     : LI5820210908014746
FECHA Y HORA DE CREACION               : 07/SEP/21, 23:17
REF. CATALOGO ACELEROGRAMAS, SMIS 1996 : REGISTRO No.     /PAG.


================================================================================
DATOS DE LA ESTACION:
NOMBRE DE LA ESTACION                  : ESC. SEC. DNA. NO. 23
CLAVE DE LA ESTACION                   : LI58
LOCALIZACION DE LA ESTACION            : Del. Cuauhtémoc, Col. Juárez,          
                                       : Calle Liverpool entre Génova           
                                       : y Amberes.                             
                                       :                                        
                                       : 
COORDENADAS DE LA ESTACION             : 19.4263 LAT. N
                                       : 99.1569 LONG. W
ALTITUD (msnm)                         : 2233
TIPO DE SUELO                          : Alto riesgo sísmico                 
                                       :                           
                                       : 
INSTITUCION RESPONSABLE                : CIRES, A. C.
                                       : 

================================================================================
DATOS DEL ACELEROGRAFO:
MODELO DEL ACELEROGRAFO                : RAD_IO14
NUMERO DE SERIE DEL ACELEROGRAFO       : 
NUMERO DE CANALES                      : 3
ORIENTACION C1-C6 (rumbo;orientacion)  : /N00E/+V/N90W
ORIENTACION C7-C12 (rumbo;orientacion) : 
VEL. DE MUESTREO, C1-C6 (muestras/s)   : /100/100/100
VEL. DE MUESTREO, C7-C12 (muestras/s)  : 
ESC. COMPLETA DE SENSORES, C1-C6, (g)  : /2.0/2.0/2.0
ESC. COMPLETA DE SENSORES, C7-C12, (g) : 
FREC. NAT. DE SENSORES, C1-C6, (Hz)    : /30/32/32
FREC. NAT. DE SENSORES, C7-C12, (Hz)   : 
AMORTIGUAMIENTO DE SENSORES, C1-C6     : /0.741/0.795/0.745
AMORTIGUAMIENTO DE SENSORES, C7-C12    : 
INTERVALO DE MUESTREO, C1-C6, (s)      : /0.01/0.01/0.01
INTERVALO DE MUESTREO, C7-C12, (s)     : 
UMBRAL DE DISPARO, C1-C6, (Gal)        : / / /
UMBRAL DE DISPARO, C7-C12, (Gal)       : 
MEMORIA DE PREEVENTO (s)               : 60
TIEMPO DE POSEVENTO (s)                : 90


================================================================================
DATOS DEL SISMO:
FECHA DEL SISMO (GMT)                  : 08/SEP/21
HORA EPICENTRO (GMT)                   : 01:47:46.0
MAGNITUD(ES)                           : /Mc=7.1
COORDENADAS DEL EPICENTRO              : 16.78 LAT. N
                                       : 99.93 LONG. W
PROFUNDIDAD FOCAL (km)                 : 10
FUENTE DE LOS DATOS EPICENTRALES       : SSN
                                       : INSTITUTO DE GEOFISICA, UNAM

================================================================================
DATOS DE ESTE REGISTRO:
HORA DE LA PRIMERA MUESTRA (GMT)       : 20:54:01.00
EXACTITUD DEL TIEMPO (s)               : 
DURACION DEL REGISTRO (s), C1-C6       : /657.16/657.16/657.16
DURACION DEL REGISTRO (s), C7-C12      : 
NUM. TOTAL DE MUESTRAS, C1-C6          : /65716/65716/65716
NUM. TOTAL DE MUESTRAS, C7-C12         : 
ACEL. MAX. (Gal), C1-C6                : /32.6705/23.42985/33.44158
ACEL. MAX., C1-C6, EN LA MUESTRA       : /13790/13431/14507
ACEL. MAX. (Gal), C7-C12               : 
ACEL. MAX., C7-C12, EN LA MUESTRA      : 
UNIDADES DE LOS DATOS                  : Gal (cm/s/s)
FACTOR DE DECIMACION                   : 1
FORMATO DATOS (FORTRAN,10 campos/dato) : 3F10.5


================================================================================
CALIDAD DEL ACELEROGRAMA:
REGISTRO DIGITAL COMPLETO CON TIEMPO ABSOLUTO CORRECTO.


================================================================================
COMENTARIOS:














================================================================================
DATOS DE ACELERACION:
---------+---------+---------+---------+---------+---------+---------+---------+
   CANAL-1   CANAL-2   CANAL-3   CANAL-4   CANAL-5   CANAL-6   CANAL-7   CANAL-8
      N00E        +V      N90W
---------+---------+---------+---------+---------+---------+---------+---------+
[...]
  -1.79980   1.75155  -0.26638
  -2.10330   1.11305   0.11892
  -2.60380   0.43055   0.89092
  -3.22880  -0.07005   1.58422
  -3.78740  -0.65735   2.39242
  -4.34170  -1.13385   3.39132
  -4.72730  -1.38915   4.33562
  -4.76280  -1.54725   5.17432
  -4.74790  -1.34335   5.95432
  -4.43920  -0.96575   6.60592
  -3.93260  -0.53575   6.98772
  -3.54750  -0.21385   7.33822
  -2.68520   0.35245   7.52972
  -2.03360   0.94075   7.96812
  -1.50990   1.42605   8.20702
  -0.98000   2.09435   8.41282
  -0.45700   2.49645   8.67582
  -0.17850   2.77325   8.68452
   0.09130   2.88345   8.92342
   0.41700   2.96645   9.24122
   0.63860   2.95025   9.29472
   0.88360   3.04265   9.10602
   1.58880   2.91355   9.34402
   2.06700   2.78195   9.50212
   2.40530   2.64375   9.99382
   3.13520   2.59395  10.28332
   3.54600   2.24835  10.67822
   3.89390   2.20025  10.91152
   4.20610   2.10365  11.28232
   4.34310   1.98675  11.32252
   3.89420   2.00945  11.50722
   3.38170   1.89065  11.56222
   2.56730   1.77515  11.56592
   1.52690   1.44785  11.64122
   0.03190   1.12145  11.57272
  -1.58050   0.40225  11.23142
  -3.29260  -0.56545  11.26952
  -5.24170  -1.53815  10.83932
  -7.19260  -2.72165  10.36282
  -9.11260  -4.00415  10.05692
 -11.06230  -5.19515   9.38152
 -12.74740  -6.25615   8.78292
 -14.59920  -7.67355   7.81752
 -16.30250  -8.97765   6.91592
 -17.76890 -10.24755   5.56272
 -19.33450 -11.60405   4.34732
 -20.46240 -12.85615   2.68802
 -21.60900 -13.95875   0.88862
 -22.68150 -14.78175  -0.95708
 -23.40530 -15.37375  -3.10068
 -24.05700 -15.45305  -5.39318
 -24.49650 -15.53795  -7.30828
 -24.82110 -15.11585  -9.40458
 -25.05980 -14.33285 -10.84668
 -25.21620 -13.34785 -12.57368
 -25.01140 -12.13345 -14.13548
 -24.98850 -10.72125 -15.80888
 -24.68680  -8.99685 -16.71388
 -24.31390  -7.28045 -17.62298
 -24.21710  -5.80425 -18.12938
 -23.67660  -4.19325 -18.52778
 -23.26720  -2.70695 -19.04238
 -22.96880  -1.24495 -19.03468
 -22.43690   0.10605 -18.97558
 -21.96110   1.47145 -18.79408
 -21.51150   2.71815 -18.47868
 -20.97650   3.85235 -17.91988
 -20.23420   4.88715 -17.61738
 -19.62440   5.75625 -17.09718
 -18.96230   6.50415 -16.10348
 -18.25640   6.97275 -15.04408
 -17.46990   7.66065 -14.02368
 -16.56600   7.79485 -12.85448
 -15.78900   7.86585 -11.52458
 -15.00320   7.90655 -10.15188
 -14.00650   7.76025  -9.18458
 -13.32540   7.59815  -8.02158
 -12.53880   7.27455  -6.96498
 -11.86870   6.64165  -5.86708
 -11.10370   6.05055  -4.87038
 -10.38170   5.29965  -4.06418
  -9.80630   4.35195  -3.48988
  -9.14810   3.59915  -2.73968
  -8.70270   2.87525  -2.04478
  -8.17500   2.37795  -1.33418
  -7.67070   1.93045  -0.42708
  -7.00860   1.57735   0.76142
  -6.42170   1.16285   2.01582
  -5.94890   1.00385   3.46212
  -5.05280   0.80365   5.01442
  -4.20920   0.70225   6.25592
  -3.21380   0.64445   7.41612
  -2.11640   0.83245   8.31372
  -0.64970   0.90005   9.13502
   0.74100   0.97135   9.47452
   2.51280   1.05905   9.58112
   4.36130   1.09335   9.41072
   6.02210   1.25285   8.74502
   7.93910   1.18385   8.21242
   9.85510   1.32905   7.54772
  11.54630   1.16985   6.88602
  13.00340   0.95985   6.19002
  14.09170   0.48995   5.73902
  15.39620   0.22365   5.55542
  15.93980  -0.34245   4.90402
  16.49370  -0.83645   4.65342
  16.63700  -1.23415   3.98702
  16.64070  -1.60805   3.26482
  16.45880  -1.69575   0.81032
  16.93460  -1.70535   1.22952
  16.63350  -1.26715   2.25752
  16.20770  -1.03755   0.67182
  15.96760  -1.05575  -0.18898
  15.29730  -1.00925  -1.51498
  14.77190  -0.86875  -1.94278
  14.06770  -1.07285  -3.07138
  13.19440  -1.15565  -3.51938
  12.19110  -1.16145  -4.18368
  11.31220  -1.20895  -4.49768
  10.56360  -1.39505  -5.23278
   9.73940  -1.73425  -6.12188
   9.05850  -1.77145  -6.90168
   8.62600  -2.21365  -7.74898
   8.42610  -2.36585  -8.66508
   8.41530  -2.44765  -9.62928
   8.11510  -2.53275 -10.56478
   7.86070  -2.47295 -10.63418
   7.75650  -2.63285 -10.51918
   7.74290  -2.56895 -10.39668
   7.76490  -2.42985 -10.51168
   7.99470  -2.02635 -10.80608
   8.44920  -1.86545 -11.55988
   8.80950  -1.43295 -11.51958
   9.29070  -0.87625 -10.71108
   9.83200  -0.27465 -10.05928
  10.30590   0.11465  -9.33518
  10.70390   0.83055  -8.72868
  11.47890   1.64115  -8.23628
  12.09170   2.56315  -7.66788
  12.78360   3.48035  -7.44578
  13.41210   4.45115  -7.41608
  13.90000   5.58645  -7.16258
  14.33630   6.33305  -7.14738
  14.72090   6.96015  -7.05408
  15.09360   7.43875  -6.71528
  15.01390   7.72395  -6.24608
  15.22920   7.86585  -5.87458
  15.03560   7.80575  -5.22928
  14.86330   7.48175  -4.55188
  14.97180   7.17285  -3.88298
  14.83830   6.64355  -3.24588
  14.82260   6.09875  -2.50088
  14.98960   5.45135  -1.70148
  15.01670   4.62975  -1.05928
  15.09480   3.97435  -0.35288
  15.31570   3.29115   0.35532
  15.24090   2.73755   1.19182
  15.23060   2.52995   1.79112
  14.77100   2.02725   2.64122
  14.48030   2.04035   3.21902
  14.16750   1.72675   3.46732
  13.73420   1.77935   3.71742
  13.06980   2.00965   3.87832
  12.25980   2.21145   4.17662
  11.42260   2.19645   4.64472
  10.29160   2.18665   5.01742
   9.48780   2.24485   5.68892
   8.84830   2.23505   6.45792
   7.69730   2.35085   6.76002
   6.94370   2.19815   7.03962
   5.96990   1.97925   7.33142
   5.17240   1.85235   7.56572
   4.42230   1.73265   7.63442
   3.69400   1.47145   7.91872
   3.21260   1.25305   7.90472
   2.65850   1.11065   7.92742
   2.17990   0.98135   7.67652
   1.77210   0.44925   7.50162
   1.25540  -0.10655   7.27882
   0.73710  -0.72895   7.04592
   0.25820  -1.38985   6.84562
  -0.33780  -2.28535   6.64172
  -1.11310  -3.45375   6.65362
  -1.71750  -4.39345   6.95172
  -2.42940  -5.23905   7.12382
  -3.07050  -5.92575   7.24022
  -3.93090  -6.60995   7.37282
  -4.59470  -6.98095   7.63442
  -5.28100  -7.16335   8.08262
  -5.66280  -7.40365   8.48672
  -6.20240  -7.59865   8.62512
  -6.50750  -7.73735   8.80492
  -6.87810  -7.95875   8.89002
  -6.91180  -8.08245   8.81592
  -6.96460  -8.31605   8.62022
  -6.81660  -8.53275   8.23142
  -6.83910  -8.45205   8.02772
  -6.62090  -8.59585   7.58022
  -6.72870  -8.83695   7.82432
  -6.32700  -8.76585   7.40462
  -5.92950  -8.82785   6.80022
  -5.58960  -8.45255   6.38572
  -4.99150  -8.16985   6.09602
  -4.36040  -7.86175   5.46772
  -3.74670  -7.29075   5.10632
  -2.96180  -6.26735   4.56272
  -2.43810  -5.53815   4.14232
  -1.84370  -4.46895   3.71322
  -1.20100  -3.34005   3.40862
  -0.68610  -2.12875   3.14162
  -0.34520  -0.82785   3.19602
  -0.11610   0.49035   3.35182
   0.19180   1.73055   3.36862
   0.31830   3.11815   3.48222
   0.42800   4.51495   3.49302
   0.36110   5.81725   3.42052
   0.17920   7.03215   3.48222
  -0.12270   8.27175   3.60172
  -0.30550   9.51935   3.52882
  -0.69880  10.50625   3.53482
  -1.18630  11.47265   3.65312
  -1.40860  12.12985   3.66812
  -1.84330  12.71205   3.95992
  -2.01960  12.82285   4.43102
  -2.26580  12.80115   4.90942
  -2.43060  12.42495   5.46122
  -2.62890  11.82565   5.96532
  -2.87530  10.90445   6.33612
  -2.77690   9.76725   6.74222
  -2.94820   8.49695   7.33682
  -3.38940   6.82265   7.80072
  -3.89490   5.03495   8.32722
  -4.33170   3.27625   8.74292
  -5.12690   1.06625   9.38752
  -5.72610  -0.72895   9.94822
  -6.55940  -2.44395  10.41752
  -7.20610  -4.28495  10.78032
  -7.87250  -5.78085  11.18722
  -8.37100  -7.37725  11.52972
  -8.93260  -8.68825  11.70292
  -9.21920  -9.64895  11.77852
  -9.61370 -10.45865  11.80982
 -10.16190 -11.12565  11.82622
 -10.55610 -11.66535  11.88202
 -11.00130 -11.89515  11.56172
 -11.55330 -12.17105  11.33192
 -12.03830 -12.08125  10.95732
 -12.80070 -11.54325  10.21172
 -13.50190 -11.26785   9.43032
 -14.15680 -10.67635   8.53252
 -14.82670  -9.91995   7.95942
 -15.43410  -8.97975   7.13642
 -16.16830  -7.91805   6.43552
 -16.42990  -6.96395   5.89022
 -16.67230  -5.76145   5.25052
 -17.10140  -4.69085   4.86172
 -17.13790  -3.61085   4.19892
 -17.11570  -2.38195   3.40692
 -16.96950  -1.09815   2.79532
 -16.42640   0.05365   2.08432
 -15.93800   1.25265   1.53202
 -15.57410   2.45465   0.61532
 -14.64270   3.63025  -0.31008
 -14.01750   4.95075  -0.76508
 -12.75350   6.21985  -1.26148
 -11.84070   7.42845  -1.96008
 -11.03010   8.44175  -2.55588
 -10.01140   9.38725  -2.68188
  -9.10440  10.24555  -2.98658
  -8.26010  10.81675  -3.05968
  -7.54210  11.20325  -2.76538
  -7.03640  11.27015  -2.52848
  -6.51080  11.10695  -2.02228
  -5.94290  10.80485  -1.63488
  -5.44110  10.16825  -0.83128
  -4.49890   9.56125  -0.37558
  -3.71510   8.41865   0.24632
  -2.65110   7.36835   0.93632
  -1.38290   6.01975   1.62062
  -0.10400   4.50835   2.51222
   1.25380   3.20535   3.45392
   2.67420   1.63205   4.38222
   3.94260   0.32435   5.47662
   5.20890  -0.89705   6.32842
   6.50180  -1.87225   7.10602
   7.74870  -2.74175   7.93682
   8.82450  -3.49305   8.38242
   9.63040  -3.65715   8.95202
  10.42190  -3.89115   9.23562
  11.01760  -4.03035   9.60032
  11.56730  -4.22905   9.55772
  12.07510  -4.10375   9.63682
  12.20210  -3.79185   9.43922
  12.75550  -3.79135   9.35882
  12.83410  -3.52085   8.94772
  13.04640  -3.59965   8.43482
  12.92270  -3.44465   7.90992
  12.87730  -3.32775   7.29312
  12.53640  -3.44715   6.72522
  12.17150  -3.27535   5.85772
  11.75440  -2.97885   5.02372
  11.38280  -2.78645   4.30222
  10.57550  -2.22695   3.59962
   9.90000  -1.83435   2.73992
   9.30290  -1.42565   2.00202
   8.46770  -0.96295   0.83202
   7.82640  -0.53605  -0.27718
   6.94580  -0.26035  -1.47688
   6.16020  -0.31785  -2.71508
   5.47570  -0.14415  -4.09528
   4.98160  -0.20055  -5.57178
   4.44900  -0.24375  -7.27388
   3.99820  -0.50515  -8.91828
   3.50090  -0.63185 -10.60428
   3.17750  -0.80885 -12.46258
   2.67670  -1.13905 -14.20488
   2.38540  -1.53575 -16.03918
   1.98860  -1.96175 -17.85628
   1.50320  -2.15795 -19.81348
   1.14060  -2.46335 -21.42068
   0.91360  -2.69245 -22.72768
   0.60470  -3.07095 -24.19088
   0.37820  -3.26225 -25.62508
   0.41860  -3.26225 -26.84578
   0.53780  -3.23835 -28.09548
   0.37840  -3.20265 -28.89188
   0.46210  -3.04625 -29.91848
   0.61030  -3.07945 -30.83358
   0.73610  -2.89795 -31.52918
   0.68820  -2.71345 -32.12008
   0.71690  -2.51475 -32.65028
   0.83900  -2.40065 -33.05158
   0.76630  -2.14205 -33.30408
   0.75740  -1.87505 -33.44158
   0.50040  -1.73335 -33.38588
   0.25100  -1.53365 -33.34478
   0.12470  -1.50845 -33.05948
  -0.21030  -1.39805 -32.96038
  -0.22620  -1.34335 -32.99358
  -0.30550  -1.45985 -32.71038
  -0.57060  -1.61715 -32.58278
  -0.49490  -1.96485 -32.28088
  -0.47740  -2.18535 -31.95008
  -0.58440  -2.48155 -31.35288
  -0.76260  -2.60145 -30.85138
  -0.89400  -2.77385 -30.01698
  -1.22200  -2.90265 -29.18968
  -1.76190  -3.04405 -28.14018
  -1.98730  -3.34155 -26.86658
  -2.55820  -3.54305 -25.62558
  -3.27650  -3.96065 -24.26008
  -3.82640  -4.20285 -22.84108
  -4.31840  -4.55545 -21.54998
  -4.77550  -4.86755 -20.23858
  -5.28770  -4.99145 -18.86498
  -5.82390  -5.11095 -17.45418
  -6.05790  -5.09485 -16.22548
  -6.27250  -5.00925 -14.89348
  -6.49910  -4.95825 -13.60288
  -6.54330  -4.81755 -12.31248
  -6.70060  -4.56455 -11.37088
  -6.72800  -4.41165 -10.37818
  -6.88350  -3.98865  -9.72678
  -6.72920  -3.66625  -9.13428
  -6.84210  -3.32115  -8.71578
  -7.06350  -2.98795  -8.24888
  -7.20660  -2.61665  -7.87708
  -7.60340  -2.54215  -7.51918
  -7.92070  -2.23725  -7.15468
  -8.42220  -2.04765  -6.82478
  -8.97070  -1.74785  -6.64958
  -9.37540  -1.69785  -6.40738
  -9.92420  -1.45635  -6.37228
 -10.42800  -1.15655  -6.11068
 -11.00720  -0.79505  -6.04288
 -11.44270  -0.35765  -5.69478
 -12.27840   0.22995  -5.01998
 -12.83390   0.76725  -4.26528
 -12.89310   1.47075  -3.48318
 -13.27320   2.29025  -2.60358
 -13.58490   3.07045  -1.73538
 -13.62650   3.96945  -0.55558
 -13.45090   4.73215   0.54352
 -13.28560   5.16515   1.40462
 -12.77430   5.87575   2.30292
 -12.53320   6.48875   3.35572
 -12.00250   6.75505   4.14462
 -11.44180   6.92175   4.81662
 -11.07610   7.16235   5.31342
 -10.53090   7.05345   5.92972
 -10.18280   6.71575   6.33662
  -9.84790   6.21635   6.83012
  -9.21200   5.48265   7.33262
  -8.60520   4.59065   7.91712
  -7.67330   3.35475   8.35742
  -6.80280   2.18245   8.67282
  -5.83740   1.21125   9.21222
  -4.85540  -0.06635   9.95012
  -3.91570  -1.15165  10.51992
  -2.86550  -2.13415  11.02632
  -1.98000  -2.86455  11.95642
  -1.05810  -3.47545  12.52832
  -0.09860  -4.12475  13.24982
   0.65590  -4.57715  14.18952
   1.49390  -4.87175  14.86782
   2.21290  -4.84305  15.49162
   2.90770  -4.75235  16.11912
   3.44950  -4.57815  16.72312
   3.95800  -4.10325  17.31812
   4.48620  -3.74995  17.99332
   4.86420  -3.38615  18.74202
   5.07350  -3.06095  18.95202
   5.24630  -2.96315  19.24752
   5.64700  -2.73805  19.64032
   5.75740  -2.59565  20.38682
   6.11930  -2.40435  21.13322
   6.38070  -2.23745  21.61342
   6.81280  -2.16915  22.38102
   7.26130  -2.13735  23.00132
   7.84020  -1.98145  23.71162
   8.35080  -1.69435  24.58702
   8.75340  -1.61135  25.44222
   9.36130  -1.49255  26.35482
   9.58040  -1.25805  26.91952
   9.87590  -0.74625  27.73102
  10.16420  -0.28795  28.11072
  10.34030   0.18975  28.60902
  10.53760   0.65875  29.07612
  10.56220   1.12495  29.34502
  10.65970   1.51265  29.52382
  10.70360   2.09965  29.40092
  10.90140   2.69055  29.50402
  11.13500   2.93115  29.31532
  11.28740   3.31875  29.03592
  11.52590   3.63975  28.74112
  11.62180   4.03535  28.27672
  11.65450   4.46045  27.90292
  11.65030   5.04265  27.73192
  11.61550   5.26315  27.64572
  11.62080   5.59565  27.31512
  11.65430   5.80865  26.98892
  11.28630   5.76375  27.00812
  11.30100   5.82755  26.33662
  11.32600   5.86055  25.78172
  11.33610   5.52075  25.09062
  11.37820   5.33535  24.31252
  11.47590   5.04265  23.17802
  11.72910   4.75975  22.21972
  11.94840   4.63605  21.14602
  12.37820   4.26405  20.06252
  12.70570   3.91525  18.77262
  13.21260   3.64405  17.28142
  13.78570   2.96715  16.01132
  14.19580   2.49085  14.83182
  14.53080   1.73425  13.52102
  14.92060   0.99755  12.07352
  15.37980   0.08705  10.91152
  15.83620  -0.72965   9.76052
  16.04900  -1.40415   8.70362
  16.34450  -2.31555   7.77142
  16.59420  -3.04195   6.73972
  16.58300  -3.65805   5.95712
  16.62550  -4.29565   5.20912
  16.52120  -4.79255   4.35812
  16.40500  -5.05975   3.33122
  16.35800  -5.39905   2.74602
  16.19770  -5.49275   2.10492
  15.97020  -5.50895   1.28822
  15.94260  -5.35455   0.81662
  15.75620  -5.24865   0.39082
  15.54320  -4.93815  -0.14648
  15.21920  -4.72775  -0.46258
  14.85160  -4.21685  -0.91778
  14.28670  -4.19045  -1.27858
  13.96410  -3.81095  -1.28628
  13.27010  -3.66625  -1.69638
  12.53970  -3.59215  -1.86398
