********************************************************************************
              CENTRO DE INSTRUMENTACION Y REGISTRO SISMICO  A.C.

    Anaxagoras 814, Col. Narvarte, Benito Juarez, C.P. 03020 Mexico, D.F.
           Tels. 5687 45 42/ 5687 45  82             Fax. 5669 25 12
********************************************************************************
ARCHIVO ESTANDAR DE ACELERACION:
VERSION DEL FORMATO                    : 2.0
NOMBRE DEL ARCHIVO                     : ME5220210908014746
FECHA Y HORA DE CREACION               : 07/SEP/21, 23:17
REF. CATALOGO ACELEROGRAMAS, SMIS 1996 : REGISTRO No.     /PAG.


================================================================================
DATOS DE LA ESTACION:
NOMBRE DE LA ESTACION                  : ESC. SEC. TÉC. "RAFAÉL DONDÉ"
CLAVE DE LA ESTACION                   : ME52
LOCALIZACION DE LA ESTACION            : Del. Miguel Hidalgo, Col. Anáhuac,     
                                       : Calle Lago Alberto entre calles        
                                       : Lago Xochimilco y Lago Muritz.         
                                       :                                        
                                       : 
COORDENADAS DE LA ESTACION             : 19.4383 LAT. N
                                       : 99.1820 LONG. W
ALTITUD (msnm)                         : 2238
TIPO DE SUELO                          : Transición                          
                                       :                           
                                       : 
INSTITUCION RESPONSABLE                : CIRES, A. C.
                                       : 

================================================================================
DATOS DEL ACELEROGRAFO:
MODELO DEL ACELEROGRAFO                : RAD_IO14
NUMERO DE SERIE DEL ACELEROGRAFO       : 
NUMERO DE CANALES                      : 3
ORIENTACION C1-C6 (rumbo;orientacion)  : /N00E/+V/N90W
ORIENTACION C7-C12 (rumbo;orientacion) : 
VEL. DE MUESTREO, C1-C6 (muestras/s)   : /100/100/100
VEL. DE MUESTREO, C7-C12 (muestras/s)  : 
ESC. COMPLETA DE SENSORES, C1-C6, (g)  : /2.0/2.0/2.0
ESC. COMPLETA DE SENSORES, C7-C12, (g) : 
FREC. NAT. DE SENSORES, C1-C6, (Hz)    : /30/30/30
FREC. NAT. DE SENSORES, C7-C12, (Hz)   : 
AMORTIGUAMIENTO DE SENSORES, C1-C6     : /0.700/0.700/0.700
AMORTIGUAMIENTO DE SENSORES, C7-C12    : 
INTERVALO DE MUESTREO, C1-C6, (s)      : /0.01/0.01/0.01
INTERVALO DE MUESTREO, C7-C12, (s)     : 
UMBRAL DE DISPARO, C1-C6, (Gal)        : / / /
UMBRAL DE DISPARO, C7-C12, (Gal)       : 
MEMORIA DE PREEVENTO (s)               : 60
TIEMPO DE POSEVENTO (s)                : 90


================================================================================
DATOS DEL SISMO:
FECHA DEL SISMO (GMT)                  : 08/SEP/21
HORA EPICENTRO (GMT)                   : 01:47:46.0
MAGNITUD(ES)                           : /Mc=7.1
COORDENADAS DEL EPICENTRO              : 16.78 LAT. N
                                       : 99.93 LONG. W
PROFUNDIDAD FOCAL (km)                 : 10
FUENTE DE LOS DATOS EPICENTRALES       : SSN
                                       : INSTITUTO DE GEOFISICA, UNAM

================================================================================
DATOS DE ESTE REGISTRO:
HORA DE LA PRIMERA MUESTRA (GMT)       : 20:55:15.00
EXACTITUD DEL TIEMPO (s)               : 
DURACION DEL REGISTRO (s), C1-C6       : /583.16/583.16/583.16
DURACION DEL REGISTRO (s), C7-C12      : 
NUM. TOTAL DE MUESTRAS, C1-C6          : /58316/58316/58316
NUM. TOTAL DE MUESTRAS, C7-C12         : 
ACEL. MAX. (Gal), C1-C6                : /19.70413/5.44937/13.47897
ACEL. MAX., C1-C6, EN LA MUESTRA       : /6328/7520/5750
ACEL. MAX. (Gal), C7-C12               : 
ACEL. MAX., C7-C12, EN LA MUESTRA      : 
UNIDADES DE LOS DATOS                  : Gal (cm/s/s)
FACTOR DE DECIMACION                   : 1
FORMATO DATOS (FORTRAN,10 campos/dato) : 3F10.5


================================================================================
CALIDAD DEL ACELEROGRAMA:
REGISTRO DIGITAL COMPLETO CON TIEMPO ABSOLUTO CORRECTO.


================================================================================
COMENTARIOS:














================================================================================
DATOS DE ACELERACION:
---------+---------+---------+---------+---------+---------+---------+---------+
   CANAL-1   CANAL-2   CANAL-3   CANAL-4   CANAL-5   CANAL-6   CANAL-7   CANAL-8
      N00E        +V      N90W
---------+---------+---------+---------+---------+---------+---------+---------+
[...]
  17.37917   3.67367   0.79247
  16.42617   3.18587   0.86177
  15.49087   2.34417   0.69827
  14.62887   1.56747   0.60267
  13.40887   0.90037   0.79817
  12.30507   0.34837   1.36697
  10.86357  -0.12363   2.12027
   9.36977  -0.59803   3.10117
   7.95477  -0.74653   4.21947
   6.20007  -1.01233   4.97397
   4.61737  -1.21013   5.76607
   3.34477  -1.44493   6.23647
   1.94917  -1.63503   6.76047
   0.59427  -1.71213   6.66717
  -0.48383  -1.71663   6.73687
  -2.10933  -1.70143   6.72497
  -3.49903  -1.62473   6.69717
  -5.36953  -1.52023   6.71907
  -7.06863  -1.09983   6.77477
  -8.62693  -0.63823   6.90427
 -10.28863  -0.12323   7.14047
 -11.79313   0.54477   7.40137
 -12.80903   1.01447   7.75627
 -13.88013   1.33347   8.26577
 -14.56193   1.56697   8.59307
 -15.07933   1.59157   9.00437
 -15.11213   1.72907   9.25387
 -14.95893   1.95397   9.44037
 -15.14323   1.83727   9.67627
 -15.36043   1.85557   9.73847
 -15.49573   1.89807   9.53487
 -15.92853   1.69167   9.38667
 -16.31223   1.27897   8.96487
 -16.31273   1.31567   8.72797
 -16.51053   0.98417   8.35177
 -16.68513   0.68787   8.00877
 -16.46863   0.19427   7.34217
 -16.11863  -0.26723   6.35177
 -15.97063  -0.95233   5.00947
 -15.42303  -1.55903   3.88347
 -14.92853  -2.13933   2.93557
 -14.04853  -2.66613   2.17477
 -13.19463  -3.10773   1.70837
 -12.17993  -3.18653   1.34847
 -11.41623  -3.05303   1.19557
 -10.46323  -2.88423   0.91317
  -9.27133  -2.34343   0.76607
  -8.30783  -2.00213   0.65197
  -7.14343  -1.29363   0.72117
  -6.12053  -1.01893   0.40017
  -5.18133  -0.61423  -0.11113
  -4.29003  -0.04323  -0.55443
  -3.61173   0.56417  -0.80553
  -2.98113   0.98907  -1.02323
  -2.44693   1.07697  -1.10763
  -1.91033   1.09747  -1.37603
  -1.17943   1.27727  -1.30963
  -0.94793   1.04627  -1.27013
  -0.78173   1.01587  -1.35803
  -0.53033   0.94037  -1.24323
  -0.49113   0.78327  -1.11113
  -0.52433   0.73297  -0.81793
  -0.36183   0.79847  -0.56543
  -0.11953   0.90367  -0.20113
   0.18457   1.24157   0.18767
   0.15657   1.82767   0.49507
   0.43897   2.15507   0.71067
   0.76987   2.42577   1.20217
   1.34007   2.69137   1.35087
   1.68797   2.52047   1.62067
   2.02517   2.38397   2.16777
   2.77267   2.00147   2.33287
   3.33427   1.61817   2.58537
   4.02637   1.31147   2.63727
   4.79537   0.76717   2.72887
   5.43127   0.49197   2.53207
   5.95827   0.38417   2.20147
   6.28867   0.25277   2.01067
   6.63067   0.50687   1.88747
   6.89277   0.79827   1.74907
   7.30997   0.79757   1.63817
   7.86897   0.78187   1.64917
   8.32047   0.98487   1.39547
   9.11187   1.02617   1.28397
   9.56197   0.89827   0.65757
  10.36187   0.90417   0.15607
  10.64447   0.82797  -0.42563
  11.15987   0.97737  -1.24163
  11.35417   1.14967  -2.07393
  11.31947   0.93217  -2.59073
  11.40887   0.82187  -2.83103
  11.42287   0.71987  -3.33493
  11.57107   0.45057  -3.69173
  11.47637   0.40917  -4.11183
  11.30807   0.19527  -4.54023
  10.74807  -0.00233  -4.80093
  10.23297   0.13887  -5.08453
   9.62207   0.04767  -5.27063
   9.07917  -0.14723  -5.63093
   8.52547  -0.39983  -5.88713
   8.04807  -0.69133  -6.01903
   7.51667  -0.81273  -6.23183
   6.63447  -0.96113  -6.54023
   5.86567  -1.30653  -6.74943
   5.10907  -1.60183  -6.56193
   4.24587  -1.66403  -6.46493
   3.49397  -1.47253  -6.06373
   2.26947  -1.37013  -5.61053
   0.81797  -1.37243  -4.82073
  -0.49883  -1.21863  -4.33093
  -1.82263  -1.20293  -3.83083
  -3.09623  -1.17343  -3.77583
  -4.21473  -1.00093  -3.76493
  -5.27343  -0.89173  -3.65053
  -6.42123  -0.47343  -3.59213
  -7.65733  -0.11173  -3.48643
  -8.83033  -0.09183  -3.17313
 -10.05693  -0.37643  -2.64943
 -11.16283  -0.63643  -1.75643
 -11.77093  -0.83113  -0.88533
 -12.31173  -1.09563  -0.22433
 -12.55563  -1.59103   0.64547
 -12.64563  -1.96373   1.24117
 -12.29283  -2.31113   1.84977
 -11.78783  -2.43793   2.36417
 -11.11443  -2.57093   3.03267
 -10.40083  -2.73603   3.75627
  -9.78293  -2.81853   4.19887
  -9.27973  -2.81203   4.55797
  -8.48363  -2.63103   4.65107
  -7.91733  -2.35843   4.67277
  -7.05993  -2.09183   4.97137
  -6.25663  -1.57043   5.31597
  -5.56593  -1.01093   5.49857
  -4.81423  -0.57283   5.41207
  -3.85813  -0.00563   5.16567
  -3.13193   0.53847   5.01347
  -1.90843   0.82677   4.72967
  -0.88063   1.20997   4.35837
  -0.10933   1.42907   4.03167
   0.49747   1.54927   4.02207
   0.85217   1.52397   3.69127
   0.82407   1.70967   3.26757
   0.64197   1.92217   3.00527
   0.23367   2.35957   2.36397
  -0.32023   2.70777   1.90027
  -0.51233   3.05357   1.54047
  -0.63443   3.46977   1.34197
  -0.42843   3.54927   0.29007
  -0.27393   3.70797  -0.52083
  -0.08593   3.65327  -1.31433
   0.06697   3.33927  -2.05273
   0.12027   3.04517  -2.62503
  -0.11953   2.38437  -3.20113
  -0.60453   2.01447  -3.37393
  -1.31873   1.37877  -3.81753
  -2.21843   0.99367  -4.36933
  -3.07543   0.75007  -4.64073
  -3.79343   0.48707  -4.94773
  -4.46073   0.22637  -5.17893
  -4.84533  -0.02783  -5.47053
  -4.70433  -0.32213  -5.54183
  -4.61433  -0.62193  -5.82523
  -4.35503  -0.72623  -5.91803
  -4.00013  -1.23473  -6.07023
  -3.87663  -1.76313  -6.31083
  -3.66833  -2.15943  -6.41653
  -3.47703  -3.00743  -6.27713
  -3.39803  -3.24833  -6.05693
  -3.55403  -3.46363  -5.99193
  -3.42683  -3.71913  -5.94333
  -3.40923  -3.82393  -5.86683
  -3.02883  -3.58753  -5.47803
  -2.28043  -3.27543  -5.14813
  -1.07823  -3.06383  -4.49763
   0.02417  -2.87303  -3.83273
   1.24427  -2.36983  -3.19253
   2.75627  -1.89453  -3.01113
   3.93117  -1.65413  -2.52613
   5.03007  -1.42453  -2.27953
   6.20467  -1.22143  -1.69073
   7.19097  -1.03923  -1.15273
   8.12427  -0.88193  -0.38983
   9.23417  -0.99743   0.34287
  10.19257  -0.83393   1.06237
  11.18697  -0.81693   2.15777
  11.89277  -0.58633   3.03587
  12.50327  -0.25343   4.06657
  13.14817   0.05567   4.81757
  13.53927   0.04027   5.53397
  13.56317   0.03927   5.97607
  13.54887  -0.11383   6.38427
  13.33687  -0.36053   6.16097
  12.65617  -0.63893   5.94617
  11.85917  -0.81363   5.82597
  10.98937  -1.02963   5.68337
  10.13197  -1.03313   5.94687
   9.05577  -1.02403   6.04177
   7.94937  -0.87983   6.17297
   6.95567  -0.72573   6.40997
   5.92347  -0.50363   6.51007
   5.25027  -0.27193   6.53507
   4.48317   0.01267   6.33517
   3.85117   0.25997   6.04177
   2.97257   0.25137   5.55967
   2.01557   0.25297   5.13337
   0.92087   0.19057   4.51197
  -0.28273  -0.11973   3.70857
  -1.64613  -0.46763   2.69477
  -2.98423  -0.76403   1.79927
  -4.65103  -0.82253   0.77827
  -5.77403  -0.80683  -0.23223
  -6.74873  -0.45773  -1.32373
  -7.53433  -0.05073  -2.56873
  -7.91173   0.23527  -3.57763
  -8.15183   0.32357  -4.59533
  -8.13313   0.43097  -5.55963
  -8.00333   0.49267  -6.32063
  -8.09413   0.49477  -7.03373
  -8.20443   0.15127  -7.36533
  -8.49253  -0.18143  -7.89023
  -8.95053  -0.74443  -8.34313
  -9.17263  -1.38693  -8.32413
  -9.26453  -1.66543  -8.05573
  -9.20893  -1.82973  -7.91503
  -9.03233  -1.96963  -7.68913
  -8.92083  -2.15683  -7.37533
  -8.63933  -2.10353  -7.19793
  -8.13573  -1.94013  -6.86243
  -7.72393  -1.92443  -6.58153
  -7.51053  -1.80803  -6.13523
  -7.11913  -1.69093  -5.45953
  -6.92103  -1.68133  -4.71463
  -6.72703  -1.46243  -4.00663
  -6.58233  -1.14353  -2.98863
  -6.43753  -0.84143  -1.99423
  -6.31903  -0.23843  -0.86383
  -6.00033   0.30417   0.30807
  -5.80623   0.81647   1.51497
  -5.30383   1.38537   3.07847
  -4.74853   1.87357   4.51897
  -3.99683   2.21957   5.96437
  -3.42543   2.36317   7.23467
  -2.71393   2.61867   8.39457
  -2.17643   2.53797   9.36347
  -1.67623   2.58667  10.45257
  -1.50163   2.67007  10.80867
  -1.23463   2.62387  11.30687
  -0.87693   2.44447  11.57487
  -0.68683   2.20247  11.65407
  -0.38663   2.00027  11.72077
   0.01837   1.97617  11.53507
   0.53977   1.90747  11.35157
   1.30667   1.85487  10.87437
   2.23867   1.76087  10.34897
   3.24097   1.30167   9.74557
   3.98937   0.94877   9.46497
   4.89187   0.81087   9.12097
   5.57297   0.89247   8.67397
   6.22647   0.89997   8.40677
   6.79227   1.03537   8.22557
   7.33967   1.02687   7.84607
   8.25217   1.30697   7.21777
   9.30317   1.41927   6.76237
  10.46047   1.64747   6.17177
  11.35057   1.93197   5.82337
  12.68287   2.10497   5.23557
  13.78547   2.36427   4.67027
  14.66317   2.32547   4.06487
  15.44297   2.38857   3.28587
  15.96737   2.31027   2.27647
  16.39857   2.29817   1.11377
  16.42027   2.10527  -0.07843
  16.45067   2.19037  -1.23783
  16.30107   2.00327  -2.61033
  16.18457   1.91727  -3.79713
  16.08337   1.62407  -4.89323
  15.87337   1.53357  -5.66763
  16.01887   1.71337  -6.50983
  15.98357   1.66587  -7.02063
  16.21877   1.44847  -7.20393
  16.30387   1.23877  -7.47633
  16.37747   1.16417  -7.92433
  16.39477   0.99157  -8.54883
  16.41167   0.99327  -9.18013
  16.30787   1.35187  -9.63163
  16.21317   1.32967 -10.11283
  15.98217   1.48427 -10.36463
  15.52107   1.69867 -10.39993
  15.11657   2.05427 -10.81793
  14.44157   2.33577 -10.99703
  14.00737   2.58337 -11.05133
  13.41847   2.91607 -10.90403
  13.04407   2.96287 -10.47593
  12.57947   2.76617  -9.94893
  12.06587   2.70117  -9.66533
  11.36977   2.43137  -9.08823
  10.25777   2.04677  -8.60313
   9.37917   1.97757  -8.01533
   8.49417   1.60467  -7.12593
   7.34287   1.40167  -6.31133
   6.47547   1.26707  -5.44763
   5.45817   1.10967  -4.44553
   4.49397   0.94177  -3.55683
   3.58117   0.87097  -2.52923
   2.37217   0.65567  -1.43523
   1.09837   0.75197  -0.12333
  -0.29893   0.63877   1.12827
  -1.76843   0.63267   2.22947
  -3.23533   0.63317   3.36817
  -4.64263   0.23427   4.40187
  -5.61333   0.23597   5.13827
  -6.67183  -0.06403   5.77617
  -7.30433  -0.45423   6.62207
  -7.82523  -0.66303   7.04337
  -8.56753  -0.66473   7.57227
  -9.27183  -0.53843   8.24187
  -9.83573  -0.26423   9.02277
 -11.02723   0.33107   9.64897
 -12.06463   0.41407   9.90757
 -13.03163   0.84667  10.37307
 -13.88833   1.06337  10.54347
 -14.92223   1.46627  10.67347
 -15.65243   1.57827  10.73757
 -16.23723   1.57777  10.63167
 -16.91473   1.61957  10.30827
 -17.39593   1.56727   9.73477
 -17.91293   1.32057   8.66647
 -18.32953   0.98127   7.75067
 -18.83503   0.73797   6.58837
 -19.05663   0.48607   5.34897
 -19.46353   0.25137   4.12097
 -19.55983   0.18287   3.03477
 -19.70413   0.21327   1.89397
 -19.37773   0.22167   0.93517
 -18.93133  -0.02293  -0.11843
 -18.34703  -0.18403  -1.24003
 -17.33073  -0.20453  -2.28673
 -16.33093  -0.38533  -3.32343
 -15.16513  -0.45593  -4.32063
 -13.94403  -0.54593  -5.14153
 -12.66883  -0.35653  -5.86703
 -11.74193  -0.26463  -6.72843
 -10.39223  -0.35373  -7.62223
  -9.67603  -0.37263  -8.50563
  -8.77873  -0.66983  -9.38443
  -8.28323  -0.78093 -10.39783
  -7.42443  -1.14193 -11.20493
  -6.61643  -1.22443 -12.10083
  -5.83833  -1.59693 -12.58043
  -4.89493  -1.74283 -12.86053
  -3.80863  -2.06713 -12.87403
  -2.54833  -2.08373 -12.83943
  -1.17943  -1.96003 -12.66883
   0.13877  -1.90573 -12.17333
   1.30667  -1.75893 -11.77943
   2.61577  -1.75913 -11.31383
   3.96527  -1.67783 -10.57523
   4.99777  -1.83513  -9.87243
   6.01187  -1.92053  -9.14763
   7.36887  -2.14773  -8.24183
   8.32137  -2.27863  -7.52713
   9.42447  -2.36913  -6.94163
  10.44647  -2.43483  -6.54303
  11.31527  -2.51013  -6.23153
  12.14767  -2.77853  -5.84253
  12.61087  -3.01373  -5.27763
  13.24867  -3.29993  -4.83623
  13.24777  -3.42273  -4.16233
  13.11917  -3.42433  -3.59003
  12.85957  -3.40583  -2.84903
  12.31157  -3.19453  -2.23903
  12.08007  -2.96023  -1.62503
  11.81267  -2.54193  -0.68963
  11.31837  -2.33923  -0.19553
  10.61697  -1.81083   0.37887
   9.93867  -1.50263   0.78267
   9.24537  -1.16553   1.10117
   8.51947  -0.83113   1.54517
   7.73457  -0.66263   1.97797
   6.63327  -0.23663   2.43317
   5.38917  -0.03903   2.72497
   4.33937   0.35027   3.12917
   3.05597   0.48537   3.35997
   1.72257   0.44827   3.53607
   0.39317   0.40167   3.73547
  -0.72563   0.51907   3.87907
  -1.89653   0.41017   4.05067
  -2.98953   0.63807   4.27397
  -4.00473   1.06197   4.44087
  -5.35643   1.11647   4.61367
  -6.60173   1.22097   4.81027
  -7.72793   1.40377   4.73427
  -8.71793   1.71547   4.93817
  -9.80093   1.62737   5.32237
 -10.43783   1.84597   5.60387
 -10.86213   2.08377   5.95777
 -11.01993   1.98997   6.17297
 -11.11813   1.92847   6.27817
 -10.56873   1.68277   6.58727
 -10.19043   1.30377   6.78317
  -9.58253   0.92917   6.96067
  -8.88273   0.40267   6.88397
  -8.22273  -0.27233   7.02987
  -7.51823  -1.05633   7.23117
  -6.86103  -1.56813   7.22697
  -6.43283  -2.10143   7.20497
  -5.62993  -2.50123   7.01467
  -4.87593  -2.73113   7.17107
  -3.96643  -3.16623   7.30787
  -3.00523  -3.49313   7.46967
  -1.93833  -3.65203   7.84587
  -0.66883  -3.84313   7.87947
   0.24867  -3.89403   7.93027
   1.01647  -3.98503   7.78197
   1.79107  -3.61563   7.47427
   2.53577  -3.14263   7.15187
   3.01787  -2.65463   6.97727
   3.56337  -2.18423   6.97537
   3.85537  -1.80213   6.93027
   4.54097  -1.44423   6.61807
   5.16937  -1.13793   6.36697
   5.38357  -0.79843   6.07377
   5.60567  -0.52603   6.10417
   5.75487  -0.33413   5.84587
   5.82267  -0.41243   5.69057
   5.90217  -0.37993   5.21707
   5.61667  -0.66353   4.97677
   5.53017  -0.92213   4.77007
   5.08597  -1.35563   4.47357
   4.60497  -1.94833   4.02237
   4.10727  -2.18333   3.61927
   3.51547  -2.39913   2.95637
   3.01017  -2.79563   1.99007
   2.44577  -2.89943   1.28987
   1.96667  -2.81783   0.34287
   1.39197  -2.53493  -0.50723
   0.66347  -2.26813  -1.32553
  -0.11703  -2.15053  -1.67693
  -0.80693  -1.99013  -2.31203
  -1.29773  -1.95693  -2.83033
  -2.09293  -1.94923  -3.76673
  -3.10763  -1.90343  -4.49763
  -4.32883  -1.99503  -5.54933
  -5.55143  -1.88403  -6.00853
  -6.20303  -1.84103  -7.00403
  -6.73753  -2.01443  -7.86773
  -7.25403  -2.14053  -8.77613
  -7.67203  -2.26793  -9.40393
  -8.28183  -2.26703 -10.00943
  -8.68633  -2.25043 -10.62853
  -9.04313  -2.12293 -11.03303
  -9.36393  -1.90083 -10.99843
  -9.35483  -1.48463 -11.15343
  -9.36573  -1.12993 -11.26803
  -9.31243  -0.80263 -11.48263
  -8.89843  -0.29083 -11.72143
  -8.29563   0.09427 -11.98443
  -7.68983   0.49287 -11.88013
  -7.22223   1.07977 -11.93043
  -6.74783   1.51747 -12.01113
  -5.95683   1.99327 -11.85143
  -5.38423   2.25537 -11.23793
  -4.84953   2.43537 -10.66343
  -4.19583   2.55647 -10.31133
  -3.64093   2.46037  -9.66203
  -3.05453   2.15477  -9.25943
  -2.80533   2.16817  -8.59743
  -2.31453   1.70937  -7.76743
  -2.01363   1.71527  -7.16723
  -1.80833   1.64787  -6.36643
  -1.46793   1.49427  -5.85393
  -1.39033   1.20107  -5.14643
  -1.31663   0.99257  -4.24773
  -1.42283   0.83287  -3.58303
  -1.20913   0.74497  -2.39573
  -1.01833   0.78537  -1.49643
