********************************************************************************
              CENTRO DE INSTRUMENTACION Y REGISTRO SISMICO  A.C.

    Anaxagoras 814, Col. Narvarte, Benito Juarez, C.P. 03020 Mexico, D.F.
           Tels. 5687 45 42/ 5687 45  82             Fax. 5669 25 12
********************************************************************************
ARCHIVO ESTANDAR DE ACELERACION:
VERSION DEL FORMATO                    : 2.0
NOMBRE DEL ARCHIVO                     : PA3420210908014746
FECHA Y HORA DE CREACION               : 07/SEP/21, 23:37
REF. CATALOGO ACELEROGRAMAS, SMIS 1996 : REGISTRO No.     /PAG.


================================================================================
DATOS DE LA ESTACION:
NOMBRE DE LA ESTACION                  : ESC. PRIM. "ÁLVARO OBREGÓN"
CLAVE DE LA ESTACION                   : PA34
LOCALIZACION DE LA ESTACION            : Del. Milpa Alta, Pueblo de San Pedro   
                                       : Actopan, calle Cuauhtémoc entre        
                                       : Melchor Ocampo y Xicotencalt.          
                                       :                                        
                                       : 
COORDENADAS DE LA ESTACION             : 19.2016 LAT. N
                                       : 99.0491 LONG. W
ALTITUD (msnm)                         : 2240
TIPO DE SUELO                          : Arenoso, limoso, compacto           
                                       :                           
                                       : 
INSTITUCION RESPONSABLE                : CIRES, A. C.
                                       : 

================================================================================
DATOS DEL ACELEROGRAFO:
MODELO DEL ACELEROGRAFO                : RAD_IO14
NUMERO DE SERIE DEL ACELEROGRAFO       : 
NUMERO DE CANALES                      : 3
ORIENTACION C1-C6 (rumbo;orientacion)  : /N00E/+V/N90W
ORIENTACION C7-C12 (rumbo;orientacion) : 
VEL. DE MUESTREO, C1-C6 (muestras/s)   : /100/100/100
VEL. DE MUESTREO, C7-C12 (muestras/s)  : 
ESC. COMPLETA DE SENSORES, C1-C6, (g)  : /2.0/2.0/2.0
ESC. COMPLETA DE SENSORES, C7-C12, (g) : 
FREC. NAT. DE SENSORES, C1-C6, (Hz)    : /30/30/30
FREC. NAT. DE SENSORES, C7-C12, (Hz)   : 
AMORTIGUAMIENTO DE SENSORES, C1-C6     : /0.790/0.733/0.785
AMORTIGUAMIENTO DE SENSORES, C7-C12    : 
INTERVALO DE MUESTREO, C1-C6, (s)      : /0.01/0.01/0.01
INTERVALO DE MUESTREO, C7-C12, (s)     : 
UMBRAL DE DISPARO, C1-C6, (Gal)        : / / /
UMBRAL DE DISPARO, C7-C12, (Gal)       : 
MEMORIA DE PREEVENTO (s)               : 60
TIEMPO DE POSEVENTO (s)                : 90


================================================================================
DATOS DEL SISMO:
FECHA DEL SISMO (GMT)                  : 08/SEP/21
HORA EPICENTRO (GMT)                   : 01:47:46.0
MAGNITUD(ES)                           : /Mc=7.1
COORDENADAS DEL EPICENTRO              : 16.78 LAT. N
                                       : 99.93 LONG. W
PROFUNDIDAD FOCAL (km)                 : 10
FUENTE DE LOS DATOS EPICENTRALES       : SSN
                                       : INSTITUTO DE GEOFISICA, UNAM

================================================================================
DATOS DE ESTE REGISTRO:
HORA DE LA PRIMERA MUESTRA (GMT)       : 20:55:25.00
EXACTITUD DEL TIEMPO (s)               : 
DURACION DEL REGISTRO (s), C1-C6       : /573.55/573.55/573.55
DURACION DEL REGISTRO (s), C7-C12      : 
NUM. TOTAL DE MUESTRAS, C1-C6          : /57355/57355/57355
NUM. TOTAL DE MUESTRAS, C7-C12         : 
ACEL. MAX. (Gal), C1-C6                : /12.79591/7.01421/10.59881
ACEL. MAX., C1-C6, EN LA MUESTRA       : /4662/4805/4125
ACEL. MAX. (Gal), C7-C12               : 
ACEL. MAX., C7-C12, EN LA MUESTRA      : 
UNIDADES DE LOS DATOS                  : Gal (cm/s/s)
FACTOR DE DECIMACION                   : 1
FORMATO DATOS (FORTRAN,10 campos/dato) : 3F10.5


================================================================================
CALIDAD DEL ACELEROGRAMA:
REGISTRO DIGITAL COMPLETO CON TIEMPO ABSOLUTO CORRECTO.


================================================================================
COMENTARIOS:














================================================================================
DATOS DE ACELERACION:
---------+---------+---------+---------+---------+---------+---------+---------+
   CANAL-1   CANAL-2   CANAL-3   CANAL-4   CANAL-5   CANAL-6   CANAL-7   CANAL-8
      N00E        +V      N90W
---------+---------+---------+---------+---------+---------+---------+---------+
[...]
   7.49259   0.16529   3.07601
   8.38809   0.13629   2.94271
   8.84539  -0.03391   2.87521
   9.32639  -0.10051   2.66081
   9.40419  -0.11731   2.58601
   9.42709  -0.12081   2.42421
   9.09419  -0.02241   2.10201
   8.86129  -0.00231   1.92241
   8.57489  -0.08371   1.43981
   8.00749  -0.02621   1.11651
   7.60599   0.09049   0.99421
   7.06329  -0.07461   0.75411
   6.50079  -0.21391   0.79241
   6.02939  -0.41781   0.81091
   5.78859  -0.74211   0.73071
   5.76779  -1.13211   0.68701
   5.78859  -1.66161   0.64651
   5.83509  -2.17131   0.78751
   6.13719  -2.53771   0.75871
   6.07739  -2.81691   0.87451
   6.26019  -3.01191   0.61611
   6.08549  -2.96191   0.60401
   6.00319  -3.12551   0.46321
   5.72239  -2.72011   0.44221
   5.87789  -2.23921   0.21931
   5.90429  -1.65631  -0.30089
   5.98079  -1.28871  -0.45589
   6.05839  -0.91671  -1.01539
   5.94479  -0.57791  -1.36259
   5.87319  -0.13231  -1.59269
   5.58869  -0.06501  -1.76939
   5.13749  -0.13841  -2.28759
   4.51669  -0.30671  -2.41359
   3.79449  -0.37241  -2.33829
   3.06989  -0.53661  -2.24429
   2.43459  -0.86721  -1.95579
   1.79559  -0.98731  -1.63129
   1.03109  -0.91631  -1.31819
   0.69459  -0.85151  -0.93729
   0.06119  -0.84031  -0.32099
  -0.45171  -0.72591  -0.07809
  -0.86181  -0.75821   0.36761
  -1.27571  -0.85941   1.07861
  -1.59651  -0.84821   1.67481
  -1.74071  -0.86041   2.27661
  -2.12281  -0.78141   2.95211
  -2.51001  -1.10921   3.70101
  -2.85271  -0.94671   4.09641
  -3.52661  -0.88331   4.60301
  -3.98481  -1.03711   4.95981
  -4.53121  -1.14911   5.42491
  -5.09801  -1.42431   5.69751
  -5.36621  -1.51461   6.03931
  -5.42421  -2.02171   6.12441
  -5.25821  -2.29921   5.91801
  -5.29791  -2.86391   5.68111
  -4.93181  -3.06541   5.31851
  -4.53171  -3.35721   4.78071
  -3.93411  -3.41241   4.31221
  -3.44151  -3.55131   3.39541
  -2.63931  -3.58311   2.46391
  -1.56841  -3.61821   1.62641
  -0.60541  -3.67191   0.53851
   0.22629  -3.70541  -0.33149
   1.12269  -3.73861  -1.24079
   1.74579  -3.63171  -1.99719
   2.23659  -3.61651  -2.85899
   2.45959  -3.51011  -3.58609
   2.58469  -3.15521  -4.27189
   2.56629  -2.90411  -5.04629
   2.43209  -2.52001  -5.62889
   2.24729  -2.15081  -6.31839
   1.79019  -1.82531  -6.82019
   1.42079  -1.38011  -7.44929
   0.96609  -0.96651  -7.77969
   0.57649  -0.98731  -8.05909
  -0.11761  -0.70701  -8.14049
  -0.71431  -0.72551  -7.93499
  -1.30801  -0.62561  -7.81389
  -1.76081  -0.49631  -7.23679
  -2.09641  -0.46811  -6.68079
  -2.55351  -0.39441  -5.89149
  -3.00261  -0.15401  -5.37269
  -3.37201  -0.17441  -4.93239
  -3.74801  -0.02621  -4.52599
  -3.96571   0.34279  -4.39229
  -4.15361   0.48799  -4.40839
  -4.29671   0.50739  -4.26279
  -4.08611   0.63899  -4.04249
  -3.58221   0.42209  -3.71359
  -3.12041   0.52679  -3.17349
  -2.58341   0.51649  -2.30319
  -1.94341   0.43089  -1.36139
  -1.58131   0.49129  -0.59989
  -1.14201   0.69539   0.52421
  -0.76791   0.80969   1.10341
  -0.39771   0.72689   1.98531
  -0.27571   0.48499   2.61261
  -0.08681   0.29949   3.27341
   0.10379  -0.17841   3.60841
   0.09189  -0.50971   3.93391
   0.21689  -1.16501   4.28861
   0.00789  -1.58521   4.74261
  -0.17161  -1.60041   5.09991
  -0.50201  -1.50851   5.36481
  -0.91731  -1.45961   5.55441
  -1.36381  -1.11731   5.58901
  -1.97881  -0.75681   5.60891
  -2.68841  -0.35631   5.26541
  -3.28181   0.21369   4.96751
  -3.73821   0.46769   4.51161
  -4.37271   1.07039   3.90021
  -4.74751   1.38749   3.27831
  -4.70051   1.68769   2.60351
  -4.97311   1.77439   2.10201
  -4.98531   1.89079   1.27051
  -4.72201   2.16949   0.54711
  -4.51911   2.35799   0.09851
  -4.10131   2.44359  -0.73269
  -4.01011   2.61639  -1.41149
  -4.12911   2.51039  -2.10609
  -4.08121   2.63229  -2.96819
  -4.38931   2.71149  -3.80399
  -4.66311   2.61329  -4.54449
  -5.09821   2.39279  -4.98569
  -5.80341   2.41879  -5.30769
  -6.26961   2.19879  -5.52719
  -6.69161   1.85389  -5.49489
  -7.01361   1.73089  -5.28639
  -7.07531   1.44569  -4.83999
  -7.32291   1.30959  -4.70049
  -7.51111   1.34119  -4.70679
  -8.10551   1.37319  -4.39599
  -8.28131   1.69049  -4.24359
  -8.35801   2.02859  -3.97119
  -8.53191   2.28319  -3.60439
  -8.72181   2.38459  -3.32959
  -8.83891   2.42139  -3.07849
  -8.91071   2.52839  -2.73929
  -9.13941   2.46739  -2.31189
  -9.34281   2.22609  -2.24499
  -9.31431   1.85249  -1.88819
  -9.29301   1.58849  -1.68109
  -9.41131   1.50319  -1.39349
  -9.22141   1.67529  -1.30179
  -9.08511   1.68439  -1.49139
  -8.53831   1.62059  -1.76149
  -8.27971   1.73049  -2.09209
  -7.60771   1.77459  -2.33129
  -7.23451   1.76199  -2.69109
  -6.81741   1.55069  -2.88819
  -5.89741   1.31029  -3.20239
  -5.22961   1.32619  -3.78279
  -4.58851   0.89389  -4.39929
  -3.86001   0.79709  -4.77319
  -2.81561   0.85859  -5.00579
  -2.02571   0.51579  -5.11989
  -0.93741   0.43909  -5.23349
  -0.03771   0.35239  -5.18959
   0.89989   0.42859  -4.95369
   1.81199   0.41109  -4.76499
   2.67449   0.42669  -4.19379
   3.34479   0.43209  -3.59009
   3.70609   0.40129  -2.94099
   3.88939   0.45949  -2.23749
   3.93869   0.48819  -1.50919
   3.99579   0.50229  -0.40979
   4.01029   0.65909   0.76881
   3.92589   0.91769   2.01481
   3.87229   0.86259   3.34491
   3.85129   0.94669   4.46601
   3.65299   1.16109   5.56401
   3.44439   1.14709   6.62641
   3.61349   0.98089   7.31431
   3.85809   0.94559   7.93601
   4.03999   0.72619   8.24761
   4.32849   0.50619   8.18381
   4.65419   0.33909   8.06971
   4.87859   0.27199   7.73701
   5.36029   0.47439   7.49731
   5.47809   0.64889   7.00311
   5.85429   1.13749   6.77671
   6.32449   1.63299   6.62661
   6.80519   1.88779   6.78211
   7.53629   2.52889   7.17331
   8.19749   2.95299   7.14591
   8.65929   3.25179   7.33461
   9.16569   3.60859   7.14851
   9.70419   3.67969   7.13981
   9.96259   3.64279   6.81601
  10.04699   3.59319   6.51161
  10.44049   3.45709   6.06781
  10.24659   3.17679   5.13421
   9.99789   3.14499   4.35591
   9.97639   3.19479   3.13771
   9.49399   2.87889   2.14691
   9.10609   2.86119   1.07771
   8.44939   2.58269   0.00351
   7.82629   2.56419  -0.74459
   7.12199   2.39329  -1.74089
   6.27449   2.14479  -2.36239
   5.51999   1.90039  -3.05889
   4.63589   1.54829  -3.34179
   3.74769   0.99089  -3.93289
   2.82319   0.73719  -4.33169
   2.09399   0.19829  -4.54259
   1.45519  -0.31491  -4.63619
   0.89569  -0.56581  -4.59899
   0.68359  -0.62491  -4.47929
   0.40169  -0.57331  -4.09789
   0.64389  -0.59241  -3.63339
   0.67589  -0.43111  -3.16529
   1.09789  -0.23071  -2.69019
   1.66699   0.21369  -2.11869
   1.88559   0.61239  -1.62539
   2.41399   1.11649  -1.23489
   2.80219   1.73069  -0.70579
   3.00609   2.00169  -0.43509
   2.92889   2.26699  -0.12199
   2.98199   2.50039  -0.05819
   2.64199   2.56679  -0.15329
   2.29779   2.31119  -0.60269
   2.03779   2.01869  -0.83679
   1.47249   1.63159  -1.07809
   1.04859   1.34229  -1.58069
   0.63199   0.72669  -1.60929
   0.04719   0.38889  -1.72949
  -0.20111  -0.20081  -1.40699
  -0.41571  -0.58641  -1.36539
  -0.34631  -1.26351  -0.97519
  -0.51461  -1.74071  -0.56019
  -0.42351  -2.29691  -0.43719
  -0.31361  -2.47581  -0.11309
  -0.12841  -2.69021   0.12891
  -0.04521  -2.96051   0.43961
  -0.13561  -2.84801   0.53691
  -0.21581  -2.85131   0.46841
  -0.07931  -2.69391   0.26731
  -0.10711  -2.59711  -0.13389
   0.00909  -2.30321  -0.66959
   0.00319  -2.30601  -1.43129
   0.08689  -2.17421  -2.02919
   0.03499  -2.15171  -2.69299
   0.04209  -2.06431  -3.37099
   0.08929  -1.78391  -4.18939
   0.16289  -1.28781  -4.79489
   0.49779  -1.04321  -4.93939
   0.87469  -0.86041  -5.17509
   1.41449  -0.53421  -5.21739
   2.12339  -0.18331  -4.89639
   2.62489   0.12369  -4.71429
   3.32189   0.45359  -4.19989
   3.97289   0.61049  -3.33759
   4.45119   0.71599  -2.63479
   5.10349   0.57429  -1.82339
   5.88939   0.70989  -0.92419
   6.54079   0.54689  -0.05659
   7.20829   0.68419   0.57591
   7.73859   0.89759   1.31451
   8.30649   0.96869   1.86961
   8.94739   1.17629   2.52121
   9.23989   1.12679   2.95611
   9.56769   1.06569   3.17281
   9.94409   1.00819   3.44731
  10.09329   0.71949   3.61031
  10.02799   0.52069   3.94391
   9.71589   0.29159   4.20721
   9.38949  -0.01311   4.51671
   9.23589  -0.26041   4.59691
   8.41519  -0.18791   4.75411
   8.18279  -0.29481   4.77371
   7.46479  -0.26951   4.63791
   6.73129  -0.31261   4.57361
   5.76479  -0.54031   4.06691
   4.89759  -0.59781   4.05081
   3.82789  -0.74581   3.77321
   3.00419  -1.03201   3.37511
   2.28569  -1.42431   3.13101
   1.37969  -1.45731   2.67201
   0.80499  -1.46081   2.26471
   0.57419  -1.57541   1.82191
   0.57299  -1.57981   1.33131
   0.27699  -1.60111   0.65801
   3.9E-40  -1.78091  -0.02919
  -0.38791  -1.94291  -0.57259
  -0.82561  -1.92611  -1.16039
  -1.58151  -1.96931  -1.73509
  -2.31711  -2.11641  -2.05679
  -2.90321  -2.33671  -2.56929
  -3.66711  -2.49681  -3.03739
  -4.45571  -2.49471  -3.07809
  -5.02041  -2.60271  -3.48369
  -5.43401  -2.48651  -3.61839
  -5.92571  -2.55481  -3.97329
  -6.33201  -2.49401  -4.02689
  -6.54951  -2.40561  -3.99269
  -6.82681  -2.02661  -3.76829
  -7.00541  -1.75191  -3.90219
  -6.99491  -1.07641  -3.80919
  -6.87681  -0.71801  -3.77219
  -6.66151   0.37059  -3.73999
  -6.32741   1.01639  -3.66699
  -6.19321   1.84499  -3.61139
  -5.78241   2.57149  -3.59549
  -5.74591   3.18939  -3.69949
  -5.75031   3.38579  -3.53329
  -5.38141   3.48449  -3.33969
  -5.45501   3.33109  -2.91719
  -5.52101   3.08259  -2.46969
  -5.75971   2.46439  -1.74789
  -6.07201   1.86489  -1.00959
  -6.39561   1.71899  -0.13839
  -6.60841   1.24879   0.68631
  -6.98301   1.05569   1.33771
  -7.38741   0.89319   2.00401
  -7.68281   0.90629   2.55581
  -8.00261   0.88129   3.04051
  -8.40661   1.15409   3.80571
  -8.59721   1.36479   4.46621
  -8.97761   1.46299   5.16301
  -8.95821   1.54319   6.08491
  -9.27121   1.68109   6.76621
  -9.42371   1.99629   7.54621
  -9.24441   2.04939   8.25091
  -9.57121   2.08859   8.88411
  -9.64911   1.92829   9.50931
 -10.00401   1.81909   9.81741
 -10.33251   1.59859   9.82981
 -10.77741   1.19459   9.62011
 -11.52701   0.54079   9.01921
 -12.02341   0.17489   8.45291
 -12.53451  -0.26601   7.48611
 -12.63341  -0.85241   6.51251
 -12.79591  -1.20361   5.60931
 -12.23851  -1.59241   4.67251
 -11.95471  -1.81691   3.72671
 -11.57501  -1.91861   2.66101
 -11.01591  -1.84751   1.62921
 -10.40031  -1.76921   0.87941
  -9.98251  -1.51861   0.23201
  -9.52471  -1.24571  -0.34249
  -8.77741  -0.87041  -0.92699
  -8.03091  -0.62211  -1.39509
  -7.20461  -0.34671  -1.93309
  -6.49271  -0.14281  -2.24659
  -5.81811  -0.09631  -2.49469
  -5.20461   0.38999  -2.74699
  -4.78491   0.57869  -2.90599
  -4.33091   0.81879  -3.07569
  -4.03841   1.05899  -3.33379
  -3.80971   1.17329  -3.31889
  -3.49661   1.30469  -3.32519
  -3.18381   1.33299  -3.20219
  -2.88061   1.33249  -2.91179
  -2.59901   1.49689  -2.93399
  -2.49311   1.28009  -2.53089
  -2.24761   1.38489  -2.48789
  -2.41291   1.41619  -2.52439
  -2.46371   1.31259  -2.51459
  -2.38371   1.16159  -2.44789
  -2.68671   0.95939  -2.62259
  -2.96381   0.67199  -3.00279
  -3.48121   0.31679  -3.56489
  -4.06691  -0.03641  -4.08739
  -4.80741  -0.59101  -4.93079
  -5.44221  -1.04131  -5.97349
  -6.18101  -1.26811  -6.67029
  -6.63581  -1.71661  -7.61979
  -6.86471  -1.71851  -8.12879
  -7.02411  -1.72361  -8.75679
  -6.89651  -1.89641  -9.40559
  -6.43021  -1.96911  -9.68809
  -6.06741  -2.03041 -10.03009
  -5.50371  -2.07781 -10.01209
  -4.81421  -2.18771  -9.95789
  -4.08421  -2.11081  -9.73789
  -3.18151  -2.16041  -9.39299
  -1.99471  -1.92261  -9.01119
  -0.77511  -1.87301  -8.38619
   0.40939  -1.59901  -7.74539
   1.88699  -1.40451  -7.11219
   3.05679  -1.43671  -6.62819
   3.99549  -1.57791  -6.18049
   5.07149  -1.90411  -5.62239
   6.03599  -2.17461  -4.99039
   6.70329  -2.46831  -4.43579
   7.46529  -3.10801  -3.61649
   8.06779  -3.17041  -2.86829
   8.43529  -3.46061  -2.43369
   8.61819  -3.42321  -2.04439
   8.78949  -3.03851  -2.01909
   8.87039  -2.79941  -1.67259
   9.01609  -2.09441  -1.65349
   9.03269  -1.43721  -1.46149
   8.91559  -0.54731  -1.25809
   9.07499  -0.13601  -0.96579
   9.10049   0.48499  -0.78019
   8.99619   1.04399  -0.55549
   9.06469   1.16929  -0.43459
   8.86579   1.32059  -0.27209
   8.81739   1.62729  -0.07149
   8.72619   1.66009  -0.21899
   8.68149   1.75869  -0.15989
   8.50449   1.92659  -0.16669
   8.17249   1.98059  -0.34669
   7.97749   2.24269  -0.44979
   7.63569   2.18849  -0.72449
   7.38669   2.32809  -0.71429
   7.22509   2.45249  -0.65019
   6.97189   2.58599  -0.61649
   6.72169   2.48259  -0.59589
   6.57089   2.38749  -0.29739
   6.60719   2.16929   0.07461
   6.35259   2.50459   0.51671
   6.12229   2.42579   1.08841
   6.12129   2.76179   1.52801
   5.95479   2.91419   2.17631
   5.68269   3.17769   2.53451
   5.50269   3.19569   2.74101
   4.96419   3.02439   2.94091
   4.36939   3.14219   2.62901
   3.63689   2.67149   2.50161
   3.03269   2.37579   1.97411
   2.37639   2.03039   1.44081
   1.89499   1.73609   1.03461
   1.34339   1.46949   0.19641
   0.94009   1.51789  -0.10959
   0.85149   1.41039  -0.72589
   0.75989   1.22749  -0.85009
   1.12389   1.19899  -1.19189
   1.38219   1.07039  -0.98569
   2.09579   1.04099  -0.87509
   2.68479   1.01849  -0.66139
   3.29269   0.97479  -0.46519
   4.01349   0.98529  -0.41899
   4.71359   1.15499  -0.36029
   5.55289   1.15859  -0.17699
   6.43509   1.13769  -0.19399
   7.10849   1.31449  -0.00979
   7.59239   1.49829   0.22611
   7.72479   1.67129   0.28361
   7.86789   2.04379   0.74801
   7.41939   2.33199   0.99441
   7.10519   2.50719   1.12491
   6.42639   3.00679   1.41361
   5.96139   3.35959   1.79401
   5.41289   3.71029   1.99651
   4.59499   4.21119   2.26381
   3.94359   4.43449   2.27801
   3.23119   4.51789   2.69961
   2.57509   4.61919   2.66641
   1.73269   4.21749   2.80501
   1.15619   3.91069   2.92381
   0.43929   3.36569   3.27731
  -0.26331   2.71569   3.37551
  -0.88591   2.11969   3.51721
  -1.59391   1.48399   3.84881
  -1.77391   1.17309   4.22451
  -2.23801   0.34419   4.35501
  -2.52241  -0.19941   4.65421
  -2.57361  -0.58891   5.02621
  -2.68741  -1.12081   5.30161
  -2.71011  -1.58611   5.41341
  -2.69631  -2.03551   5.51701
  -2.99141  -2.53091   5.60441
  -3.19621  -3.01351   5.45431
  -3.49241  -3.50991   5.60351
  -3.92221  -3.88631   5.86141
  -4.34441  -4.23471   6.22311
  -4.58031  -4.70441   6.56611
  -5.06691  -4.86691   7.24481
  -5.57361  -5.44191   7.80341
  -5.97691  -5.76921   8.20201
  -6.45781  -6.04491   8.69351
  -6.88031  -6.32381   8.95511
  -7.37741  -6.62451   8.98811
  -7.63951  -7.01421   8.57891
