********************************************************************************
              CENTRO DE INSTRUMENTACION Y REGISTRO SISMICO  A.C.

    Anaxagoras 814, Col. Narvarte, Benito Juarez, C.P. 03020 Mexico, D.F.
           Tels. 5687 45 42/ 5687 45  82             Fax. 5669 25 12
********************************************************************************
ARCHIVO ESTANDAR DE ACELERACION:
VERSION DEL FORMATO                    : 2.0
NOMBRE DEL ARCHIVO                     : TH3520210908014746
FECHA Y HORA DE CREACION               : 07/SEP/21, 23:38
REF. CATALOGO ACELEROGRAMAS, SMIS 1996 : REGISTRO No.     /PAG.


================================================================================
DATOS DE LA ESTACION:
NOMBRE DE LA ESTACION                  : TLÁHUAC
CLAVE DE LA ESTACION                   : TH35
LOCALIZACION DE LA ESTACION            : Del. Tláhuac, Col. San José, calle Juan
                                       : Mendoza esq. con calle La Rondalla.    
                                       :                                        
                                       :                                        
                                       : 
COORDENADAS DE LA ESTACION             : 19.2786 LAT. N
                                       : 99.0000 LONG. W
ALTITUD (msnm)                         : 2238
TIPO DE SUELO                          : Terreno blando, material compresible
                                       : (arcillas)                
                                       : 
INSTITUCION RESPONSABLE                : CIRES, A. C.
                                       : 

================================================================================
DATOS DEL ACELEROGRAFO:
MODELO DEL ACELEROGRAFO                : RAD_IO14
NUMERO DE SERIE DEL ACELEROGRAFO       : 
NUMERO DE CANALES                      : 3
ORIENTACION C1-C6 (rumbo;orientacion)  : /S00E/+V/N90W
ORIENTACION C7-C12 (rumbo;orientacion) : 
VEL. DE MUESTREO, C1-C6 (muestras/s)   : /100/100/100
VEL. DE MUESTREO, C7-C12 (muestras/s)  : 
ESC. COMPLETA DE SENSORES, C1-C6, (g)  : /2.0/2.0/2.0
ESC. COMPLETA DE SENSORES, C7-C12, (g) : 
FREC. NAT. DE SENSORES, C1-C6, (Hz)    : /53.1/51.25/51.77
FREC. NAT. DE SENSORES, C7-C12, (Hz)   : 
AMORTIGUAMIENTO DE SENSORES, C1-C6     : /0.5698/0.5715/0.5572
AMORTIGUAMIENTO DE SENSORES, C7-C12    : 
INTERVALO DE MUESTREO, C1-C6, (s)      : /0.01/0.01/0.01
INTERVALO DE MUESTREO, C7-C12, (s)     : 
UMBRAL DE DISPARO, C1-C6, (Gal)        : / / /
UMBRAL DE DISPARO, C7-C12, (Gal)       : 
MEMORIA DE PREEVENTO (s)               : 60
TIEMPO DE POSEVENTO (s)                : 90


================================================================================
DATOS DEL SISMO:
FECHA DEL SISMO (GMT)                  : 08/SEP/21
HORA EPICENTRO (GMT)                   : 01:47:46.0
MAGNITUD(ES)                           : /Mc=7.1
COORDENADAS DEL EPICENTRO              : 16.78 LAT. N
                                       : 99.93 LONG. W
PROFUNDIDAD FOCAL (km)                 : 10
FUENTE DE LOS DATOS EPICENTRALES       : SSN
                                       : INSTITUTO DE GEOFISICA, UNAM

================================================================================
DATOS DE ESTE REGISTRO:
HORA DE LA PRIMERA MUESTRA (GMT)       : 20:54:01.00
EXACTITUD DEL TIEMPO (s)               : 
DURACION DEL REGISTRO (s), C1-C6       : /657.47/657.47/657.47
DURACION DEL REGISTRO (s), C7-C12      : 
NUM. TOTAL DE MUESTRAS, C1-C6          : /65747/65747/65747
NUM. TOTAL DE MUESTRAS, C7-C12         : 
ACEL. MAX. (Gal), C1-C6                : /56.44577/13.37668/39.9185
ACEL. MAX., C1-C6, EN LA MUESTRA       : /13517/12973/14206
ACEL. MAX. (Gal), C7-C12               : 
ACEL. MAX., C7-C12, EN LA MUESTRA      : 
UNIDADES DE LOS DATOS                  : Gal (cm/s/s)
FACTOR DE DECIMACION                   : 1
FORMATO DATOS (FORTRAN,10 campos/dato) : 3F10.5


================================================================================
CALIDAD DEL ACELEROGRAMA:
REGISTRO DIGITAL COMPLETO CON TIEMPO ABSOLUTO CORRECTO.


================================================================================
COMENTARIOS:














================================================================================
DATOS DE ACELERACION:
---------+---------+---------+---------+---------+---------+---------+---------+
   CANAL-1   CANAL-2   CANAL-3   CANAL-4   CANAL-5   CANAL-6   CANAL-7   CANAL-8
      N00E        +V      N90W
---------+---------+---------+---------+---------+---------+---------+---------+
[...]
  30.48083   9.99722  -6.34030
  30.89113   9.77722  -4.89110
  31.47573   9.81202  -3.40740
  31.72303   9.79872  -1.90240
  32.02463   9.72032  -1.04360
  32.20193   9.72032   0.01790
  32.26013   9.71852   0.78250
  32.42563   9.61332   1.41330
  32.57043   9.44372   1.71330
  32.69943   9.31912   1.75740
  32.86173   8.97962   1.89000
  33.07873   8.88032   1.99690
  33.41933   8.34582   1.98520
  33.65873   8.26772   1.98050
  33.91343   8.11662   1.97350
  33.92863   7.73022   1.86010
  33.71863   7.35722   2.02800
  33.24913   6.76902   2.05860
  32.70113   6.30842   2.01790
  31.92903   5.81272   2.12940
  30.89563   5.33432   2.18340
  29.93393   4.81532   1.70670
  29.05043   4.62102   1.43080
  28.31463   4.29292   1.06930
  27.42353   4.30232   0.54020
  26.79503   4.51622   0.14490
  26.11263   4.23612  -0.43730
  25.46073   4.43772  -0.86780
  24.71163   4.36682  -1.25640
  23.82993   4.33692  -1.41300
  22.86733   4.22492  -1.33610
  21.74783   4.05842  -1.32840
  20.51473   3.76382  -1.33770
  19.22313   3.70912  -1.40060
  17.36303   3.30302  -1.31410
  15.71673   2.91702  -0.98930
  14.12493   2.59482  -0.93810
  12.36693   2.08812  -0.74710
  10.67743   1.50242  -0.73890
   8.80253   1.08482  -0.78990
   7.07373   0.46762  -0.70530
   5.70133  -0.08348  -0.56380
   3.83763  -0.48048  -0.56380
   2.32463  -1.07058  -0.42590
   0.83693  -1.78938  -0.56240
  -0.82447  -2.48208  -0.56620
  -2.42727  -3.32598  -0.54160
  -3.88017  -4.14708  -0.61430
  -5.24097  -4.63408  -0.22640
  -6.36627  -5.26468   0.16820
  -7.69687  -5.79098   0.46070
  -8.68357  -5.90578   0.99780
  -9.96267  -6.13488   1.85750
 -11.21147  -6.08818   2.60360
 -12.62697  -6.16298   3.62440
 -14.13927  -5.92608   4.35080
 -15.30107  -5.69788   5.56850
 -16.62597  -5.50738   6.64970
 -17.42917  -5.31008   7.69640
 -18.06857  -5.25248   8.66230
 -18.50377  -4.95818   9.70440
 -18.77427  -4.99958  10.56080
 -18.83687  -5.24968  11.26850
 -18.74007  -5.19828  11.93210
 -18.52877  -5.45058  12.38430
 -18.47687  -5.63788  12.69950
 -18.45697  -5.93198  12.81870
 -18.68657  -6.50128  13.03190
 -19.09407  -6.81388  13.15190
 -19.56007  -7.13608  13.24030
 -20.43807  -7.24268  13.31300
 -21.31227  -7.32948  13.27280
 -22.34547  -7.60888  13.59730
 -23.27277  -7.68268  13.86500
 -24.08757  -7.85968  14.29730
 -25.07887  -7.97708  14.72890
 -25.67047  -7.87838  15.42870
 -26.43777  -8.06008  15.68640
 -27.26127  -8.19478  16.06700
 -28.02117  -8.21368  16.41140
 -28.99917  -8.35448  16.64030
 -29.78707  -8.45668  16.78670
 -30.28907  -8.76648  16.98910
 -30.87057  -8.58988  17.37050
 -31.28977  -8.74868  17.85190
 -31.59047  -8.61278  18.60200
 -32.01527  -8.44818  19.17290
 -32.47337  -8.23148  19.83090
 -32.95337  -8.13448  20.25870
 -33.68817  -7.76388  20.83200
 -34.19227  -7.42088  21.25360
 -34.72047  -6.99468  21.46520
 -34.88997  -6.54688  21.30410
 -35.05247  -6.45828  21.33330
 -35.03587  -6.05468  21.42870
 -35.00507  -5.91818  21.70390
 -34.65877  -5.99538  21.58000
 -34.21707  -5.70888  21.45790
 -33.72347  -5.70818  21.34620
 -33.02307  -5.93338  21.00060
 -32.31577  -6.01988  20.79510
 -31.48107  -6.26698  20.15840
 -30.68727  -6.56468  19.71280
 -29.83877  -7.09538  19.02260
 -28.97327  -7.47608  18.45490
 -28.07237  -7.93008  18.11770
 -27.47687  -8.39558  17.94380
 -27.08287  -8.77458  17.84540
 -26.96267  -8.66358  17.68260
 -27.04007  -8.41478  17.64690
 -27.37977  -8.11368  17.56690
 -27.72067  -7.65188  17.42100
 -28.46027  -6.98668  17.35010
 -28.91637  -6.47018  16.99170
 -29.68257  -5.66358  16.36560
 -30.38847  -5.15428  15.87880
 -31.04547  -4.33158  15.15910
 -31.70337  -3.59268  14.27950
 -32.11167  -3.27688  13.25550
 -32.66387  -2.84268  12.20640
 -33.06227  -2.70078  11.16220
 -33.45187  -2.38998  10.11050
 -33.67677  -2.08818   9.03050
 -33.84767  -2.13238   7.89870
 -33.92297  -2.00448   6.97420
 -33.89727  -2.30118   6.05020
 -33.86707  -2.58808   5.39460
 -33.57267  -3.07088   4.91130
 -33.04617  -3.26168   4.68120
 -32.92037  -3.68808   4.66040
 -32.33917  -3.90208   4.52620
 -31.85727  -3.87608   4.78670
 -31.16237  -4.05428   4.95080
 -30.35547  -4.25158   4.84560
 -29.40507  -4.18708   5.25760
 -28.31337  -4.16508   5.67090
 -27.02307  -4.22798   5.99870
 -25.80747  -4.15928   6.55710
 -24.75837  -4.27898   7.28700
 -23.28467  -4.43888   8.14840
 -21.90147  -4.52068   9.20540
 -21.02397  -4.37808  10.20990
 -19.96477  -4.39138  11.41260
 -19.23577  -4.10058  12.69810
 -18.51187  -3.93548  13.88390
 -17.96997  -3.44728  15.00900
 -17.73727  -2.87168  16.14140
 -17.31367  -1.82718  17.36420
 -17.24047  -0.74068  18.03960
 -17.09017   0.02692  18.98700
 -16.93957   0.90342  19.50190
 -16.71577   1.33432  19.52710
 -16.36457   1.91072  19.58000
 -15.82267   2.24242  19.01160
 -14.87407   2.71712  18.51080
 -14.00247   2.95722  17.79250
 -13.10107   3.21792  16.90150
 -12.34447   3.51062  16.15520
 -11.25167   3.95512  15.12450
 -10.12897   4.24452  14.08340
  -9.19437   4.19612  13.11210
  -8.00827   4.39512  12.49280
  -6.51027   4.25162  11.45890
  -5.10627   4.26512  10.55660
  -3.60167   4.26162   9.88070
  -1.96967   4.09752   8.79530
  -0.37587   4.02272   7.66950
   1.15393   3.91632   6.55610
   2.59373   3.85902   4.96180
   4.13033   3.99972   3.14700
   5.46263   4.02922   1.45960
   6.58063   4.03762  -0.47240
   7.82123   4.21982  -2.28700
   9.13973   4.29292  -4.06740
  10.47173   4.44912  -5.41740
  11.79133   4.83232  -6.85470
  13.02863   5.49922  -7.89000
  14.16403   6.01802  -8.92480
  15.14933   6.68812  -9.80490
  15.74553   7.17142 -10.52290
  16.52923   7.43162 -11.23090
  17.23723   7.99092 -11.70390
  17.65133   8.53142 -12.11650
  18.08523   8.98552 -12.58720
  18.64213   9.48372 -12.99400
  19.05393   9.58502 -13.34730
  20.00483   9.91672 -13.46120
  20.99753  10.32012 -13.68840
  22.05083  10.36782 -13.75270
  23.05133  10.53732 -13.81910
  24.31043  10.70792 -13.68840
  25.28563  10.82912 -13.62720
  26.48173  11.07812 -13.30760
  27.90963  11.37382 -13.05060
  29.19863  11.57632 -12.46400
  30.37123  11.80362 -11.88740
  31.50583  11.88732 -11.28210
  32.56433  11.86182 -10.76980
  33.19653  11.68062 -10.06300
  34.17103  11.18842  -9.53010
  34.87033  11.00722  -8.97090
  35.87203  10.64722  -8.63400
  37.01043  10.39862  -8.34330
  38.21853  10.25862  -8.16050
  39.68873  10.11342  -8.40600
  41.10373  10.33082  -8.66510
  42.48503  10.54642  -9.15210
  43.84163  10.84152  -9.56080
  45.00803  11.08652  -9.92550
  46.10953  11.41662  -9.96970
  46.95593  11.61582  -9.95050
  47.57433  12.15222 -10.01230
  47.98423  12.32802 -10.10720
  48.71703  12.50712 -10.10390
  49.50963  12.71712 -10.14670
  50.73503  12.92192 -10.50820
  51.93023  12.97592 -10.75530
  52.61013  13.02172 -10.48390
  53.05063  13.04022 -10.25820
  52.60433  12.70262 -10.69080
  52.50543  12.57022 -11.60750
  52.23723  12.40192 -13.00450
  52.00243  12.15992 -14.67950
  51.83693  11.98762 -16.10910
  51.82573  11.80972 -17.73150
  51.93253  11.51812 -18.97340
  52.04033  11.19802 -19.87880
  52.30853  10.89432 -20.73610
  53.14183  10.31662 -20.37650
  53.57573   9.61112 -20.22290
  52.84343   9.01682 -21.35060
  51.76353   8.42252 -22.70570
  51.14343   7.77602 -24.49230
  50.91243   6.95912 -26.67860
  50.95123   6.02242 -27.78270
  51.05013   5.49922 -28.27670
  51.26313   4.39672 -28.01200
  51.10603   3.07222 -28.60590
  49.84093   1.66632 -27.32110
  49.68143   0.60602 -26.96620
  49.37493  -0.02928 -26.94020
  49.08453  -0.71738 -26.27320
  48.77353  -1.07648 -25.91780
  48.46823  -1.50758 -26.13080
  48.23723  -2.38738 -26.43920
  47.98933  -2.92778 -26.50210
  47.82313  -3.52768 -26.45090
  47.40623  -4.04888 -26.20890
  46.92483  -4.27168 -26.35340
  46.13273  -4.54598 -26.48850
  45.65523  -4.87728 -26.48740
  44.52943  -5.18588 -26.30660
  43.17413  -5.26888 -26.44740
  41.57573  -5.58778 -26.43170
  40.17293  -5.90248 -26.72420
  38.53883  -6.23758 -27.02070
  36.83743  -6.75918 -27.63750
  34.99403  -7.31638 -27.96180
  33.24633  -8.16788 -28.51750
  31.48783  -8.70398 -28.81910
  29.52833  -9.25528 -29.14110
  27.76773  -9.67388 -28.95120
  26.01743  -9.98178 -28.27930
  24.38893 -10.10618 -27.58060
  22.84273 -10.26628 -26.36810
  20.91763 -10.53868 -25.21640
  19.04193 -10.41058 -23.82750
  16.86613 -10.70848 -22.49720
  14.49863 -10.50928 -21.19230
  11.86363 -10.43468 -19.79180
   9.60943 -10.24598 -18.71180
   7.30173 -10.22608 -17.24400
   4.97813 -10.01358 -15.86920
   2.96433  -9.41848 -14.11070
   0.79503  -9.29578 -12.24020
  -1.00057  -8.94228 -10.16870
  -2.65007  -8.54198  -8.39240
  -4.48267  -8.57708  -6.16770
  -6.25657  -8.41358  -3.96150
  -7.95197  -8.55438  -2.05430
  -9.63817  -8.59458  -0.65430
 -11.39897  -8.62688   0.82990
 -12.75977  -8.59088   1.78340
 -13.76447  -8.65658   2.44720
 -14.95427  -8.74098   3.00060
 -15.99237  -8.49568   3.28960
 -17.09647  -8.57818   3.28000
 -18.15017  -8.69608   3.28980
 -19.41187  -8.57398   3.16170
 -20.32087  -8.58968   2.78250
 -21.36557  -8.56538   2.59680
 -22.26007  -8.42698   2.23890
 -23.01317  -8.54808   2.06680
 -24.00597  -8.64488   1.61690
 -24.98097  -9.01198   1.36210
 -25.48577  -8.97518   1.22200
 -26.11137  -9.04748   0.99710
 -26.79277  -9.36778   0.80300
 -27.38687  -9.42158   0.33380
 -28.23957  -9.40308   0.03450
 -28.85557  -9.76808  -0.20540
 -29.33447  -9.83308  -0.24860
 -30.04637  -9.71568  -0.28530
 -30.51287  -9.76338  -0.31670
 -30.72797  -9.58078   0.00480
 -31.13897  -9.21328   0.17550
 -31.38517  -8.98668   0.19650
 -31.66977  -8.99748   0.75090
 -32.26267  -8.90108   1.15070
 -32.76977  -8.83778   1.49930
 -33.92247  -8.68438   1.83200
 -34.75807  -8.35068   2.43550
 -35.63797  -7.57638   2.97280
 -36.85707  -7.20668   3.58650
 -38.02887  -6.69278   4.13250
 -38.91687  -6.27618   4.65760
 -40.01557  -5.93218   5.11260
 -40.95917  -5.66218   5.31740
 -42.08027  -5.73718   5.69410
 -43.32257  -5.57708   5.86970
 -44.61527  -5.37478   6.25310
 -45.92877  -5.05378   6.73430
 -47.34757  -4.87748   6.82810
 -48.68607  -4.52418   6.75910
 -49.74247  -4.05288   6.71910
 -50.71417  -3.48068   6.69410
 -51.60657  -2.69678   6.61270
 -52.72277  -2.06668   6.76910
 -53.71297  -1.61348   6.75600
 -54.51547  -1.22398   7.02520
 -55.14907  -0.56068   7.26620
 -55.64117   0.13022   7.64260
 -56.03047   0.50692   8.29640
 -56.30827   0.77182   8.82360
 -56.44577   0.95182   9.23650
 -56.24257   1.30952   9.64640
 -56.10207   1.81222  10.06330
 -55.63467   2.20392  10.81960
 -54.88787   2.60252  11.51190
 -53.97537   2.79052  12.50800
 -52.84207   2.99622  13.08130
 -51.61947   3.02032  13.61510
 -50.65947   3.08482  13.78740
 -48.69357   2.86322  14.57600
 -46.90827   3.23922  16.17670
 -45.27067   3.37502  17.77010
 -43.48897   3.21602  19.09410
 -41.55077   2.41262  20.90940
 -39.73797   2.53122  23.09180
 -38.52127   3.34552  24.87570
 -37.46307   3.64692  26.60690
 -36.57457   3.45542  27.94400
 -35.85987   2.70332  29.14320
 -34.86897   1.97522  29.67210
 -33.74147   1.63172  29.95170
 -32.07887   1.83472  29.99100
 -30.38047   2.32222  28.84000
 -28.53137   2.44872  27.22880
 -26.44687   2.51292  25.26640
 -23.94657   2.45242  23.77640
 -21.46497   2.63872  22.23770
 -19.17197   2.89942  20.52480
 -17.11187   3.25972  18.66040
 -15.40227   3.02222  17.16310
 -13.60937   2.70912  15.57900
 -11.90427   2.19642  14.63980
  -9.88857   1.75242  13.43710
  -7.83367   1.40352  12.71400
  -6.05767   0.97712  12.08570
  -3.21567   0.44802  12.54000
   1.06793   0.44352  14.55260
   4.15793   1.28572  14.58510
   4.30223   1.46362  11.43290
   3.58813  -0.90088   7.80680
   3.25173  -3.22028   5.70410
   2.24123  -3.67548   4.79110
   1.28513  -2.76408   5.24030
   0.67003  -1.46688   6.52950
   0.76633  -0.80568   8.40160
   0.92183  -0.68038  10.04060
   1.40433  -0.57448  11.92040
   2.05083  -0.44568  13.16660
   3.41373  -0.18428  14.12220
   5.34943   0.15522  14.48440
   7.73663   0.83722  13.76540
   9.68663   1.17392  12.60450
  10.86213   1.33272  12.23460
  11.22413   1.22702  12.39780
  11.51353   0.88472  12.41000
  11.51843   0.61862  12.18760
  11.79253   0.41902  11.53860
  12.15043   0.37482  10.87950
  12.41253   0.32642  10.46400
  12.89183   0.23032  10.04570
  13.81193   0.74182   9.37890
  14.79293   1.40522   8.67840
  15.91293   2.30742   8.35790
  16.73923   2.93452   7.69780
  17.76283   3.27352   7.00290
  18.80113   3.51202   6.20570
  19.99643   3.98622   5.27840
  21.15723   4.31772   4.72050
  22.08333   4.51792   4.30900
  22.97723   4.52532   3.64900
  23.54373   4.76222   3.31040
  24.04483   4.93192   2.94540
  24.06773   4.97572   2.77050
  24.19213   5.17182   3.29940
  23.99123   5.30252   3.86760
  23.91573   5.56722   4.43130
  23.78623   6.13232   4.61480
  23.94823   6.83512   4.61900
  24.13523   7.34902   4.80070
  24.36813   8.02972   4.62560
  24.81303   8.68132   4.52880
  25.29983   9.28152   3.89590
  25.87293   9.91322   3.66700
  26.51103  10.21602   2.88230
  27.07873  10.55062   2.11070
  27.56733  10.74352   1.46310
  27.36023  10.72132   0.60080
  27.33053  10.71542   0.91250
  27.00733  10.69792   1.45300
  26.08853  10.66422   1.71230
  25.64333  10.50342   2.41350
  24.85473  10.23752   3.47550
  24.09813   9.93642   4.09550
  23.50183   9.49922   4.59050
  23.02703   8.78112   4.69920
  22.96413   8.30182   4.70130
  23.38313   7.73672   4.48530
  23.38173   7.30182   4.65320
  22.83013   6.91302   4.88180
  22.55023   6.41472   4.54650
  22.05113   5.83632   4.09300
  21.63113   5.01422   2.90260
  20.83693   4.06502   1.44130
  20.51593   3.24362  -0.13410
  20.14323   2.41992  -1.55140
  20.10743   1.80572  -2.56920
  20.19673   0.98172  -3.20050
  20.87873   0.19102  -3.55700
  21.50163  -0.39728  -3.82680
  21.35603  -0.97878  -3.81280
  20.92743  -1.24508  -3.85680
  20.02913  -1.62588  -4.10810
  18.85513  -1.68268  -4.07140
  17.72233  -1.49098  -4.16680
  16.54183  -1.55388  -4.31060
  15.77733  -1.51158  -4.39660
  15.10463  -1.49428  -4.22570
  14.35013  -1.46198  -4.17850
  13.71043  -1.37198  -3.92810
  12.65273  -1.47088  -4.00990
  11.98543  -1.48418  -3.73030
  10.77893  -1.50878  -4.18130
   9.95053  -1.18748  -4.35620
   9.09743  -1.04088  -4.32930
   7.69103  -0.60368  -4.55520
   6.74013  -0.46038  -5.69030
   6.34293  -0.21748  -5.59890
   5.81773   2.0E-50  -6.13430
   5.40363  -0.34838  -7.04760
   5.10443  -0.80568  -8.52200
   4.82103  -0.71568  -9.21820
   4.52483  -1.47138 -10.96640
   4.28843  -1.50318 -11.05150
   3.30993  -2.22118 -13.25990
   3.05063  -2.58098 -12.57950
   1.34943  -3.59408 -15.84580
   3.19953  -3.17608 -13.42680
  26.08053  -1.71548 -13.94630
   7.40253  -6.35468 -19.73290
   1.73853  -6.87938 -14.67910
 -13.77377  -3.00118 -16.55280
 -16.57177  -4.54038 -19.34920
 -13.79767  -8.85668 -21.92150
  -9.96807  -6.15078 -20.28420
