********************************************************************************
              CENTRO DE INSTRUMENTACION Y REGISTRO SISMICO  A.C.

    Anaxagoras 814, Col. Narvarte, Benito Juarez, C.P. 03020 Mexico, D.F.
           Tels. 5687 45 42/ 5687 45  82             Fax. 5669 25 12
********************************************************************************
ARCHIVO ESTANDAR DE ACELERACION:
VERSION DEL FORMATO                    : 2.0
NOMBRE DEL ARCHIVO                     : TP1320210908014746
FECHA Y HORA DE CREACION               : 07/SEP/21, 23:38
REF. CATALOGO ACELEROGRAMAS, SMIS 1996 : REGISTRO No.     /PAG.


================================================================================
DATOS DE LA ESTACION:
NOMBRE DE LA ESTACION                  : TLALPAN
CLAVE DE LA ESTACION                   : TP13
LOCALIZACION DE LA ESTACION            : Del. Tlalpan, Col. Tlalpan,            
                                       : Las Fuentes, entre Av. San Fernando    
                                       : y calle Ignacio Allende.               
                                       :                                        
                                       : 
COORDENADAS DE LA ESTACION             : 19.2922 LAT. N
                                       : 99.1708 LONG. W
ALTITUD (msnm)                         : 2265
TIPO DE SUELO                          : Terreno firme, materiales compactos 
                                       : (limos, arenas, gravas)   
                                       : 
INSTITUCION RESPONSABLE                : CIRES, A. C.
                                       : 

================================================================================
DATOS DEL ACELEROGRAFO:
MODELO DEL ACELEROGRAFO                : RAD_IO14
NUMERO DE SERIE DEL ACELEROGRAFO       : 
NUMERO DE CANALES                      : 3
ORIENTACION C1-C6 (rumbo;orientacion)  : /S00E/+V/N90W
ORIENTACION C7-C12 (rumbo;orientacion) : 
VEL. DE MUESTREO, C1-C6 (muestras/s)   : /100/100/100
VEL. DE MUESTREO, C7-C12 (muestras/s)  : 
ESC. COMPLETA DE SENSORES, C1-C6, (g)  : /2.0/2.0/2.0
ESC. COMPLETA DE SENSORES, C7-C12, (g) : 
FREC. NAT. DE SENSORES, C1-C6, (Hz)    : /51.83/50.37/51.83
FREC. NAT. DE SENSORES, C7-C12, (Hz)   : 
AMORTIGUAMIENTO DE SENSORES, C1-C6     : /0.5881/0.5605/0.5912
AMORTIGUAMIENTO DE SENSORES, C7-C12    : 
INTERVALO DE MUESTREO, C1-C6, (s)      : /0.01/0.01/0.01
INTERVALO DE MUESTREO, C7-C12, (s)     : 
UMBRAL DE DISPARO, C1-C6, (Gal)        : / / /
UMBRAL DE DISPARO, C7-C12, (Gal)       : 
MEMORIA DE PREEVENTO (s)               : 60
TIEMPO DE POSEVENTO (s)                : 90


================================================================================
DATOS DEL SISMO:
FECHA DEL SISMO (GMT)                  : 08/SEP/21
HORA EPICENTRO (GMT)                   : 01:47:46.0
MAGNITUD(ES)                           : /Mc=7.1
COORDENADAS DEL EPICENTRO              : 16.78 LAT. N
                                       : 99.93 LONG. W
PROFUNDIDAD FOCAL (km)                 : 10
FUENTE DE LOS DATOS EPICENTRALES       : SSN
                                       : INSTITUTO DE GEOFISICA, UNAM

================================================================================
DATOS DE ESTE REGISTRO:
HORA DE LA PRIMERA MUESTRA (GMT)       : 20:54:01.00
EXACTITUD DEL TIEMPO (s)               : 
DURACION DEL REGISTRO (s), C1-C6       : /657.53/657.53/657.53
DURACION DEL REGISTRO (s), C7-C12      : 
NUM. TOTAL DE MUESTRAS, C1-C6          : /65753/65753/65753
NUM. TOTAL DE MUESTRAS, C7-C12         : 
ACEL. MAX. (Gal), C1-C6                : /24.04231/7.54364/15.86821
ACEL. MAX., C1-C6, EN LA MUESTRA       : /13079/9320/13364
ACEL. MAX. (Gal), C7-C12               : 
ACEL. MAX., C7-C12, EN LA MUESTRA      : 
UNIDADES DE LOS DATOS                  : Gal (cm/s/s)
FACTOR DE DECIMACION                   : 1
FORMATO DATOS (FORTRAN,10 campos/dato) : 3F10.5


================================================================================
CALIDAD DEL ACELEROGRAMA:
REGISTRO DIGITAL COMPLETO CON TIEMPO ABSOLUTO CORRECTO.


================================================================================
COMENTARIOS:














================================================================================
DATOS DE ACELERACION:
---------+---------+---------+---------+---------+---------+---------+---------+
   CANAL-1   CANAL-2   CANAL-3   CANAL-4   CANAL-5   CANAL-6   CANAL-7   CANAL-8
      N00E        +V      N90W
---------+---------+---------+---------+---------+---------+---------+---------+
[...]
   2.25769   1.31194  -1.22681
   2.01289   1.94014  -0.96431
   1.51839   2.54734  -0.65991
   1.38129   2.99634  -1.03861
   1.08459   3.05124  -1.68861
   0.79489   2.95984  -2.25751
   0.85689   2.83524  -2.99421
   1.10849   2.76834  -3.70501
   1.47039   2.49734  -3.92031
   1.74679   2.54904  -4.10291
   1.81509   2.19174  -4.40411
   1.97049   1.77444  -4.04401
   1.96629   1.41104  -3.55581
   1.83259   0.96754  -2.71641
   1.51979   0.37954  -2.10431
   1.23919  -0.08016  -1.66711
   0.82159  -0.43816  -1.38071
   0.36099  -0.91066  -1.39331
  -0.01291  -1.33856  -1.35151
  -0.59061  -1.67336  -1.53221
  -0.95491  -1.71356  -1.76271
  -1.26791  -1.66006  -2.11671
  -1.18541  -1.37146  -2.74261
  -1.22051  -1.09096  -3.37881
  -1.22521  -0.66726  -3.89111
  -1.27921  -0.39346  -4.35431
  -1.32781   0.03904  -4.51191
  -1.37271   0.25044  -4.35501
  -1.35661   0.33624  -4.03981
  -1.35021   0.23644  -3.75241
  -1.53591   0.38234  -3.38491
  -1.88291   0.23404  -3.26051
  -2.41881   0.16934  -3.38141
  -2.91631   0.19664  -3.72791
  -3.62611   0.36854  -3.62851
  -4.13871   0.70844  -3.70031
  -4.54411   1.18454  -3.35261
  -4.88031   1.80014  -2.79711
  -4.91471   2.22234  -2.23551
  -4.88291   2.56844  -1.25651
  -4.82281   3.09914  -0.25191
  -4.27431   3.62684   0.86129
  -3.83521   4.00844   1.57039
  -3.44491   4.28574   2.27979
  -3.06501   4.24484   2.86039
  -3.02311   3.84974   3.11049
  -3.10121   3.56864   3.23869
  -3.30371   2.72274   3.39599
  -3.58921   2.01664   3.05439
  -3.45291   1.37104   2.83699
  -3.53431   1.02694   2.26949
  -3.42411   0.45474   1.81269
  -3.12911   0.09454   1.31299
  -3.21511  -0.20856   0.83909
  -3.10261  -0.63596   0.77289
  -3.17651  -0.68386   0.62139
  -3.23331  -0.60976   0.82929
  -3.48941  -0.70696   0.72639
  -3.80591  -0.71966   0.87279
  -4.38581  -0.28966   0.51919
  -5.15241  -0.00866   0.02399
  -6.30981   0.26354  -0.49011
  -7.08651   0.48404  -0.98061
  -8.33601   0.62944  -1.20671
  -9.28991   0.91564  -1.23251
  -9.96241   1.28664  -1.54971
 -10.58171   1.25464  -1.68931
 -11.09141   1.43634  -1.66431
 -11.40291   1.64374  -1.48731
 -11.32871   1.77464  -1.60561
 -11.06781   2.08604  -1.20111
 -10.84191   2.20694  -0.69491
 -10.55201   2.31824  -0.34471
 -10.04891   2.30774  -0.08351
  -9.65841   2.42604   0.41119
  -9.34651   2.24574   0.88659
  -8.94621   1.81364   1.12109
  -8.45101   1.55044   1.29969
  -7.91441   0.89784   1.95599
  -7.35941   0.54554   2.37679
  -6.46011  -0.06706   2.98049
  -5.48121  -0.40006   3.81059
  -4.02341  -0.70606   4.76119
  -2.47371  -0.87866   5.86969
  -0.92101  -1.19566   7.18559
   0.48869  -1.47836   8.49139
   1.74229  -1.51226   9.29129
   2.49799  -1.64646   9.75749
   3.32449  -1.55826   9.54189
   3.99249  -1.51366   8.94099
   4.35019  -1.62776   7.92399
   4.39609  -1.44936   6.74929
   4.45079  -1.69556   5.85009
   3.81899  -1.77856   4.76889
   3.01799  -1.87866   4.04409
   2.12059  -1.91066   3.25459
   1.30349  -1.74556   2.46619
   0.27429  -1.42336   1.33379
  -0.44121  -1.19706   0.72799
  -1.14991  -0.92186  -0.13361
  -1.75051  -0.77646  -0.85531
  -2.43611  -0.80096  -1.43911
  -3.14381  -1.05186  -2.02581
  -3.86671  -1.09466  -2.48711
  -4.90601  -1.34176  -2.79101
  -5.98151  -1.56016  -2.93901
  -7.33971  -1.87396  -3.45061
  -8.90581  -2.15216  -4.19271
 -10.26511  -2.18816  -5.30521
 -11.37411  -2.18186  -6.54761
 -12.16201  -2.10966  -7.70851
 -12.20151  -2.01866  -8.73511
 -11.88711  -2.02966  -9.72211
 -11.18541  -1.94016 -10.63621
  -9.79731  -1.79636 -11.23011
  -8.33321  -1.36306 -11.45641
  -6.86531  -1.12856 -11.48101
  -5.67431  -0.75866 -11.23081
  -5.16111  -0.14796 -10.56031
  -5.02031   0.44004 -10.20161
  -5.23241   0.90044 -10.06321
  -5.91511   1.25744  -9.73841
  -6.93971   1.64834  -9.40831
  -7.57731   1.98784  -8.52731
  -7.93341   2.29904  -7.68841
  -7.87371   2.39914  -6.87221
  -7.37971   2.42444  -5.61361
  -6.82861   2.38274  -4.60441
  -5.85181   2.39334  -3.41371
  -4.93801   2.24344  -2.17281
  -4.12351   2.40244  -1.23411
  -3.48561   2.43324  -0.32321
  -2.98741   2.70634   0.25009
  -2.60721   3.01804   0.58279
  -2.39911   3.44704   0.66259
  -1.84291   3.99464   0.56689
  -1.41881   4.38344   0.27139
  -0.68441   4.79004   0.26859
   0.28899   5.15454   0.22089
   1.43789   5.32014   0.07079
   2.60719   4.92454  -0.44621
   4.03859   4.51744  -0.84111
   5.38949   3.72834  -1.41271
   6.76759   2.69254  -1.66941
   7.81529   1.70334  -1.91941
   8.77529   0.72364  -1.97761
   9.92309  -0.31516  -1.95631
  11.04469  -1.55856  -2.36921
  11.99179  -2.52626  -2.39821
  13.12489  -3.51056  -2.19291
  14.35049  -4.52626  -2.19081
  15.47629  -5.07176  -2.24631
  16.17539  -5.33056  -2.28391
  16.44589  -5.39186  -2.31201
  16.30649  -5.50686  -2.09751
  15.49819  -5.09956  -1.71901
  14.33879  -4.93896  -1.10041
  12.31029  -4.60316  -0.55511
  10.30349  -3.99346  -0.27171
   8.22489  -3.39696  -0.21051
   6.06939  -2.76706  -0.12931
   3.84329  -2.16056  -0.27171
   1.90249  -1.68946  -0.47141
   0.28409  -1.21506  -0.53171
  -1.36241  -0.76666  -0.46911
  -2.42651  -0.52936  -0.53761
  -3.66331  -0.22556  -0.56911
  -4.70891   0.02524  -0.50861
  -5.57561   0.04634  -0.40591
  -6.45691   0.01804  -0.44991
  -7.03131  -0.37686  -0.19041
  -7.45221  -1.00366  -0.08611
  -7.43111  -1.21506   0.28919
  -7.21811  -1.73576   0.81549
  -6.88331  -2.04086   1.63309
  -6.19271  -2.28526   2.48999
  -5.13331  -2.61516   3.35389
  -4.02551  -2.72386   4.10309
  -2.88011  -2.82576   4.68799
  -1.93641  -2.89476   4.58209
  -0.97551  -2.47576   4.03919
  -0.13471  -2.36796   3.32799
   0.18189  -2.37526   1.90149
   0.48119  -2.22186   0.32539
   0.89149  -2.40306  -1.32711
   1.03879  -2.65676  -2.34961
   1.10639  -3.10166  -3.05431
   1.23749  -3.53566  -3.41091
   1.25739  -3.81856  -3.17521
   1.41549  -3.79236  -2.90511
   1.63919  -3.40816  -2.64911
   1.71009  -3.16756  -2.24021
   1.62919  -2.75446  -2.16891
   1.78329  -2.52486  -2.06581
   2.02239  -2.29436  -2.42351
   1.99859  -1.83206  -3.03211
   2.48559  -1.35026  -3.87751
   2.84029  -0.97936  -4.59141
   3.43539  -0.63776  -4.73631
   4.45479  -0.40956  -4.56561
   5.75709  -0.41826  -3.93621
   7.24409  -0.40376  -3.00381
   8.72479  -0.76916  -1.72461
  10.01009  -0.82766  -0.59511
  11.26999  -1.24196   0.32259
  12.27449  -1.70486   1.46779
  13.09909  -2.08386   2.32769
  13.71329  -2.63356   3.08859
  13.87299  -3.04816   3.31959
  13.87799  -3.40796   3.42809
  13.59009  -3.90036   3.19749
  13.33739  -4.14706   2.50379
  12.80079  -4.76286   2.06959
  12.23449  -5.34976   2.04689
  11.83419  -5.69226   1.87249
  11.72079  -5.88496   2.23539
  11.88449  -5.59716   2.74439
  11.78469  -5.17626   3.16269
  11.54269  -4.37406   3.92819
  11.05279  -3.62326   4.07269
   9.85549  -2.76736   3.85989
   8.11149  -1.99526   3.78929
   6.19029  -1.43576   3.03149
   3.95859  -0.60666   1.95739
   1.60439   0.19454   1.18019
  -0.60881   0.71384   0.41709
  -2.35051   1.23544  -0.02441
  -4.10311   1.46784  -0.07911
  -5.13091   1.66004   0.21009
  -5.93621   1.58664   0.73499
  -6.16271   1.73724   1.71699
  -5.99911   1.56564   2.83299
  -5.88871   1.37414   4.29079
  -5.48451   1.38904   5.39179
  -5.13351   1.43564   6.44929
  -4.88311   1.16324   7.03879
  -4.18561   1.16134   7.33029
  -3.26121   1.03904   7.60109
  -2.32171   0.86634   7.58309
  -1.11041   0.67714   7.96839
   0.27049   0.64114   8.05699
   1.67379   0.65214   8.52249
   3.14639   0.48754   8.96019
   4.70939   0.43464   9.55919
   6.39789   0.29234  10.10189
   7.86039   0.23084  10.08059
   8.90249   0.20504  10.16899
   9.92819  -0.21066   9.57679
  10.03299  -0.33076   8.87139
   9.86209  -0.66426   8.10209
   9.34489  -1.15006   7.25199
   8.76599  -1.40726   6.03919
   8.66749  -1.90086   4.92139
   8.44539  -1.79066   3.96319
   8.27029  -1.79516   3.08829
   8.16579  -1.86136   2.26879
   8.09979  -1.93946   1.75439
   7.93309  -1.95436   1.27089
   7.57469  -1.92496   1.11899
   7.00469  -1.86136   1.19119
   6.15009  -1.65716   0.92609
   5.01889  -1.22346   1.07099
   3.60089  -0.64906   0.86409
   2.39979   0.28154   0.86689
   1.43139   0.95674   0.83509
   0.47389   1.31824   1.00669
  -0.11991   1.68904   0.92279
  -0.41551   1.89064   1.12289
  -0.62871   1.82564   1.54889
  -0.64911   1.64654   1.88749
  -0.57891   1.60534   2.43899
  -0.21441   1.43394   3.12919
  -0.14221   1.33324   3.71589
   0.20899   1.18034   4.27349
   0.59999   1.10524   4.79819
   1.00399   1.06204   5.08739
   1.31119   0.79804   5.50079
   1.34909   0.56954   5.79349
   1.35279   0.19454   5.97489
   1.33479  -0.03436   5.81549
   1.43089  -0.76526   5.75139
   1.63529  -1.17766   5.56319
   1.90649  -1.39256   5.00299
   2.29229  -1.66586   4.67799
   3.09519  -1.65976   4.29409
   3.74559  -1.30676   3.97699
   4.44379  -0.67516   3.80749
   5.38809   0.35804   3.50309
   5.64059   1.40404   3.33619
   5.65719   2.22614   2.86479
   5.37569   3.09634   2.67569
   4.74769   3.76154   2.14069
   3.79989   4.00844   1.46079
   3.30819   4.13194   1.09599
   2.84169   4.19994   0.62489
   2.44539   4.02014   0.11569
   2.14029   3.73464  -0.53801
   1.72389   3.80644  -1.32691
   1.57309   3.59364  -2.15861
   1.37849   3.55294  -2.87591
   1.13559   3.60954  -3.81581
   0.99349   3.34304  -4.64491
   1.27239   3.39794  -5.55021
   1.07339   3.59414  -6.65751
   1.24179   3.75544  -7.64051
   0.77179   3.94434  -8.42961
   0.59359   4.20294  -9.12631
  -0.02621   4.21724  -9.66521
  -0.96141   4.43114 -10.25401
  -1.86321   4.49524 -10.52281
  -2.89341   4.34724 -10.53831
  -4.02811   4.21184 -10.68791
  -5.21161   3.90094 -10.53831
  -6.00001   3.50854 -10.37301
  -7.10921   3.33694  -9.94091
  -8.12231   3.05824  -9.31571
  -9.51061   2.95844  -8.70551
 -10.89781   2.98834  -8.02811
 -12.38951   2.83024  -7.56521
 -13.72931   2.61564  -6.89321
 -15.07061   2.55834  -6.22971
 -15.93061   2.33434  -5.49341
 -16.73001   2.11784  -4.71501
 -17.38391   1.91354  -4.09751
 -17.76151   1.33814  -3.46301
 -18.26891   0.76174  -2.94601
 -18.68671   0.10824  -2.37861
 -19.38111  -0.44886  -1.54481
 -20.12231  -1.00676  -0.61431
 -21.00821  -1.38136   0.12459
 -21.94761  -1.88916   1.04759
 -22.60631  -2.28826   1.80729
 -23.43911  -2.51086   2.28009
 -23.83281  -2.82066   3.00859
 -24.04231  -2.92066   3.49449
 -23.81791  -2.81016   4.18979
 -23.24921  -2.59356   4.43509
 -22.28641  -2.20756   4.55729
 -20.43181  -1.77486   4.41449
 -18.26331  -1.30156   4.14489
 -15.82701  -0.79726   3.56669
 -13.55951  -0.18606   2.98379
 -11.56681   0.28804   2.10979
  -9.56231   0.52234   1.36449
  -7.87331   1.17774   0.42619
  -6.34881   1.68904  -0.25911
  -5.25791   2.37674  -1.09751
  -3.96871   3.17304  -1.49921
  -2.71081   3.78144  -1.71271
  -1.77531   4.16024  -1.74961
  -0.78401   4.03904  -1.32481
   0.23259   3.79194  -0.87731
   1.66729   3.41574  -0.20111
   2.89759   3.10264   0.26129
   4.05769   2.89224   0.91129
   5.15169   2.62994   1.20309
   6.18889   2.52844   1.26509
   6.99579   2.50924   1.27329
   7.67659   2.66494   1.28189
   7.88259   2.89084   1.15219
   7.94319   3.17374   1.01349
   7.64599   3.72274   0.91879
   7.21489   4.03274   1.11149
   6.48489   4.24154   1.31839
   5.45779   4.45104   1.58069
   4.38339   4.63974   1.80819
   2.94269   4.61054   1.75049
   1.53029   4.53994   1.62909
   0.35519   4.42864   1.25149
  -0.91091   4.41034   0.56999
  -2.06481   4.15014  -0.15721
  -3.10291   3.82254  -0.98061
  -3.77341   3.47674  -1.49601
  -4.09471   2.85834  -1.97181
  -4.19221   2.46204  -1.85181
  -4.24831   2.28244  -1.53241
  -3.79641   2.29724  -0.95171
  -3.06641   2.24434  -0.30451
  -2.36731   2.15314   0.09349
  -1.42481   1.94484   0.60459
  -0.31751   1.70314   0.72639
   0.50549   1.24884   0.99759
   1.64909   0.53144   1.26459
   2.43979   0.18314   1.41239
   3.10639  -0.24826   1.68989
   3.71359  -0.51386   1.55269
   3.80449  -0.91296   1.68569
   4.18399  -1.49726   1.55899
   4.19339  -1.84336   1.49729
   3.90669  -2.20876   1.54239
   3.37739  -2.58966   1.33199
   2.74539  -2.80236   0.78109
   1.93169  -2.76756  -0.28811
   1.07759  -2.90406  -1.32951
   0.10239  -2.78956  -2.73301
  -0.64481  -3.03226  -3.79151
  -1.47041  -3.18606  -4.54551
  -2.64271  -2.95506  -5.01311
  -3.39051  -2.67916  -5.12701
  -4.01871  -2.39256  -5.00821
  -4.58171  -1.99576  -4.65821
  -5.04401  -1.39606  -4.13471
  -5.62431  -0.87606  -3.69031
  -6.45591  -0.37196  -3.27481
  -7.01681   0.50504  -3.13501
  -7.55721   1.05194  -3.46001
  -8.05051   1.63714  -3.91071
  -8.32061   2.05354  -4.66761
  -8.38981   2.18524  -5.60911
  -8.04051   2.16114  -6.16861
  -7.65541   1.87824  -6.57711
  -6.57261   1.46434  -6.68461
  -5.39771   0.92754  -6.71781
  -3.73021   0.51934  -6.52611
  -2.13911   0.14874  -6.50791
  -0.15601  -0.08696  -6.53971
   1.72129  -0.54406  -6.78101
   3.69109  -0.97006  -7.01991
   5.56859  -1.51736  -7.37981
   7.27679  -2.16576  -7.64071
   8.69979  -2.52576  -7.39521
   9.47559  -3.00976  -6.95561
  10.17249  -3.22516  -6.29961
  10.37289  -3.30296  -5.61961
  10.28639  -3.61376  -4.90401
  10.02479  -4.09346  -4.16511
   9.60159  -4.21136  -3.43801
   9.28029  -4.31706  -2.29281
   8.85739  -3.98266  -1.63041
   8.95579  -3.63616  -1.22541
   9.02569  -3.19586  -0.77541
   8.97239  -2.70136  -0.69611
   8.60859  -2.25506  -0.61781
   7.93099  -2.18326  -0.25891
   7.04189  -2.09066   0.13699
   5.76459  -1.98076   0.43089
   4.35419  -2.01076   1.14679
   2.73579  -2.26046   1.45189
   1.47839  -2.59786   1.94799
   0.56929  -2.79256   2.26529
  -0.13511  -3.25926   2.52039
  -0.38441  -3.64526   2.60669
  -0.69441  -4.02986   2.87369
  -0.93661  -4.16086   2.93709
  -1.30071  -4.14356   2.93569
  -1.60631  -3.82466   2.78769
  -1.99461  -3.52816   2.67049
  -2.55761  -3.14606   2.65929
  -3.14871  -2.70796   2.74979
  -3.70401  -2.07966   3.30249
  -4.14611  -1.69136   3.86389
  -4.45311  -1.05446   4.41079
  -4.38951  -0.65256   4.85849
  -4.31261  -0.33386   5.15589
  -3.85551  -0.32126   5.21599
  -3.10971  -0.24266   5.30179
  -1.99951  -0.32356   5.30999
  -0.75261  -0.36076   5.39949
   0.72039  -0.62236   5.22229
   1.98319  -0.66796   5.18159
   3.32379  -0.56156   5.01909
   4.75079  -0.55406   4.88259
   5.81059  -0.42476   4.61649
   6.81579  -0.41356   4.25179
   8.04959  -0.79286   3.74719
   9.12089  -1.05776   3.30789
  10.55949  -1.45266   2.51079
  11.60949  -1.81036   1.74859
  13.10709  -2.13796   1.18489
  14.18799  -2.39816   0.62049
  15.16719  -2.44116   0.19449
  16.01519  -2.68246   0.14139
  16.58689  -2.47486   0.04369
  17.16439  -2.51276  -0.24201
  17.39859  -2.86316  -0.43351
  17.46999  -2.75356  -1.10361
  17.01589  -2.77106  -1.56171
  16.11409  -2.56836  -2.02651
