********************************************************************************
              CENTRO DE INSTRUMENTACION Y REGISTRO SISMICO  A.C.

    Anaxagoras 814, Col. Narvarte, Benito Juarez, C.P. 03020 Mexico, D.F.
           Tels. 5687 45 42/ 5687 45  82             Fax. 5669 25 12
********************************************************************************
ARCHIVO ESTANDAR DE ACELERACION:
VERSION DEL FORMATO                    : 2.0
NOMBRE DEL ARCHIVO                     : UC4420210908014746
FECHA Y HORA DE CREACION               : 07/SEP/21, 23:38
REF. CATALOGO ACELEROGRAMAS, SMIS 1996 : REGISTRO No.     /PAG.


================================================================================
DATOS DE LA ESTACION:
NOMBRE DE LA ESTACION                  : UNIDAD COLONIA IMSS
CLAVE DE LA ESTACION                   : UC44
LOCALIZACION DE LA ESTACION            : Del. Cuauhtémoc, Col. San Rafael,      
                                       : Calle Villalongin y Río Neva.          
                                       :                                        
                                       :                                        
                                       : 
COORDENADAS DE LA ESTACION             : 19.4337 LAT. N
                                       : 99.1654 LONG. W
ALTITUD (msnm)                         : 2234
TIPO DE SUELO                          : Alto riesgo sísmico                 
                                       :                           
                                       : 
INSTITUCION RESPONSABLE                : CIRES, A. C.
                                       : 

================================================================================
DATOS DEL ACELEROGRAFO:
MODELO DEL ACELEROGRAFO                : RAD_IO14
NUMERO DE SERIE DEL ACELEROGRAFO       : 
NUMERO DE CANALES                      : 3
ORIENTACION C1-C6 (rumbo;orientacion)  : /N00E/+V/N90W
ORIENTACION C7-C12 (rumbo;orientacion) : 
VEL. DE MUESTREO, C1-C6 (muestras/s)   : /100/100/100
VEL. DE MUESTREO, C7-C12 (muestras/s)  : 
ESC. COMPLETA DE SENSORES, C1-C6, (g)  : /2.0/2.0/2.0
ESC. COMPLETA DE SENSORES, C7-C12, (g) : 
FREC. NAT. DE SENSORES, C1-C6, (Hz)    : /30/30/32
FREC. NAT. DE SENSORES, C7-C12, (Hz)   : 
AMORTIGUAMIENTO DE SENSORES, C1-C6     : /0.747/0.777/0.759
AMORTIGUAMIENTO DE SENSORES, C7-C12    : 
INTERVALO DE MUESTREO, C1-C6, (s)      : /0.01/0.01/0.01
INTERVALO DE MUESTREO, C7-C12, (s)     : 
UMBRAL DE DISPARO, C1-C6, (Gal)        : / / /
UMBRAL DE DISPARO, C7-C12, (Gal)       : 
MEMORIA DE PREEVENTO (s)               : 60
TIEMPO DE POSEVENTO (s)                : 90


================================================================================
DATOS DEL SISMO:
FECHA DEL SISMO (GMT)                  : 08/SEP/21
HORA EPICENTRO (GMT)                   : 01:47:46.0
MAGNITUD(ES)                           : /Mc=7.1
COORDENADAS DEL EPICENTRO              : 16.78 LAT. N
                                       : 99.93 LONG. W
PROFUNDIDAD FOCAL (km)                 : 10
FUENTE DE LOS DATOS EPICENTRALES       : SSN
                                       : INSTITUTO DE GEOFISICA, UNAM

================================================================================
DATOS DE ESTE REGISTRO:
HORA DE LA PRIMERA MUESTRA (GMT)       : 20:55:00.00
EXACTITUD DEL TIEMPO (s)               : 
DURACION DEL REGISTRO (s), C1-C6       : /599.14/599.14/599.14
DURACION DEL REGISTRO (s), C7-C12      : 
NUM. TOTAL DE MUESTRAS, C1-C6          : /59914/59914/59914
NUM. TOTAL DE MUESTRAS, C7-C12         : 
ACEL. MAX. (Gal), C1-C6                : /36.00961/12.2936/39.64608
ACEL. MAX., C1-C6, EN LA MUESTRA       : /8420/7967/7625
ACEL. MAX. (Gal), C7-C12               : 
ACEL. MAX., C7-C12, EN LA MUESTRA      : 
UNIDADES DE LOS DATOS                  : Gal (cm/s/s)
FACTOR DE DECIMACION                   : 1
FORMATO DATOS (FORTRAN,10 campos/dato) : 3F10.5


================================================================================
CALIDAD DEL ACELEROGRAMA:
REGISTRO DIGITAL COMPLETO CON TIEMPO ABSOLUTO CORRECTO.


================================================================================
COMENTARIOS:














================================================================================
DATOS DE ACELERACION:
---------+---------+---------+---------+---------+---------+---------+---------+
   CANAL-1   CANAL-2   CANAL-3   CANAL-4   CANAL-5   CANAL-6   CANAL-7   CANAL-8
      N00E        +V      N90W
---------+---------+---------+---------+---------+---------+---------+---------+
[...]
   2.98449   4.99740   3.09342
   3.18749   5.04970   2.22762
   3.38579   4.73180   1.84862
   3.22439   4.51340   1.82852
   3.14959   3.99970   1.77832
   2.90859   3.71400   1.97932
   2.85499   2.90530   2.31982
   2.74189   2.28470   2.73972
   2.77249   1.43270   3.05672
   2.73019   0.69720   3.47412
   2.40609   0.19490   3.71442
   2.12199  -0.57430   3.94592
   1.76129  -0.76760   4.23252
   1.21509  -1.09620   4.40812
   0.73829  -1.24320   4.45512
   0.28189  -1.10900   4.77192
  -0.15321  -0.85650   4.72242
  -0.58921  -0.71430   5.05652
  -1.03421  -0.29280   5.34412
  -1.22991  -0.24300   5.66022
  -1.56051  -0.09220   6.11872
  -1.89831   0.33290   6.29642
  -2.16071   0.51430   6.48302
  -2.31291   0.85260   6.44112
  -2.43281   0.99830   6.23162
  -2.21491   1.15990   5.82312
  -2.18941   1.47500   5.05862
  -1.90181   1.38410   4.21882
  -1.80901   1.51200   2.97612
  -1.26561   1.54280   1.79022
  -0.79101   1.53890   0.47662
  -0.39611   1.28890  -1.22948
  -0.06341   1.18490  -2.83218
   0.11709   0.93280  -4.24488
   0.43299   0.90150  -5.65268
   0.60829   0.68730  -7.03238
   0.75099   0.45660  -8.03838
   1.07899   0.27090  -9.24608
   1.39859   0.15610 -10.26688
   1.72289   0.38920 -10.97268
   2.37379   0.48560 -11.71388
   3.12039   1.05860 -12.39098
   4.14819   1.56790 -12.98628
   4.99299   1.82670 -13.42868
   6.53329   2.01700 -13.73538
   7.78669   2.30970 -13.83128
   8.87509   2.46340 -13.79568
  10.10399   2.73830 -13.57988
  10.86249   2.89430 -13.02838
  11.58359   3.01560 -12.19348
  12.08719   2.79750 -11.02388
  12.26279   2.33030 -10.09548
  12.43419   2.05560  -8.41698
  12.21319   1.51710  -6.81768
  11.80289   1.05630  -5.20818
  11.00349   0.61560  -3.43468
  10.30599   0.35020  -1.88478
   9.10219  -0.04520  -0.69238
   8.09959  -0.13730   0.73032
   6.99829  -0.27810   1.73202
   5.91859  -0.08680   2.83792
   4.93009   0.33760   3.71352
   3.90689   0.87210   4.45332
   3.26649   1.20640   5.27232
   2.50449   1.39340   5.99132
   1.96229   1.57960   6.40742
   1.49419   1.76960   6.58562
   1.14609   1.72920   6.88842
   0.88769   1.56600   6.71282
   0.55879   1.26370   6.57252
   0.17909   0.87670   6.25362
   0.23869   0.41470   6.21102
  -0.10521   0.08620   6.11772
  -0.48031  -0.46980   5.91782
  -0.93011  -0.81210   5.96462
  -1.39541  -1.11490   5.91062
  -1.73091  -1.69120   6.03592
  -2.13841  -2.16160   6.04622
  -2.24371  -2.41200   6.31322
  -2.25911  -2.66100   6.45702
  -2.44291  -2.79920   6.38662
  -2.56771  -2.49810   6.30902
  -2.92011  -2.29540   6.14932
  -3.42371  -2.04630   5.85212
  -3.95611  -1.77470   5.44132
  -4.47581  -1.60420   5.24872
  -5.37671  -1.29400   4.85352
  -5.98531  -1.12750   4.69532
  -6.73861  -1.03050   4.75442
  -7.34371  -0.78260   4.98542
  -7.93621  -0.37880   5.23212
  -8.52211  -0.34870   5.43062
  -8.98621  -0.27310   5.55502
  -9.63321   0.11400   5.30062
 -10.17651   0.64010   5.26132
 -10.55041   0.83350   4.68312
 -10.98091   1.17340   3.87112
 -11.26541   1.52950   3.11052
 -11.78331   1.57390   1.83092
 -12.39101   1.85190   0.85892
 -12.91911   2.13840  -0.57528
 -13.79291   2.22980  -1.83148
 -14.70381   2.26300  -2.87968
 -15.89011   2.34390  -3.94908
 -17.15081   2.46310  -4.95238
 -18.41111   2.63170  -5.76318
 -19.85041   2.62840  -6.67628
 -21.13121   2.55590  -7.62368
 -22.53831   2.46870  -8.56918
 -23.68981   2.62400  -9.31338
 -24.41221   2.75000 -10.31218
 -25.12231   2.81290 -10.97688
 -25.29141   2.84960 -11.52498
 -25.21791   2.85660 -11.94628
 -24.70871   2.78810 -12.16118
 -23.87661   2.47690 -12.04258
 -22.30561   2.29130 -11.87338
 -20.85481   2.00110 -11.37908
 -19.29061   1.41290 -10.99568
 -17.57801   0.75560 -10.37488
 -15.95861   0.20590  -9.62688
 -14.18921  -0.27520  -8.96548
 -12.73281  -0.76410  -8.16518
 -11.45761  -1.37300  -7.56328
 -10.18921  -1.87750  -6.88878
  -9.23031  -2.41460  -6.14648
  -8.41501  -2.67160  -5.41808
  -7.57711  -2.81040  -4.89388
  -6.50391  -2.72350  -4.57318
  -5.22991  -2.64330  -4.32598
  -4.07341  -2.28950  -4.16448
  -2.39751  -2.00360  -4.07298
  -0.90981  -1.64420  -3.97478
   0.66799  -1.37370  -3.93318
   2.25319  -0.95870  -4.01158
   3.83979  -0.75150  -4.01058
   5.24829  -0.57220  -3.69028
   6.36469  -0.21020  -3.53878
   7.16149  -0.21450  -3.18548
   8.12969  -0.03470  -2.36788
   8.77899  -0.06810  -1.50248
   9.17229  -0.30170  -0.40548
   9.78649  -0.42040   0.69552
  10.01519  -0.40310   1.84402
  10.59739  -0.60160   2.58372
  11.28219  -0.34520   3.39292
  11.87579  -0.53130   3.92792
  12.69579  -0.54160   4.45212
  13.71149  -0.59250   5.17812
  14.37899  -0.79800   6.04602
  14.98619  -0.95120   7.12662
  15.32329  -1.29180   8.18812
  15.39599  -1.53310   9.54682
  15.10429  -2.06600  10.82782
  14.14279  -2.66690  11.82992
  13.44369  -3.29070  12.87042
  12.21039  -4.12120  13.70202
  10.91349  -5.00260  14.19262
   9.51929  -6.00990  14.37702
   8.26389  -6.50320  14.24122
   7.05229  -7.14850  13.71512
   5.94669  -7.59210  12.68852
   4.87929  -7.82680  11.50312
   3.63149  -7.83380   9.85802
   2.51269  -7.85700   8.04972
   1.51269  -7.61450   5.79232
   0.65509  -7.35360   3.62182
  -0.49691  -6.94040   1.53722
  -1.51421  -6.44060  -0.54458
  -2.61451  -5.96190  -2.66618
  -3.59621  -5.20950  -4.67808
  -4.58671  -4.66270  -6.28998
  -5.28151  -4.03650  -7.97618
  -5.77741  -3.54810  -9.30658
  -6.24721  -2.62690 -10.73748
  -6.56191  -2.22220 -12.15718
  -6.48771  -1.67110 -13.29188
  -6.65961  -1.45220 -14.71088
  -6.23691  -1.23970 -16.15558
  -5.90371  -0.86610 -17.39848
  -5.29021  -0.46670 -18.53758
  -4.30511  -0.03330 -19.79598
  -3.61941   0.67070 -20.75898
  -2.77111   1.13770 -21.64418
  -2.34261   1.51270 -21.76558
  -1.85551   1.97520 -21.77728
  -1.66121   2.53330 -21.54158
  -1.63201   2.85400 -20.77728
  -1.70571   3.29450 -19.56868
  -2.02411   3.74630 -18.16208
  -2.56561   4.25970 -16.68398
  -3.23501   4.60290 -14.80278
  -3.82511   5.00950 -12.76388
  -4.13381   5.09250 -10.51868
  -4.18941   4.84170  -8.44128
  -4.34681   4.35580  -5.87938
  -4.03181   3.98170  -3.71668
  -3.83571   3.21760  -1.23648
  -3.69491   2.58910   1.07802
  -3.73091   1.61090   3.44442
  -4.05571   0.72800   5.79772
  -4.47351  -0.33440   8.16902
  -5.10831  -1.35170  10.41022
  -5.70261  -2.25050  12.42682
  -6.35421  -3.11600  14.61512
  -6.94601  -3.61540  16.68852
  -7.25701  -3.85210  18.75022
  -7.08121  -4.30310  20.62022
  -6.59481  -4.50580  22.32562
  -5.82541  -4.44360  23.75492
  -4.75201  -4.29230  24.79812
  -3.14691  -4.18850  25.64622
  -1.69611  -3.96970  25.90762
  -0.26631  -3.63370  25.64762
   0.97189  -3.30140  24.99382
   2.16549  -2.80670  24.16012
   3.20619  -2.18270  23.21482
   3.90789  -1.79520  22.01702
   4.77219  -1.65190  21.16902
   5.28219  -1.41620  19.95482
   5.86689  -1.03580  18.63982
   6.51179  -1.10880  17.23982
   7.27329  -1.03420  15.95342
   8.06729  -1.39330  14.76382
   8.74579  -1.74540  13.50522
   9.45189  -1.92340  12.32822
  10.33269  -2.16110  11.17482
  10.97309  -2.51720   9.74462
  11.42129  -2.75100   8.21062
  11.78629  -2.81090   6.63472
  11.93309  -2.83520   4.97372
  11.63919  -2.93080   2.77762
  11.23659  -3.05500   0.58022
  10.42829  -2.81320  -1.47798
   9.20549  -2.42580  -3.63698
   7.82299  -1.62410  -5.48098
   6.58569  -0.60680  -7.07538
   5.08459   0.69580  -8.46978
   3.86199   1.76310  -9.53568
   3.09629   2.89100 -10.50158
   2.52529   4.03130 -11.13618
   2.37129   4.94100 -11.62808
   2.29269   5.64100 -12.18568
   2.26749   5.88350 -12.62648
   2.39489   5.96160 -12.81658
   2.48539   5.54280 -12.59208
   2.47949   4.88470 -12.17448
   2.51079   4.22020 -11.77768
   2.31539   3.17790 -11.16818
   1.98689   2.28610 -10.61658
   1.71049   1.24360  -9.97108
   1.21369   0.27350  -9.20608
   1.18559  -0.59320  -8.45178
   1.01209  -1.40200  -7.72698
   0.92049  -1.95980  -6.96988
   1.03039  -2.62740  -6.08638
   1.00699  -3.09170  -5.09758
   1.26489  -3.48220  -4.17468
   1.39839  -3.87330  -3.17658
   1.66049  -4.12050  -2.21658
   1.79909  -4.33880  -1.25658
   1.95019  -4.27310  -0.29448
   2.10569  -3.71690   0.56742
   1.93969  -3.24390   1.46242
   1.66139  -2.72250   2.17082
   0.94899  -1.92410   2.34762
   0.21579  -0.91520   2.14842
  -1.07181  -0.07810   1.70582
  -2.29161   1.18890   0.67422
  -3.54341   2.34150  -0.75808
  -4.83001   3.47710  -2.51028
  -6.02201   4.55100  -4.26708
  -7.06761   5.60200  -6.04288
  -7.93851   6.30950  -7.66898
  -8.42951   6.79960  -9.06248
  -8.66451   7.10260 -10.24558
  -8.63321   6.88140 -11.01688
  -8.61141   6.32190 -11.65968
  -8.29281   5.57320 -12.01928
  -7.88781   4.59800 -12.03728
  -7.48731   3.18490 -11.80488
  -6.94251   1.84980 -11.34188
  -6.56261   0.56340 -10.59418
  -6.10201  -0.65470  -9.67228
  -5.84801  -1.47470  -8.46648
  -5.80041  -2.10690  -7.25068
  -5.95211  -2.40270  -5.91758
  -6.15551  -2.41760  -4.27508
  -6.69331  -2.21980  -2.95238
  -7.22421  -1.82940  -1.04968
  -7.72021  -1.22380   0.71562
  -8.37271  -0.56420   2.55012
  -8.78751   0.09230   4.61532
  -9.27051   0.72520   6.80962
  -9.42791   1.39530   9.01392
  -9.50291   1.91410  11.17552
  -9.36801   2.78180  12.92882
  -9.01431   3.50780  14.52672
  -8.84801   3.74950  16.06122
  -8.41321   3.94870  17.22302
  -8.12391   4.27980  18.24752
  -7.72861   4.31470  18.64502
  -7.43141   4.10800  19.11772
  -7.04091   4.15190  19.05652
  -6.34561   3.75910  18.97842
  -5.76831   3.40490  18.58702
  -5.13611   2.66160  18.07332
  -4.37601   2.08410  17.36252
  -3.43281   1.39020  16.44442
  -2.65541   0.86640  15.31672
  -1.76971   0.34390  14.22932
  -0.79191  -0.08240  12.82782
   0.41899  -0.43980  11.33892
   1.55179  -0.73160   9.90222
   2.90549  -1.28320   7.93092
   4.35229  -1.62740   5.97072
   5.56559  -1.85070   3.75912
   6.83139  -2.07140   1.56672
   7.91999  -2.41060  -0.79528
   9.06049  -2.06670  -3.43028
  10.16109  -1.75100  -6.45438
  11.04789  -1.74050  -9.59608
  12.33759  -1.66170 -12.79078
  13.73409  -1.50770 -15.90558
  15.11549  -1.70080 -19.02888
  16.12479  -2.07740 -22.15228
  17.01679  -2.59740 -25.26148
  17.60689  -2.83940 -28.19278
  17.80169  -3.13610 -30.90958
  17.94429  -3.45430 -33.55188
  17.57139  -3.57220 -35.69468
  17.21929  -3.69660 -37.35758
  16.77289  -3.61540 -38.72258
  15.98289  -3.18380 -39.27128
  14.76589  -2.30770 -39.64608
  13.51409  -1.33390 -39.61098
  12.21019  -0.44310 -39.37538
  10.51339   0.68550 -38.68048
   8.97679   1.62470 -37.68908
   7.13999   2.49230 -36.42868
   5.46689   3.35490 -35.05668
   3.76379   3.66280 -33.35878
   2.09069   4.09880 -31.20768
   0.70979   4.32910 -28.94278
  -0.19221   4.45330 -26.35008
  -0.86301   4.57390 -23.42768
  -1.23661   4.36280 -20.39988
  -1.36571   4.28070 -17.28808
  -1.22821   4.05490 -14.02648
  -0.79821   3.82130 -10.68158
  -0.47791   3.68830  -7.47798
   0.22069   3.50190  -4.18878
   0.83719   3.53470  -1.11768
   1.92349   3.77200   2.12762
   2.84779   3.75440   5.11732
   3.84589   3.71630   8.12592
   4.93359   3.65930  10.83882
   5.73089   3.39480  13.56362
   6.67309   3.03570  16.01392
   7.43279   2.58420  18.63352
   8.25019   2.01820  21.04952
   8.73439   1.70000  23.01652
   8.90579   0.98220  25.07712
   8.88609   0.58070  26.82572
   8.70539   0.19750  28.21742
   7.96019  -0.73700  29.33172
   7.04369  -1.29040  30.02942
   6.15869  -1.98250  30.31722
   5.09229  -2.39800  30.56132
   4.00509  -3.08630  30.17082
   2.87979  -3.54550  29.71912
   2.06289  -4.04240  29.18632
   0.90289  -4.53150  28.60972
  -0.15811  -4.76020  27.83832
  -1.41781  -4.64090  27.35112
  -2.72511  -4.49600  26.95712
  -4.18051  -4.54270  26.67582
  -5.73981  -4.17280  26.80422
  -7.17961  -3.68250  26.93142
  -8.55461  -3.35330  27.02732
  -9.87051  -2.60050  27.33032
 -10.93151  -1.82050  27.64802
 -11.81301  -1.32970  27.95642
 -12.73401  -0.87400  28.10372
 -13.38421  -0.36670  28.23302
 -13.73701  -0.17870  28.46452
 -13.88661   0.01260  28.50822
 -13.82161   0.42170  28.67702
 -13.64181   0.59500  28.94522
 -13.12891   0.57580  29.20782
 -12.45761   0.89470  29.43902
 -12.21211   1.18510  29.64432
 -11.95911   1.28500  29.76242
 -11.56141   1.56760  29.56952
 -11.07021   1.82950  29.07432
 -10.55911   2.15220  28.42432
  -9.87351   2.48700  27.68452
  -9.11531   2.93820  26.46142
  -8.41131   3.41660  25.24422
  -7.79941   4.11760  23.93792
  -7.12281   4.46850  22.64032
  -6.64091   5.00530  21.39572
  -5.69961   5.39840  20.07522
  -4.70071   5.85400  18.63352
  -3.67501   6.18300  17.21452
  -2.75151   6.29150  15.34732
  -1.71101   6.22560  13.18132
  -0.70241   5.89640  10.66282
   0.06639   5.16950   8.15842
   0.61539   4.23540   5.12362
   1.62849   3.12320   3.18842
   2.39369   2.29550   1.34832
   2.55529   1.55520  -1.35128
   2.76799   0.86810  -4.00968
   2.96369   0.27400  -6.65708
   3.20249  -0.40270  -8.84298
   3.42569  -0.75780 -11.02838
   3.63479  -0.78640 -12.95958
   3.82349  -0.41390 -14.97908
   3.90929  -0.05360 -16.82658
   3.93659   0.47430 -18.66898
   4.42919   0.92840 -20.34308
   4.77739   1.20690 -21.86818
   5.34459   1.82690 -22.92878
   5.61489   2.18770 -23.75898
   5.61579   2.82900 -24.66998
   5.56369   3.15730 -25.34918
   4.94459   3.29010 -26.09458
   4.52419   3.27490 -26.65778
   4.25369   2.99180 -26.84838
   3.88449   2.81430 -26.84648
   3.37569   2.72100 -26.54178
   2.69599   2.48040 -25.86278
   2.06609   2.08930 -24.65168
   1.20009   1.70140 -23.17618
   0.48279   1.22950 -21.15418
  -0.27241   0.67190 -18.63538
  -1.32031   0.03500 -16.43918
  -2.38231  -0.13870 -14.13098
  -3.32431  -0.65000 -12.38988
  -4.27291  -0.54810 -10.97088
  -5.11761  -0.80110 -10.00408
  -6.10361  -1.00150  -9.26708
  -6.54971  -1.22400  -8.61968
  -7.13001  -1.33910  -8.15418
  -7.06951  -1.56870  -8.13588
  -6.84591  -1.91070  -7.80858
  -6.17871  -1.86000  -7.72888
  -5.54641  -1.94670  -7.54788
  -5.16161  -2.03370  -7.37418
  -4.50081  -1.94700  -7.05828
  -3.89761  -1.74800  -6.33578
  -3.35171  -1.64540  -5.76648
  -3.34861  -1.43820  -5.35448
  -2.87981  -1.53170  -4.90488
  -2.43021  -1.54620  -4.49128
  -1.88361  -1.86190  -4.27858
  -0.98371  -2.67370  -4.42698
   0.22559  -3.53360  -4.70528
   1.57769  -4.39960  -5.02528
   3.25389  -5.32270  -5.57848
   4.63499  -5.83870  -6.25888
   5.39959  -6.41060  -7.67808
   6.70439  -6.85930  -8.51868
   7.49659  -7.11910  -9.55378
   8.23259  -6.77560 -10.77728
   8.39159  -6.73890 -12.40408
   8.39139  -6.16370 -14.09098
   7.81149  -5.87610 -15.53128
   6.74469  -5.77020 -16.83688
   5.66799  -5.59390 -17.86568
   4.74559  -5.74800 -18.51068
   3.39249  -5.73440 -18.65268
   2.25809  -5.77890 -18.59368
   1.25999  -5.52450 -18.20888
  -0.19951  -4.87380 -17.54908
  -1.74631  -4.41740 -16.70968
  -3.24651  -3.93270 -15.91258
