********************************************************************************
              CENTRO DE INSTRUMENTACION Y REGISTRO SISMICO  A.C.

    Anaxagoras 814, Col. Narvarte, Benito Juarez, C.P. 03020 Mexico, D.F.
           Tels. 5687 45 42/ 5687 45  82             Fax. 5669 25 12
********************************************************************************
ARCHIVO ESTANDAR DE ACELERACION:
VERSION DEL FORMATO                    : 2.0
NOMBRE DEL ARCHIVO                     : UI2120210908014746
FECHA Y HORA DE CREACION               : 07/SEP/21, 23:38
REF. CATALOGO ACELEROGRAMAS, SMIS 1996 : REGISTRO No.     /PAG.


================================================================================
DATOS DE LA ESTACION:
NOMBRE DE LA ESTACION                  : U. IBEROAMERICANA
CLAVE DE LA ESTACION                   : UI21
LOCALIZACION DE LA ESTACION            : Del Alvaro Obregón, Col. Centro,       
                                       : Comercial Lomas de Sta. Fe,            
                                       : Aut. México-Toluca Km 9.5              
                                       : Esq. Joaquín Gallo.                    
                                       : 
COORDENADAS DE LA ESTACION             : 19.3700 LAT. N
                                       : 99.2642 LONG. W
ALTITUD (msnm)                         : 2540
TIPO DE SUELO                          : Terreno firme, materiales compactos 
                                       : (limos, arenas, gravas)   
                                       : 
INSTITUCION RESPONSABLE                : CIRES, A. C.
                                       : 

================================================================================
DATOS DEL ACELEROGRAFO:
MODELO DEL ACELEROGRAFO                : RAD_IO14
NUMERO DE SERIE DEL ACELEROGRAFO       : 
NUMERO DE CANALES                      : 3
ORIENTACION C1-C6 (rumbo;orientacion)  : /S00E/+V/N90W
ORIENTACION C7-C12 (rumbo;orientacion) : 
VEL. DE MUESTREO, C1-C6 (muestras/s)   : /100/100/100
VEL. DE MUESTREO, C7-C12 (muestras/s)  : 
ESC. COMPLETA DE SENSORES, C1-C6, (g)  : /2.0/2.0/2.0
ESC. COMPLETA DE SENSORES, C7-C12, (g) : 
FREC. NAT. DE SENSORES, C1-C6, (Hz)    : /54.11/51.56/54.11
FREC. NAT. DE SENSORES, C7-C12, (Hz)   : 
AMORTIGUAMIENTO DE SENSORES, C1-C6     : /0.5715/0.6038/0.5715
AMORTIGUAMIENTO DE SENSORES, C7-C12    : 
INTERVALO DE MUESTREO, C1-C6, (s)      : /0.01/0.01/0.01
INTERVALO DE MUESTREO, C7-C12, (s)     : 
UMBRAL DE DISPARO, C1-C6, (Gal)        : / / /
UMBRAL DE DISPARO, C7-C12, (Gal)       : 
MEMORIA DE PREEVENTO (s)               : 60
TIEMPO DE POSEVENTO (s)                : 90


================================================================================
DATOS DEL SISMO:
FECHA DEL SISMO (GMT)                  : 08/SEP/21
HORA EPICENTRO (GMT)                   : 01:47:46.0
MAGNITUD(ES)                           : /Mc=7.1
COORDENADAS DEL EPICENTRO              : 16.78 LAT. N
                                       : 99.93 LONG. W
PROFUNDIDAD FOCAL (km)                 : 10
FUENTE DE LOS DATOS EPICENTRALES       : SSN
                                       : INSTITUTO DE GEOFISICA, UNAM

================================================================================
DATOS DE ESTE REGISTRO:
HORA DE LA PRIMERA MUESTRA (GMT)       : 20:54:01.00
EXACTITUD DEL TIEMPO (s)               : 
DURACION DEL REGISTRO (s), C1-C6       : /657.2/657.2/657.2
DURACION DEL REGISTRO (s), C7-C12      : 
NUM. TOTAL DE MUESTRAS, C1-C6          : /65720/65720/65720
NUM. TOTAL DE MUESTRAS, C7-C12         : 
ACEL. MAX. (Gal), C1-C6                : /13.33473/7.13077/14.2655
ACEL. MAX., C1-C6, EN LA MUESTRA       : /14058/13266/13262
ACEL. MAX. (Gal), C7-C12               : 
ACEL. MAX., C7-C12, EN LA MUESTRA      : 
UNIDADES DE LOS DATOS                  : Gal (cm/s/s)
FACTOR DE DECIMACION                   : 1
FORMATO DATOS (FORTRAN,10 campos/dato) : 3F10.5


================================================================================
CALIDAD DEL ACELEROGRAMA:
REGISTRO DIGITAL COMPLETO CON TIEMPO ABSOLUTO CORRECTO.


================================================================================
COMENTARIOS:














================================================================================
DATOS DE ACELERACION:
---------+---------+---------+---------+---------+---------+---------+---------+
   CANAL-1   CANAL-2   CANAL-3   CANAL-4   CANAL-5   CANAL-6   CANAL-7   CANAL-8
      N00E        +V      N90W
---------+---------+---------+---------+---------+---------+---------+---------+
[...]
  -4.38637  -2.11383  -1.72380
  -4.64357  -2.47623  -1.19370
  -4.84507  -2.70133  -0.56900
  -4.96927  -2.60643  -0.09110
  -5.01857  -2.61483   0.39690
  -5.26947  -2.58163   0.60380
  -5.81257  -2.70723   0.85800
  -6.23177  -2.69993   1.16750
  -6.55167  -2.39063   1.24560
  -6.99057  -2.20803   1.37560
  -6.97207  -1.78013   1.47800
  -6.88017  -1.28873   1.53970
  -6.23767  -0.86713   1.59870
  -5.46307  -0.38523   1.46420
  -4.41277   0.10977   1.12590
  -3.33537   0.36437   0.95710
  -2.20147   0.67717   0.30640
  -1.33357   0.84767  -0.25570
  -0.48057   0.78637  -0.80890
  -0.04477   0.78027  -1.19250
  -0.05647   1.10107  -1.62440
  -0.33257   1.04547  -1.96460
  -1.03307   0.87497  -2.12050
  -1.72137   0.80767  -2.39240
  -2.24887   0.39497  -2.47010
  -2.91267   0.29677  -2.58720
  -3.00037   0.00897  -2.65550
  -3.03987  -0.26833  -2.52920
  -2.89537  -0.65363  -2.33630
  -2.66067  -1.09933  -1.76630
  -2.46867  -1.64833  -1.18270
  -2.30707  -2.14703  -0.53740
  -2.22877  -2.56063   0.27480
  -2.22947  -2.92023   0.60470
  -2.26877  -3.20663   1.12780
  -2.31457  -3.17743   1.21430
  -2.25827  -3.48273   1.26990
  -2.35477  -3.82413   1.55380
  -2.24467  -4.42573   1.74270
  -2.39177  -4.57833   1.79200
  -2.39427  -4.87203   2.09970
  -2.60897  -4.74363   1.83570
  -2.69987  -4.62423   1.57040
  -2.86337  -4.10893   1.10740
  -3.10137  -3.57953   0.41020
  -3.11277  -2.75323  -0.50510
  -3.18017  -2.09443  -1.32670
  -3.16167  -1.78393  -1.84790
  -2.95527  -1.31163  -2.46350
  -2.73287  -0.92513  -2.92830
  -1.98657  -0.66603  -3.40880
  -0.93467  -0.44483  -3.89490
  -0.02587  -0.02213  -4.17660
   1.14343   0.29837  -4.39430
   2.29333   0.78427  -4.68800
   3.31573   1.04617  -4.81470
   4.01303   1.31197  -4.89770
   4.29963   1.66877  -4.80140
   4.49253   1.74147  -4.62600
   4.31293   1.76467  -4.34010
   4.24113   1.41227  -3.91590
   4.11753   1.27857  -3.12120
   3.91263   1.13307  -2.29540
   3.74103   0.85627  -1.17360
   3.69403   0.82587  -0.41000
   3.74203   0.96547   0.31900
   3.80583   0.79547   0.51610
   3.78593   0.84317   0.71840
   3.72353   0.76137   0.34050
   3.60293   0.86467  -0.06750
   3.70013   0.98787  -0.37440
   3.68523   1.19927  -0.63510
   3.75743   1.44267  -0.62390
   3.91083   1.49297  -0.43800
   3.91483   1.77837  -0.24230
   4.04943   2.18177   0.23580
   3.76093   2.70057   0.42000
   3.34153   2.89457   0.75860
   2.72683   3.09757   0.91450
   1.65873   3.23977   0.77290
   0.68593   3.38347   0.64750
  -0.19117   3.47117   0.67470
  -0.77867   3.46087   0.66760
  -0.93627   3.58997   0.74080
  -0.95057   3.62597   1.10700
  -0.67867   3.81377   1.64080
   0.12683   3.98437   2.49670
   1.28953   4.25237   3.61810
   2.47073   4.28017   4.63260
   3.41633   3.93577   5.93890
   4.08403   3.66177   7.21900
   4.66693   3.07907   8.35500
   5.10203   2.31127   9.18600
   5.12543   1.51987   9.52340
   5.08503   0.65337   9.58740
   4.67583   0.03837   9.56900
   4.52483  -0.74583   9.21120
   3.91573  -1.24613   8.18670
   3.34293  -1.67053   7.59910
   2.74313  -1.87533   6.84300
   2.03823  -2.06493   6.24020
   1.14903  -2.02663   5.62110
   0.24913  -1.68643   5.14020
  -0.64027  -1.22553   4.77850
  -1.52667  -0.80283   4.48530
  -2.34097  -0.18883   4.08570
  -2.78287   0.32137   3.95030
  -2.74107   0.90277   3.91570
  -2.58557   1.33817   3.72470
  -1.93087   1.90657   3.64260
  -1.31157   2.13707   3.78710
  -0.53737   2.30497   3.79550
   0.07003   2.48547   3.83690
   0.77123   2.37417   3.96570
   1.17473   2.58947   3.80300
   1.19393   2.79197   3.60920
   1.11753   3.25417   3.37770
   1.16213   3.54367   3.27880
   0.75763   3.95077   3.05460
   0.25143   4.01297   2.67070
   0.19813   4.04217   2.59450
   0.10973   3.76507   2.33520
   0.28933   3.64047   2.03260
   0.42773   3.15107   1.74760
   0.79743   2.56097   1.34640
   0.99563   2.10477   0.92580
   1.24753   1.47517   0.49390
   1.34223   0.86917  -0.05740
   1.05133   0.28927  -0.77640
   0.68983  -0.23933  -1.58140
  -0.05107  -0.59943  -2.25660
  -0.79877  -1.04083  -2.93420
  -1.74717  -1.19843  -3.46050
  -2.82027  -1.40513  -3.81630
  -3.64587  -1.61323  -3.93160
  -4.43407  -1.69383  -4.12330
  -4.71717  -1.80143  -3.95380
  -4.63137  -1.62723  -3.81120
  -4.06647  -1.25173  -3.76230
  -3.00877  -1.05323  -3.25470
  -1.72867  -0.46493  -2.80350
  -0.06767   0.06367  -2.12470
   1.33443   0.45247  -1.30310
   2.85073   0.83737  -0.52530
   4.32533   0.89087   0.38170
   5.44693   0.59367   1.05370
   6.32183   0.34187   1.71530
   7.19773  -0.20123   2.11520
   7.60733  -0.55123   2.42780
   7.82923  -1.04783   2.67510
   7.88013  -1.41123   2.31300
   7.65763  -1.62843   2.02680
   7.30853  -1.72893   1.52130
   6.94983  -1.55083   1.00460
   6.49113  -1.34903   0.50960
   5.88413  -0.99223   0.11520
   5.42073  -0.73503  -0.19650
   4.74733  -0.46143  -0.37280
   4.36303   0.02767  -0.50070
   4.15163   0.36857  -0.46660
   4.09853   0.65987  -0.20450
   4.33583   0.89577   0.15510
   4.55633   1.06667   0.58020
   5.07123   1.16677   1.04800
   5.23513   1.23087   1.25170
   5.46773   1.21427   1.55240
   5.63753   1.26217   2.16100
   5.46793   1.23577   2.37260
   5.24793   1.41137   2.70510
   4.86923   1.12957   2.76050
   4.02233   0.77517   2.24610
   3.19793   0.28807   1.65950
   2.22673  -0.04923   0.64750
   1.34383  -0.45633  -0.71790
   0.56033  -1.05513  -2.03660
  -0.25197  -1.44183  -3.27200
  -0.85347  -2.07403  -4.77170
  -1.65217  -2.46213  -5.87060
  -2.17737  -2.56643  -6.69870
  -2.66737  -2.54373  -7.14390
  -3.00247  -2.24383  -7.18970
  -3.03167  -2.08363  -6.95830
  -2.92017  -1.94993  -6.54790
  -2.65387  -1.62043  -6.14670
  -2.40247  -1.36773  -5.77450
  -2.34587  -1.28913  -5.50510
  -2.59397  -1.23963  -5.46400
  -3.27717  -1.16263  -5.46980
  -3.93817  -1.15213  -5.22500
  -4.57547  -1.17433  -5.12120
  -4.86587  -1.13933  -4.77260
  -4.85987  -1.03823  -4.50420
  -4.53597  -0.94663  -4.34170
  -3.97887  -0.67943  -4.35410
  -3.05267  -0.50403  -4.11230
  -2.03637  -0.41303  -3.74060
  -0.87757  -0.12293  -3.33330
   0.14063   0.02247  -2.93750
   1.07423   0.15957  -2.51800
   1.52103   0.07207  -1.76980
   1.94563  -0.37543  -0.85450
   2.05643  -0.80633   0.18480
   1.95923  -1.46473   1.31410
   1.72123  -1.99873   2.47850
   1.79533  -2.71543   3.42400
   2.17293  -3.26253   4.37650
   2.49373  -3.48303   5.29000
   3.05553  -3.63493   5.91990
   3.70713  -3.82573   6.40950
   3.98403  -3.74533   6.84370
   4.08363  -3.85993   6.92020
   4.15093  -4.04013   6.85800
   3.80513  -4.07433   6.77890
   3.27903  -4.35133   5.97930
   2.59123  -4.44763   5.49370
   1.90173  -4.51733   4.61830
   1.33353  -4.43343   3.60540
   0.81703  -4.25413   2.49600
   0.61553  -4.00323   1.47660
   0.47453  -3.85193   0.14790
   0.31783  -3.27703  -0.84300
   0.38383  -2.91203  -2.08170
   0.24353  -2.38413  -3.21150
   0.21573  -1.82783  -4.19560
  -0.11677  -1.27743  -5.11630
  -0.74547  -0.44463  -5.65340
  -1.14157   0.41807  -6.34430
  -1.86407   1.12167  -6.67840
  -2.30757   1.55377  -7.17550
  -2.62207   1.99377  -7.23160
  -2.82637   2.17217  -6.95010
  -2.67577   2.52567  -6.67260
  -2.48857   2.76977  -6.07050
  -2.15237   2.74097  -5.31740
  -1.73657   2.77027  -4.31180
  -1.56007   2.50437  -3.16870
  -1.27717   2.08517  -2.22010
  -1.72047   1.54247  -1.23280
  -2.50907   1.00147  -0.45740
  -3.48787   0.47887   0.38190
  -4.80347  -0.22653   1.03450
  -6.25617  -0.62393   2.17520
  -7.61127  -1.10423   2.75560
  -8.83827  -1.09483   3.69990
 -10.00717  -0.91993   4.53600
 -10.78317  -0.57743   5.55100
 -11.21737  -0.16383   6.51590
 -11.48927   0.05497   7.32280
 -11.03447   0.44707   8.20310
 -10.25337   0.43027   8.83880
  -9.14437   0.30777   9.54330
  -7.54117  -0.09063  10.01770
  -6.02767  -0.44763  10.68240
  -4.40767  -0.85423  11.18440
  -2.84927  -1.23393  11.90800
  -1.37627  -1.57373  12.34710
  -0.34267  -1.85663  12.78480
   0.65243  -1.61903  12.96930
   1.14153  -1.27463  13.22390
   1.52173  -0.66233  13.16520
   1.45483  -0.11193  13.03520
   1.25473   0.58437  12.82170
   1.35223   1.38097  12.46540
   0.96173   1.83357  11.77360
   0.35663   2.41557  11.00390
  -0.36747   2.70107  10.08780
  -1.14067   2.85257   8.94070
  -1.84157   2.85607   7.44580
  -2.73407   2.64067   5.93610
  -3.26267   2.32947   4.35690
  -3.70807   1.94487   2.84230
  -3.73587   1.56727   1.06630
  -3.62747   0.86537  -0.44200
  -3.46097   0.39217  -2.09710
  -3.35387  -0.12553  -3.31880
  -3.18927  -0.68433  -4.50370
  -3.70807  -1.11173  -5.74710
  -4.30597  -1.47313  -6.59350
  -5.09457  -1.74903  -7.44740
  -6.23887  -1.96463  -8.21380
  -7.52947  -2.15263  -8.92110
  -8.77827  -2.22863  -9.49180
  -9.94117  -2.28123  -9.78670
 -11.05997  -2.48903 -10.35410
 -11.75837  -2.37563 -11.02610
 -12.02327  -2.42453 -11.34240
 -12.01647  -2.22323 -11.41560
 -11.66107  -2.03873 -11.80140
 -10.94217  -2.02383 -11.56270
  -9.92107  -1.78113 -11.04080
  -8.84487  -1.41873 -10.41860
  -7.49787  -1.27983  -9.54000
  -6.15587  -0.99873  -8.42240
  -4.67657  -0.77083  -7.35360
  -3.16937  -0.63053  -6.02370
  -1.72987  -0.72243  -4.88790
  -0.44227  -0.74343  -3.86010
   0.48363  -0.79093  -2.79130
   1.02813  -0.86063  -1.73310
   1.58883  -1.20213  -1.01980
   1.81913  -1.39853  -0.41680
   1.60453  -1.57373   0.01980
   1.40933  -1.56603   0.18160
   0.43433  -1.66723  -0.14810
  -0.38777  -1.51433  -0.42400
  -1.31787  -1.28773  -0.94490
  -2.27297  -0.92933  -1.43410
  -3.06557  -0.19913  -1.80420
  -3.57997   0.62457  -2.16120
  -3.91807   1.27687  -2.16140
  -4.10557   2.09267  -2.31970
  -4.14137   2.66407  -2.36580
  -4.27947   2.97697  -2.34970
  -4.28867   3.43617  -2.28020
  -4.14177   3.37227  -2.42820
  -4.19327   2.98507  -2.53880
  -4.01717   2.51627  -2.65080
  -3.87617   2.04187  -3.12520
  -3.44297   1.59227  -3.57060
  -3.31297   1.42797  -4.10140
  -2.89377   1.14667  -4.85330
  -2.56477   1.15927  -5.47240
  -2.01037   1.00127  -6.24140
  -1.72817   0.99467  -6.73780
  -1.27037   0.87447  -7.41470
  -1.02187   0.80857  -8.35200
  -0.74007   0.72767  -8.86990
  -0.19207   1.06577  -9.94330
   0.53413   1.40037 -11.14160
   1.10233   1.95327 -12.00760
   1.67303   2.67767 -13.08150
   2.37253   3.49617 -13.70720
   2.78083   4.62267 -14.16170
   3.24563   5.49407 -14.26550
   3.63323   6.22097 -14.07170
   3.94373   6.82257 -13.67860
   4.24263   7.04027 -12.96530
   4.46353   7.13077 -12.06490
   4.74903   7.00517 -10.69240
   5.03843   6.83407  -9.58350
   5.14083   6.43587  -7.90500
   5.18043   5.88737  -6.26810
   5.19043   5.08027  -4.74900
   5.01533   3.91147  -2.89210
   4.63043   2.59577  -1.08030
   4.43033   1.25937   1.25540
   4.08473   0.03377   3.28890
   3.57203  -1.01233   5.43800
   2.94983  -1.70483   7.43290
   2.57953  -2.21363   9.22040
   2.46513  -2.35693  10.38220
   2.31043  -2.22483  11.25120
   2.19063  -1.85033  11.97650
   2.37183  -1.29433  12.38190
   2.73353  -0.61743  12.79160
   3.15283  -0.14373  13.19720
   3.62163   0.31317  13.34260
   4.30523   0.91657  13.27830
   4.90123   1.48967  12.86190
   5.65663   1.79997  12.33140
   6.30433   2.08167  11.75230
   6.75203   1.96637  11.17270
   7.15233   1.79197  10.70670
   7.36413   1.45437  10.30730
   7.52523   1.12207   9.95940
   7.62653   0.93877   9.54540
   7.59753   0.84157   9.32530
   7.73353   0.67737   8.92200
   7.79153   0.68117   8.66690
   8.01043   0.80177   8.41230
   8.37073   0.86727   8.13670
   8.90353   0.86137   7.85230
   9.44153   0.80227   7.57320
  10.03733   0.75717   7.15560
  10.27433   0.69827   6.82430
  10.79813   0.75807   6.36600
  11.01533   0.63507   5.73780
  11.10743   0.39847   4.89440
  11.06133   0.46957   3.84630
  10.81683   0.37347   2.54610
  10.43333   0.37857   1.18690
   9.82593   0.32627  -0.05580
   9.44293   0.13497  -1.13460
   8.68493  -0.01283  -1.98400
   8.15073  -0.05583  -2.88110
   7.19043  -0.04253  -3.57600
   6.77143   0.04707  -4.14020
   6.31553   0.06247  -4.54470
   5.85753   0.14007  -4.94630
   5.34823   0.01037  -5.24370
   5.17193  -0.10773  -5.84720
   5.05393  -0.24123  -6.23860
   5.05713  -0.41333  -6.69450
   4.89303  -0.61253  -7.37980
   4.82873  -0.62603  -7.78380
   4.47873  -0.49983  -8.42940
   4.17783  -0.48483  -8.57690
   3.70833  -0.43393  -8.77990
   3.20163  -0.31413  -8.71980
   2.46373  -0.25973  -8.21290
   1.83273  -0.24873  -7.50210
   0.94873  -0.45123  -6.50940
   0.12993  -0.36653  -5.27810
  -0.62557  -0.43973  -3.97210
  -1.12357  -0.39533  -2.41560
  -1.23317  -0.55683  -0.73380
  -1.41467  -0.61343   0.98980
  -1.13947  -0.93283   2.73750
  -0.75957  -1.65063   4.19890
  -0.17077  -2.18393   5.54000
   0.18343  -2.69973   6.84460
   0.85703  -3.07003   8.28280
   1.21453  -3.25523   9.38610
   1.48223  -3.16993  10.38240
   1.53393  -3.22203  11.22130
   1.72443  -3.10843  12.00530
   1.71343  -2.98193  12.41820
   1.43473  -2.91113  13.01530
   1.23953  -2.82503  13.43380
   0.85773  -2.83513  13.68800
   0.35623  -2.59213  13.89770
  -0.28537  -2.26813  13.76680
  -0.88157  -1.65623  13.70720
  -1.70267  -0.96933  13.16350
  -2.35617  -0.07543  12.49860
  -2.80647   0.71337  11.90140
  -3.21127   1.39057  10.68850
  -3.33327   2.32507   9.63260
  -3.24987   2.73867   8.39740
  -2.73637   3.07157   7.20770
  -2.27837   3.16697   5.87760
  -1.62457   3.08797   4.69920
  -0.97437   2.75017   3.73120
  -0.41727   2.47027   2.69480
  -0.19347   2.04917   1.70740
   0.20333   1.39987   0.73900
   0.61693   0.97227  -0.18760
   0.70553   0.26897  -1.25120
   0.98753  -0.21993  -2.31010
   1.11513  -0.55683  -3.22740
   1.02513  -0.88633  -4.15440
   0.65943  -1.12383  -4.97950
   0.35103  -1.41873  -5.43990
  -0.16637  -1.83863  -5.89090
  -0.66807  -2.00043  -6.23950
  -1.18367  -2.16313  -6.53930
  -1.55447  -2.37893  -6.76860
  -1.86077  -2.34293  -7.08030
  -1.83927  -2.35303  -7.18250
  -1.74997  -2.21203  -7.03240
  -1.61807  -2.00203  -6.77470
  -1.29217  -1.72543  -6.77470
  -0.79527  -1.50423  -6.42380
  -0.41417  -0.96533  -5.65640
  -0.16517  -0.55943  -5.24370
   0.02533  -0.23113  -4.17380
  -0.01177   0.41957  -3.33700
  -0.32187   0.68067  -2.18600
  -0.79347   0.90887  -1.15440
  -1.44177   1.25957   0.06770
  -2.14927   1.32087   1.05090
  -2.89977   1.39007   1.87250
  -3.83367   1.40387   2.45420
  -4.83387   1.36507   3.28910
  -5.45957   1.51957   3.86570
  -6.18127   1.35877   4.06530
  -6.92767   1.58787   4.47730
  -7.43877   1.71017   4.71840
  -7.83227   1.85157   4.72610
  -8.27627   2.00287   4.66530
  -8.51757   1.90097   4.71300
  -8.87667   1.67837   4.58370
  -9.24207   1.20487   4.54370
  -9.29657   0.73377   4.03100
  -9.23297   0.40287   3.65010
  -8.71677   0.08937   3.22060
  -8.24277  -0.18253   2.61060
