**************************************************************************************
                       INSTITUTO DE INGENIERIA, UNAM
                 Grupo de Procesamiento y Analisis Sismico
                   Coordinacion de Ingenieria Sismologica
           Ciudad Universitaria, Coyoacan, Mexico D.F., C.P. 04510
**************************************************************************************
ARCHIVO ESTANDAR DE ACELERACION:
VERSION DEL FORMATO                    : 2.0
NOMBRE DEL ARCHIVO                     : UNIO2109.081
FECHA Y HORA DE CREACION               : Wed Sep 08 15:06:29 2021
REF. CATALOGO ACELEROGRAMAS, SMIS 1995 : REGISTRO NO.      /PAG.    


================================================================================
DATOS DE LA ESTACION:
NOMBRE DE LA ESTACION                  : LA UNION
CLAVE DE LA ESTACION                   : UNIO
LOCALIZACION DE LA ESTACION            : ESCUELA SECUNDARIA TECNICA #37, A 60KM DE ZIHUATANEJO
                                       : Y A 8KM DEL ENTRONQUE CON LA CARRETERA ZIHUATANEJO-LAZARO
                                       : CARDENAS. LA UNION, GUERRERO. 
                                       : 
                                       : 
COORDENADAS DE LA ESTACION             : 17.98762 LAT. N
                                       : 101.810623 LONG. W
ALTITUD (msnm)                         : 56
TIPO DE SUELO                          : ROCA
                                       : 
                                       : 
INSTITUCION RESPONSABLE                : INSTITUTO DE INGENIERIA UNAM
                                       : 

================================================================================
DATOS DEL ACELEROGRAFO: 
MODELO DEL ACELEROGRAFO                : K2
NUMERO DE SERIE DEL ACELEROGRAFO       : 348
NUMERO DE CANALES                      : 3
ORIENTACION C1-C6 (rumbo;orientacion)  : /HNZ/HNN/HNE
ORIENTACION C7-C12 (rumbo;orientacion) : 
VEL. DE MUESTREO, C1-C6 (muestras/s)   : /100/100/100
VEL. DE MUESTREO, C7-C12 (muestras/s)  : 
ESC. COMPLETA DE SENSORES, C1-C6, (g)  : /2/2/2
ESC. COMPLETA DE SENSORES, C7-C12 (g)  : 
FREC. NAT. DE SENSORES, C1-C6, (Hz)    : /53.5/50/53.2
FREC. NAT. DE SENSORES, C7-C12 (Hz)    : 
AMORTIGUAMIENTO DE SENSORES, C1-C6     : /0.66/0.64/0.65
AMORTIGUAMIENTO DE SENSORES, C7-C12    : 
INTERVALO DE MUESTREO, C1-C6 (s)       : /0.01/0.01/0.01
INTERVALO DE MUESTREO, C7-C12 (s)      : 
UMBRAL DE DISPARO, C1-C6 (Gal)         : /2/2/2
UMBRAL DE DISPARO, C7-C12 (Gal)        : 
MEMORIA DE PREEVENTO (s)               : 50
TIEMPO DE POSEVENTO (s)                : 70


================================================================================
DATOS DEL SISMO:
FECHA DEL SISMO [GMT]                  : 2021/09/08
HORA EPICENTRO (GMT)                   : 01:47:46
MAGNITUD(ES)                           : /M=7.1
COORDENADAS DEL EPICENTRO              : 16.78 LAT. N
                                       : 99.93 LONG. W
PROFUNDIDAD FOCAL (Km)                 : 10
FUENTE DE LOS DATOS EPICENTRALES       : SSN
                                       : INSTITUTO DE GEOFISICA, UNAM

================================================================================
DATOS DE ESTE REGISTRO:
HORA DE LA PRIMERA MUESTRA (GMT)       : 01:47:31
EXACTITUD DEL TIEMPO (s)               : 0.5
DURACION DEL REGISTRO (s), C1-C6       : /299.9/299.9/299.9
DURACION DEL REGISTRO (s), C7-C12      : 
NUM. TOTAL DE MUESTRAS, C1-C6          : /29990/29990/29990
NUM. TOTAL DE MUESTRAS, C7-C12         : 
ACEL. MAX.(Gal), C1-C6                 : /5.5402/7.1699/5.5833
ACEL. MAX., C1-C6, EN LA MUESTRA       : /8843/9078/9077
ACEL. MAX.(Gal), C7-C12                : 
ACEL. MAX., C7-C12,EN LA MUESTRA       : 
UNIDADES DE LOS DATOS                  : Gal (cm/s/s)
FACTOR DE DECIMACION                   : 1
FORMATO DATOS (FORTRAN,10 campos/dato) : 3F10.4


================================================================================
CALIDAD DEL ACELEROGRAMA:
Registro digital completo carece de tiempo absoluto correcto


================================================================================
COMENTARIOS:
Archivo de origen en formato SEISAN: 2021-09-08-0147-30S.NSN___336













================================================================================
DATOS DE ACELERACION:
---------+---------+---------+---------+---------+---------+---------+---------+
   CANAL-1   CANAL-2   CANAL-3
       HNZ       HNN       HNE
---------+---------+---------+---------+---------+---------+---------+---------+
[...]
   -1.5672    1.5757    1.8322
   -1.6636    1.2609    1.6306
   -1.6486    0.8712    1.4116
   -1.5630    0.4774    1.2498
   -1.4489    0.0634    1.1675
   -1.2992   -0.2973    1.1754
   -1.0887   -0.5138    1.2727
   -0.7888   -0.6925    1.4163
   -0.4403   -0.8843    1.5478
   -0.0876   -0.9232    1.6806
    0.3048   -0.7412    1.7938
    0.7651   -0.3347    1.8191
    1.2100    0.3071    1.8130
    1.6263    1.0317    1.8930
    2.0852    1.6529    2.0712
    2.4931    2.1207    2.3654
    2.7532    2.5239    2.8112
    2.8556    2.8991    3.2762
    2.8121    3.1966    3.6214
    2.6058    3.3874    3.8287
    2.2503    3.4646    3.9545
    1.8621    3.4988    4.0452
    1.5337    3.5872    4.0307
    1.3414    3.7298    3.8441
    1.2002    3.8613    3.5966
    1.0528    3.9169    3.4147
    1.0173    3.7018    3.1756
    1.0243    3.1638    2.7490
    0.9939    2.5431    2.2616
    1.0336    1.9649    1.8378
    1.2016    1.4536    1.3602
    1.3994    0.9208    0.7797
    1.5580    0.2973    0.2600
    1.6404   -0.2818   -0.1021
    1.6731   -0.8230   -0.4085
    1.7320   -1.4167   -0.8819
    1.6764   -2.0248   -1.4979
    1.3845   -2.5192   -2.0434
    0.9747   -2.8368   -2.4835
    0.6080   -3.0244   -2.8849
    0.2281   -3.0328   -3.2395
   -0.2565   -2.8102   -3.4617
   -0.7682   -2.4645   -3.5613
   -1.3029   -2.1773   -3.6390
   -1.8371   -2.0033   -3.6563
   -2.2740   -1.8685   -3.5360
   -2.5842   -1.7436   -3.3443
   -2.7020   -1.6258   -3.1230
   -2.6534   -1.5855   -2.8652
   -2.6637   -1.7006   -2.6463
   -2.7264   -1.9060   -2.5860
   -2.6464   -2.1225   -2.6557
   -2.4775   -2.2947   -2.7268
   -2.4027   -2.3288   -2.7394
   -2.4232   -2.2039   -2.6529
   -2.3910   -2.0538   -2.5331
   -2.2483   -1.9452   -2.4035
   -2.0093   -1.8582   -2.1771
   -1.7033   -1.8592   -1.8357
   -1.3983   -1.9261   -1.4062
   -1.1668   -1.9691   -0.9838
   -1.0222   -1.9340   -0.6803
   -0.8880   -1.7441   -0.5338
   -0.8010   -1.3919   -0.5016
   -0.8595   -0.8956   -0.4974
   -1.0597   -0.2959   -0.4651
   -1.4068    0.2725   -0.4319
   -1.8469    0.7005   -0.4529
   -2.2810    1.0078   -0.5006
   -2.7044    1.2375   -0.4337
   -3.0197    1.3685   -0.1933
   -3.1375    1.4649    0.0860
   -3.1174    1.6337    0.2665
   -3.0823    1.8779    0.3475
   -3.1085    2.1024    0.4087
   -3.1268    2.2021    0.4588
   -3.0468    2.2287    0.5542
   -2.7549    2.3134    0.7469
   -2.2530    2.5407    0.9719
   -1.6603    2.9248    1.1633
   -1.0503    3.3481    1.2259
   -0.5166    3.7013    1.1300
   -0.1353    3.9572    0.9083
    0.0789    4.0910    0.6843
    0.1912    4.0512    0.5916
    0.2917    3.8477    0.5542
    0.4934    3.5301    0.5070
    0.8175    3.0698    0.5168
    1.1885    2.5595    0.6389
    1.6240    2.1328    0.9191
    2.1413    1.7698    1.3284
    2.7438    1.5037    1.7269
    3.4015    1.4097    2.0071
    3.9909    1.4490    2.1194
    4.4606    1.4302    2.1213
    4.8713    1.1182    2.0773
    5.2128    0.5251    1.9632
    5.4298   -0.1195    1.8013
    5.5369   -0.6345    1.6240
    5.5402   -0.9924    1.4332
    5.4434   -1.2459    1.2217
    5.2315   -1.3334    0.9551
    4.8984   -1.2164    0.5823
    4.5420   -1.0635    0.1477
    4.2276   -1.0111   -0.1984
    3.8810   -1.0448   -0.3495
    3.4890   -1.1341   -0.3233
    3.1246   -1.2571   -0.2490
    2.7710   -1.3661   -0.2092
    2.4080   -1.4489   -0.1643
    2.0632   -1.5126   -0.0707
    1.7545   -1.5617    0.0705
    1.4907   -1.6215    0.1828
    1.3475   -1.6594    0.1388
    1.3162   -1.5467   -0.0951
    1.2301   -1.2548   -0.3739
    1.1090   -0.9985   -0.5586
    0.9887   -0.9166   -0.6732
    0.7946   -0.9161   -0.7345
    0.5504   -0.9386   -0.7471
    0.2917   -1.0097   -0.7256
    0.0597   -1.1000   -0.6859
   -0.1222   -1.1463   -0.6737
   -0.3416   -1.1000   -0.7055
   -0.7065   -0.9671   -0.7317
   -1.1298   -0.7926   -0.6564
   -1.5125   -0.5396   -0.5161
   -1.9068   -0.2402   -0.3299
   -2.3189   -0.0695   -0.0764
   -2.7076   -0.1055    0.2024
   -3.0463   -0.2743    0.5219
   -3.3841   -0.4633    0.8442
   -3.7031   -0.5864    1.1244
   -3.9449   -0.6060    1.3284
   -4.1559   -0.5050    1.5047
   -4.2948   -0.2879    1.7021
   -4.3262   -0.0283    1.8233
   -4.3065    0.1925    1.8537
   -4.1952    0.3656    1.8434
   -3.9243    0.5396    1.8050
   -3.5936    0.6855    1.6895
   -3.3200    0.7230    1.4603
   -3.1600    0.7244    1.1464
   -3.0716    0.7604    0.8311
   -2.8877    0.7478    0.6010
   -2.6365    0.6551    0.3863
   -2.3606    0.5218    0.0630
   -1.9629    0.3707   -0.4005
   -1.5391    0.1845   -0.8449
   -1.1738   -0.1172   -1.0554
   -0.7551   -0.4694   -1.0657
   -0.3075   -0.6841   -1.0100
    0.1687   -0.7150   -0.9520
    0.7099   -0.6397   -0.9310
    1.1557   -0.5026   -0.9628
    1.5533   -0.3740   -1.0601
    1.9173   -0.3160   -1.1742
    2.1268   -0.2107   -1.2664
    2.2690   -0.0554   -1.3670
    2.3219    0.1064   -1.4474
    2.2681    0.3441   -1.4788
    2.1596    0.5616   -1.4371
    1.9818    0.7459   -1.3178
    1.7980    0.9732   -1.2233
    1.6188    1.1968   -1.2341
    1.4149    1.4125   -1.3440
    1.2254    1.6375   -1.4301
    1.1076    1.7942   -1.3613
    1.0804    1.7404   -1.1452
    1.1656    1.5079   -0.7598
    1.3747    1.2703   -0.1989
    1.6343    1.0855    0.3610
    1.8420    0.9835    0.7516
    1.8915    1.0008    0.9696
    1.8134    1.0401    1.0809
    1.7278    1.0120    1.1006
    1.6633    1.0060    1.0501
    1.6389    1.0462    0.9153
    1.6455    1.0761    0.5841
    1.6441    1.0883    0.0284
    1.5983    0.9966   -0.5909
    1.4546    0.7936   -1.1200
    1.2390    0.5438   -1.5742
    0.9770    0.3263   -1.9419
    0.6529    0.2673   -2.1056
    0.3142    0.3071   -2.0691
    0.0260    0.3384   -1.9746
   -0.1957    0.3983   -1.8619
   -0.3725    0.5391   -1.6715
   -0.5091    0.8081   -1.4231
   -0.5507    1.2080   -1.2065
   -0.5082    1.6856   -1.0788
   -0.4707    2.1937   -0.9614
   -0.4174    2.6306   -0.7308
   -0.3145    2.8532   -0.3355
   -0.1821    2.8630    0.1613
   -0.0109    2.6418    0.6506
    0.1098    2.1647    1.1558
    0.1538    1.5996    1.6872
    0.1290    0.9943    2.1877
   -0.0684    0.3866    2.6419
   -0.3940   -0.1167    2.9534
   -0.8014   -0.5751    3.0456
   -1.2603   -1.0392    2.9483
   -1.6804   -1.5383    2.6943
   -2.0532   -2.0968    2.3912
   -2.2787   -2.6848    2.1283
   -2.3334   -3.2700    1.8733
   -2.3825   -3.8369    1.6301
   -2.4490   -4.3314    1.4299
   -2.4228   -4.6172    1.3153
   -2.2352   -4.6846    1.2629
   -1.9639   -4.6476    1.2180
   -1.6659   -4.5288    1.1778
   -1.3286   -4.3342    1.0487
   -1.0919   -4.0540    0.8152
   -0.9647   -3.6830    0.5102
   -0.8127   -3.2185    0.0593
   -0.6798   -2.5749   -0.5348
   -0.6092   -1.8451   -1.1565
   -0.5690   -1.1042   -1.6977
   -0.5732   -0.2762   -2.1804
   -0.6125    0.5321   -2.6608
   -0.6583    1.2679   -3.1342
   -0.7313    1.9518   -3.4897
   -0.7804    2.4201   -3.5711
   -0.7299    2.5609   -3.4121
   -0.6499    2.4673   -3.0828
   -0.5343    2.2395   -2.4985
   -0.2958    1.9822   -1.6696
    0.0251    1.7624   -0.7434
    0.3563    1.4649    0.2029
    0.6491    1.0836    1.1310
    0.8540    0.7375    1.9861
    1.0112    0.4002    2.7079
    1.1805    0.0030    3.2402
    1.2872   -0.4713    3.6415
    1.3424   -0.9999    3.9966
    1.4200   -1.5743    4.2539
    1.4813   -2.1712    4.3381
    1.5898   -2.7199    4.2090
    1.7105   -3.1156    3.8899
    1.7166   -3.2616    3.4914
    1.6408   -3.2691    3.0376
    1.5197   -3.2073    2.5385
    1.4355   -2.9870    2.0619
    1.4233   -2.6427    1.6048
    1.4219   -2.1880    1.1474
    1.4734   -1.6795    0.6716
    1.6006   -1.2183    0.1706
    1.7807   -0.8310   -0.3032
    2.0281   -0.5068   -0.7528
    2.2527   -0.1181   -1.2093
    2.3009    0.3834   -1.5709
    2.1591    0.9634   -1.7711
    1.9117    1.5070   -1.9339
    1.6375    1.7974   -2.1364
    1.3667    1.8512   -2.2899
    1.1052    1.9303   -2.3170
    0.8620    2.1703   -2.2595
    0.5963    2.5707   -2.1612
    0.3390    3.1484   -2.0106
    0.1701    3.7855   -1.8581
    0.1243    4.2940   -1.7585
    0.2431    4.5456   -1.6411
    0.5219    4.5372   -1.4198
    0.8573    4.3889   -1.1518
    1.1094    4.1368   -0.9165
    1.2470    3.7546   -0.7210
    1.2820    3.2368   -0.5699
    1.2409    2.6189   -0.4772
    1.2399    2.0047   -0.3921
    1.3148    1.4784   -0.2251
    1.3948    1.0766   -0.0366
    1.3265    0.8376    0.0322
    1.0888    0.7875   -0.0633
    0.8026    0.8212   -0.2200
    0.4288    0.7655   -0.2667
   -0.0287    0.5017   -0.1549
   -0.5002    0.0353    0.0275
   -0.9338   -0.5405    0.1154
   -1.2720   -1.2440    0.0677
   -1.4680   -2.0243   -0.0506
   -1.4867   -2.6909   -0.2466
   -1.3506   -3.1030   -0.5320
   -1.1317   -3.2059   -0.8463
   -0.9516   -3.0328   -1.1125
   -0.8211   -2.6633   -1.3674
   -0.7902   -2.1586   -1.5934
   -0.8398   -1.5692   -1.7140
   -0.8117   -1.0303   -1.7571
   -0.7070   -0.5630   -1.7898
   -0.5067   -0.0886   -1.8427
   -0.2359    0.3501   -1.8488
    0.0013    0.7347   -1.8212
    0.0897    1.0649   -1.7959
   -0.0086    1.3100   -1.7328
   -0.1559    1.3924   -1.6963
   -0.3496    1.2572   -1.6907
   -0.6789    1.0237   -1.6967
   -1.0484    0.8053   -1.8188
   -1.3052    0.5578   -2.0672
   -1.4690    0.2178   -2.2627
   -1.5999   -0.2154   -2.2206
   -1.6341   -0.6504   -1.9858
   -1.5990   -0.9582   -1.6303
   -1.5784   -1.1739   -1.1284
   -1.5761   -1.3746   -0.5381
   -1.6392   -1.4719    0.0822
   -1.6495   -1.4424    0.6908
   -1.4601   -1.4354    1.2657
   -1.2449   -1.5233    1.7793
   -1.1018   -1.6889    2.1082
   -0.9811   -1.8568    2.2003
   -0.9273   -1.8952    2.1470
   -0.9886   -1.8236    2.0558
   -1.1214   -1.7277    1.9674
   -1.2547   -1.5766    1.8298
   -1.3866   -1.3718    1.6773
   -1.4489   -1.2001    1.6722
   -1.3712   -1.0392    1.8523
   -1.2426   -0.8114    2.0997
   -1.1556   -0.5017    2.3065
   -1.1069   -0.0040    2.4917
   -1.0531    0.7164    2.7312
   -0.9970    1.5233    3.0400
   -0.8941    2.3499    3.3974
   -0.7023    3.1765    3.7735
   -0.4745    3.9778    4.1823
   -0.2588    4.7809    4.6131
   -0.0717    5.6084    5.0332
    0.1126    6.3438    5.3779
    0.2174    6.8569    5.5566
    0.1608    7.1498    5.5833
    0.0396    7.1699    5.4561
   -0.1040    6.9177    5.1707
   -0.2991    6.5206    4.7609
   -0.4852    6.0135    4.2272
   -0.6298    5.3797    3.5878
   -0.7743    4.6570    2.8618
   -0.9717    3.9619    2.1208
   -1.1382    3.3935    1.4467
   -1.0905    2.9243    0.8414
   -0.8899    2.4528    0.3395
   -0.6410    1.9439   -0.0146
   -0.3295    1.4288   -0.2611
    0.0279    0.8988   -0.4857
    0.4447    0.3296   -0.7425
    0.8662   -0.2556   -0.9553
    1.2006   -0.7711   -1.0493
    1.4238   -1.2160   -1.0587
    1.6418   -1.6281   -1.0662
    1.9177   -1.9336   -1.1911
    2.0964   -2.1296   -1.3908
    2.1919   -2.3284   -1.5901
    2.2419   -2.5636   -1.8249
    2.1788   -2.7470   -2.1009
    2.0375   -2.8242   -2.4522
    1.7709   -2.8130   -2.8755
    1.4065   -2.7461   -3.3326
    1.0093   -2.7049   -3.7914
    0.5420   -2.6993   -4.1937
    0.1046   -2.6885   -4.4744
   -0.2041   -2.7030   -4.6110
   -0.4731   -2.7063   -4.5782
   -0.6550   -2.6118   -4.3228
   -0.6190   -2.4972   -3.9622
   -0.4656   -2.5646   -3.6394
   -0.2050   -2.8518   -3.3817
    0.1168   -3.1839   -3.2629
    0.3123   -3.4309   -3.3050
    0.3806   -3.6578   -3.3770
    0.3764   -3.9370   -3.3340
    0.3825   -4.2865   -3.1543
    0.4456   -4.7458   -2.8704
    0.5757   -5.2094   -2.4887
    0.7792   -5.5654   -2.0382
    0.9494   -5.8582   -1.5470
    1.0369   -6.1183   -1.1345
    0.9770   -6.3176   -0.9043
    0.7941   -6.3232   -0.7326
    0.6823   -6.0767   -0.5759
    0.5635   -5.7001   -0.4637
    0.3577   -5.3497   -0.4052
    0.1926   -5.1420   -0.4108
    0.1004   -4.9437   -0.4351
    0.0153   -4.6396   -0.5409
   -0.1264   -4.3375   -0.6929
   -0.2640   -4.0629   -0.7673
   -0.3084   -3.7527   -0.7256
   -0.2551   -3.3084   -0.6059
   -0.1723   -2.7405   -0.5413
   -0.1054   -2.1136   -0.5399
    0.0420   -1.3914   -0.5081
    0.2978   -0.6238   -0.4211
    0.6725    0.1256   -0.3009
    1.2095    0.8909   -0.1437
    1.8092    1.6754    0.0687
    2.3172    2.4374    0.3175
    2.7130    3.2036    0.5584
    3.0591    4.0217    0.7656
    3.2916    4.7837    0.9869
    3.3955    5.3647    1.2606
    3.4287    5.7282    1.5478
    3.2944    5.8250    1.8443
    2.9763    5.6987    2.1297
    2.6119    5.4840    2.3000
    2.2461    5.2384    2.3271
    1.8312    4.9685    2.2621
    1.3742    4.7332    2.2190
    1.0065    4.5363    2.2798
    0.8292    4.3230    2.3102
    0.8026    4.1349    2.2106
    0.8830    4.0016    2.1012
    0.9462    3.9048    2.1475
    0.8994    3.8374    2.3940
    0.7857    3.7967    2.6980
    0.5766    3.8154    2.9464
    0.2843    3.8926    3.1256
   -0.0582    3.9567    3.2584
   -0.3720    3.8968    3.3627
   -0.6022    3.6555    3.4119
   -0.8305    3.3458    3.4881
   -0.9825    3.0871    3.6200
   -1.0592    2.9257    3.6813
   -1.1513    2.8850    3.5354
   -1.1602    2.7915    3.1714
   -1.0938    2.5309    2.7659
   -1.0901    2.1796    2.4688
   -1.1953    1.7675    2.3191
   -1.4432    1.4246    2.2420
   -1.7665    1.2230    2.1334
   -1.9868    1.0630    1.9005
   -2.2090    0.8937    1.5305
   -2.5411    0.6968    1.1212
   -2.8419    0.5190    0.6889
   -3.1113    0.4212    0.2909
   -3.3901    0.3586    0.0392
   -3.6769    0.2070    0.0116
   -3.9496   -0.1176    0.1814
   -4.1227   -0.5756    0.3624
   -4.1470   -1.0387    0.4134
   -4.0352   -1.4195    0.2876
   -3.8158   -1.7188   -0.0109
   -3.5089   -1.9560   -0.4543
   -3.1965   -2.1623   -0.9123
   -2.9149   -2.3274   -1.1883
   -2.6351   -2.3148   -1.2495
   -2.3316   -2.1375   -1.2145
   -1.9667   -2.0173   -1.1551
   -1.5761   -2.0206   -1.0746
   -1.2122   -2.0865   -1.0288
   -0.8665   -2.2376   -1.0582
   -0.5442   -2.5440   -1.1349
   -0.2766   -2.9028   -1.2182
   -0.0652   -3.1142   -1.3141
    0.0939   -3.1250   -1.4535
    0.1963   -2.9701   -1.6925
    0.2061   -2.7405   -2.1098
    0.1098   -2.4837   -2.7174
   -0.0015   -2.1829   -3.4411
   -0.1124   -1.8292   -4.0960
   -0.2191   -1.4620   -4.5483
   -0.1891   -1.1743   -4.7859
   -0.0072   -0.9690   -4.8014
    0.2529   -0.7945   -4.6143
    0.5336   -0.6663   -4.2223
    0.7146   -0.6051   -3.6670
    0.7815   -0.5840   -3.0224
    0.8105   -0.5990   -2.3965
    0.8671   -0.6308   -1.9344
    0.9429   -0.6313   -1.6182
    0.9597   -0.6270   -1.3730
    0.9420   -0.6743   -1.1948
    0.8390   -0.6836   -1.0868
    0.6169   -0.4872   -1.0171
    0.3638   -0.0783   -1.0194
    0.0962    0.4928   -1.1326
