********************************************************************************
              CENTRO DE INSTRUMENTACION Y REGISTRO SISMICO  A.C.

    Anaxagoras 814, Col. Narvarte, Benito Juarez, C.P. 03020 Mexico, D.F.
           Tels. 5687 45 42/ 5687 45  82             Fax. 5669 25 12
********************************************************************************
ARCHIVO ESTANDAR DE ACELERACION:
VERSION DEL FORMATO                    : 2.0
NOMBRE DEL ARCHIVO                     : VM2920210908014746
FECHA Y HORA DE CREACION               : 07/SEP/21, 23:38
REF. CATALOGO ACELEROGRAMAS, SMIS 1996 : REGISTRO No.     /PAG.


================================================================================
DATOS DE LA ESTACION:
NOMBRE DE LA ESTACION                  : VILLA DEL MAR
CLAVE DE LA ESTACION                   : VM29
LOCALIZACION DE LA ESTACION            : Del. Iztacalco, Col. Militar Marte,    
                                       : Cda. Playa Flamingos.                  
                                       :                                        
                                       :                                        
                                       : 
COORDENADAS DE LA ESTACION             : 19.3811 LAT. N
                                       : 99.1253 LONG. W
ALTITUD (msnm)                         : 2234
TIPO DE SUELO                          : Terreno blando, material compresible
                                       : (arcillas)                
                                       : 
INSTITUCION RESPONSABLE                : CIRES, A. C.
                                       : 

================================================================================
DATOS DEL ACELEROGRAFO:
MODELO DEL ACELEROGRAFO                : RAD_IO14
NUMERO DE SERIE DEL ACELEROGRAFO       : 
NUMERO DE CANALES                      : 3
ORIENTACION C1-C6 (rumbo;orientacion)  : /S00E/+V/N90W
ORIENTACION C7-C12 (rumbo;orientacion) : 
VEL. DE MUESTREO, C1-C6 (muestras/s)   : /100/100/100
VEL. DE MUESTREO, C7-C12 (muestras/s)  : 
ESC. COMPLETA DE SENSORES, C1-C6, (g)  : /2.0/2.0/2.0
ESC. COMPLETA DE SENSORES, C7-C12, (g) : 
FREC. NAT. DE SENSORES, C1-C6, (Hz)    : /52.35/51.1/51.1
FREC. NAT. DE SENSORES, C7-C12, (Hz)   : 
AMORTIGUAMIENTO DE SENSORES, C1-C6     : /0.5320/0.5731/0.6204
AMORTIGUAMIENTO DE SENSORES, C7-C12    : 
INTERVALO DE MUESTREO, C1-C6, (s)      : /0.01/0.01/0.01
INTERVALO DE MUESTREO, C7-C12, (s)     : 
UMBRAL DE DISPARO, C1-C6, (Gal)        : / / /
UMBRAL DE DISPARO, C7-C12, (Gal)       : 
MEMORIA DE PREEVENTO (s)               : 60
TIEMPO DE POSEVENTO (s)                : 90


================================================================================
DATOS DEL SISMO:
FECHA DEL SISMO (GMT)                  : 08/SEP/21
HORA EPICENTRO (GMT)                   : 01:47:46.0
MAGNITUD(ES)                           : /Mc=7.1
COORDENADAS DEL EPICENTRO              : 16.78 LAT. N
                                       : 99.93 LONG. W
PROFUNDIDAD FOCAL (km)                 : 10
FUENTE DE LOS DATOS EPICENTRALES       : SSN
                                       : INSTITUTO DE GEOFISICA, UNAM

================================================================================
DATOS DE ESTE REGISTRO:
HORA DE LA PRIMERA MUESTRA (GMT)       : 20:54:01.00
EXACTITUD DEL TIEMPO (s)               : 
DURACION DEL REGISTRO (s), C1-C6       : /657.09/657.09/657.09
DURACION DEL REGISTRO (s), C7-C12      : 
NUM. TOTAL DE MUESTRAS, C1-C6          : /65709/65709/65709
NUM. TOTAL DE MUESTRAS, C7-C12         : 
ACEL. MAX. (Gal), C1-C6                : /53.6275/11.11399/45.35127
ACEL. MAX., C1-C6, EN LA MUESTRA       : /16798/13802/14869
ACEL. MAX. (Gal), C7-C12               : 
ACEL. MAX., C7-C12, EN LA MUESTRA      : 
UNIDADES DE LOS DATOS                  : Gal (cm/s/s)
FACTOR DE DECIMACION                   : 1
FORMATO DATOS (FORTRAN,10 campos/dato) : 3F10.5


================================================================================
CALIDAD DEL ACELEROGRAMA:
REGISTRO DIGITAL COMPLETO CON TIEMPO ABSOLUTO CORRECTO.


================================================================================
COMENTARIOS:














================================================================================
DATOS DE ACELERACION:
---------+---------+---------+---------+---------+---------+---------+---------+
   CANAL-1   CANAL-2   CANAL-3   CANAL-4   CANAL-5   CANAL-6   CANAL-7   CANAL-8
      N00E        +V      N90W
---------+---------+---------+---------+---------+---------+---------+---------+
[...]
  13.52740  -2.12381   9.60563
  13.24570  -1.88931  10.41273
  12.85920  -1.48461  11.12053
  12.54870  -1.01161  11.85563
  12.21290  -0.67351  12.50003
  12.16290  -0.33911  13.00523
  11.83440   0.02799  13.81213
  11.64220   0.53209  14.07473
  11.31670   0.96789  14.55703
  10.96110   1.53739  15.10723
  10.33850   2.09409  15.55723
  10.11240   2.36039  16.13293
   9.49930   2.98589  16.40393
   9.20100   3.36229  16.75813
   8.73550   3.63629  17.40553
   8.02070   4.33139  17.75393
   7.56390   4.67579  18.17753
   6.90410   5.06049  18.56963
   6.36190   5.50909  18.89213
   5.73900   5.75599  18.88923
   5.20050   5.68289  19.20093
   4.54450   5.84229  19.27203
   3.87270   6.15489  19.31833
   3.05530   6.04039  19.20303
   2.39900   6.02069  18.99873
   1.63490   6.15279  18.85673
   0.77060   6.06579  18.48763
  -0.30710   5.76189  18.38593
  -0.97510   5.66649  18.20003
  -1.94560   5.54749  17.50253
  -2.56820   5.31599  17.40323
  -3.61940   4.99499  17.09853
  -4.22590   4.80719  16.71323
  -4.96800   4.54889  16.41553
  -5.84390   4.06329  16.44063
  -6.52590   3.91389  16.48573
  -7.14550   3.96299  16.43033
  -8.10110   3.38289  16.24043
  -9.00730   3.08289  16.12283
  -9.89460   3.11799  15.79013
 -10.77310   2.42329  15.65223
 -11.34380   2.26359  15.29333
 -11.86980   1.88159  14.95493
 -12.72400   1.66109  14.64143
 -13.31060   1.42469  14.00903
 -14.03160   1.15519  13.63303
 -14.79900   1.07519  13.36553
 -15.31100   0.99829  12.94043
 -15.77400   0.59239  12.53743
 -16.37020   0.48389  12.15533
 -16.78500   0.32229  11.73773
 -17.12890  -0.01831  11.32323
 -17.32320  -0.31551  10.96203
 -17.28350  -0.49671  10.53223
 -17.37530  -0.81381   9.83713
 -17.33020  -0.93141   9.43333
 -17.05760  -1.26411   8.87853
 -16.72650  -1.72351   8.33143
 -16.46420  -1.67441   7.75743
 -15.91710  -2.16401   7.12843
 -15.41950  -2.46541   6.88433
 -14.89140  -2.72681   6.41623
 -14.20770  -3.06041   6.07263
 -13.44480  -3.34711   5.79883
 -12.53180  -3.57811   5.58863
 -11.70850  -3.59511   5.26543
 -10.50300  -3.74271   5.06533
  -9.56220  -4.01651   4.81123
  -8.50720  -3.93071   4.41553
  -7.39540  -3.96811   4.11233
  -5.92180  -3.85581   3.62483
  -4.79670  -4.09641   3.38733
  -3.69220  -4.08121   3.14503
  -2.46210  -4.29841   2.96293
  -1.50320  -4.47051   3.01323
  -0.40950  -4.35271   3.01363
   0.60670  -4.51631   2.91613
   1.37100  -4.62881   3.40533
   2.43570  -4.49551   3.57383
   3.19050  -4.46331   3.83733
   4.11640  -4.44391   4.13573
   4.81830  -4.09481   4.52173
   5.51520  -4.05391   4.61263
   6.20220  -3.77071   4.85093
   6.97280  -3.55001   5.10063
   7.30880  -3.45911   5.21143
   7.66740  -3.44741   5.27113
   8.48900  -3.14651   5.40253
   8.72990  -3.13901   5.35013
   8.96410  -2.93301   5.41413
   9.48980  -2.81091   5.51403
   9.63470  -2.80141   5.26733
   9.75840  -2.75441   4.96623
  10.06140  -2.55491   4.93743
  10.15940  -2.31271   4.83313
  10.34830  -2.23301   4.54843
  10.48370  -2.15141   4.46823
  10.58370  -1.70061   4.34523
  10.73570  -1.77001   4.20373
  11.01230  -1.59631   4.00993
  11.21390  -1.63681   3.99893
  11.40000  -1.40621   3.69963
  11.59220  -1.35361   3.71763
  11.72030  -1.31411   3.76883
  11.89420  -1.26241   3.63773
  12.06120  -1.26901   3.30733
  12.31740  -1.28181   3.51683
  12.40180  -1.03701   3.28393
  12.67280  -0.92411   2.98933
  12.86130  -0.72771   2.84443
  12.93730  -0.48311   2.50463
  13.14560  -0.29561   2.21103
  13.17460  -0.25871   1.88813
  13.50260  -0.10511   1.69453
  13.58800   0.10089   1.21493
  13.54590   0.20849   0.81633
  13.80870   0.24559   0.49393
  14.07520   0.44599   0.05223
  14.31070   0.43459  -0.45887
  14.55760   0.41839  -0.90197
  14.45140   0.32649  -1.50187
  14.84960   0.26179  -1.91737
  14.84230   0.46119  -2.41657
  15.13830   0.32399  -2.92717
  15.31160   0.49529  -3.25377
  15.46800   0.54719  -3.85917
  15.75210   0.60149  -4.29197
  15.80470   0.72399  -4.90777
  15.94310   0.76489  -5.43617
  16.07570   0.66999  -5.75927
  16.05630   0.59659  -6.07637
  16.28590   0.66699  -6.47877
  16.33430   0.60169  -6.96487
  16.28890   0.79669  -7.26247
  16.16710   0.77449  -7.60667
  16.14890   0.75929  -7.89747
  16.01040   0.80469  -8.23677
  15.72150   0.72699  -8.60687
  15.35090   0.55819  -8.81897
  15.13670   0.54369  -9.25597
  14.91690   0.55729  -9.44297
  14.61270   0.37869  -9.54097
  14.32980   0.24629  -9.87667
  13.87510   0.23109 -10.09807
  13.48230   0.11819 -10.25967
  12.90900   0.03989 -10.22157
  12.39690   0.03589 -10.33937
  11.82410  -0.15751 -10.40227
  11.34600  -0.35781 -10.42077
  10.91130  -0.43011 -10.70977
  10.41210  -0.49061 -10.69757
  10.00460  -0.66041 -10.67697
   9.63470  -0.76891 -10.84767
   9.01370  -0.89091 -10.85937
   8.75650  -1.10551 -10.89727
   8.25380  -1.15281 -10.87317
   8.06230  -1.23761 -11.00227
   7.67030  -1.17011 -11.26247
   7.53000  -1.30971 -11.31647
   7.61810  -1.48951 -11.37447
   7.32770  -1.52061 -11.39037
   7.13670  -1.72051 -11.62297
   6.72290  -1.75021 -11.79527
   6.84050  -1.67441 -11.86667
   6.68850  -1.75461 -11.58417
   6.52320  -1.96831 -11.36927
   6.23630  -1.78591 -11.22087
   5.98400  -2.09901 -11.13617
   5.54910  -2.24721 -11.00577
   5.24470  -2.15181 -11.00897
   4.92980  -2.19141 -10.85727
   4.30640  -2.32301 -10.77217
   3.87600  -2.38141 -10.93187
   3.40820  -2.25211 -10.87977
   2.79110  -2.27931 -10.97277
   2.09550  -1.94261 -10.99917
   1.23790  -1.89391 -10.97867
   0.50540  -1.76581 -11.24567
  -0.47350  -1.45911 -11.29197
  -1.49530  -1.16841 -11.39857
  -2.42490  -1.26431 -11.65577
  -3.47240  -0.93351 -11.94847
  -4.60100  -0.69521 -12.00297
  -5.65540  -0.67861 -12.36537
  -6.72020  -0.60261 -12.40607
  -8.00590  -0.33471 -12.51947
  -9.27690   0.06959 -12.90097
 -10.43360   0.22009 -12.92507
 -11.68610   0.34059 -13.01487
 -12.94120   0.49699 -13.45557
 -14.39590   0.84109 -13.75467
 -15.62600   0.96479 -13.78597
 -17.13450   1.09879 -13.78647
 -18.34210   1.22859 -13.82897
 -19.71510   1.20519 -13.98397
 -21.19110   1.35389 -14.09697
 -22.34920   1.37419 -14.33217
 -23.61800   1.40719 -14.30007
 -25.06020   1.52149 -14.30647
 -26.32300   1.63629 -14.55217
 -27.44850   1.57479 -14.59467
 -28.41950   1.42189 -14.60217
 -29.37210   1.24049 -14.47147
 -30.51770   1.07399 -14.44907
 -31.56240   0.82099 -14.53437
 -32.70480   0.88319 -14.50307
 -33.63320   0.74879 -14.34057
 -34.54700   0.55679 -14.15327
 -35.45110   0.73029 -14.20147
 -36.29610   0.79579 -14.05137
 -37.31570   0.74579 -13.94777
 -38.23740   0.62859 -13.65997
 -39.15440   0.79949 -13.45747
 -40.00690   0.84089 -13.28817
 -40.70310   0.88299 -12.95007
 -41.23390   0.65669 -12.69687
 -41.90750   0.67489 -12.21337
 -42.29440   0.63819 -11.82667
 -42.56010   0.52829 -11.61437
 -42.60170   0.66669 -11.42407
 -42.92150   0.37979 -11.41377
 -42.96410   0.40389 -11.42267
 -42.84130   0.57439 -11.09997
 -42.87500   0.54399 -10.79387
 -42.89910   0.84789 -10.68497
 -42.61640   0.90449 -10.41487
 -42.18430   1.01349 -10.28237
 -41.95940   0.97539  -9.92177
 -41.78120   1.24099  -9.97727
 -41.37630   1.41299  -9.68897
 -41.22990   1.54959  -9.44667
 -40.93770   1.58579  -9.02637
 -40.19930   1.80509  -8.45067
 -39.68120   1.64639  -7.97627
 -39.02880   1.78289  -7.39667
 -38.11280   1.73759  -6.76427
 -37.31080   1.62979  -6.13927
 -36.47070   1.67119  -5.55987
 -35.23510   1.52969  -4.79557
 -34.43330   1.30429  -4.22877
 -33.42400   1.24309  -3.40487
 -32.36200   1.14279  -2.73217
 -31.17680   0.89019  -1.91477
 -29.71670   0.89139  -1.33637
 -28.28110   0.62649  -0.84437
 -26.77910   0.48549  -0.22977
 -25.19910   0.20029   0.29263
 -23.61030   0.00599   0.90193
 -22.10550  -0.15681   1.59913
 -20.60490  -0.30191   2.26973
 -19.02670  -0.50191   2.80463
 -17.40220  -0.67811   3.59563
 -16.04400  -0.88251   4.47333
 -14.55210  -1.18621   5.03073
 -12.88040  -1.30011   5.74733
 -11.71740  -1.55891   6.64843
 -10.37210  -1.63821   7.51443
  -9.15390  -1.56291   8.36623
  -7.72470  -1.70131   9.07703
  -6.40320  -1.89111   9.75973
  -5.08850  -1.65411  10.61693
  -3.90400  -1.68051  11.41553
  -2.70620  -1.55591  12.34563
  -1.55070  -1.50021  12.97153
  -0.26220  -1.52221  13.62323
   0.83980  -1.45321  14.34943
   1.95290  -1.19721  14.86633
   3.15870  -1.17121  15.44383
   4.21130  -0.89441  15.93063
   5.40460  -0.57671  16.23533
   6.16760  -0.34361  16.85653
   7.08270  -0.12541  17.36363
   8.30270  -0.02211  17.55353
   9.09840   0.14559  17.91683
  10.07150   0.32469  18.30803
  11.04040   0.49179  18.69033
  11.67050   0.62999  19.07333
  12.64430   0.72919  19.43403
  13.24710   0.88929  19.74973
  14.14840   1.03659  20.22383
  14.69340   1.09319  20.65333
  15.27090   1.21059  21.06343
  15.93280   1.14839  21.33373
  16.41700   1.40349  21.63113
  17.02380   1.42869  22.07143
  17.44880   1.40579  22.42823
  17.93260   1.58439  22.48343
  18.27230   1.54539  22.98533
  18.60670   1.71209  23.19623
  19.02680   1.62649  23.45763
  19.43620   1.81729  23.73893
  19.57840   1.92229  23.97793
  19.84400   1.81989  24.27883
  20.21740   1.90659  24.50953
  20.44530   1.87389  24.70453
  20.63350   1.89159  24.83593
  21.06610   1.94449  25.08033
  21.29010   1.73969  25.00083
  21.67890   1.77589  25.19933
  22.28700   1.86479  25.30473
  22.66770   1.71979  25.08993
  23.25240   1.71699  25.25613
  23.81030   1.86029  25.10133
  24.44300   1.81539  25.11723
  25.09160   1.89589  24.76773
  25.81760   2.04669  24.41413
  26.35910   2.01369  23.98283
  27.29050   2.03539  23.60523
  27.89450   1.93579  23.20353
  29.15520   1.79649  22.97343
  29.96630   1.71929  22.56853
  30.87230   1.63469  22.00363
  32.03850   1.33309  21.80763
  33.18810   1.23839  21.20333
  34.41590   1.06859  20.57013
  35.65060   0.90169  20.11213
  36.77620   0.73849  19.72323
  37.76850   0.50279  19.31813
  39.12780   0.37449  19.00313
  40.05910   0.24049  18.93973
  40.93750   0.14039  18.82073
  42.32300   0.00429  18.91193
  43.63450  -0.42401  18.82663
  45.16080  -0.57711  18.89253
  46.32910  -0.78061  18.85743
  47.55360  -0.66111  19.00573
  49.02680  -1.05671  19.05693
  50.03690  -1.07561  19.09783
  51.19960  -0.99921  19.15493
  52.00620  -1.01581  19.08193
  52.62540  -0.75651  18.86663
  53.12100  -0.50931  18.62483
  53.59730  -0.35951  18.42793
  53.62750   0.04639  17.79103
  53.60200   0.11629  17.11463
  53.27230   0.33489  16.60773
  52.92670   0.60619  15.76793
  52.08920   0.70479  15.01923
  51.38410   1.19839  14.31523
  50.50920   1.62909  13.89583
  49.27040   2.08449  13.48453
  47.68330   2.21969  12.91593
  46.05090   2.49699  12.55613
  44.38150   2.44109  11.99773
  42.72500   2.40559  11.16263
  41.15170   2.09409  10.36503
  39.13130   1.66019   9.80343
  37.08200   1.34849   9.25613
  34.91410   0.78759   8.76793
  32.74040   0.25799   8.59653
  30.65040  -0.09501   8.11563
  28.41050  -0.48641   7.75203
  26.38640  -0.63491   7.22433
  24.45020  -0.89071   6.50773
  22.44880  -1.41461   5.61663
  20.64270  -1.69381   4.49363
  18.65410  -1.60541   3.52473
  16.70110  -1.68941   2.61363
  14.88420  -1.96391   1.55683
  13.39580  -1.87451   0.26123
  11.93980  -1.92391  -0.75487
  10.31000  -1.87761  -1.87927
   8.75210  -1.83011  -3.01397
   7.13650  -1.92151  -4.07497
   5.33240  -1.92041  -5.05527
   3.61250  -1.89751  -5.98607
   2.25730  -1.94121  -7.25737
   0.92580  -1.94091  -8.51337
  -0.64420  -2.07591  -9.63307
  -2.03440  -2.00361 -10.67347
  -3.20470  -1.99001 -11.56827
  -4.43400  -2.58131 -12.51057
  -5.60660  -2.67581 -13.49227
  -6.75460  -2.71021 -14.27997
  -7.93180  -2.98401 -15.35037
  -9.15980  -3.33231 -16.11467
 -10.41860  -3.54511 -17.16497
 -11.54020  -3.70571 -18.07687
 -12.76560  -3.67931 -18.65687
 -13.73070  -3.86611 -19.26667
 -14.71410  -3.82851 -20.10277
 -15.70340  -3.78381 -21.17457
 -16.57450  -3.61881 -21.80307
 -17.43260  -3.47571 -22.76657
 -18.03560  -3.38171 -23.48667
 -18.72370  -2.90841 -24.41277
 -19.39290  -2.56901 -25.27697
 -20.03370  -2.17781 -26.06417
 -20.57900  -1.68841 -27.06327
 -21.56520  -1.09011 -27.53647
 -22.40110  -0.70501 -28.23437
 -23.13430  -0.19141 -29.34477
 -23.65610   0.52849 -30.02707
 -24.36880   0.75929 -30.90167
 -24.57740   1.12359 -31.84887
 -24.89040   1.73829 -32.80237
 -25.35360   2.10369 -33.70507
 -25.75430   2.36439 -34.45377
 -26.04780   2.54559 -35.28417
 -26.24720   2.55729 -35.89097
 -26.22780   2.66319 -36.50447
 -26.22240   2.59629 -37.04897
 -26.20650   2.43899 -37.31717
 -26.24860   2.08029 -37.79247
 -25.78120   1.54699 -38.79697
 -24.75340   1.17219 -39.65267
 -23.87290   1.09299 -40.12457
 -23.42470   1.18719 -40.48807
 -23.15140   1.55679 -41.05737
 -22.81820   1.96459 -41.99097
 -22.81160   2.20349 -42.75507
 -23.34030   2.03449 -43.12267
 -24.24930   2.49859 -43.32467
 -26.11630   2.76979 -43.51197
 -28.57850   2.79419 -43.04827
 -30.31240   2.68709 -42.18157
 -31.28320   2.23039 -41.30037
 -31.82100   1.47919 -40.39387
 -32.29800   0.60729 -39.72657
 -32.52640  -0.12381 -39.28867
 -32.85350  -0.67791 -39.00157
 -33.46980  -0.98861 -38.15937
 -34.52050  -0.85611 -37.13267
 -35.32320  -0.44621 -35.98677
 -35.90190   0.07799 -34.80027
 -36.31100   0.21659 -33.67237
 -36.55370   0.36959 -33.14467
 -36.89070   0.28869 -32.87527
 -37.34560   0.22929 -32.49607
 -37.47890   0.30029 -31.68707
 -37.85000   0.33279 -30.61767
 -38.23620   0.33539 -29.44597
 -38.44530   0.25759 -28.37397
 -38.79600   0.43949 -27.32447
 -38.69470   0.42029 -26.46077
 -38.32600   0.69919 -25.13037
 -38.18320   0.51779 -23.82637
 -37.85210   0.31649 -22.36627
 -37.59440   0.33959 -20.76117
 -37.18830   0.23489 -19.18557
 -36.77070  -0.37351 -17.75857
 -36.33300  -0.56451 -16.35347
 -35.90770  -0.65361 -14.90587
 -35.46470  -0.86361 -13.46077
 -35.01640  -1.16541 -11.94777
 -34.62580  -1.37931 -10.27137
 -33.94610  -1.52031  -8.82687
 -33.17780  -1.60261  -7.29777
 -32.21140  -1.84581  -5.95617
 -31.22030  -2.11961  -4.32017
 -30.15790  -2.40901  -2.79297
 -28.97760  -2.62531  -1.34947
 -28.05060  -2.77121  -0.15627
 -27.05640  -3.21171   0.92383
 -25.91450  -3.57041   2.02953
 -24.72770  -3.79461   3.35833
 -23.73560  -3.96571   4.80253
 -22.75480  -4.11001   5.96643
 -21.79220  -4.30151   6.88483
 -21.01780  -4.29841   7.61553
 -20.11650  -4.09691   8.52943
 -19.03730  -3.90351   9.26293
 -17.78100  -3.67631  10.29583
 -16.70880  -3.36201  10.96133
 -15.49720  -3.02841  11.53953
 -14.16730  -2.91011  12.34103
 -12.74870  -2.40671  13.15163
 -11.49580  -2.05151  13.80443
 -10.33230  -1.74901  14.47193
  -9.18240  -1.35061  14.81403
  -7.79620  -0.95891  15.43803
  -6.34000  -0.64381  16.17853
  -5.34940  -0.26361  16.69333
  -4.21070   0.03609  17.04313
  -3.20930   0.29959  17.61123
  -2.03440   0.75349  18.12193
  -1.08520   0.93019  18.54953
