********************************************************************************
              CENTRO DE INSTRUMENTACION Y REGISTRO SISMICO  A.C.

    Anaxagoras 814, Col. Narvarte, Benito Juarez, C.P. 03020 Mexico, D.F.
           Tels. 5687 45 42/ 5687 45  82             Fax. 5669 25 12
********************************************************************************
ARCHIVO ESTANDAR DE ACELERACION:
VERSION DEL FORMATO                    : 2.0
NOMBRE DEL ARCHIVO                     : XO3620210908014746
FECHA Y HORA DE CREACION               : 07/SEP/21, 23:38
REF. CATALOGO ACELEROGRAMAS, SMIS 1996 : REGISTRO No.     /PAG.


================================================================================
DATOS DE LA ESTACION:
NOMBRE DE LA ESTACION                  : JARDÍN DE NIÑOS "XOCHIMILCO"
CLAVE DE LA ESTACION                   : XO36
LOCALIZACION DE LA ESTACION            : Del. Xochimilco, Barrio la Concepción  
                                       : Tlacopa, Club España de Remo y         
                                       : Callejón Chicoco.                      
                                       :                                        
                                       : 
COORDENADAS DE LA ESTACION             : 19.2711 LAT. N
                                       : 99.1024 LONG. W
ALTITUD (msnm)                         : 2232
TIPO DE SUELO                          : Alto riesgo sísmico                 
                                       :                           
                                       : 
INSTITUCION RESPONSABLE                : CIRES, A. C.
                                       : 

================================================================================
DATOS DEL ACELEROGRAFO:
MODELO DEL ACELEROGRAFO                : RAD_IO14
NUMERO DE SERIE DEL ACELEROGRAFO       : 
NUMERO DE CANALES                      : 3
ORIENTACION C1-C6 (rumbo;orientacion)  : /N00E/+V/N90W
ORIENTACION C7-C12 (rumbo;orientacion) : 
VEL. DE MUESTREO, C1-C6 (muestras/s)   : /100/100/100
VEL. DE MUESTREO, C7-C12 (muestras/s)  : 
ESC. COMPLETA DE SENSORES, C1-C6, (g)  : /2.0/2.0/2.0
ESC. COMPLETA DE SENSORES, C7-C12, (g) : 
FREC. NAT. DE SENSORES, C1-C6, (Hz)    : /30/30/30
FREC. NAT. DE SENSORES, C7-C12, (Hz)   : 
AMORTIGUAMIENTO DE SENSORES, C1-C6     : /0.733/0.696/0.750
AMORTIGUAMIENTO DE SENSORES, C7-C12    : 
INTERVALO DE MUESTREO, C1-C6, (s)      : /0.01/0.01/0.01
INTERVALO DE MUESTREO, C7-C12, (s)     : 
UMBRAL DE DISPARO, C1-C6, (Gal)        : / / /
UMBRAL DE DISPARO, C7-C12, (Gal)       : 
MEMORIA DE PREEVENTO (s)               : 60
TIEMPO DE POSEVENTO (s)                : 90


================================================================================
DATOS DEL SISMO:
FECHA DEL SISMO (GMT)                  : 08/SEP/21
HORA EPICENTRO (GMT)                   : 01:47:46.0
MAGNITUD(ES)                           : /Mc=7.1
COORDENADAS DEL EPICENTRO              : 16.78 LAT. N
                                       : 99.93 LONG. W
PROFUNDIDAD FOCAL (km)                 : 10
FUENTE DE LOS DATOS EPICENTRALES       : SSN
                                       : INSTITUTO DE GEOFISICA, UNAM

================================================================================
DATOS DE ESTE REGISTRO:
HORA DE LA PRIMERA MUESTRA (GMT)       : 20:55:25.00
EXACTITUD DEL TIEMPO (s)               : 
DURACION DEL REGISTRO (s), C1-C6       : /573.63/573.63/573.63
DURACION DEL REGISTRO (s), C7-C12      : 
NUM. TOTAL DE MUESTRAS, C1-C6          : /57363/57363/57363
NUM. TOTAL DE MUESTRAS, C7-C12         : 
ACEL. MAX. (Gal), C1-C6                : /53.17903/14.26984/53.57087
ACEL. MAX., C1-C6, EN LA MUESTRA       : /5085/5213/5049
ACEL. MAX. (Gal), C7-C12               : 
ACEL. MAX., C7-C12, EN LA MUESTRA      : 
UNIDADES DE LOS DATOS                  : Gal (cm/s/s)
FACTOR DE DECIMACION                   : 1
FORMATO DATOS (FORTRAN,10 campos/dato) : 3F10.5


================================================================================
CALIDAD DEL ACELEROGRAMA:
REGISTRO DIGITAL COMPLETO CON TIEMPO ABSOLUTO CORRECTO.


================================================================================
COMENTARIOS:














================================================================================
DATOS DE ACELERACION:
---------+---------+---------+---------+---------+---------+---------+---------+
   CANAL-1   CANAL-2   CANAL-3   CANAL-4   CANAL-5   CANAL-6   CANAL-7   CANAL-8
      N00E        +V      N90W
---------+---------+---------+---------+---------+---------+---------+---------+
[...]
   2.94313  -7.68826  11.11283
   4.93103  -7.13246   8.61133
   6.76663  -6.76306   6.16003
   8.66683  -6.26106   4.01643
  10.36913  -5.79396   1.88863
  11.79213  -5.82336  -0.15417
  12.70093  -5.91066  -1.89237
  13.12413  -5.92676  -3.13617
  13.34743  -6.11586  -4.40347
  13.10333  -6.06606  -5.59077
  12.35113  -5.69246  -6.40887
  10.89313  -5.04766  -7.59987
   8.99243  -4.24406  -8.79207
   6.46643  -3.40046  -9.98147
   4.18003  -2.59496 -11.32817
   1.93663  -1.96116 -12.56197
  -0.24417  -1.69246 -13.81867
  -2.24737  -0.95196 -14.69477
  -4.07837  -0.22436 -15.18507
  -5.79247   0.60704 -15.90337
  -7.60137   1.37044 -16.65037
  -9.68677   2.12634 -17.21077
 -11.56397   2.72974 -17.74527
 -13.40427   2.84484 -18.13877
 -15.12747   2.66784 -18.82917
 -16.60117   2.09194 -19.60547
 -18.12957   1.24834 -20.19047
 -19.56607   0.47844 -20.80047
 -20.93807  -0.50376 -21.13367
 -22.15807  -1.33266 -21.37137
 -23.01267  -1.96606 -21.78877
 -23.40057  -2.66516 -22.77357
 -23.80227  -2.94406 -23.13037
 -23.97947  -3.17226 -23.76887
 -23.73207  -2.98846 -24.44137
 -23.55397  -3.00646 -24.97817
 -23.30427  -2.90946 -25.79597
 -22.74687  -2.85426 -26.30527
 -22.35357  -2.92116 -26.59497
 -21.94467  -3.07496 -26.73167
 -21.88667  -3.53466 -26.69147
 -21.76527  -4.06186 -26.81617
 -21.78147  -4.70296 -27.10137
 -21.76347  -5.00906 -27.34477
 -21.64257  -5.29176 -27.39407
 -22.15507  -5.37096 -27.53157
 -22.28737  -5.41006 -27.27367
 -22.76417  -5.54916 -26.82287
 -23.76387  -5.68266 -26.30967
 -24.17847  -5.63056 -25.91357
 -24.71597  -5.47366 -25.36717
 -25.10107  -5.51476 -24.80347
 -25.30397  -5.39576 -24.86007
 -25.47607  -5.22016 -24.63797
 -25.27737  -4.92116 -24.28817
 -25.08707  -4.42736 -23.91807
 -24.77257  -3.81216 -23.40417
 -24.17167  -3.31976 -22.72537
 -23.74357  -2.92746 -22.27887
 -22.89557  -2.13416 -21.75347
 -22.10737  -1.31066 -21.05067
 -21.45897  -0.59076 -20.56757
 -21.26677  -0.06006 -20.55077
 -20.83827   0.61824 -20.54207
 -20.20957   1.07134 -20.87267
 -19.76227   1.13914 -21.48317
 -19.08137   1.06714 -21.85847
 -18.52147   1.05804 -21.95107
 -18.07017   0.85394 -22.05577
 -17.58827   0.83894 -22.36137
 -16.99307   0.80604 -22.30247
 -16.38417   1.04124 -22.38637
 -16.07537   1.59624 -22.32537
 -15.51817   2.23944 -22.19907
 -15.24227   3.54624 -22.17127
 -15.24877   4.73114 -21.75747
 -15.50577   6.31154 -21.17547
 -15.77017   7.46024 -20.58907
 -16.40877   8.17804 -19.78897
 -17.00327   8.85414 -19.01067
 -17.63877   9.13594 -17.95177
 -18.49037   8.69684 -16.78177
 -19.31757   8.24584 -15.54117
 -20.08537   7.59514 -13.87157
 -20.58737   6.84524 -12.18247
 -21.26167   6.28974 -10.13507
 -21.57217   5.82124  -8.02627
 -21.70477   5.50014  -6.18927
 -22.12117   5.57544  -4.07847
 -22.36757   4.96714  -1.76327
 -22.75287   4.52594   0.56383
 -22.02837   3.73564   2.85893
 -21.81787   3.32714   5.22103
 -21.01617   2.80414   7.29143
 -20.32317   2.73774   9.41163
 -19.25627   2.27734  11.57223
 -18.24947   2.01624  13.63843
 -16.99517   1.49764  15.58163
 -15.66877   0.96804  17.31783
 -14.39537   0.50834  19.20613
 -12.91587   0.00104  20.71953
 -11.38157  -0.57206  21.91313
  -9.45597  -1.07876  23.06303
  -7.27007  -1.66026  24.18813
  -5.00427  -2.27066  24.97623
  -2.70587  -2.63566  25.44923
   0.04743  -2.95366  25.66533
   2.43133  -3.30876  25.90983
   5.24103  -3.47106  25.97323
   7.64553  -3.66306  25.57573
  10.14143  -3.98826  24.92323
  12.09323  -3.90546  24.02843
  13.70253  -3.62586  22.91683
  15.57303  -3.23096  21.64593
  17.04203  -2.46736  20.44833
  18.53283  -1.76146  19.37183
  19.53653  -0.85806  18.43893
  20.77013  -0.02896  17.76773
  21.30883   0.80974  16.81583
  21.73133   1.44294  15.54063
  21.69203   2.24724  14.59423
  21.19313   2.76764  13.23813
  20.67753   3.18104  11.87083
  19.65233   3.57334  10.52123
  18.75893   3.95004   9.40483
  17.43113   4.29284   8.44903
  16.24053   4.39424   7.45953
  14.81873   4.47234   6.58693
  13.79443   4.30844   6.10693
  12.67053   3.83104   5.88323
  11.80983   3.19714   5.64193
  10.78043   2.54224   5.06583
  10.12643   1.70474   4.98393
   7.32093   0.54904   4.28563
   7.18423   0.61924   3.52433
   8.42553  -0.40096   3.69383
   8.45773  -0.95946   3.73473
   8.40093  -2.19026   3.79853
   5.90453  -2.20686   4.59113
   5.16033  -2.05446   6.37953
   5.06103  -2.52106   7.28513
   5.25853  -2.90316   7.86423
   4.78343  -4.24306   9.00153
   4.10023  -5.01066   9.57553
   2.97913  -5.23986   9.99423
   3.11053  -5.28846  10.59583
   3.70533  -5.88886  11.71793
   3.92353  -6.42406  13.09943
   3.77033  -6.18046  14.12353
   3.90293  -6.00136  15.36833
   4.08553  -5.70346  16.71273
   3.82063  -5.16036  17.82643
   3.72923  -4.87926  18.91313
   3.79423  -4.50936  19.82143
   4.17813  -4.03076  20.15043
   4.55643  -3.28936  20.92273
   4.80703  -2.61156  21.74993
   5.23773  -1.77216  22.63113
   5.93943  -0.71446  23.55403
   6.25153   0.34124  24.50983
   6.94433   0.76794  25.54303
   7.60853   0.99094  25.79883
   8.40253   1.53404  25.78573
   9.11823   1.39124  25.65523
   9.65113   1.54414  25.55443
  10.12783   1.55164  25.32203
  10.47743   1.59604  24.54933
  11.00723   1.39174  23.70293
  11.55013   1.35824  22.59353
  12.15103   1.41784  21.22643
  12.42483   1.23854  19.69123
  13.06313   1.36714  17.89723
  13.55293   1.30374  15.84513
  14.37943   1.24724  13.61313
  15.33943   1.28434  11.15213
  16.42153   0.90004   8.70593
  17.31353   0.46904   6.07233
  18.18583   0.30964   3.44693
  18.70743   0.51324   1.13833
  19.07033   0.90914  -1.38197
  19.51853   1.33584  -3.51657
  19.79793   1.49434  -5.65267
  20.13693   1.82284  -7.36717
  20.34133   1.66834  -8.64127
  20.63473   1.33304  -9.70787
  20.69553   0.81464 -10.56847
  20.84803   0.05474 -11.07637
  20.78583  -0.72846 -11.63347
  20.62233  -1.62096 -12.19397
  20.49283  -2.36416 -12.41377
  19.85433  -3.01936 -12.58607
  19.46103  -3.55196 -12.52247
  18.88683  -3.67686 -12.19657
  18.65063  -3.66416 -11.59237
  18.30223  -2.97566 -10.52737
  17.60203  -2.05416  -9.32817
  16.73553  -1.27586  -7.81987
  15.99743  -0.56836  -6.22317
  15.20993  -0.33986  -4.57977
  14.46293  -0.15406  -3.09157
  13.49263  -0.01626  -1.58607
  12.59733   0.25024   0.07443
  11.52553   0.77514   1.84163
  10.41703   1.55424   3.89023
   9.21533   1.98184   5.67563
   8.08883   2.65634   7.64093
   7.17553   3.08304   9.12053
   6.40093   3.70684  10.30713
   6.10633   4.22004  11.58833
   5.28033   4.61494  12.94513
   4.56343   4.81394  13.79553
   4.35093   4.41534  14.73683
   4.14653   3.89744  15.22523
   3.93563   3.36784  15.44133
   4.20503   2.88974  15.43453
   4.84843   2.85064  15.25193
   5.31773   2.86824  15.29653
   5.75353   2.87964  15.08753
   5.59123   2.54624  14.89913
   5.58123   3.03284  14.70713
   5.75683   3.22174  14.03403
   6.26343   3.40694  12.99913
   6.35113   3.38514  11.52193
   5.90923   3.08194  10.01763
   5.47463   3.21654   8.15373
   5.38103   3.14504   6.39973
   5.58073   3.26264   4.94403
   5.57603   3.44754   4.19583
   5.16013   3.66714   3.23413
   4.32633   4.08634   2.49693
   3.17153   4.62874   1.67933
   2.08503   5.26284   1.18533
   1.08573   5.70314   0.84273
   0.01563   5.70034   0.34473
  -0.80247   5.87544  -0.04547
  -2.11487   5.53404  -0.10017
  -3.57637   5.41154  -0.07167
  -5.06687   5.43424   0.31173
  -6.69067   5.30634   0.81823
  -8.18377   5.43584   1.47053
  -9.87187   5.02064   1.98723
 -11.70797   4.60024   2.50443
 -13.57197   3.92544   3.09623
 -15.35707   3.27264   3.43123
 -17.35517   2.80254   3.80533
 -18.72067   2.32394   4.12563
 -20.20857   2.01124   4.75413
 -21.73677   1.32674   5.38243
 -22.68117   0.85024   6.11233
 -23.58947   0.32364   6.96243
 -24.61377  -0.56436   7.91713
 -25.19387  -1.08176   8.66883
 -25.78077  -1.86946   9.50603
 -26.48567  -2.44626  10.21893
 -26.90227  -2.73736  10.77123
 -27.47137  -3.07986  11.28063
 -27.90347  -3.12646  11.75413
 -28.21307  -3.22926  12.04943
 -28.46577  -3.01186  12.40643
 -28.54667  -2.78016  12.65263
 -28.56447  -2.85686  12.52943
 -28.62147  -2.92816  12.32183
 -28.40147  -3.08476  11.79533
 -28.26447  -3.08926  11.10603
 -27.63947  -3.29596  10.33263
 -27.12167  -3.00926   9.37113
 -26.63227  -2.67866   8.53693
 -25.74777  -2.15656   7.33493
 -25.39987  -1.75346   6.24533
 -24.96987  -1.09326   4.74203
 -24.34067  -0.67096   3.05953
 -23.80997  -0.31276   1.53763
 -23.36457   0.23924  -0.42287
 -22.95277   0.51884  -2.45437
 -23.06017   0.90354  -4.56637
 -23.03747   1.19394  -6.78617
 -23.08887   1.17074  -9.13017
 -23.49057   1.22334 -11.96557
 -23.46677   1.30234 -14.70767
 -23.92757   1.52284 -17.29167
 -24.70407   1.80014 -19.94657
 -25.48097   2.01944 -22.71017
 -26.36077   2.21264 -24.98677
 -27.30467   2.31824 -27.11287
 -27.89067   2.33724 -29.17007
 -28.27247   2.39704 -30.73427
 -28.82327   2.73724 -32.30457
 -29.18057   2.89694 -33.39757
 -29.65047   3.22174 -34.59467
 -30.19197   3.23624 -35.25127
 -30.83587   3.22334 -35.75017
 -31.25907   2.70874 -36.18247
 -31.74777   1.95984 -36.63707
 -31.84787   0.68044 -36.63027
 -31.78707  -0.54706 -36.72117
 -31.86447  -1.89866 -36.51517
 -31.68607  -3.34316 -36.05367
 -31.17957  -4.59686 -35.35507
 -30.60747  -5.80046 -34.22767
 -30.06017  -6.73296 -32.88487
 -29.32547  -7.42756 -31.50847
 -28.27687  -8.16266 -30.01817
 -27.47117  -8.93116 -28.64287
 -26.37487  -9.70116 -27.40367
 -24.94017 -10.63726 -26.50747
 -23.43957 -11.35366 -25.75887
 -21.58297 -11.76076 -25.23017
 -20.03557 -12.38946 -25.05627
 -18.14107 -12.56276 -24.83767
 -16.18877 -12.40186 -24.72917
 -14.27617 -12.02006 -24.92247
 -12.08987 -11.58816 -24.91147
  -9.66457 -10.88346 -25.15047
  -7.13237 -10.34386 -25.56827
  -4.45927  -9.86946 -26.12167
  -1.87447  -9.40726 -27.04177
   0.60953  -9.36936 -28.04947
   2.64133  -9.29196 -29.64797
   4.70633  -9.05066 -31.35407
   6.75583  -8.86666 -33.30247
   8.63893  -8.43626 -35.35087
  10.20783  -7.88066 -37.66737
  11.73463  -7.23066 -39.57487
  12.84753  -6.19376 -41.44597
  14.02523  -5.17876 -43.55967
  15.24943  -3.86546 -45.49557
  15.85523  -2.34476 -47.18317
  16.25783  -0.95226 -48.84817
  16.53933   0.30894 -50.32417
  16.85453   1.82094 -51.61057
  16.51973   3.06274 -52.36187
  16.39723   4.19294 -53.03587
  15.67773   5.17284 -53.53317
  15.27773   6.03674 -53.57087
  14.93073   6.82144 -53.23957
  14.42083   7.31314 -52.62157
  14.06383   7.71554 -51.75907
  13.67543   8.04004 -50.61437
  13.38173   8.09664 -49.34107
  13.35603   7.68844 -47.77617
  13.33053   7.09824 -46.12447
  13.38293   6.38304 -43.96037
  13.66963   5.79684 -41.53977
  13.92913   4.93554 -38.83527
  14.41473   4.65524 -35.82037
  14.99763   4.57714 -32.51797
  15.78343   4.61614 -28.86147
  16.64553   4.42864 -25.14207
  17.53613   3.96574 -21.47217
  18.63403   3.58134 -17.88697
  19.89403   2.86304 -14.35577
  21.42223   2.15134 -10.91217
  22.81013   1.51284  -7.47057
  24.33923   0.78914  -4.18767
  26.18773   0.05824  -1.03757
  28.43393  -0.93116   2.00123
  30.81013  -1.82126   4.88393
  33.08643  -2.61326   7.55423
  35.51883  -3.10236   9.96993
  37.63263  -3.39626  12.00193
  39.78233  -3.53536  14.10973
  41.70023  -3.46896  15.85373
  43.49823  -3.30016  17.30713
  45.31373  -3.08246  18.83833
  47.17463  -2.39816  20.16563
  48.92633  -1.68616  21.49863
  50.47413  -0.90616  22.59983
  51.72013   0.10104  23.53923
  52.58823   0.77604  24.44743
  53.17903   1.43194  25.29893
  53.07383   2.12654  26.03963
  53.02873   3.06484  26.57643
  52.57303   3.97014  27.32323
  52.00933   5.22124  28.08613
  50.80873   6.31994  29.18693
  49.78203   7.29424  30.10723
  48.49233   8.12754  30.50653
  46.90273   8.79754  31.01293
  45.51853   9.23714  31.54203
  44.13763   9.58034  32.02003
  42.51693   9.96054  32.51563
  41.04273  10.07774  33.01783
  39.32523  10.14364  33.67183
  37.74983   9.98044  34.00853
  36.09493   9.49204  34.20493
  34.55053   8.62294  34.28463
  32.68873   7.95614  34.05623
  31.46053   7.02554  34.02443
  30.25993   6.08514  34.02773
  29.08363   5.34544  33.93653
  27.94643   4.67884  33.86073
  27.17743   4.03304  33.74223
  26.44603   3.58224  33.71373
  25.69413   3.14034  33.64473
  25.25383   2.41504  33.66903
  24.97703   1.93224  33.66043
  24.87933   1.20444  33.49603
  24.56953   0.75974  33.12593
  23.85923   0.23414  32.61993
  23.41173  -0.58096  32.27743
  22.56533  -1.21906  31.97043
  21.54053  -1.68986  31.68233
  20.77663  -2.17736  31.21543
  19.81223  -2.46096  30.72843
  18.65163  -2.69766  30.56783
  17.28893  -3.03336  30.16803
  15.96143  -3.42246  29.74593
  14.52233  -3.91506  29.18623
  13.11873  -4.44116  28.32863
  11.96213  -5.02026  27.45343
  10.53003  -5.52876  26.60543
   8.98643  -5.77576  25.77473
   7.97353  -6.08176  24.84533
   6.77713  -6.09276  24.06813
   5.69463  -5.96646  23.20583
   4.94993  -6.02656  22.57433
   4.18003  -6.10726  21.71793
   3.36263  -6.19096  21.03233
   2.54263  -6.03596  20.35623
   1.61693  -6.06076  19.74853
   0.92863  -5.82946  19.35973
   0.33993  -5.56576  18.39403
  -0.24627  -5.02336  17.58023
  -0.96987  -4.69366  16.99493
  -1.06227  -4.37586  16.44523
  -1.20087  -3.96206  15.87053
  -1.37577  -3.44156  15.06183
  -1.55697  -3.02046  14.31033
  -1.89207  -2.69736  13.79063
  -1.91537  -2.68146  12.90633
  -2.32527  -2.61856  12.25963
  -3.06527  -2.46356  11.58513
  -3.63037  -2.41616  11.00173
  -4.31127  -1.96996  10.42093
  -5.34277  -1.42706  10.04923
  -6.65587  -0.87136   9.63283
  -7.83307  -0.50726   9.15673
  -9.56777   0.07164   8.54113
 -11.22517   0.32974   8.25173
 -12.79247   0.51984   8.07543
 -14.64347   0.87174   7.72253
 -16.56517   1.44334   7.45253
 -18.36827   1.81324   6.97553
 -20.03867   1.89864   6.58763
 -22.07647   2.06904   6.17873
 -23.98437   2.23664   5.62553
 -25.84437   2.37534   5.14153
 -27.55817   2.26214   4.44343
 -29.12347   2.31524   4.15493
 -30.88947   1.91384   3.74663
 -32.52657   1.58884   3.61623
 -33.75057   0.97084   3.54583
 -34.95817   0.56124   3.51003
 -36.09307  -0.00466   3.39263
 -36.59227  -0.66656   3.45933
 -37.06997  -1.19396   3.40413
 -37.23687  -1.54326   3.47703
 -37.20997  -1.91766   3.80463
 -36.66947  -2.53416   3.98723
 -35.89227  -2.83046   4.20403
 -34.90747  -3.38126   4.60173
 -33.66027  -4.04506   5.09343
 -32.09077  -4.89006   5.49833
 -30.29327  -5.66766   5.76933
 -28.23577  -6.28496   6.07053
 -26.13187  -6.94806   6.20933
 -23.66897  -7.33736   6.74763
 -21.28057  -7.91066   6.99283
 -18.58807  -8.30976   7.52803
 -15.76627  -8.66766   7.96293
 -13.28837  -9.28756   8.18573
 -10.75967  -9.50896   8.61293
  -8.00797  -9.57396   8.96313
  -4.86837  -9.23676   8.86773
  -2.41127  -9.11986   8.83953
  -0.05597  -8.84256   8.76673
   2.30363  -8.65836   8.10693
