********************************************************************************
              CENTRO DE INSTRUMENTACION Y REGISTRO SISMICO  A.C.

    Anaxagoras 814, Col. Narvarte, Benito Juarez, C.P. 03020 Mexico, D.F.
           Tels. 5687 45 42/ 5687 45  82             Fax. 5669 25 12
********************************************************************************
ARCHIVO ESTANDAR DE ACELERACION:
VERSION DEL FORMATO                    : 2.0
NOMBRE DEL ARCHIVO                     : AE0220200623152903
FECHA Y HORA DE CREACION               : 18/AGO/21, 13:41
REF. CATALOGO ACELEROGRAMAS, SMIS 1996 : REGISTRO No.     /PAG.


================================================================================
DATOS DE LA ESTACION:
NOMBRE DE LA ESTACION                  : ESC. PRIM. "GONZÁLEZ GARZÓN"
CLAVE DE LA ESTACION                   : AE02
LOCALIZACION DE LA ESTACION            : Del. Venustiano Carranza,              
                                       : Col. El Arenal 4a. Sección,            
                                       : Calle Xico esq. con calle Xocoyote.    
                                       :                                        
                                       : 
COORDENADAS DE LA ESTACION             : 19.4290 LAT. N
                                       : 99.0584 LONG. W
ALTITUD (msnm)                         : 2232
TIPO DE SUELO                          : Arcilloso, zona lago                
                                       :                           
                                       : 
INSTITUCION RESPONSABLE                : CIRES
                                       : 

================================================================================
DATOS DEL ACELEROGRAFO:
MODELO DEL ACELEROGRAFO                : RADESD
NUMERO DE SERIE DEL ACELEROGRAFO       : 242
NUMERO DE CANALES                      : 3
ORIENTACION C1-C6 (rumbo;orientacion)  : /N00E/+V/N90W
ORIENTACION C7-C12 (rumbo;orientacion) : 
VEL. DE MUESTREO, C1-C6 (muestras/s)   : /100/100/100
VEL. DE MUESTREO, C7-C12 (muestras/s)  : 
ESC. COMPLETA DE SENSORES, C1-C6, (g)  : /0.5/0.5/0.5
ESC. COMPLETA DE SENSORES, C7-C12, (g) : 
FREC. NAT. DE SENSORES, C1-C6, (Hz)    : /30/30/30
FREC. NAT. DE SENSORES, C7-C12, (Hz)   : 
AMORTIGUAMIENTO DE SENSORES, C1-C6     : /0.733/0.750/0.700
AMORTIGUAMIENTO DE SENSORES, C7-C12    : 
INTERVALO DE MUESTREO, C1-C6, (s)      : /0.01/0.01/0.01
INTERVALO DE MUESTREO, C7-C12, (s)     : 
UMBRAL DE DISPARO, C1-C6, (Gal)        : /1.8/4.49/1.8
UMBRAL DE DISPARO, C7-C12, (Gal)       :
MEMORIA DE PREEVENTO (s)               : 44.0
TIEMPO DE POSEVENTO (s)                : 64.0


================================================================================
DATOS DEL SISMO:
FECHA DEL SISMO (GMT)                  : 23/JUN/20
HORA EPICENTRO (GMT)                   : 15:29:03.0
MAGNITUD(ES)                           : /Mc=7.4
COORDENADAS DEL EPICENTRO              : 15.80 LAT. N
                                       : 96.13 LONG. W
PROFUNDIDAD FOCAL (km)                 : 22
FUENTE DE LOS DATOS EPICENTRALES       : SSN
                                       : INSTITUTO DE GEOFISICA, UNAM

================================================================================
DATOS DE ESTE REGISTRO:
HORA DE LA PRIMERA MUESTRA (GMT)       : 15:28:34.00
EXACTITUD DEL TIEMPO (s)               : 0.01
DURACION DEL REGISTRO (s), C1-C6       : /564.4/564.4/564.4
DURACION DEL REGISTRO (s), C7-C12      : 
NUM. TOTAL DE MUESTRAS, C1-C6          : /56440/56440/56440
NUM. TOTAL DE MUESTRAS, C7-C12         : 
ACEL. MAX. (Gal), C1-C6                : /31.19762/9.89929/21.80566
ACEL. MAX., C1-C6, EN LA MUESTRA       : /20443/18522/22341
ACEL. MAX. (Gal), C7-C12               : 
ACEL. MAX., C7-C12, EN LA MUESTRA      : 
UNIDADES DE LOS DATOS                  : Gal (cm/s/s)
FACTOR DE DECIMACION                   : 1
FORMATO DATOS (FORTRAN,10 campos/dato) : 3F10.5


================================================================================
CALIDAD DEL ACELEROGRAMA:
REGISTRO DIGITAL COMPLETO CON TIEMPO ABSOLUTO CORRECTO.


================================================================================
COMENTARIOS:














================================================================================
DATOS DE ACELERACION:
---------+---------+---------+---------+---------+---------+---------+---------+
   CANAL-1   CANAL-2   CANAL-3   CANAL-4   CANAL-5   CANAL-6   CANAL-7   CANAL-8
      N00E        +V      N90W
---------+---------+---------+---------+---------+---------+---------+---------+
[...]
  14.73748  -1.17542 -11.50367
  14.58784  -1.20535 -11.65331
  14.54295  -0.95096 -11.68324
  14.36339  -0.83125 -11.78798
  14.30353  -0.60680 -11.53360
  14.40828  -0.47212 -11.21936
  14.33346  -0.39730 -11.02483
  14.54295  -0.36738 -10.74052
  14.36339  -0.50205 -10.68067
  14.57288  -0.53198 -10.33650
  14.61777  -0.62176 -10.12701
  14.60281  -0.71154  -9.73795
  14.48310  -0.87614  -9.79780
  14.52799  -0.81629  -9.55838
  14.36339  -0.69658  -9.46860
  14.51303  -0.63672  -8.91494
  14.66266  -0.54694  -8.55581
  15.02179  -0.50205  -8.12186
  15.18640  -0.21774  -7.80762
  15.06669  -0.09803  -7.73281
  14.99187   0.08154  -7.38864
  14.99187   0.26110  -7.25396
  15.00683   0.39578  -7.02951
  15.09661   0.79980  -6.73023
  15.18640   0.85965  -6.46089
  15.42582   1.20382  -6.37110
  15.75502   1.30857  -6.07183
  15.85976   1.42828  -5.96708
  15.81487   1.35346  -5.78752
  15.85976   1.45820  -5.71270
  15.96451   1.54799  -5.42839
  16.05429   1.69762  -5.32364
  15.93458   1.96697  -5.32364
  15.97947   1.92208  -5.09918
  16.09918   1.96697  -4.96451
  16.08422   2.13157  -4.81487
  16.02437   2.17646  -4.59042
  16.21889   2.34106  -4.41085
  16.24882   2.43085  -4.29114
  16.20393   2.40092  -4.08165
  16.18897   2.41588  -3.82726
  16.26379   2.32610  -3.60281
  16.27875   2.56552  -3.61777
  16.29371   2.49070  -3.60281
  16.30868   2.61041  -3.55792
  16.59299   2.58048  -3.13893
  16.45831   2.50567  -3.12397
  16.47328   2.52063  -2.95937
  16.54810   2.37099  -2.70498
  16.45831   2.25128  -2.60024
  16.51817   2.43085  -2.48053
  16.62292   2.32610  -2.27103
  16.53313   2.07172  -2.22614
  16.32364   2.04179  -2.27103
  16.36853   2.02683  -2.03161
  16.17400   1.63777  -1.86701
  15.97947   1.62280  -1.92687
  15.65027   1.41331  -1.86701
  15.29114   1.18886  -1.89694
  15.09661   1.06915  -1.76226
  14.66266   0.72498  -1.77723
  14.12397   0.47059  -1.74730
  13.83966   0.35088  -1.49292
  13.40571   0.18628  -1.34328
  12.86701  -0.03817  -1.20861
  12.34328  -0.26263  -1.02904
  11.75969  -0.60680  -0.92429
  11.32575  -0.62176  -0.84948
  10.69727  -0.98089  -0.63998
  10.36806  -1.14549  -0.28085
   9.63484  -1.54951  -0.17611
   9.30564  -1.77397   0.03339
   8.72205  -1.99843   0.07828
   8.22825  -2.37252   0.25784
   7.76437  -2.49223   0.45237
   7.10596  -2.82143   0.55712
   6.59720  -3.10574   0.66186
   6.16325  -3.49480   0.85639
   5.68441  -3.94371   0.93121
   5.32528  -4.09335   1.23049
   4.83147  -4.42256   1.45494
   4.27781  -4.81161   1.46991
   3.79897  -4.91636   1.76918
   3.35006  -5.17074   2.05349
   3.05079  -5.18571   2.23306
   2.45224  -5.44009   2.42759
   2.06318  -5.42513   2.75679
   1.70405  -5.61966   2.75679
   1.21024  -5.70944   3.01117
   0.89600  -5.55980   3.29549
   0.38724  -5.72440   3.35534
   0.02811  -5.57476   3.41520
  -0.31606  -5.61966   3.69951
  -0.83979  -5.61966   3.78929
  -1.28870  -5.51491   3.77433
  -1.55805  -5.33534   3.84915
  -2.18653  -5.26053   3.84915
  -2.48581  -5.09592   3.92396
  -2.85990  -5.02111   4.02871
  -3.36867  -4.76672   3.98382
  -3.72780  -4.66198   4.11849
  -4.26649  -4.54227   3.93893
  -4.64059  -4.36270   4.14842
  -5.01468  -4.18313   4.04367
  -5.59827  -4.18313   4.16338
  -6.09207  -3.71926   3.93893
  -6.70559  -3.56962   3.81922
  -7.24428  -3.37509   3.74440
  -7.75305  -3.06085   3.51994
  -8.39649  -2.82143   3.20570
  -8.90526  -2.35756   3.07103
  -9.59359  -2.10317   2.65204
 -10.10236  -1.98346   2.32284
 -10.77573  -1.57944   1.85897
 -11.43413  -1.28017   1.36516
 -11.98779  -0.92104   1.02099
 -12.60131  -0.80133   0.73668
 -13.30460  -0.45716   0.07828
 -13.82834  -0.11299  -0.26589
 -14.50171   0.12643  -0.71480
 -15.02544   0.41074  -1.17868
 -15.74370   0.69505  -1.74730
 -16.34225   0.82972  -2.27103
 -16.92583   1.23375  -2.73491
 -17.46453   1.39835  -3.18382
 -17.95833   1.54799  -3.52799
 -18.52696   1.96697  -3.97690
 -18.93098   2.02683  -4.50063
 -19.33500   2.25128  -4.90465
 -19.78391   2.38596  -5.21889
 -20.29268   2.52063  -5.65284
 -20.87627   2.56552  -6.11672
 -21.16058   2.81991  -6.62549
 -21.51971   2.87976  -6.84994
 -21.89380   2.84983  -7.28389
 -22.14819   2.96954  -7.71784
 -22.44746   2.89472  -8.27150
 -22.71681   2.98451  -8.82516
 -22.71681   2.98451  -9.16933
 -22.95623   2.93962  -9.46860
 -23.15076   2.83487  -9.82773
 -23.25551   2.92465 -10.21679
 -23.19565   2.74509 -10.51606
 -23.24054   2.65530 -10.83030
 -23.36025   2.53559 -11.11462
 -23.27047   2.59545 -11.33907
 -23.40514   2.46077 -11.44382
 -23.34529   2.31114 -11.54856
 -23.31536   2.16150 -11.65331
 -23.53982   2.07172 -11.99748
 -23.50989   1.90712 -12.11719
 -23.46500   1.92208 -12.02740
 -23.61464   1.80237 -12.04237
 -23.67449   1.66770 -12.04237
 -23.65953   1.60784 -12.13215
 -23.68945   1.35346 -12.20697
 -23.61464   1.33849 -12.23690
 -23.59967   1.42828 -12.11719
 -23.64456   1.17389 -12.08726
 -23.83909   1.06915 -12.05733
 -23.83909   0.85965 -11.74309
 -23.92887   0.73994 -11.45878
 -23.95880   0.75491 -11.27922
 -23.98873   0.65016 -11.00987
 -24.09348   0.65016 -10.75548
 -24.10844   0.54541 -10.32154
 -24.25808   0.44067 -10.06715
 -24.24311   0.41074  -9.66313
 -24.40771   0.29103  -9.33393
 -24.58728   0.14139  -8.85509
 -24.72195   0.02168  -8.61567
 -24.75188  -0.00825  -8.16675
 -24.75188   0.11146  -7.79266
 -24.70699   0.00672  -7.23900
 -24.75188   0.08154  -6.80505
 -25.00627   0.05161  -6.32621
 -25.20079  -0.00825  -5.80248
 -25.14094   0.41074  -5.62292
 -25.02123   0.18628  -4.79991
 -25.02123   0.12643  -4.32107
 -25.05116   0.21621  -3.72252
 -25.12598   0.21621  -3.48310
 -25.09605   0.39578  -3.06411
 -25.12598   0.12643  -2.33089
 -24.94641   0.45563  -1.76226
 -25.12598   0.24614  -1.26846
 -24.88655   0.36585  -0.68487
 -24.69203   0.57534  -0.08632
 -24.79677   0.32096   0.61697
 -24.58728   0.53045   1.21552
 -24.58728   0.42570   1.81407
 -24.30297   0.60527   2.15824
 -23.98873   0.78483   2.72686
 -23.82413   0.85965   3.29549
 -23.70442   1.06915   3.98382
 -23.62960   1.00929   4.49259
 -23.28543   1.12900   5.18092
 -23.12083   1.14396   5.56998
 -22.92630   1.02425   5.85429
 -22.64199   1.06915   6.27327
 -22.23797   1.02425   6.88679
 -21.93869   1.09907   7.27585
 -21.60949   1.12900   7.51527
 -21.34014   1.24871   7.66490
 -20.89123   1.42828   7.94922
 -20.53210   1.32353   8.26345
 -20.11312   1.33849   8.68244
 -19.81384   1.20382   8.98172
 -19.43975   0.99433   9.34085
 -19.00580   1.29360   9.47552
 -18.33243   1.27864   9.81969
 -17.64409   1.42828   9.99925
 -17.24007   1.57791  10.01421
 -16.76123   1.59288  10.17882
 -16.20757   1.65273  10.17882
 -15.75866   1.60784  10.16385
 -15.19004   1.51806  10.14889
 -14.65134   1.51806  10.13392
 -14.17250   1.33849  10.19378
 -13.48417   1.41331   9.93940
 -12.84073   1.21878   9.61019
 -12.25714   1.06915   9.32588
 -11.74837   0.94943   9.01164
 -11.01515   0.84469   8.54777
 -10.37171   0.66512   8.15871
  -9.69834   0.69505   7.78461
  -9.06986   0.54541   7.39556
  -8.50124   0.33592   6.85686
  -7.88772   0.32096   6.54262
  -7.27421   0.20125   6.24335
  -6.57091   0.24614   5.76451
  -5.97236   0.27607   5.39041
  -5.38878   0.08154   5.03128
  -4.79022   0.02168   4.58237
  -4.28146  -0.00825   4.02871
  -3.57816  -0.17285   3.80425
  -3.09932  -0.32248   3.37030
  -2.48581  -0.36738   3.07103
  -2.02193  -0.56190   2.71190
  -1.61791  -0.66665   2.05349
  -1.37849  -0.81629   1.48487
  -1.04928  -0.98089   0.97610
  -0.95950  -1.10060   0.42244
  -0.61534  -0.99585  -0.02647
  -0.40584  -1.04075  -0.61006
  -0.21131  -1.22031  -1.11882
  -0.21131  -1.36995  -1.89694
  -0.21131  -1.57944  -2.45060
  -0.27117  -1.68419  -3.04915
  -0.30110  -1.68419  -3.54295
  -0.25621  -1.72908  -4.08165
  -0.52555  -1.93857  -4.84480
  -0.72008  -2.05828  -5.33860
  -0.89965  -2.14806  -5.84737
  -0.91461  -2.20792  -6.40103
  -1.22885  -2.40245  -7.14922
  -1.43834  -2.44734  -7.58317
  -1.60294  -2.65683  -8.18172
  -1.82740  -2.59698  -8.72041
  -2.26135  -2.76158  -9.10947
  -2.62048  -2.73165  -9.33393
  -3.09932  -2.76158  -9.78284
  -3.21903  -2.74661  -9.82773
  -3.47341  -2.77654  -9.97737
  -3.68291  -2.80647 -10.11204
  -3.93729  -2.67180 -10.00730
  -4.23657  -2.71669  -9.91751
  -4.56577  -2.65683  -9.52846
  -4.74533  -2.38748  -9.25911
  -5.01468  -2.20792  -8.73538
  -5.31396  -2.05828  -8.18172
  -5.59827  -1.77397  -7.65799
  -5.65812  -1.42980  -7.28389
  -5.70301  -1.47469  -7.29886
  -5.46359  -1.42980  -7.26893
  -5.32892  -1.59440  -7.32878
  -5.40374  -1.41484  -7.43353
  -5.46359  -1.50462  -7.44849
  -5.41870  -1.22031  -7.49339
  -5.29899  -1.08564  -7.29886
  -5.16432  -0.98089  -7.29886
  -5.05957  -0.89111  -7.41857
  -4.92490  -0.74147  -7.50835
  -4.64059  -0.54694  -7.47842
  -4.35628  -0.41227  -7.58317
  -3.96722  -0.27759  -7.52331
  -3.78765  -0.17285  -7.61310
  -3.27888  -0.20277  -7.59813
  -2.74019   0.08154  -7.62806
  -2.15660  -0.08306  -7.53828
  -1.55805   0.23117  -7.53828
  -0.89965   0.38081  -7.41857
  -0.27117   0.29103  -7.17915
   0.23760   0.36585  -7.13425
   0.97082   0.51549  -6.96965
   1.79383   0.73994  -7.10433
   2.54202   0.73994  -7.02951
   3.33510   0.85965  -6.92476
   4.41249   0.93447  -6.53570
   5.50484   0.94943  -6.14665
   6.67202   0.90454  -5.77255
   7.95890   0.79980  -5.57802
   9.09614   0.88958  -5.57802
  10.09872   0.81476  -5.35357
  11.25093   0.57534  -5.26378
  12.28343   0.53045  -5.21889
  13.77980   0.50052  -5.08422
  14.72252   0.53045  -5.21889
  15.74005   0.51549  -5.11415
  16.60795   0.51549  -5.05429
  17.62549   0.42570  -4.87473
  18.62806   0.66512  -4.94955
  19.52589   0.71001  -5.33860
  20.51349   0.73994  -5.86234
  21.23175   0.73994  -6.25139
  22.18944   0.93447  -6.64045
  23.16208   0.91951  -7.19411
  24.00005   0.85965  -7.61310
  24.79313   0.99433  -7.79266
  25.60117   1.14396  -7.59813
  26.18476   1.06915  -7.16418
  26.81324   1.05418  -6.89483
  27.63624   1.05418  -6.83498
  28.26472   0.91951  -6.89483
  28.78845   0.93447  -6.79009
  29.20744   0.88958  -6.76016
  29.56657   0.75491  -6.55067
  30.06037   0.81476  -6.38607
  30.22497   0.88958  -6.34118
  30.49432   0.72498  -6.32621
  30.86842   0.66512  -6.16161
  30.92827   0.62023  -5.86234
  30.92827   0.50052  -5.60795
  31.19762   0.39578  -5.48824
  31.12280   0.29103  -5.42839
  30.98813   0.18628  -5.12911
  31.10784   0.12643  -5.03933
  30.94324   0.11146  -4.85976
  30.76367  -0.08306  -4.35100
  30.64396  -0.09803  -4.29114
  30.49432  -0.30752  -3.70755
  30.22497  -0.56190  -3.22871
  29.94066  -0.66665  -2.89951
  29.88081  -0.72651  -2.28600
  29.38700  -0.77140  -1.98672
  28.86327  -0.71154  -1.50788
  28.20487  -0.87614  -1.10386
  27.75595  -0.87614  -0.81955
  27.27711  -0.78636  -0.47538
  26.66360  -0.81629  -0.11625
  26.10994  -0.68161   0.52719
  25.46650  -0.63672   1.15567
  24.83802  -0.56190   1.78415
  24.11976  -0.65169   2.20313
  23.46135  -0.57687   2.45752
  23.02741  -0.53198   3.19074
  22.26425  -0.62176   3.81922
  21.48614  -0.68161   4.37288
  20.93248  -0.66665   4.97143
  20.33393  -0.54694   5.46523
  19.55581  -0.92104   6.09371
  18.89741  -0.89111   6.57255
  18.20907  -0.87614   7.06635
  17.64045  -1.07067   7.91929
  16.93716  -1.22031   8.44302
  16.27875  -1.19038   8.83208
  15.62034  -1.23527   9.26603
  15.06669  -1.08564  10.08903
  14.19879  -0.74147  10.88211
  13.46556  -0.60680  11.54052
  12.70241  -0.44219  11.82483
  12.23853  -0.35241  12.15403
  11.63998  -0.26263  12.46827
  11.14618  -0.35241  12.72266
  10.47281  -0.41227  12.93215
   9.97901  -0.54694  13.11171
   9.42535  -0.54694  13.27631
   8.97643  -0.66665  13.41099
   8.45270  -0.78636  13.41099
   7.94394  -1.02578  13.56063
   7.46510  -1.34002  13.78508
   7.09100  -1.44477  13.82997
   6.58223  -1.65426  14.05443
   6.11836  -1.72908  14.36867
   5.63952  -1.69915  14.63802
   5.23549  -1.41484  14.69787
   4.98111  -1.45973  14.98218
   4.60702  -1.47469  15.14678
   4.30774  -1.42980  15.14678
   3.99350  -1.36995  15.17671
   3.91868  -1.36995  15.26649
   3.78401  -1.29513  15.37124
   3.75408  -1.34002  15.29642
   3.63437  -1.57944  14.86247
   3.55955  -1.66922  14.54823
   3.55955  -1.71411  14.38363
   3.61941  -1.86375  14.26392
   3.93365  -1.87872  14.06939
   3.97854  -1.96850  13.75515
   4.02343  -2.14806  13.53070
   3.90372  -2.31266  13.09675
   3.97854  -2.44734  12.70769
   4.03839  -2.65683  12.16900
   3.81394  -2.83640  11.73505
   3.88876  -3.01596  11.67519
   3.93365  -3.04589  11.30110
   3.60444  -3.30027  10.79233
   3.37999  -3.46487  10.38831
   3.40992  -3.49480   9.86458
   3.42488  -3.67437   9.77479
   3.45481  -3.56962   9.31092
   3.29021  -3.53969   8.93682
   3.26028  -3.49480   8.41309
   3.37999  -3.50977   8.38316
   3.06575  -3.37509   7.81454
   2.99093  -3.30027   7.47038
   2.76647  -3.41998   7.18606
   2.64676  -3.55466   6.85686
   2.67669  -3.41998   6.49773
   2.39238  -3.67437   5.95904
   2.40734  -3.62948   5.76451
   2.34749  -3.94371   5.64480
   2.42231  -3.82400   5.45027
   2.36245  -3.86890   5.31559
   2.19785  -3.80904   5.40538
   2.06318  -3.74919   5.18092
   1.85368  -3.59955   5.19588
   1.89858  -3.56962   5.21085
   1.71901  -3.62948   5.16596
   1.71901  -3.41998   5.34552
   1.40477  -3.43495   5.42034
   1.12046  -3.12071   5.46523
   0.98579  -2.86632   5.49516
   0.80622  -2.73165   5.59991
   0.73140  -2.40245   5.65976
   0.47702  -2.35756   5.83933
   0.22263  -2.22288   5.79443
  -0.10657  -2.13310   5.91414
  -0.33102  -1.75901   5.88422
  -0.54052  -1.48966   5.97400
  -0.64526  -1.32506   5.95904
  -0.95950  -1.07067   5.85429
  -1.09418  -0.80133   5.85429
  -1.30367  -0.59183   5.83933
  -1.37849  -0.29256   5.91414
  -1.52812  -0.11299   5.95904
  -1.69273   0.39578   6.01889
  -1.85733   0.62023   6.12364
  -2.06682   0.76987   6.22838
  -1.90222   1.24871   6.49773
  -2.00697   1.48813   6.63240
  -1.88726   1.77244   6.90175
  -1.90222   1.92208   7.20103
  -1.81244   2.14654   7.30577
  -1.75258   2.26625   7.72476
  -1.73762   2.16150   8.08389
  -1.57302   2.32610   8.24849
  -1.37849   2.58048   7.88936
  -1.27374   2.65530   7.39556
  -1.03432   2.87976   6.79701
  -1.00439   3.11918   6.39298
  -0.98943   3.31371   6.22838
  -1.03432   3.44838   6.27327
  -1.04928   3.67284   6.36306
  -0.91461   4.00204   6.40795
  -0.76497   4.42103   6.25831
  -0.79490   4.97469   5.89918
  -0.64526   5.34878   5.70465
  -0.51059   5.58820   5.52509
  -0.28613   6.02215   5.15099
   0.16278   6.38128   5.00135
   0.23760   6.54588   4.80683
   0.41716   6.80027   4.61230
   0.44709   6.78530   4.31302
   0.64162   7.05465   4.22324
   0.56680   7.15940   3.87907
   0.77629   7.35392   3.87907
