********************************************************************************
              CENTRO DE INSTRUMENTACION Y REGISTRO SISMICO  A.C.

    Anaxagoras 814, Col. Narvarte, Benito Juarez, C.P. 03020 Mexico, D.F.
           Tels. 5687 45 42/ 5687 45  82             Fax. 5669 25 12
********************************************************************************
ARCHIVO ESTANDAR DE ACELERACION:
VERSION DEL FORMATO                    : 2.0
NOMBRE DEL ARCHIVO                     : AL0120200623152903
FECHA Y HORA DE CREACION               : 18/AGO/21, 13:41
REF. CATALOGO ACELEROGRAMAS, SMIS 1996 : REGISTRO No.     /PAG.


================================================================================
DATOS DE LA ESTACION:
NOMBRE DE LA ESTACION                  : ALAMEDA
CLAVE DE LA ESTACION                   : AL01
LOCALIZACION DE LA ESTACION            : Del. Cuauhtémoc, Col. Centro,          
                                       : Dr. Mora entre Av. Hidalgo             
                                       : y Av. Juárez.                          
                                       :                                        
                                       : 
COORDENADAS DE LA ESTACION             : 19.4356 LAT. N
                                       : 99.1453 LONG. W
ALTITUD (msnm)                         : 2232
TIPO DE SUELO                          : Terreno blando, material compresible
                                       : (arcillas)                
                                       : 
INSTITUCION RESPONSABLE                : CIRES, A. C.
                                       : 

================================================================================
DATOS DEL ACELEROGRAFO:
MODELO DEL ACELEROGRAFO                : RAD_IO14
NUMERO DE SERIE DEL ACELEROGRAFO       : 
NUMERO DE CANALES                      : 3
ORIENTACION C1-C6 (rumbo;orientacion)  : /S00E/+V/N90W
ORIENTACION C7-C12 (rumbo;orientacion) : 
VEL. DE MUESTREO, C1-C6 (muestras/s)   : /100/100/100
VEL. DE MUESTREO, C7-C12 (muestras/s)  : 
ESC. COMPLETA DE SENSORES, C1-C6, (g)  : /2.0/2.0/2.0
ESC. COMPLETA DE SENSORES, C7-C12, (g) : 
FREC. NAT. DE SENSORES, C1-C6, (Hz)    : /51.29/51.09/53.75
FREC. NAT. DE SENSORES, C7-C12, (Hz)   : 
AMORTIGUAMIENTO DE SENSORES, C1-C6     : /0.5519/0.5670/0.5810
AMORTIGUAMIENTO DE SENSORES, C7-C12    : 
INTERVALO DE MUESTREO, C1-C6, (s)      : /0.01/0.01/0.01
INTERVALO DE MUESTREO, C7-C12, (s)     : 
UMBRAL DE DISPARO, C1-C6, (Gal)        : / / /
UMBRAL DE DISPARO, C7-C12, (Gal)       :
MEMORIA DE PREEVENTO (s)               : 60
TIEMPO DE POSEVENTO (s)                : 90


================================================================================
DATOS DEL SISMO:
FECHA DEL SISMO (GMT)                  : 23/JUN/20
HORA EPICENTRO (GMT)                   : 15:29:03.0
MAGNITUD(ES)                           : /Mc=7.4
COORDENADAS DEL EPICENTRO              : 15.80 LAT. N
                                       : 96.13 LONG. W
PROFUNDIDAD FOCAL (km)                 : 22
FUENTE DE LOS DATOS EPICENTRALES       : SSN
                                       : INSTITUTO DE GEOFISICA, UNAM

================================================================================
DATOS DE ESTE REGISTRO:
HORA DE LA PRIMERA MUESTRA (GMT)       : 10:27:25.00
EXACTITUD DEL TIEMPO (s)               : 
DURACION DEL REGISTRO (s), C1-C6       : /540.01/540.01/540.01
DURACION DEL REGISTRO (s), C7-C12      : 
NUM. TOTAL DE MUESTRAS, C1-C6          : /54001/54001/54001
NUM. TOTAL DE MUESTRAS, C7-C12         : 
ACEL. MAX. (Gal), C1-C6                : /40.92712/6.95771/30.09589
ACEL. MAX., C1-C6, EN LA MUESTRA       : /19189/20390/19463
ACEL. MAX. (Gal), C7-C12               : 
ACEL. MAX., C7-C12, EN LA MUESTRA      : 
UNIDADES DE LOS DATOS                  : Gal (cm/s/s)
FACTOR DE DECIMACION                   : 1
FORMATO DATOS (FORTRAN,10 campos/dato) : 3F10.5


================================================================================
CALIDAD DEL ACELEROGRAMA:
REGISTRO DIGITAL COMPLETO CON TIEMPO ABSOLUTO CORRECTO.


================================================================================
COMENTARIOS:














================================================================================
DATOS DE ACELERACION:
---------+---------+---------+---------+---------+---------+---------+---------+
   CANAL-1   CANAL-2   CANAL-3   CANAL-4   CANAL-5   CANAL-6   CANAL-7   CANAL-8
      S00E        +V      N90W
---------+---------+---------+---------+---------+---------+---------+---------+
[...]
   0.64472   1.98971  -3.06381
   0.22572   1.98971  -2.10611
  -0.31298   1.92991  -1.08861
  -0.91148   2.10941   0.04869
  -1.68958   2.10941   1.06619
  -2.46778   2.10941   1.90419
  -3.30568   2.10941   2.92169
  -4.14368   2.10941   3.93919
  -5.16118   2.10941   4.89689
  -6.17878   2.16931   5.73489
  -7.19628   2.22911   6.81229
  -8.27368   2.16931   7.59039
  -9.41088   2.16931   8.48819
 -10.48828   2.16931   9.32619
 -11.62558   2.16931  10.22399
 -12.64308   2.22911  11.00209
 -13.72048   2.28901  11.78019
 -14.79788   2.34881  12.49849
 -15.75558   2.34881  13.21679
 -16.65338   2.34881  13.87519
 -17.61108   2.40871  14.41389
 -18.56878   2.40871  15.01239
 -19.28698   2.34881  15.61099
 -20.12498   2.28901  16.14969
 -20.90308   2.28901  16.56859
 -21.56148   2.28901  16.98759
 -22.16008   2.34881  17.34679
 -22.87828   2.40871  17.76569
 -23.47688   2.40871  18.18469
 -23.95568   2.34881  18.48399
 -24.49438   2.34881  18.78329
 -24.97328   2.28901  19.08259
 -25.39218   2.28901  19.32199
 -25.87108   2.28901  19.56139
 -26.23018   2.10941  19.68109
 -26.52948   1.92991  19.74099
 -26.76888   1.63061  19.74099
 -27.00828   1.57071  19.80079
 -27.12798   1.39121  19.62129
 -27.12798   1.15171  19.44169
 -27.24768   1.03201  19.26209
 -27.30758   0.91231  18.84309
 -27.24768   0.73281  18.48399
 -27.06818   0.61311  17.94529
 -26.88858   0.43351  17.34679
 -26.76888   0.19411  16.68839
 -26.52948   0.01451  15.91019
 -26.23018  -0.16509  15.07229
 -25.75138  -0.34459  14.17439
 -25.33238  -0.46429  13.21679
 -24.91338  -0.64389  12.19919
 -24.37468  -0.82349  11.24149
 -23.71628  -0.94319  10.28389
 -23.05788  -1.06289   9.26629
 -22.27978  -1.06289   8.36849
 -21.38188  -1.12269   7.35099
 -20.42428  -1.12269   6.45309
 -19.46658  -1.12269   5.67499
 -18.44908  -1.12269   4.95679
 -17.49138  -1.12269   4.17869
 -16.41398  -1.12269   3.46039
 -15.33658  -1.06289   2.98159
 -14.25918  -1.12269   2.44289
 -13.18178  -1.12269   1.84429
 -12.10438  -1.12269   1.30559
 -11.02698  -1.18259   0.88659
 -10.00948  -1.18259   0.40779
  -8.99198  -1.18259  -0.01121
  -7.97438  -1.24249  -0.31051
  -7.01668  -1.12269  -0.78931
  -6.11888  -1.06289  -1.26821
  -5.22108  -1.12269  -1.86671
  -4.32328  -1.00299  -2.34551
  -3.42538  -1.00299  -2.88421
  -2.70718  -0.88329  -3.54261
  -1.98888  -0.88329  -4.08131
  -1.27068  -0.82349  -4.73971
  -0.61228  -0.82349  -5.27841
  -0.01368  -0.70379  -5.81711
   0.52502  -0.64389  -6.47551
   1.00382  -0.64389  -7.07411
   1.42282  -0.58409  -7.55291
   1.84182  -0.64389  -8.15151
   2.20092  -0.52419  -8.75001
   2.61992  -0.46429  -9.28871
   2.97912  -0.52419  -9.76761
   3.21852  -0.46429 -10.12671
   3.57762  -0.46429 -10.60551
   3.87692  -0.46429 -10.96471
   4.23602  -0.40449 -11.32381
   4.53532  -0.34459 -11.62311
   4.89442  -0.40449 -11.92241
   5.19372  -0.46429 -12.04211
   5.55282  -0.46429 -12.22161
   5.91192  -0.58409 -12.46101
   6.33092  -0.58409 -12.64061
   6.80982  -0.70379 -12.76031
   7.28862  -0.82349 -12.76031
   7.76752  -0.88329 -12.64061
   8.36602  -0.94319 -12.70051
   8.90472  -1.12269 -12.70051
   9.62302  -1.30229 -12.64061
  10.28142  -1.36219 -12.58081
  10.99962  -1.42199 -12.52091
  11.59822  -1.60159 -12.46101
  12.31642  -1.84099 -12.28151
  13.03472  -1.90089 -12.28151
  13.87272  -1.96069 -12.28151
  14.59092  -2.14029 -12.16181
  15.30922  -2.20009 -12.10191
  16.02752  -2.31979 -12.04211
  16.80562  -2.43959 -11.98221
  17.58372  -2.49939 -11.92241
  18.24212  -2.55929 -11.92241
  18.90052  -2.73879 -11.80261
  19.49902  -2.73879 -11.74281
  20.15742  -2.79869 -11.68291
  20.75602  -2.79869 -11.68291
  21.29472  -2.73879 -11.56321
  21.83342  -2.73879 -11.44351
  22.31222  -2.79869 -11.38371
  22.73122  -2.79869 -11.26391
  23.26992  -2.85849 -11.20411
  23.68892  -2.97829 -11.20411
  24.04802  -3.15779 -11.02451
  24.40722  -3.33739 -10.96471
  24.82612  -3.51689 -10.84501
  25.18532  -3.63669 -10.84501
  25.42472  -3.81619 -10.84501
  25.66412  -3.93589 -10.90481
  25.84372  -4.17539 -10.96471
  25.90352  -4.29509 -11.14421
  25.96342  -4.47459 -11.26391
  26.08312  -4.59429 -11.44351
  26.08312  -4.65419 -11.62311
  25.96342  -4.65419 -11.86251
  25.78382  -4.71399 -11.92241
  25.60432  -4.71399 -12.04211
  25.30502  -4.65419 -12.10191
  24.94592  -4.65419 -11.98221
  24.46702  -4.65419 -11.98221
  23.98822  -4.59429 -12.04211
  23.38962  -4.59429 -11.98221
  22.73122  -4.47459 -11.74281
  22.01302  -4.35489 -11.50341
  21.17502  -4.17539 -11.38371
  20.27722  -3.99579 -11.02451
  19.49902  -3.81619 -10.90481
  18.60122  -3.45709 -10.54571
  17.64352  -3.15779 -10.24641
  16.80562  -2.91839  -9.82741
  15.96762  -2.55929  -9.70771
  15.30922  -2.20009  -9.34861
  14.53112  -1.90089  -8.98951
  13.81282  -1.54169  -8.80991
  13.15442  -1.12269  -8.45081
  12.55592  -0.70379  -8.15151
  12.01722  -0.40449  -7.85221
  11.53832  -0.10519  -7.49311
  11.11932   0.19411  -7.25371
  10.70042   0.43351  -6.83471
  10.34122   0.73281  -6.41571
  10.16172   1.03201  -6.11641
   9.86242   1.27151  -5.81711
   9.68282   1.45101  -5.33831
   9.44342   1.69041  -4.85951
   9.38352   1.87001  -4.50031
   9.26382   1.92991  -4.14121
   9.20402   1.98971  -3.84191
   9.02442   2.04961  -3.42291
   8.96462   2.04961  -3.06381
   8.90472   2.10941  -2.70471
   8.84482   2.04961  -2.34551
   8.72512   1.92991  -2.04631
   8.60542   1.87001  -1.74701
   8.48572   1.81021  -1.44771
   8.36602   1.75031  -1.20831
   8.18642   1.57071  -0.90901
   8.06672   1.51091  -0.54991
   7.82732   1.45101  -0.31051
   7.64772   1.27151  -0.07111
   7.28862   1.21161   0.28809
   6.98932   1.21161   0.76689
   6.57042   1.15171   1.24579
   6.21122   1.03201   1.66469
   5.85212   0.97221   2.02389
   5.43312   0.85251   2.44289
   5.13382   0.79261   2.98159
   4.71482   0.79261   3.63999
   4.41562   0.79261   4.17869
   3.99662   0.67291   4.89689
   3.57762   0.67291   5.67499
   3.15862   0.61311   6.27359
   2.67982   0.61311   6.99179
   2.20092   0.61311   7.76999
   1.72212   0.67291   8.54809
   1.18342   0.67291   9.32619
   0.64472   0.79261  10.10429
   0.04622   0.91231  10.82259
  -0.55238   1.03201  11.60069
  -1.21078   1.09191  12.31889
  -1.86918   1.27151  13.15689
  -2.52758   1.33131  13.93499
  -3.12618   1.33131  14.59339
  -3.78458   1.33131  15.19199
  -4.50278   1.39121  15.91019
  -5.16118   1.27151  16.56859
  -5.81958   1.27151  17.10729
  -6.53788   1.27151  17.58619
  -7.25618   1.15171  18.06499
  -7.97438   1.09191  18.48399
  -8.75248   1.09191  18.90299
  -9.47078   0.97221  19.26209
 -10.24888   0.91231  19.50149
 -11.02698   0.85251  19.74099
 -11.74528   0.85251  19.98039
 -12.46348   0.79261  20.04019
 -13.36138   0.73281  20.10009
 -14.07958   0.61311  20.15989
 -14.91758   0.67291  20.27969
 -15.63588   0.79261  20.45919
 -16.41398   0.85251  20.63879
 -17.13218   0.91231  20.63879
 -17.85048   0.85251  20.75849
 -18.62858   0.97221  20.93809
 -19.28698   1.09191  20.99789
 -20.00528   1.33131  21.05779
 -20.66368   1.51091  21.11759
 -21.32208   1.81021  21.11759
 -21.98048   1.98971  21.23729
 -22.63888   2.16931  21.23729
 -23.23748   2.40871  21.11759
 -23.77618   2.52841  20.99789
 -24.37468   2.64811  20.75849
 -24.91338   2.82771  20.51909
 -25.51188   2.82771  20.21979
 -25.99078   2.88751  19.68109
 -26.58928   2.88751  19.02269
 -27.06818   2.94741  18.30439
 -27.60688   2.88751  17.46649
 -28.08568   2.88751  16.74819
 -28.56458   2.88751  15.85039
 -29.04338   2.76781  14.89269
 -29.40248   2.82771  13.75549
 -29.82148   2.70801  12.67809
 -30.12078   2.76781  11.54079
 -30.53978   2.64811  10.46339
 -30.71928   2.52841   9.32619
 -30.95878   2.52841   8.36849
 -31.19818   2.52841   7.29109
 -31.37768   2.40871   6.27359
 -31.55728   2.28901   5.13629
 -31.61718   2.10941   4.23849
 -31.61718   2.04961   3.34069
 -31.55728   1.92991   2.44289
 -31.37768   1.81021   1.60489
 -31.19818   1.69041   0.94649
 -30.77918   1.57071   0.52749
 -30.36018   1.33131   0.04869
 -29.70178   1.15171  -0.19081
 -29.04338   0.91231  -0.37031
 -28.32508   0.67291  -0.43021
 -27.60688   0.37361  -0.54991
 -26.76888   0.07441  -0.49001
 -25.87108  -0.22489  -0.31051
 -24.85348  -0.40449  -0.25061
 -23.83598  -0.64389  -0.13091
 -22.81848  -0.94319  -0.07111
 -21.92058  -1.18259   0.22819
 -21.08268  -1.30229   0.52749
 -20.12498  -1.36219   0.70709
 -19.10748  -1.54169   0.88659
 -18.32928  -1.66139   0.88659
 -17.31178  -1.84099   0.64719
 -16.41398  -1.96069   0.40779
 -15.51618  -2.25999   0.10849
 -14.61828  -2.49939  -0.37031
 -13.78038  -2.61909  -0.72951
 -13.12198  -2.73879  -1.32801
 -12.52338  -2.73879  -1.92661
 -11.92488  -2.73879  -2.46531
 -11.38618  -2.67899  -3.00401
 -10.78758  -2.49939  -3.60251
 -10.30878  -2.37969  -4.32081
  -9.82988  -2.25999  -5.03901
  -9.35108  -2.02059  -5.81711
  -8.87218  -1.84099  -6.59531
  -8.57298  -1.60159  -7.25371
  -7.97438  -1.24249  -7.85221
  -7.37588  -0.94319  -8.57051
  -6.77728  -0.76359  -9.16901
  -6.11888  -0.40449  -9.82741
  -5.40068  -0.04539 -10.12671
  -4.74218   0.13421 -10.60551
  -3.90428   0.25391 -10.96471
  -3.06628   0.43351 -11.38371
  -2.10858   0.55321 -11.68291
  -1.15088   0.79261 -11.92241
  -0.19328   0.91231 -12.10191
   0.88412   0.97221 -12.28151
   2.02142   1.09191 -12.16181
   3.09882   1.21161 -12.16181
   4.29592   1.33131 -12.16181
   5.55282   1.51091 -11.98221
   6.86962   1.63061 -11.92241
   8.24632   1.81021 -11.74281
   9.62302   1.92991 -11.68291
  11.05952   1.98971 -11.50341
  12.49602   2.04961 -11.50341
  13.99242   2.22911 -11.44351
  15.48882   2.28901 -11.26391
  17.10482   2.22911 -11.20411
  18.60122   2.28901 -11.08441
  20.21732   2.34881 -11.08441
  21.77352   2.34881 -11.02451
  23.38962   2.28901 -11.02451
  24.94592   2.22911 -10.96471
  26.38242   2.16931 -10.96471
  27.81892   1.98971 -10.90481
  29.25542   1.87001 -10.90481
  30.63212   1.69041 -10.90481
  31.94892   1.39121 -10.90481
  33.08612   1.21161 -10.90481
  34.28322   0.85251 -10.90481
  35.36062   0.49331 -10.90481
  36.25852   0.13421 -10.90481
  37.15632  -0.22489 -10.78511
  37.93442  -0.58409 -10.72531
  38.65272  -0.94319 -10.60551
  39.31112  -1.42199 -10.54571
  39.73002  -1.72129 -10.54571
  40.20892  -2.02059 -10.60551
  40.50822  -2.31979 -10.66541
  40.74762  -2.61909 -10.78511
  40.92712  -2.85849 -10.96471
  40.74762  -3.03809 -10.96471
  40.38852  -3.21769 -11.14421
  40.14902  -3.33739 -11.20411
  39.61032  -3.45709 -11.32381
  38.77242  -3.57679 -11.62311
  37.75482  -3.63669 -11.86251
  36.55772  -3.57679 -11.92241
  35.30082  -3.51689 -12.10191
  33.92412  -3.45709 -12.28151
  32.30802  -3.39719 -12.46101
  30.63212  -3.21769 -12.70051
  28.77662  -3.09799 -12.88001
  26.86122  -2.97829 -13.11951
  24.82612  -2.79869 -13.41871
  22.67142  -2.49939 -13.53841
  20.51662  -2.31979 -13.77791
  18.48152  -2.08039 -14.01731
  16.38662  -1.84099 -14.19681
  14.23182  -1.72129 -14.37641
  12.25662  -1.48189 -14.55601
  10.34122  -1.18259 -14.73551
   8.42592  -1.06289 -14.85531
   6.51052  -0.94319 -14.91511
   4.83462  -0.82349 -14.91511
   3.21852  -0.64389 -14.97501
   1.66222  -0.52419 -14.79541
   0.22572  -0.40449 -14.55601
  -1.09108  -0.40449 -14.37641
  -2.28818  -0.34459 -14.01731
  -3.36558  -0.34459 -13.71801
  -4.26338  -0.34459 -13.29901
  -4.98168  -0.34459 -12.93991
  -5.64008  -0.40449 -12.46101
  -6.23858  -0.52419 -11.86251
  -6.59778  -0.52419 -11.26391
  -6.83718  -0.64389 -10.66541
  -7.01668  -0.70379  -9.94711
  -7.07658  -0.76359  -9.22891
  -7.01668  -0.94319  -8.39091
  -6.95688  -1.00299  -7.55291
  -6.77728  -1.06289  -6.77481
  -6.47798  -1.12269  -5.87701
  -6.23858  -1.12269  -4.91931
  -5.93928  -1.12269  -3.90181
  -5.52038  -1.18259  -2.94411
  -5.22108  -1.06289  -2.04631
  -4.98168  -0.94319  -1.08861
  -4.62248  -0.82349  -0.19081
  -4.20358  -0.58409   0.64719
  -3.90428  -0.34459   1.48519
  -3.48528  -0.28479   2.38299
  -3.18598  -0.10519   3.40049
  -2.82688   0.01451   4.29839
  -2.40788   0.13421   5.13629
  -2.04878   0.31381   6.03419
  -1.68958   0.43351   6.93199
  -1.39038   0.55321   7.82979
  -1.21078   0.67291   8.66779
  -1.09108   0.79261   9.68529
  -1.09108   0.91231  10.58309
  -1.09108   1.15171  11.48099
  -1.09108   1.33131  12.43859
  -1.27068   1.51091  13.27659
  -1.56988   1.69041  14.17439
  -1.92908   1.87001  15.01239
  -2.34798   2.04961  15.79049
  -2.94658   2.28901  16.56859
  -3.66488   2.46861  17.28689
  -4.38308   2.58831  17.94529
  -4.98168   2.70801  18.54389
  -5.87948   2.82771  19.14239
  -6.59778   3.00731  19.62129
  -7.49558   3.06711  20.04019
  -8.33358   3.06711  20.57889
  -9.11168   3.18681  21.11759
 -10.00948   3.12701  21.53659
 -10.78758   3.00731  21.89569
 -11.44598   2.94741  22.25489
 -12.04458   2.82771  22.55419
 -12.70298   2.82771  22.79359
 -13.24168   2.76781  22.91329
 -13.72048   2.58831  23.03299
 -14.07958   2.46861  23.09279
 -14.49858   2.40871  23.15269
 -14.73798   2.34881  23.09279
 -14.97748   2.22911  22.91329
 -15.03728   2.22911  22.73369
 -14.97748   2.22911  22.55419
 -14.97748   2.28901  22.25489
 -14.85778   2.28901  21.95559
 -14.61828   2.34881  21.53659
 -14.25918   2.34881  21.17749
 -13.90008   2.40871  20.75849
 -13.42118   2.46861  20.39939
 -12.88248   2.40871  19.92049
 -12.34378   2.46861  19.50149
 -11.74528   2.46861  19.14239
 -11.08688   2.46861  18.60369
 -10.24888   2.52841  18.00519
  -9.47078   2.52841  17.52629
  -8.81238   2.64811  16.92779
  -8.09408   2.82771  16.20949
  -7.31598   2.94741  15.55109
  -6.41818   3.00731  14.77299
  -5.58018   3.00731  13.93499
  -4.80208   3.00731  13.09709
  -3.90428   3.12701  12.25909
  -3.00648   3.18681  11.36129
  -2.10858   3.24671  10.52329
  -1.27068   3.30651   9.68529
  -0.43268   3.36641   8.84729
   0.40532   3.42621   8.00939
   1.24332   3.42621   7.11149
   1.90172   3.36641   6.39329
   2.56012   3.30651   5.55529
   2.97912   3.36641   4.95679
   3.51772   3.24671   4.29839
   4.05642   3.24671   3.63999
   4.47542   3.24671   3.16109
   4.77472   3.06711   2.80199
   5.01412   2.88751   2.26329
   5.07402   2.76781   1.78449
   5.13382   2.52841   1.36549
   5.01412   2.34881   1.06619
   4.77472   2.22911   0.88659
   4.47542   1.98971   0.64719
   3.99662   1.81021   0.46759
   3.45792   1.45101   0.10849
   2.85932   1.15171  -0.19081
   2.14112   0.85251  -0.49001
   1.30312   0.55321  -0.72951
   0.46512   0.31381  -1.02871
  -0.61228   0.13421  -1.26821
  -1.62978  -0.10519  -1.56741
  -2.58748  -0.40449  -1.86671
  -3.60498  -0.52419  -2.10611
  -4.62248  -0.70379  -2.46531
  -5.58018  -0.82349  -2.76451
  -6.41818  -0.94319  -3.12371
  -7.25618  -1.12269  -3.48281
  -7.97438  -1.24249  -3.84191
  -8.57298  -1.24249  -4.44051
  -9.17148  -1.24249  -4.79961
