********************************************************************************
              CENTRO DE INSTRUMENTACION Y REGISTRO SISMICO  A.C.

    Anaxagoras 814, Col. Narvarte, Benito Juarez, C.P. 03020 Mexico, D.F.
           Tels. 5687 45 42/ 5687 45  82             Fax. 5669 25 12
********************************************************************************
ARCHIVO ESTANDAR DE ACELERACION:
VERSION DEL FORMATO                    : 2.0
NOMBRE DEL ARCHIVO                     : AO2420200623152903
FECHA Y HORA DE CREACION               : 18/AGO/21, 13:41
REF. CATALOGO ACELEROGRAMAS, SMIS 1996 : REGISTRO No.     /PAG.


================================================================================
DATOS DE LA ESTACION:
NOMBRE DE LA ESTACION                  : ALBERCA OLÍMPICA
CLAVE DE LA ESTACION                   : AO24
LOCALIZACION DE LA ESTACION            : Del. Benito Juárez, Col. General Pedro 
                                       : María Anaya, Río Churubusco            
                                       : y División del Norte.                  
                                       :                                        
                                       : 
COORDENADAS DE LA ESTACION             : 19.3580 LAT. N
                                       : 99.1539 LONG. W
ALTITUD (msnm)                         : 2235
TIPO DE SUELO                          : Transición                          
                                       :                           
                                       : 
INSTITUCION RESPONSABLE                : CIRES
                                       : 

================================================================================
DATOS DEL ACELEROGRAFO:
MODELO DEL ACELEROGRAFO                : RADESD
NUMERO DE SERIE DEL ACELEROGRAFO       : 257
NUMERO DE CANALES                      : 3
ORIENTACION C1-C6 (rumbo;orientacion)  : /N00E/+V/N90W
ORIENTACION C7-C12 (rumbo;orientacion) : 
VEL. DE MUESTREO, C1-C6 (muestras/s)   : /100/100/100
VEL. DE MUESTREO, C7-C12 (muestras/s)  : 
ESC. COMPLETA DE SENSORES, C1-C6, (g)  : /0.5/0.5/0.5
ESC. COMPLETA DE SENSORES, C7-C12, (g) : 
FREC. NAT. DE SENSORES, C1-C6, (Hz)    : /30/30/30
FREC. NAT. DE SENSORES, C7-C12, (Hz)   : 
AMORTIGUAMIENTO DE SENSORES, C1-C6     : /0.700/0.700/0.700
AMORTIGUAMIENTO DE SENSORES, C7-C12    : 
INTERVALO DE MUESTREO, C1-C6, (s)      : /0.01/0.01/0.01
INTERVALO DE MUESTREO, C7-C12, (s)     : 
UMBRAL DE DISPARO, C1-C6, (Gal)        : /1.2/2.69/1.2
UMBRAL DE DISPARO, C7-C12, (Gal)       :
MEMORIA DE PREEVENTO (s)               : 44.0
TIEMPO DE POSEVENTO (s)                : 257.0


================================================================================
DATOS DEL SISMO:
FECHA DEL SISMO (GMT)                  : 23/JUN/20
HORA EPICENTRO (GMT)                   : 15:29:03.0
MAGNITUD(ES)                           : /Mc=7.4
COORDENADAS DEL EPICENTRO              : 15.80 LAT. N
                                       : 96.13 LONG. W
PROFUNDIDAD FOCAL (km)                 : 22
FUENTE DE LOS DATOS EPICENTRALES       : SSN
                                       : INSTITUTO DE GEOFISICA, UNAM

================================================================================
DATOS DE ESTE REGISTRO:
HORA DE LA PRIMERA MUESTRA (GMT)       : 15:28:36.00
EXACTITUD DEL TIEMPO (s)               : 0.01
DURACION DEL REGISTRO (s), C1-C6       : /371.2/371.2/371.2
DURACION DEL REGISTRO (s), C7-C12      : 
NUM. TOTAL DE MUESTRAS, C1-C6          : /37120/37120/37120
NUM. TOTAL DE MUESTRAS, C7-C12         : 
ACEL. MAX. (Gal), C1-C6                : /21.71307/4.74582/19.64142
ACEL. MAX., C1-C6, EN LA MUESTRA       : /17838/19036/18837
ACEL. MAX. (Gal), C7-C12               : 
ACEL. MAX., C7-C12, EN LA MUESTRA      : 
UNIDADES DE LOS DATOS                  : Gal (cm/s/s)
FACTOR DE DECIMACION                   : 1
FORMATO DATOS (FORTRAN,10 campos/dato) : 3F10.5


================================================================================
CALIDAD DEL ACELEROGRAMA:
REGISTRO DIGITAL COMPLETO CON TIEMPO ABSOLUTO CORRECTO.


================================================================================
COMENTARIOS:














================================================================================
DATOS DE ACELERACION:
---------+---------+---------+---------+---------+---------+---------+---------+
   CANAL-1   CANAL-2   CANAL-3   CANAL-4   CANAL-5   CANAL-6   CANAL-7   CANAL-8
      N00E        +V      N90W
---------+---------+---------+---------+---------+---------+---------+---------+
[...]
   1.25632   0.66071   7.86198
   1.33114   0.39136   7.42803
   1.21143   0.52604   6.75466
   1.09172   0.64575   6.09625
   1.10668   0.72057   5.30317
   1.10668   0.79539   4.73455
   1.10668   1.15452   4.01629
   1.16654   1.19941   3.40277
   0.94208   0.94502   2.62466
   0.92712   1.03481   1.90640
   0.82237   0.98992   1.33778
   0.74755   0.98992   0.58959
   0.74755   1.04977  -0.09875
   0.80741   1.03481  -0.74219
   0.70266   1.00488  -1.38563
   0.77748   1.06473  -2.13382
   1.01690   1.13955  -2.73237
   1.28625   1.69321  -3.39077
   1.24135   1.46876  -4.01925
   1.37603   1.40890  -4.58787
   1.79501   1.18444  -5.00686
   1.67530   1.55854  -5.53059
   2.03443   1.93263  -5.99447
   1.94465   1.25926  -6.08425
   2.27385   1.19941  -6.54813
   2.16911   1.61839  -7.02697
   2.64795   1.78299  -7.25142
   2.45342   1.33408  -7.52077
   2.49831   1.15452  -7.79012
   2.45342   0.94502  -7.92479
   2.52824   1.10963  -7.92479
   2.63298   0.97495  -8.10436
   2.58809   0.88517  -8.01457
   2.66291   0.95999  -8.01457
   2.57313   0.93006  -8.10436
   2.57313   1.10963  -7.98465
   2.66291   1.10963  -7.79012
   2.78262   1.18444  -7.73026
   2.91730   1.24430  -7.68537
   2.93226   1.27423  -7.55070
   3.11182   1.40890  -7.46092
   3.35124   1.64832  -7.16164
   3.42606   1.66328  -7.05689
   3.81512   1.48372  -6.84740
   4.05454   1.79796  -6.84740
   4.17425   1.57350  -6.72769
   4.51842   1.67825  -6.59302
   4.72791   1.39394  -6.27878
   5.26661   1.61839  -6.15907
   5.29653   1.66328  -5.81490
   5.55092   1.24430  -5.38095
   5.70055   1.51365  -5.32110
   5.83523   1.46876  -4.94700
   5.92501   1.51365  -4.55795
   6.31407   1.85781  -4.12400
   6.20932   1.54357  -3.74990
   6.16443   1.72314  -3.24113
   6.11954   2.05234  -2.98675
   6.23925   2.02241  -2.49295
   6.23925   1.99249  -1.98418
   6.13450   2.23191  -1.47541
   6.25421   2.09723  -0.96664
   6.28414   2.33665  -0.57759
   6.32903   2.62097  -0.08378
   6.34400   2.39651   0.41002
   6.35896   2.51622   0.76915
   6.38889   2.47133   1.24799
   6.49363   2.78557   1.63705
   6.53853   2.74068   2.05604
   6.37392   2.51622   2.22064
   6.62831   2.74068   2.66955
   6.35896   2.63593   2.98379
   6.37392   2.53118   3.22321
   6.32903   2.68082   3.43270
   6.28414   2.68082   3.74694
   6.02976   2.93520   4.01629
   5.98487   2.60600   4.33053
   5.88012   2.75564   4.56995
   5.77537   2.87535   4.83930
   5.40128   2.72571   5.16850
   5.37135   2.57607   5.54259
   5.08704   2.63593   5.82690
   4.72791   2.35162   6.05136
   4.23411   2.47133   6.38056
   3.91987   2.09723   6.63495
   3.53081   1.84285   6.78458
   3.17168   1.73810   6.97911
   2.58809   1.84285   7.17364
   2.09429   1.70818   7.32328
   1.69027   1.64832   7.35321
   1.07675   1.84285   7.35321
   0.59791   1.57350   7.51781
   0.10411   1.55854   7.69737
  -0.01560   1.79796   7.62256
  -0.82364   1.76803   7.66745
  -1.43716   1.76803   7.57766
  -1.94593   1.93263   7.45795
  -2.43973   2.02241   7.50285
  -2.78390   2.60600   7.38314
  -3.50216   1.93263   7.47292
  -4.42991   1.88774   7.47292
  -5.07335   1.81292   7.44299
  -5.59708   1.72314   7.44299
  -6.47995   1.60343   7.26343
  -7.13835   1.72314   7.36817
  -7.90150   1.40890   7.38314
  -8.55991   1.25926   7.71234
  -9.51759   1.16948   7.45795
 -10.19096   1.45379   7.53277
 -10.93915   1.03481   7.51781
 -11.73223   1.12459   7.39810
 -12.36070   0.91510   7.50285
 -12.91436   0.88517   7.56270
 -13.45306   0.78042   7.24846
 -13.97679   0.63078   7.35321
 -14.48556   0.64575   7.29335
 -14.87462   0.64575   7.30832
 -15.20382   0.45122   6.87437
 -15.62280   0.33151   6.81451
 -15.90712   0.55597   6.72473
 -16.08668   0.34647   6.32071
 -16.25128   0.15194   6.08129
 -16.55056   0.30158   5.91669
 -16.65530  -0.02762   5.57252
 -16.86480   0.03223   5.39295
 -16.83487  -0.02762   4.97397
 -17.10422  -0.22215   4.70462
 -17.01443  -0.34186   4.48017
 -16.98451  -0.20719   4.16593
 -17.23889  -0.61121   3.77687
 -17.01443  -0.94041   3.64219
 -16.99947  -1.16487   3.13343
 -16.71516  -1.17983   2.81919
 -16.50567  -1.52400   2.43013
 -15.99690  -1.46414   2.08596
 -15.57791  -1.70356   1.99618
 -15.14396  -1.76342   1.47245
 -14.54541  -1.67363   0.97865
 -13.84212  -1.52400   0.70930
 -13.07896  -1.37436   0.23046
 -12.37567  -1.22472  -0.33817
 -11.34317  -1.20976  -0.69730
 -10.83440  -1.13494  -1.17614
 -10.14607  -1.00026  -1.59512
  -9.23328  -0.80574  -1.98418
  -8.58984  -0.79077  -2.29842
  -7.88654  -0.65610  -2.83711
  -7.00368  -0.52142  -3.13639
  -6.16571  -0.59624  -3.58530
  -5.43248  -0.22215  -4.00429
  -4.69926  -0.68603  -4.15392
  -3.78647  -0.23711  -4.52802
  -3.06821  -0.52142  -4.75247
  -2.03571  -0.25208  -4.85722
  -1.27256  -0.65610  -5.21635
  -0.40466  -0.37179  -5.35102
   0.70266  -0.31193  -5.47074
   1.75012  -0.58128  -5.69519
   2.64795  -0.55135  -5.68023
   3.75527  -0.35682  -5.87476
   4.78777  -0.40171  -6.03936
   6.04472  -0.61121  -6.08425
   6.89766  -0.47653  -6.21892
   7.93016  -0.55135  -6.38352
   8.91776  -0.40171  -6.53316
   9.83055  -0.70099  -6.84740
  10.75831  -0.82070  -6.95215
  11.56635  -0.82070  -7.13171
  12.38936  -0.97034  -7.26639
  12.97294  -0.94041  -7.34121
  13.66128  -1.03019  -7.49084
  14.18501  -0.97034  -7.67041
  14.75363  -1.37436  -7.84997
  15.02298  -1.38932  -7.84997
  15.45693  -1.22472  -7.84997
  15.75620  -1.52400  -7.82005
  16.42957  -1.47911  -7.77515
  16.56425  -1.47911  -7.50581
  16.83359  -1.67363  -7.50581
  17.05805  -1.55392  -7.25142
  17.22265  -1.38932  -6.93718
  17.49200  -1.28458  -6.69776
  17.68653  -1.44918  -6.41345
  17.70149  -1.11997  -6.23389
  17.88106  -1.04516  -5.81490
  17.70149  -0.98530  -5.60541
  17.85113  -0.79077  -5.26124
  17.43214  -0.77581  -5.02182
  17.41718  -0.74588  -4.75247
  17.02812  -0.46157  -4.75247
  16.69892  -0.71595  -4.33349
  16.07044  -0.73092  -4.19882
  15.60656  -0.82070  -3.91450
  14.94816  -0.94041  -3.67508
  14.36457  -1.00026  -3.57034
  13.70617  -1.32947  -3.24113
  12.82330  -1.31450  -3.10646
  11.95541  -1.22472  -2.83711
  11.10247  -1.53896  -2.65755
  10.20465  -1.53896  -2.35827
   9.18711  -1.25465  -2.07396
   8.19950  -1.44918  -1.65498
   7.25679  -1.26961  -1.35570
   6.25421  -1.14990  -0.96664
   5.23668  -0.97034  -0.62248
   4.41367  -0.85063  -0.27831
   3.41110   0.00231   0.18557
   2.58809  -0.22215   0.76915
   1.70523   0.48115   1.05346
   0.52309   0.04720   1.62209
  -0.47948   0.28662   1.99618
  -1.46709   0.48115   2.37028
  -2.23024   0.69064   2.80422
  -3.39741   1.37897   3.17832
  -4.45984   0.88517   3.41774
  -5.49234   0.88517   3.83672
  -6.40513   0.75050   4.03125
  -7.42266   0.88517   4.33053
  -8.09603   0.66071   4.58491
  -9.36795   0.81035   4.70462
 -10.08621   0.87021   4.89915
 -10.81944   0.36144   5.00390
 -11.47784   0.51107   5.28821
 -12.10632   0.24173   5.45281
 -12.83954   0.22676   5.45281
 -13.21364  -0.23711   5.42288
 -13.76730  -0.31193   5.67727
 -14.15636  -0.43164   5.69223
 -14.48556  -0.62617   5.73712
 -14.65016  -0.35682   5.78201
 -15.03922  -0.62617   5.63238
 -15.05418  -0.59624   5.61741
 -15.15893  -0.28200   5.55756
 -15.09907  -0.55135   5.42288
 -15.15893  -0.40171   5.10864
 -14.90454  -0.29697   4.98893
 -14.68009  -0.17726   4.56995
 -14.45563  -0.05755   4.31556
 -13.97679   0.01727   4.07614
 -13.46802   0.07713   3.61227
 -13.04904   0.09209   3.22321
 -12.31581   0.10705   3.08854
 -11.38806   0.19684   2.59473
 -10.52016   0.19684   2.17575
  -9.54752   0.24173   1.90640
  -8.66465   0.40633   1.20310
  -7.67705   0.36144   1.02354
  -6.27045   0.45122   0.54470
  -5.46241   0.40633   0.17060
  -4.31020   0.43626  -0.20349
  -3.32259   0.33151  -0.60751
  -2.03571   0.45122  -1.10132
  -1.01817   0.79539  -1.46045
   0.05922   0.61582  -1.75972
   1.18150   0.64575  -2.26849
   2.36364   0.40633  -2.65755
   3.39614   0.36144  -3.28603
   4.50345   0.25669  -3.82472
   5.64070   0.13698  -4.39334
   6.59838   0.13698  -4.94700
   7.72066  -0.11740  -5.38095
   8.75316  -0.22215  -6.11418
   9.90537  -0.20719  -6.69776
  10.87802  -0.43164  -7.28135
  11.91052  -0.74588  -7.83501
  12.79338  -0.83566  -8.34378
  13.81091  -0.91048  -8.97225
  14.63392  -1.20976  -9.22664
  15.42700  -1.25465  -9.46606
  16.10037  -1.41925  -9.72044
  16.96827  -1.41925  -9.73541
  17.59674  -1.71853  -9.73541
  17.95587  -1.41925  -9.61570
  18.40479  -1.46414  -9.51095
  18.79385  -1.53896  -9.39124
  19.18290  -1.79334  -9.24160
  19.31758  -1.73349  -9.12189
  19.64678  -1.53896  -9.03211
  19.48218  -1.56889  -8.95729
  19.51211  -1.53896  -8.82262
  19.39240  -1.35940  -8.89744
  19.16794  -1.22472  -9.04707
  18.89859  -1.34443  -8.92736
  18.32997  -1.09005  -8.94233
  17.95587  -0.98530  -9.01715
  17.34236  -0.83566  -9.30146
  16.78870  -0.58128  -9.33139
  15.89088  -0.29697  -9.39124
  15.15765  -0.13237  -9.39124
  14.51421  -0.08748  -9.51095
  13.58646  -0.22215  -9.40620
  12.98791   0.03223  -9.27153
  11.89555   0.07713  -9.28649
  11.17729  -0.08748  -9.04707
  10.17472   0.31655  -8.88247
   8.97762   0.09209  -8.47845
   7.94512   0.27165  -8.20910
   6.88269   0.30158  -7.80508
   5.74545   0.48115  -7.49084
   4.71295   0.33151  -6.87733
   3.59066   0.73553  -6.66784
   2.21400   0.49611  -6.29374
   1.01690   0.67568  -5.72512
  -0.34480   0.49611  -5.41088
  -1.51198   0.42129  -4.93204
  -2.49959   0.85524  -4.25867
  -4.04085   0.22676  -3.73494
  -5.26788   0.21180  -3.10646
  -6.34527   0.25669  -2.71740
  -7.75187   0.04720  -2.10389
  -9.11357  -0.20719  -1.49037
 -10.31067  -0.13237  -0.72722
 -11.37310  -0.26704  -0.03889
 -12.60012  -0.35682   0.64944
 -13.61766  -0.20719   1.48741
 -14.79980  -0.38675   2.16078
 -15.62280  -0.22215   2.98379
 -16.64034  -0.17726   3.82176
 -17.28378  -0.14733   4.48017
 -18.07686  -0.11740   5.19843
 -18.60059  -0.31193   5.84187
 -19.28892  -0.40171   6.35064
 -19.79769  -0.38675   6.93422
 -20.03711   0.06216   7.42803
 -20.42617  -0.37179   7.77219
 -20.60574  -0.10244   8.16125
 -20.94990  -0.29697   8.46053
 -21.21925  -0.34186   8.75980
 -21.26414  -0.14733   8.99922
 -21.39882  -0.31193   9.52295
 -21.54845  -0.23711   9.38828
 -21.66816  -0.17726   9.73245
 -21.65320  -0.17726  10.01676
 -21.71305  -0.29697  10.21129
 -21.56342  -0.40171  10.43574
 -21.38385  -0.52142  10.79487
 -21.09954  -0.62617  11.10911
 -20.72545  -0.73092  11.27371
 -20.27653  -0.88055  11.57299
 -19.84258  -1.01523  12.03686
 -19.21411  -1.10501  12.33614
 -18.61556  -0.89552  12.33614
 -18.13672  -1.43421  12.62045
 -17.38853  -1.44918  12.65038
 -16.62538  -1.14990  12.72520
 -15.96697  -1.65867  12.77009
 -15.33849  -1.67363  12.59052
 -14.47059  -1.55392  12.62045
 -13.79722  -1.43421  12.18650
 -12.88444  -1.55392  12.17154
 -12.04646  -1.23969  11.67773
 -11.37310  -0.77581  11.34853
 -10.49023  -1.20976  10.95947
  -9.66723  -1.16487  10.45071
  -8.61976  -1.09005   9.94194
  -7.64712  -1.14990   9.56784
  -6.53980  -0.91048   9.25361
  -5.65694  -1.10501   8.65505
  -4.65437  -1.19479   8.07147
  -3.51712  -1.26961   7.81708
  -2.52951  -1.29954   7.23350
  -1.57183  -1.28458   6.69480
  -0.64408  -1.49407   6.30574
   0.52309  -1.37436   5.82690
   1.24135  -1.74845   5.30317
   2.01947  -1.82327   4.80937
   3.00708  -1.79334   4.34549
   3.77023  -1.92802   3.77687
   4.65309  -2.12255   3.43270
   5.19179  -1.79334   2.75933
   5.82027  -1.94298   2.28049
   6.70313  -1.64371   1.90640
   7.18197  -1.61378   1.32281
   7.60095  -1.44918   0.88886
   8.28929  -1.01523   0.48484
   8.72323  -0.95537  -0.09875
   9.24697  -0.46157  -0.44291
   9.54624  -0.62617  -0.87686
  10.04005  -0.47653  -1.14621
  10.56378   0.33151  -1.46045
  10.53385  -0.10244  -1.66994
  10.83312   0.06216  -1.89440
  11.08751   0.27165  -2.08893
  11.25211   0.49611  -2.20864
  11.50649   1.03481  -2.34331
  11.38678   0.67568  -2.20864
  11.41671   1.06473  -2.40316
  11.16233   0.87021  -2.34331
  10.98276   1.33408  -2.26849
  10.84809   1.06473  -2.38820
  10.62363   1.25926  -2.58273
  10.59370   1.28919  -2.46302
  10.32436   1.51365  -2.49295
  10.14479   1.64832  -2.31338
  10.05501   1.75307  -2.23856
   9.86048   2.09723  -2.23856
   9.71084   2.21694  -2.19367
   9.59113   2.53118  -2.01411
   9.21704   2.66586  -1.84951
   9.29186   2.93520  -1.69987
   8.94769   3.08484  -1.56519
   8.81302   3.23448  -1.34074
   8.34914   3.42901  -1.28088
   7.93016   3.45894  -1.08635
   7.52613   3.62354  -0.96664
   6.88269   3.65346  -0.65240
   6.35896   3.68339  -0.38306
   5.67063   3.69836  -0.12867
   5.05711   3.71332   0.15564
   4.41367   3.86296   0.35017
   3.75527   3.69836   0.76915
   3.11182   3.60857   1.00857
   2.61802   3.57865   1.41259
   1.98954   3.84799   1.80165
   1.39099   3.33923   1.98122
   0.95704   3.47390   2.29546
   0.20885   2.93520   2.48999
  -0.18020   2.86039   2.89401
  -0.65904   2.56111   3.13343
  -1.06306   2.63593   3.46263
  -1.45212   2.14212   3.67212
  -1.81125   2.09723   3.95643
  -2.23024   1.93263   4.42031
  -2.63426   1.73810   4.34549
  -2.87368   1.57350   4.62980
  -2.90361   1.36401   4.85426
  -3.41238   1.36401   4.88419
  -3.50216   1.22934   5.07872
  -3.89122   1.46876   5.15353
  -3.89122   1.30415   5.15353
  -4.25035   1.18444   4.97397
  -4.34013   1.18444   4.91411
  -4.47480   1.31912   4.91411
  -4.68429   1.58847   4.73455
  -4.62444   1.40890   4.62980
  -4.59451   1.36401   4.33053
  -4.81897   1.55854   4.09111
  -4.71422   1.48372   4.07614
  -4.68429   1.64832   3.70205
  -4.69926   1.49868   3.64219
  -4.62444   1.48372   3.32796
  -4.59451   1.25926   3.29803
  -4.28027   1.39394   2.95386
  -4.20545   1.30415   2.77430
  -4.07078   1.27423   2.60970
  -3.66676   1.45379   2.41517
  -3.60690   1.19941   2.25057
  -3.27770   1.15452   1.84654
  -3.06821   1.24430   1.45749
  -2.93353   1.21437   0.91879
  -2.55944   1.24430   0.49981
  -2.33498   1.10963  -0.15860
  -2.03571   0.90013  -0.60751
  -1.76636   0.64575  -1.23599
  -1.46709   0.34647  -1.83454
  -1.04810   0.21180  -2.52287
  -0.59919   0.06216  -3.24113
   0.08914  -0.17726  -3.94443
   0.44828   0.03223  -4.72255
   0.86726  -0.23711  -5.26124
   1.27128  -0.41668  -5.94958
   2.09429  -0.56632  -6.56309
   2.39356  -0.76084  -7.02697
   3.17168  -0.73092  -7.62552
   3.59066  -0.64113  -8.01457
   4.44360  -0.88055  -8.44852
   4.80273  -0.89552  -8.85254
   5.46113  -0.94041  -9.09197
   5.85019  -1.01523  -9.28649
   6.26918  -0.98530  -9.55584
   6.71809  -0.83566  -9.55584
   7.25679  -0.88055  -9.75037
   7.30168  -0.46157 -10.00475
   7.57103  -0.67106  -9.98979
   7.72066  -0.38675 -10.25914
   7.96008  -0.82070 -10.36388
   7.97505  -0.67106 -10.45367
