********************************************************************************
              CENTRO DE INSTRUMENTACION Y REGISTRO SISMICO  A.C.

    Anaxagoras 814, Col. Narvarte, Benito Juarez, C.P. 03020 Mexico, D.F.
           Tels. 5687 45 42/ 5687 45  82             Fax. 5669 25 12
********************************************************************************
ARCHIVO ESTANDAR DE ACELERACION:
VERSION DEL FORMATO                    : 2.0
NOMBRE DEL ARCHIVO                     : BO3920200623152903
FECHA Y HORA DE CREACION               : 18/AGO/21, 13:41
REF. CATALOGO ACELEROGRAMAS, SMIS 1996 : REGISTRO No.     /PAG.


================================================================================
DATOS DE LA ESTACION:
NOMBRE DE LA ESTACION                  : BONDOJITO
CLAVE DE LA ESTACION                   : BO39
LOCALIZACION DE LA ESTACION            : Del. Gustavo A. Madero, Col. Faja de   
                                       : Oro, Av. Henry Ford entre calles       
                                       : Norte 72A y Norte 74A.                 
                                       :                                        
                                       : 
COORDENADAS DE LA ESTACION             : 19.4653 LAT. N
                                       : 99.1047 LONG. W
ALTITUD (msnm)                         : 2232
TIPO DE SUELO                          : Terreno blando, material compresible
                                       : (arcillas)                
                                       : 
INSTITUCION RESPONSABLE                : CIRES, A. C.
                                       : 

================================================================================
DATOS DEL ACELEROGRAFO:
MODELO DEL ACELEROGRAFO                : RAD_IO14
NUMERO DE SERIE DEL ACELEROGRAFO       : 
NUMERO DE CANALES                      : 3
ORIENTACION C1-C6 (rumbo;orientacion)  : /S00E/+V/N90W
ORIENTACION C7-C12 (rumbo;orientacion) : 
VEL. DE MUESTREO, C1-C6 (muestras/s)   : /100/100/100
VEL. DE MUESTREO, C7-C12 (muestras/s)  : 
ESC. COMPLETA DE SENSORES, C1-C6, (g)  : /2.0/2.0/2.0
ESC. COMPLETA DE SENSORES, C7-C12, (g) : 
FREC. NAT. DE SENSORES, C1-C6, (Hz)    : /51.65/53.47/50.5
FREC. NAT. DE SENSORES, C7-C12, (Hz)   : 
AMORTIGUAMIENTO DE SENSORES, C1-C6     : /0.5763/0.5779/0.5763
AMORTIGUAMIENTO DE SENSORES, C7-C12    : 
INTERVALO DE MUESTREO, C1-C6, (s)      : /0.01/0.01/0.01
INTERVALO DE MUESTREO, C7-C12, (s)     : 
UMBRAL DE DISPARO, C1-C6, (Gal)        : / / /
UMBRAL DE DISPARO, C7-C12, (Gal)       :
MEMORIA DE PREEVENTO (s)               : 60
TIEMPO DE POSEVENTO (s)                : 90


================================================================================
DATOS DEL SISMO:
FECHA DEL SISMO (GMT)                  : 23/JUN/20
HORA EPICENTRO (GMT)                   : 15:29:03.0
MAGNITUD(ES)                           : /Mc=7.4
COORDENADAS DEL EPICENTRO              : 15.80 LAT. N
                                       : 96.13 LONG. W
PROFUNDIDAD FOCAL (km)                 : 22
FUENTE DE LOS DATOS EPICENTRALES       : SSN
                                       : INSTITUTO DE GEOFISICA, UNAM

================================================================================
DATOS DE ESTE REGISTRO:
HORA DE LA PRIMERA MUESTRA (GMT)       : 10:27:25.00
EXACTITUD DEL TIEMPO (s)               : 
DURACION DEL REGISTRO (s), C1-C6       : /441.27/441.27/441.27
DURACION DEL REGISTRO (s), C7-C12      : 
NUM. TOTAL DE MUESTRAS, C1-C6          : /44127/44127/44127
NUM. TOTAL DE MUESTRAS, C7-C12         : 
ACEL. MAX. (Gal), C1-C6                : /38.06644/6.26432/24.19988
ACEL. MAX., C1-C6, EN LA MUESTRA       : /20751/21135/21514
ACEL. MAX. (Gal), C7-C12               : 
ACEL. MAX., C7-C12, EN LA MUESTRA      : 
UNIDADES DE LOS DATOS                  : Gal (cm/s/s)
FACTOR DE DECIMACION                   : 1
FORMATO DATOS (FORTRAN,10 campos/dato) : 3F10.5


================================================================================
CALIDAD DEL ACELEROGRAMA:
REGISTRO DIGITAL COMPLETO CON TIEMPO ABSOLUTO CORRECTO.


================================================================================
COMENTARIOS:














================================================================================
DATOS DE ACELERACION:
---------+---------+---------+---------+---------+---------+---------+---------+
   CANAL-1   CANAL-2   CANAL-3   CANAL-4   CANAL-5   CANAL-6   CANAL-7   CANAL-8
      S00E        +V      N90W
---------+---------+---------+---------+---------+---------+---------+---------+
[...]
  16.70096   0.21902  -0.91628
  16.40166  -0.08028  -0.91628
  16.10246  -0.25988  -0.91628
  15.80316  -0.43938  -0.79658
  15.50386  -0.49928  -0.73668
  15.38416  -0.61898  -0.61698
  15.08486  -0.79858  -0.55718
  14.66586  -0.97808  -0.37758
  14.30676  -1.03798  -0.25788
  14.00746  -1.15768  -0.19798
  13.76806  -1.33728  -0.01848
  13.40896  -1.39708   0.10132
  12.98996  -1.51678   0.22102
  12.57096  -1.57668   0.40052
  12.15196  -1.63648   0.58012
  11.73296  -1.69638   0.69982
  11.19426  -1.75618   0.87942
  10.65556  -1.75618   1.11882
  10.11686  -1.81608   1.29842
   9.45846  -1.81608   1.47792
   8.85996  -1.81608   1.65752
   8.26136  -1.87598   1.77722
   7.48326  -1.87598   2.01662
   6.82486  -1.87598   2.13632
   6.22636  -1.87598   2.31592
   5.68766  -1.99568   2.43562
   5.08906  -1.87598   2.61522
   4.61026  -1.87598   2.79472
   4.13136  -1.87598   2.97432
   3.59266  -1.81608   3.09402
   3.23356  -1.75618   3.15392
   2.87446  -1.69638   3.27362
   2.57516  -1.69638   3.45312
   2.21606  -1.63648   3.63272
   1.79706  -1.57668   3.69262
   1.55766  -1.57668   3.81232
   1.31826  -1.51678   3.87212
   1.13866  -1.45698   3.99182
   0.89926  -1.39708   4.05172
   0.71966  -1.27738   4.17142
   0.54006  -1.21748   4.23132
   0.42036  -1.15768   4.41082
   0.36056  -1.03798   4.53052
   0.30066  -0.91828   4.59042
   0.30066  -0.79858   4.71012
   0.18096  -0.55908   4.82982
   0.18096  -0.49928   4.94952
   0.18096  -0.25988   5.00942
   0.12116   0.03942   5.06922
   0.12116   0.27882   5.24882
   0.12116   0.51832   5.24882
   0.12116   0.87742   5.42842
   0.24086   1.11682   5.54812
   0.30066   1.41612   5.54812
   0.24086   1.71542   5.66782
   0.18096   1.95482   5.72762
   0.24086   2.25402   5.78752
   0.18096   2.49352   5.84732
   0.06126   2.67302   5.90722
   0.00136   2.73292   5.78752
   0.00136   2.79272   5.66782
  -0.17814   2.91252   5.60792
  -0.41754   2.91252   5.42842
  -0.59714   2.91252   5.24882
  -0.77674   2.91252   5.06922
  -1.07594   2.91252   4.88972
  -1.43514   2.85262   4.53052
  -1.91394   2.91252   4.29112
  -2.39284   2.85262   4.11152
  -2.99134   2.67302   3.81232
  -3.53004   2.49352   3.51302
  -4.18844   2.43362   3.09402
  -4.90674   2.37382   2.73492
  -5.62494   2.37382   2.49552
  -6.46294   2.25402   2.07652
  -7.30094   2.25402   1.77722
  -8.07904   2.25402   1.35822
  -8.85714   2.13432   0.99912
  -9.63524   2.07452   0.46042
 -10.47324   1.95482  -0.07828
 -11.31124   1.83512  -0.49728
 -12.14914   1.77522  -0.97608
 -12.86744   1.65552  -1.57468
 -13.64554   1.53582  -2.11338
 -14.42364   1.47592  -2.71188
 -15.20174   1.35622  -3.13088
 -15.92004   1.23652  -3.72948
 -16.63834   1.11682  -4.38788
 -17.29674   1.11682  -5.04628
 -17.89524   0.99712  -5.52508
 -18.49384   0.81752  -6.18348
 -19.03254   0.75772  -6.96158
 -19.51134   0.75772  -7.50028
 -19.93034   0.63802  -8.03898
 -20.28944   0.45842  -8.57768
 -20.64854   0.45842  -9.05658
 -21.00774   0.27882  -9.65508
 -21.24714   0.27882 -10.25368
 -21.48654   0.09932 -10.73248
 -21.78584   0.03942 -11.15148
 -21.96544  -0.08028 -11.57048
 -22.20484  -0.14018 -11.86978
 -22.44424  -0.14018 -12.16898
 -22.68364  -0.19998 -12.46828
 -22.98294  -0.31968 -12.70768
 -23.22234  -0.25988 -12.88728
 -23.46174  -0.31968 -13.06688
 -23.52164  -0.31968 -13.18658
 -23.64134  -0.25988 -13.30628
 -23.76104  -0.25988 -13.30628
 -23.82094  -0.25988 -13.30628
 -23.94064  -0.19998 -13.18658
 -24.06034  -0.08028 -12.94708
 -24.18004  -0.02038 -12.70768
 -24.12014  -0.08028 -12.40838
 -24.12014  -0.14018 -12.16898
 -24.18004  -0.02038 -11.80988
 -24.23984  -0.08028 -11.33108
 -24.29974   0.03942 -10.85218
 -24.23984   0.03942 -10.43318
 -24.29974  -0.02038  -9.89448
 -24.41944  -0.02038  -9.29598
 -24.47934  -0.02038  -8.69738
 -24.47934  -0.14018  -8.09888
 -24.53914  -0.19998  -7.44048
 -24.65884  -0.19998  -6.78208
 -24.71874  -0.31968  -6.12368
 -24.65884  -0.37958  -5.58498
 -24.65884  -0.43938  -5.04628
 -24.59904  -0.43938  -4.32798
 -24.53914  -0.55908  -3.54988
 -24.53914  -0.61898  -2.89148
 -24.47934  -0.61898  -2.29288
 -24.35964  -0.67888  -1.51478
 -24.23984  -0.79858  -0.79658
 -24.00044  -0.85838  -0.07828
 -23.82094  -0.79858   0.58012
 -23.58144  -0.91828   1.29842
 -23.28224  -0.85838   1.83712
 -23.04274  -0.79858   2.49552
 -22.74354  -0.67888   3.09402
 -22.50414  -0.61898   3.75242
 -22.14494  -0.55908   4.35102
 -21.72594  -0.49928   4.88972
 -21.24714  -0.49928   5.36852
 -20.76834  -0.49928   5.90722
 -20.40914  -0.43938   6.32622
 -20.05004  -0.49928   6.68532
 -19.63104  -0.43938   6.98462
 -19.27194  -0.43938   7.40362
 -18.73324  -0.37958   7.64302
 -18.31424  -0.37958   7.76272
 -17.95514  -0.37958   7.82262
 -17.65584  -0.49928   7.94232
 -17.17704  -0.43938   7.94232
 -16.87774  -0.49928   7.82262
 -16.51854  -0.37958   7.52332
 -16.03974  -0.37958   7.22402
 -15.68064  -0.55908   6.98462
 -15.26164  -0.73868   6.62552
 -14.72294  -0.79858   6.08682
 -14.30394  -0.85838   5.54812
 -13.76524  -0.97808   5.00942
 -13.22654  -0.97808   4.41082
 -12.44844  -0.97808   3.81232
 -11.73014  -1.09778   3.27362
 -10.89224  -1.21748   2.61522
  -9.99434  -1.21748   1.89692
  -9.03674  -1.33728   1.23852
  -8.13884  -1.45698   0.46042
  -7.06144  -1.57668  -0.13818
  -5.92424  -1.57668  -0.73668
  -4.78704  -1.69638  -1.39508
  -3.47014  -1.75618  -1.99368
  -2.15334  -1.81608  -2.65208
  -0.77674  -1.87598  -3.31048
   0.54006  -1.99568  -3.90898
   1.85696  -2.11538  -4.38788
   3.29346  -2.23508  -5.04628
   4.67006  -2.23508  -5.58498
   6.04676  -2.23508  -6.06378
   7.48326  -2.35478  -6.54268
   8.74026  -2.41458  -6.96158
  10.05706  -2.35478  -7.44048
  11.37386  -2.41458  -7.79958
  12.57096  -2.47448  -8.15868
  13.88776  -2.41458  -8.57768
  15.20456  -2.47448  -8.87698
  16.34186  -2.41458  -9.17628
  17.41926  -2.47448  -9.41568
  18.49666  -2.47448  -9.65508
  19.45426  -2.47448  -9.89448
  20.35216  -2.47448 -10.13398
  21.19006  -2.47448 -10.19378
  22.02806  -2.47448 -10.31348
  22.80616  -2.47448 -10.43318
  23.52446  -2.41458 -10.43318
  24.24266  -2.41458 -10.55288
  24.96096  -2.35478 -10.55288
  25.61936  -2.29488 -10.31348
  26.21796  -2.23508 -10.13398
  26.81646  -2.17518  -9.89448
  27.35516  -2.05548  -9.47558
  27.95366  -1.87598  -9.05658
  28.49236  -1.75618  -8.63758
  28.91136  -1.63648  -8.15868
  29.39026  -1.57668  -7.61998
  29.74936  -1.45698  -7.08128
  30.16836  -1.33728  -6.42288
  30.64716  -1.21748  -5.76448
  31.06616  -1.09778  -5.10608
  31.36546  -0.91828  -4.26818
  31.66476  -0.79858  -3.54988
  31.84426  -0.61898  -2.83158
  32.02386  -0.49928  -1.99368
  32.20346  -0.25988  -1.15568
  32.32316  -0.14018  -0.43738
  32.50266  -0.08028   0.40052
  32.68226   0.03942   1.29842
  32.80196   0.21902   2.07652
  32.92166   0.51832   2.85462
  32.98156   0.57812   3.63272
  33.04136   0.69782   4.41082
  33.04136   0.87742   5.12912
  32.98156   0.99712   5.72762
  32.98156   1.17672   6.44592
  32.86186   1.29642   7.04442
  32.74216   1.47592   7.52332
  32.62236   1.71542   8.06202
  32.44286   1.77522   8.48102
  32.26326   2.01462   8.84012
  32.08366   2.19422   9.19922
  31.90416   2.19422   9.55842
  31.66476   2.25402   9.91752
  31.30556   2.37382  10.15692
  30.82676   2.49352  10.39632
  30.46766   2.61322  10.57592
  30.10846   2.61322  10.63572
  29.68946   2.67302  10.75552
  29.27056   2.79272  10.87522
  28.79166   2.85262  11.05472
  28.19316   2.85262  11.29412
  27.65446   2.85262  11.41392
  27.11576   2.85262  11.53362
  26.51716   2.79272  11.59342
  25.97846   2.67302  11.77302
  25.37996   2.61322  11.89272
  24.84126   2.61322  11.95262
  24.18286   2.55332  11.89272
  23.58426   2.49352  12.01242
  23.04556   2.37382  11.95262
  22.44706   2.25402  11.95262
  21.84846   2.07452  11.89272
  21.19006   1.89492  11.71312
  20.65136   1.71542  11.65332
  19.99296   1.65552  11.41392
  19.39446   1.53582  11.29412
  18.85576   1.41612  10.99492
  18.25716   1.35622  10.81532
  17.59876   1.35622  10.51602
  17.06006   1.29642  10.15692
  16.52136   1.17672   9.91752
  15.86296   1.05692   9.55842
  15.26446   0.99712   9.19922
  14.66586   0.87742   8.78022
  14.12716   0.81752   8.30142
  13.58846   0.81752   7.94232
  12.98996   0.63802   7.52332
  12.45126   0.51832   7.04442
  12.03226   0.33872   6.56562
  11.61326   0.15912   6.14662
  11.19426   0.03942   5.66782
  10.77536  -0.14018   5.12912
  10.35636  -0.31968   4.59042
   9.93736  -0.37958   4.05172
   9.57826  -0.43938   3.57282
   9.27896  -0.49928   3.09402
   8.85996  -0.67888   2.61522
   8.56066  -0.73868   2.13632
   8.20156  -0.73868   1.59762
   7.72266  -0.85838   1.05892
   7.18396  -0.97808   0.58012
   6.70516  -0.91828   0.16112
   6.22636  -0.85838  -0.19798
   5.62776  -0.85838  -0.61698
   4.96936  -0.85838  -1.15568
   4.31096  -0.79858  -1.63448
   3.71246  -0.79858  -2.11338
   2.81456  -0.73868  -2.47248
   1.91676  -0.61898  -2.89148
   1.07876  -0.49928  -3.25058
   0.12116  -0.43938  -3.60978
  -0.77674  -0.25988  -3.78928
  -1.79424  -0.14018  -4.20828
  -2.87164   0.03942  -4.56738
  -4.00884   0.27882  -4.74698
  -5.14614   0.39852  -4.92658
  -6.22354   0.51832  -5.04628
  -7.30094   0.75772  -5.16598
  -8.55784   0.87742  -5.22578
  -9.87464   0.93722  -5.28568
 -11.07174   1.17672  -5.28568
 -12.14914   1.47592  -5.22578
 -13.46594   1.65552  -5.16598
 -14.66304   1.65552  -5.04628
 -15.92004   1.83512  -4.80688
 -17.11714   2.01462  -4.68708
 -18.37414   2.13432  -4.44768
 -19.57124   2.37382  -4.20828
 -20.76834   2.37382  -3.90898
 -22.02524   2.61322  -3.66958
 -23.22234   2.79272  -3.37028
 -24.29974   2.97232  -3.01118
 -25.43694   3.21172  -2.71188
 -26.57424   3.39132  -2.35278
 -27.59174   3.51102  -2.05348
 -28.60934   3.51102  -1.75428
 -29.44724   3.69062  -1.33528
 -30.40494   3.69062  -1.03598
 -31.24294   3.81032  -0.73668
 -32.14074   3.93002  -0.43738
 -32.91884   3.81032  -0.25788
 -33.63714   3.75042   0.04142
 -34.29554   3.75042   0.28082
 -35.13354   3.63072   0.46042
 -35.79194   3.45112   0.69982
 -36.33064   3.15192   0.93922
 -36.74964   2.97232   1.05892
 -37.16854   2.73292   0.99912
 -37.52774   2.43362   1.05892
 -37.76714   2.13432   1.23852
 -37.88684   1.53582   1.29842
 -38.00654   1.11682   1.23852
 -38.06644   0.81752   1.29842
 -38.06644   0.33872   1.35822
 -38.06644  -0.02038   1.41812
 -37.94674  -0.43938   1.47792
 -37.88684  -0.91828   1.47792
 -37.58754  -1.21748   1.59762
 -37.22844  -1.45698   1.59762
 -36.74964  -1.63648   1.53782
 -36.27074  -1.81608   1.47792
 -35.79194  -1.99568   1.41812
 -35.37294  -2.17518   1.35822
 -34.89404  -2.29488   1.35822
 -34.47514  -2.35478   1.23852
 -34.05614  -2.41458   1.17862
 -33.51744  -2.47448   1.23852
 -32.91884  -2.47448   1.29842
 -32.44004  -2.53438   1.35822
 -31.84144  -2.53438   1.41812
 -31.30274  -2.41458   1.47792
 -30.76404  -2.35478   1.53782
 -30.22544  -2.29488   1.77722
 -29.62684  -2.23508   1.95682
 -28.84874  -2.11538   2.13632
 -28.19034  -1.93578   2.31592
 -27.65164  -1.75618   2.49552
 -27.05304  -1.63648   2.67502
 -26.39464  -1.45698   2.73492
 -25.73624  -1.27738   2.79472
 -25.07784  -1.09778   2.91442
 -24.35964  -0.85838   2.97432
 -23.64134  -0.61898   3.03422
 -22.98294  -0.37958   3.15392
 -22.26464  -0.14018   3.21372
 -21.54644   0.09932   3.27362
 -20.70844   0.15912   3.45312
 -19.81064   0.39852   3.57282
 -18.91274   0.39852   3.63272
 -18.07484   0.51832   3.63272
 -17.23684   0.69782   3.87212
 -16.27914   0.93722   3.93202
 -15.26164   1.11682   3.93202
 -14.12434   1.29642   3.99182
 -13.10684   1.41612   4.05172
 -12.20904   1.53582   4.05172
 -11.07174   1.71542   4.17142
  -9.99434   1.77522   4.23132
  -8.91704   1.89492   4.23132
  -7.71994   1.95482   4.23132
  -6.58264   1.83512   4.17142
  -5.38554   1.77522   4.11152
  -4.18844   1.77522   4.05172
  -2.93154   1.71542   3.87212
  -1.67454   1.71542   3.63272
  -0.41754   1.41612   3.51302
   0.77956   1.29642   3.33342
   1.91676   1.05692   2.97432
   3.11386   0.93722   2.73492
   4.25116   0.63802   2.49552
   5.50806   0.45842   2.25602
   6.64536   0.27882   1.95682
   7.84246   0.03942   1.47792
   8.97966  -0.19998   1.29842
  10.11686  -0.49928   0.99912
  11.25416  -0.67888   0.81952
  12.39136  -0.85838   0.58012
  13.46876  -1.03798   0.46042
  14.54616  -1.27738   0.28082
  15.74326  -1.51678   0.22102
  16.76086  -1.75618  -0.01848
  17.77836  -1.99568  -0.19798
  18.91556  -2.17518  -0.31768
  19.93316  -2.29488  -0.55718
  21.01056  -2.47448  -0.73668
  22.02806  -2.59418  -0.85638
  22.98576  -2.71388  -1.09578
  23.88356  -2.83358  -1.33528
  24.78136  -2.95328  -1.45498
  25.43976  -3.01318  -1.75428
  26.15806  -3.07308  -1.99368
  26.81646  -3.07308  -2.17318
  27.53476  -3.13288  -2.35278
  28.37266  -3.13288  -2.53238
  28.85156  -3.13288  -2.71188
  29.39026  -3.13288  -2.95138
  29.98876  -3.13288  -3.07108
  30.64716  -3.07308  -3.25058
  31.12606  -3.07308  -3.48998
  31.42526  -3.07308  -3.60978
  31.84426  -3.01318  -3.66958
  32.20346  -2.89348  -3.84918
  32.62236  -2.77378  -4.02868
  32.92166  -2.71388  -4.08858
  32.98156  -2.59418  -4.08858
  33.04136  -2.41458  -4.14848
  33.04136  -2.29488  -4.20828
  33.04136  -2.17518  -4.26818
  33.04136  -1.99568  -4.32798
  32.98156  -1.81608  -4.26818
  32.74216  -1.63648  -4.08858
  32.44286  -1.39708  -3.90898
  32.14356  -1.21748  -3.84918
  31.84426  -0.97808  -3.72948
  31.42526  -0.67888  -3.54988
  30.94646  -0.43938  -3.37028
  30.70706  -0.02038  -3.13088
  30.28806   0.33872  -2.95138
  29.80926   0.69782  -2.71188
  29.21066   1.17672  -2.47248
  28.61216   1.65552  -2.17318
  28.13326   2.19422  -1.87398
  27.59456   2.55332  -1.69438
  27.11576   2.85262  -1.57468
  26.63686   2.97232  -1.39508
  26.09816   3.21172  -1.27538
  25.55946   3.27162  -1.21558
  24.84126   3.27162  -1.27538
  24.36236   3.21172  -1.57468
  23.82376   3.33142  -1.63448
  23.40476   3.33142  -1.81408
  22.92586   3.39132  -1.87398
  22.56676   3.33142  -1.99368
  22.44706   3.21172  -2.23308
  22.20766   3.15192  -2.65208
  22.02806   3.15192  -3.01118
  21.72876   2.97232  -3.37028
  21.54926   2.85262  -3.84918
  21.42946   2.85262  -4.26818
  21.19006   2.85262  -4.80688
  20.83096   2.97232  -5.34558
  20.35216   2.79272  -5.76448
  19.87326   2.79272  -6.00398
  19.51416   2.85262  -6.54268
  18.91556   2.79272  -7.20108
  18.13746   2.61322  -7.73978
  17.35936   2.49352  -8.33828
  16.64106   2.49352  -8.87698
  15.80316   2.43362  -9.35578
  14.96516   2.37382  -9.83468
  14.12716   2.43362 -10.31348
  13.22936   2.61322 -10.79238
  12.39136   2.43362 -11.21128
  11.49356   2.55332 -11.80988
  10.65556   2.67302 -12.22888
   9.75776   2.61322 -12.76758
