********************************************************************************
              CENTRO DE INSTRUMENTACION Y REGISTRO SISMICO  A.C.

    Anaxagoras 814, Col. Narvarte, Benito Juarez, C.P. 03020 Mexico, D.F.
           Tels. 5687 45 42/ 5687 45  82             Fax. 5669 25 12
********************************************************************************
ARCHIVO ESTANDAR DE ACELERACION:
VERSION DEL FORMATO                    : 2.0
NOMBRE DEL ARCHIVO                     : C16620200623152903
FECHA Y HORA DE CREACION               : 24/JUN/20, 12:09
REF. CATALOGO ACELEROGRAMAS, SMIS 1996 : REGISTRO No.     /PAG.


================================================================================
DATOS DE LA ESTACION:
NOMBRE DE LA ESTACION                  : CENTRAL DE ABASTO (POZO 12 MTS)
CLAVE DE LA ESTACION                   : C166
LOCALIZACION DE LA ESTACION            : Del. Iztapalapa, Central de Abasto     
                                       : Oficinas, Eje 4 Oriente.               
                                       :                                        
                                       :                                        
                                       : 
COORDENADAS DE LA ESTACION             : 19.3728 LAT. N
                                       : 99.0983 LONG. W
ALTITUD (msnm)                         : 2235
TIPO DE SUELO                          : Arcilloso, zona lago                
                                       :                           
                                       : 
INSTITUCION RESPONSABLE                : CIRES, A. C.
                                       : 

================================================================================
DATOS DEL ACELEROGRAFO:
MODELO DEL ACELEROGRAFO                : 
NUMERO DE SERIE DEL ACELEROGRAFO       : 
NUMERO DE CANALES                      : 3
ORIENTACION C1-C6 (rumbo;orientacion)  : 
ORIENTACION C7-C12 (rumbo;orientacion) : 
VEL. DE MUESTREO, C1-C6 (muestras/s)   : /200/200/200
VEL. DE MUESTREO, C7-C12 (muestras/s)  : 
ESC. COMPLETA DE SENSORES, C1-C6, (g)  : /7.0/7.0/7.0
ESC. COMPLETA DE SENSORES, C7-C12, (g) : 
FREC. NAT. DE SENSORES, C1-C6, (Hz)    : /500/500/500
FREC. NAT. DE SENSORES, C7-C12, (Hz)   : 
AMORTIGUAMIENTO DE SENSORES, C1-C6     : /0.700/0.700/0.700
AMORTIGUAMIENTO DE SENSORES, C7-C12    : 
INTERVALO DE MUESTREO, C1-C6, (s)      : /0.005/0.005/0.005
INTERVALO DE MUESTREO, C7-C12, (s)     : 
UMBRAL DE DISPARO, C1-C6, (Gal)        : /1/1   1/56
UMBRAL DE DISPARO, C7-C12, (Gal)       : 
MEMORIA DE PREEVENTO (s)               : 6
TIEMPO DE POSEVENTO (s)                : 4


================================================================================
DATOS DEL SISMO:
FECHA DEL SISMO (GMT)                  : 23/JUN/20
HORA EPICENTRO (GMT)                   : 15:29:03.0
MAGNITUD(ES)                           : /Mc=7.4
COORDENADAS DEL EPICENTRO              : 15.80 LAT. N
                                       : 96.13 LONG. W
PROFUNDIDAD FOCAL (km)                 : 22
                                       : INSTITUTO DE GEOFISICA, UNAM

================================================================================
DATOS DE ESTE REGISTRO:
HORA DE LA PRIMERA MUESTRA (GMT)       : .00
EXACTITUD DEL TIEMPO (s)               : 
DURACION DEL REGISTRO (s), C1-C6       : /310.9/310.9/310.9
DURACION DEL REGISTRO (s), C7-C12      : 
NUM. TOTAL DE MUESTRAS, C1-C6          : /62180/62180/62180
NUM. TOTAL DE MUESTRAS, C7-C12         : 
ACEL. MAX. (Gal), C1-C6                : /43.44787/13.65433/56.96821
ACEL. MAX., C1-C6, EN LA MUESTRA       : /17511/15500/16105
ACEL. MAX. (Gal), C7-C12               : 
ACEL. MAX., C7-C12, EN LA MUESTRA      : 
UNIDADES DE LOS DATOS                  : Gal (cm/s/s)
FACTOR DE DECIMACION                   : 1
FORMATO DATOS (FORTRAN,10 campos/dato) : 3F10.5


================================================================================
CALIDAD DEL ACELEROGRAMA:
REGISTRO DIGITAL COMPLETO CON TIEMPO ABSOLUTO CORRECTO.


================================================================================
COMENTARIOS:














================================================================================
DATOS DE ACELERACION:
---------+---------+---------+---------+---------+---------+---------+---------+
   CANAL-1   CANAL-2   CANAL-3   CANAL-4   CANAL-5   CANAL-6   CANAL-7   CANAL-8
      N00E        +V      N90W
---------+---------+---------+---------+---------+---------+---------+---------+
[...]
  -8.84019  -2.73684  45.45078
  -9.18880  -3.40787  45.52034
  -9.20844  -0.80558  46.10217
  -8.80418   0.34009  46.68073
  -7.73380  -0.15910  46.63736
  -7.31318  -1.01834  47.25683
  -8.42447  -1.14109  47.64554
  -7.47603  -0.51098  47.74292
  -6.26572  -0.70738  48.39431
  -6.48667  -1.07563  48.50233
  -6.63970  -0.65009  48.62426
  -6.25017  -0.78103  49.06944
  -5.67979  -0.79739  49.46796
  -5.15361  -0.86286  49.86731
  -5.13970  -1.91851  50.04898
  -5.23217  -2.12309  50.38531
  -4.73298  -2.49952  51.10790
  -4.71416  -3.02325  51.27566
  -4.50303  -2.09854  51.15045
  -4.04231  -1.73029  51.68155
  -3.84510  -1.95942  51.76584
  -3.42938  -1.85304  51.68973
  -2.89665  -2.05762  52.28138
  -2.67325  -2.01671  52.83785
  -2.49567  -1.95124  52.76174
  -1.66261  -2.08217  52.58662
  -1.36555  -2.08217  53.27402
  -1.38847  -2.03307  53.53916
  -0.92447  -2.10672  53.20446
  -0.10042  -2.20492  53.64145
  -0.07014  -2.10672  54.31739
  -0.50794  -2.04126  54.05716
   1.00106  -1.95942  53.73965
   2.01661  -2.00852  54.52361
   1.87667  -1.82849  55.02361
   2.72528  -2.16401  54.71755
   3.77438  -2.31949  54.68809
   4.29648  -1.51752  55.17582
   4.51661  -1.52571  55.16927
   5.35294  -1.41932  54.74047
   6.18027  -1.54207  54.94832
   6.83494  -1.86941  55.21264
   7.47324  -1.35386  55.24129
   7.57143  -1.47661  55.35585
   8.51170  -1.50116  55.38040
   9.74656  -1.23929  55.38531
  10.10744  -1.39477  55.46960
  10.51252  -1.04289  55.45978
  11.44378  -1.07563  55.50233
  12.40777  -1.15746  55.56944
  12.76865  -0.92014  55.43605
  13.28993  -1.03471  55.39513
  14.06243  -0.64191  55.52688
  14.67045  -0.93651  55.22901
  15.22364  -1.03471  54.90577
  15.49533  -0.62554  54.77811
  16.33494  -0.80558  54.45978
  16.94296  -0.63373  54.62754
  17.20155  -0.82194  53.95651
  18.11726  -0.94469  53.35503
  18.24410  -0.53553  53.75847
  18.86849  -0.62554  52.68482
  19.83739  -0.83013  52.14881
  19.69255  -0.34731  51.94669
  20.63854  -0.64191  51.19710
  20.81366  -0.65828  51.25029
  21.24738   0.06185  50.29120
  22.08944  -0.47006  50.27975
  20.75392  -0.45369  49.93850
  22.54443  -0.44551  48.20282
  23.67045  -0.63373  49.18564
  22.53297   0.13550  48.97369
  23.87831  -0.11000  47.19464
  24.21464  -0.57644  47.39841
  24.25229  -0.01998  47.11363
  24.42332   0.14369  46.24947
  25.03052   0.07004  45.70528
  25.63854   0.00457  45.41232
  25.10908  -0.06090  45.06780
  25.80139   0.32372  44.19873
  26.03461   0.25825  43.97615
  26.35049   0.17642  43.74701
  26.89304   0.34827  42.89677
  26.48878   0.52012  42.47533
  26.91923   0.53649  42.15454
  27.25392   0.70834  41.56289
  27.19255   1.17478  40.86976
  27.60335   0.92928  40.48024
  27.64099   0.89655  40.24047
  27.60335   1.48575  39.44914
  28.14509   1.57577  38.65863
  27.96914   1.69033  38.60053
  27.73510   2.25498  38.37713
  28.11563   1.99311  37.63899
  27.71628   2.13223  37.28548
  28.02479   2.43501  36.65945
  28.12135   2.23861  36.12181
  27.61072   3.07331  35.93114
  27.75720   3.05694  35.29366
  27.53543   3.06513  34.93277
  27.99615   3.58886  34.21755
  27.26865   3.49066  33.94996
  27.22201   3.93256  33.49660
  28.36440   4.11259  32.05634
  26.83494   4.25171  32.37631
  27.15245   4.70179  31.97860
  27.65409   4.80817  30.74456
  26.50597   4.98002  30.66845
  27.23265   5.30735  29.99906
  26.79320   5.55285  29.45651
  26.29320   5.68379  28.76747
  27.37995   5.76562  28.24456
  27.03461   6.19933  28.19955
  26.47978   6.62487  27.47696
  26.79729   6.47757  27.06125
  26.23838   6.69852  26.83539
  26.43968   7.19770  26.13081
  27.32184   7.06676  25.41313
  25.99206   7.20588  25.39268
  25.21710   7.69688  25.41723
  25.86358   7.53321  24.59153
  26.08126   7.63960  24.10462
  26.46178   8.04058  24.07844
  25.65982   8.01603  24.21101
  24.89549   8.13059  24.01788
  25.34230   8.23698  23.22574
  25.53707   8.56431  23.28138
  25.72446   8.55613  23.01624
  24.86767   8.67888  22.82475
  24.08126   9.20261  23.31166
  24.47815   8.93256  22.56289
  24.77929   9.27626  22.21919
  24.89468   9.65269  22.66191
  23.66718   9.51357  22.61281
  23.60826   9.85727  22.14963
  24.91513  10.03730  21.82557
  24.02725  10.05367  21.94014
  23.27111  10.36464  21.80921
  23.06080  10.53649  21.46223
  22.72364  10.38919  21.00315
  23.03870  11.02748  20.97860
  22.63363  10.94565  20.57680
  22.22446  10.64287  20.11853
  21.82348  11.38755  20.86158
  21.35949  11.05203  20.04898
  21.88649  11.05203  19.13326
  21.38240  11.41210  20.07025
  20.46914  11.24025  19.85994
  20.80548  11.48575  19.28711
  20.78502  11.45302  19.59644
  20.33494  11.25662  19.31248
  19.72119  11.34663  18.91068
  19.37504  11.60850  18.94750
  19.55343  11.51848  18.61199
  19.12626  11.50212  18.54898
  18.98306  11.52667  18.18400
  18.44459  11.24843  17.57434
  17.77029  11.37118  17.76092
  18.55998  11.26480  17.08907
  17.81775  10.97020  16.60299
  17.22610  11.05203  16.71837
  17.74083  10.86382  16.32230
  17.00106  10.52012  15.95732
  17.09026  10.56104  15.42377
  16.74901  10.63469  15.45323
  15.99942  10.17642  15.02279
  15.93887   9.99639  14.32230
  15.57225   9.98002  14.27074
  15.46423   9.39901  13.73474
  14.98878   9.48084  13.51461
  14.57880   9.01439  12.83376
  14.29893   8.42519  12.16927
  14.11317   9.13714  12.40168
  13.90368   8.45793  11.70119
  13.34148   7.56595  10.93277
  13.24001   7.68051  10.91804
  12.92905   7.49230  10.25356
  12.60662   7.10768   9.29202
  12.20728   6.45302   9.22246
  11.83739   6.42028   8.79775
  12.03870   6.31390   8.08335
  11.37667   5.44647   7.94750
  10.70073   5.35645   7.32475
  10.58616   5.02912   7.06862
  10.25310   4.21897   6.85340
  10.36767   4.38264   6.19628
   9.95441   3.83436   6.15863
   9.34885   3.18788   5.80348
   9.06898   3.10604   5.67091
   8.80711   2.43501   5.45978
   9.01006   2.32045   4.83539
   8.83085   1.94401   4.80102
   8.39959   1.50212   4.80266
   7.80302   1.39573   4.49906
   7.61972   0.84745   3.98596
   7.82512   0.72470   3.94505
   7.98715   0.13550   3.67254
   7.56571  -0.29003   3.35994
   7.20237  -0.33094   3.02115
   7.58616  -0.94469   2.83457
   6.49206  -1.24748   3.09808
   7.03052  -1.41932   1.86812
   7.79238  -1.64846   1.80184
   6.65163  -2.41769   2.42132
   7.39877  -2.72865   1.42623
   7.24247  -2.59772   1.23637
   6.98469  -3.65337   0.93605
   7.65081  -3.79248   0.29529
   7.31121  -3.77612   0.22164
   7.32757  -4.53716  -0.13597
   7.35703  -4.65173  -0.83400
   7.73183  -5.15091  -1.15315
   7.87258  -5.53553  -1.25953
   7.67618  -5.50279  -2.00913
   7.96669  -5.97743  -2.45266
   7.64263  -6.40296  -2.77508
   7.67045  -6.55844  -3.36428
   8.14918  -7.19674  -3.81682
   7.76702  -7.32767  -4.58032
   7.61808  -6.92669  -4.99521
   7.85540  -7.49134  -5.45675
   7.74328  -7.74502  -6.35201
   7.67373  -7.67137  -6.81273
   7.36031  -8.15419  -7.32991
   7.16554  -8.39968  -8.15888
   7.32021  -8.67792  -8.63106
   6.99042  -8.82522  -9.28245
   6.83166  -8.71883 -10.19734
   7.16063  -9.09527 -10.71207
   6.76620  -9.29167 -11.54841
   6.57553  -9.25893 -12.32582
   7.03297  -9.44715 -12.92647
   6.48633  -9.60263 -13.74071
   6.19173  -9.75811 -14.22189
   6.18600  -9.68446 -15.02467
   5.51170  -9.79085 -15.74890
   5.54525  -9.97906 -16.49521
   6.07225  -9.88905 -17.51567
   6.02724 -10.07726 -17.95184
   5.35785  -9.74175 -18.54350
   5.15490  -9.43896 -19.21453
   5.26620  -9.79085 -19.91747
   5.39386  -9.70901 -21.04268
   5.44787  -9.59445 -21.72271
   4.71873  -9.39805 -21.79472
   4.77602  -9.00525 -22.62697
   5.11153  -8.92342 -23.39783
   4.91841  -8.90705 -23.49849
   5.23101  -9.00525 -24.43957
   4.58616  -9.14437 -24.61960
   4.02561  -9.37350 -24.80045
   4.73346  -9.61081 -26.03368
   4.41759  -9.69265 -26.39702
   4.03215  -9.61900 -26.35937
   4.44132  -9.17710 -27.03531
   4.52315  -9.13618 -27.95839
   4.53625  -8.99707 -27.70471
   4.61235  -8.61245 -28.47639
   4.80957  -8.62063 -29.32255
   4.67945  -8.19510 -28.69243
   4.85376  -8.11327 -29.54759
   5.38813  -8.25239 -30.21862
   5.38977  -7.67137 -30.47967
   5.18927  -7.31949 -30.83810
   5.35540  -7.47497 -31.35774
   6.01170  -7.46679 -31.96494
   6.01742  -6.89396 -31.95839
   6.41022  -6.49297 -32.81109
   6.68600  -6.53389 -32.88147
   6.55752  -6.36204 -33.65561
   7.54361  -6.05108 -34.78490
   7.82348  -5.82194 -34.04350
   7.44296  -5.71556 -34.65725
   7.95278  -5.74829 -35.90929
   8.58125  -5.35549 -36.72026
   7.49860  -4.66810 -36.19325
   8.63035  -4.45533 -35.76035
  10.42004  -4.64355 -37.92238
   8.81530  -4.34895 -38.27836
   9.59762  -3.44060 -37.12697
   9.67945  -3.42423 -37.96003
   9.60171  -3.65337 -39.77754
  10.70646  -2.88414 -39.21535
   9.38731  -2.13946 -38.37738
  10.92659  -1.74666 -40.50258
  11.00270  -1.91032 -40.59260
  10.74574  -1.61572 -40.51240
  11.50924  -1.18201 -41.38310
  10.21382  -1.19838 -41.23335
  12.57471  -0.87923 -42.83728
  11.87176  -0.66646 -43.22108
  10.70810   0.00457 -42.97394
  12.26211  -0.04453 -44.00013
  11.40613  -0.46188 -44.67934
  12.49042   0.26644 -45.14333
  11.84067   0.67560 -45.36756
  10.76047   0.75744 -46.08851
  12.30220   0.96202 -46.62206
  11.83003   1.45302 -46.96576
  10.87749   1.84581 -47.22026
  12.09026   1.90310 -47.67607
  11.44378   1.97675 -48.26199
   9.81448   2.22225 -47.73171
  11.20973   2.64778 -48.72435
   9.81366   2.85236 -49.74644
   9.06489   3.74434 -49.13679
  10.20482   4.03076 -49.81355
   8.95523   3.21243 -50.80045
   9.03870   3.62978 -51.29636
   7.76047   4.16987 -50.73008
   7.64263   3.77708 -51.26199
   7.77274   3.63796 -53.14824
   5.95851   4.15351 -52.41257
   6.79729   4.24352 -52.16052
   5.03625   4.20261 -53.29473
   4.28093   4.89819 -54.06068
   5.41186   4.55449 -53.77181
   2.85376   4.43174 -53.35446
   2.70728   5.24189 -55.00340
   2.41759   4.69361 -54.96821
   1.34067   4.84090 -54.81109
   2.09680   5.62650 -55.59751
   0.29566   5.29917 -55.25463
  -0.12660   5.33190 -55.43139
   0.69828   5.52012 -55.54350
  -0.75835   6.04385 -55.66870
  -1.63560   6.22388 -55.24317
  -1.41220   5.71652 -55.24072
  -2.22807   6.30572 -55.71453
  -2.24444   6.31390 -55.76690
  -2.34919   6.50212 -54.97312
  -4.25508   7.11586 -55.82910
  -1.83446   6.23207 -56.93548
  -2.63888   7.01766 -53.45839
  -5.81809   7.43501 -54.81764
  -3.57259   6.42847 -56.96821
  -4.12333   7.14860 -53.93466
  -4.94657   7.26316 -53.71698
  -5.70434   7.26316 -54.28327
  -5.78863   7.43501 -54.95921
  -4.91465   7.09950 -53.99440
  -6.84837   7.23043 -52.77263
  -6.74035   6.97675 -53.93875
  -6.51531   7.15678 -53.47967
  -6.57914   7.55776 -52.55004
  -7.58732   7.40228 -52.19816
  -9.49812   7.19770 -52.09423
  -8.63642   7.16496 -51.28982
  -8.71089   7.12405 -50.96658
  -9.79927   6.94401 -51.22026
 -10.24526   7.25498 -50.10324
 -10.84591   7.27135 -49.72026
 -11.26163   6.86218 -49.57214
 -11.39583   7.15678 -49.08769
 -12.15033   7.09950 -48.72189
 -13.21171   6.83763 -48.23662
 -13.80009   7.00948 -47.34383
 -14.15606   6.78853 -47.09751
 -14.47930   6.69033 -47.11306
 -16.00549   6.74762 -45.60815
 -16.04313   6.43665 -45.80700
 -16.34264   6.10932 -45.04759
 -18.10614   6.18297 -44.09587
 -17.48830   6.13387 -45.17934
 -18.91711   5.89655 -42.94775
 -19.32055   5.72470 -42.74235
 -19.09878   5.05367 -43.14579
 -21.21662   5.09459 -41.60896
 -19.79600   5.26644 -41.99358
 -21.76817   4.58722 -40.44775
 -23.08405   4.58722 -40.77018
 -21.31646   3.85072 -41.28572
 -24.21007   3.46611 -39.63924
 -23.90647   4.17806 -40.12533
 -23.54559   3.00784 -39.63270
 -25.19534   2.54140 -39.22762
 -25.36146   2.97511 -39.33155
 -26.02349   1.50212 -38.76772
 -25.25999   1.38755 -38.97885
 -26.20271   2.08313 -38.98540
 -27.54395   0.75744 -37.73908
 -27.50467   0.05367 -37.28409
 -27.97767   0.47920 -38.47230
 -28.31891   0.22552 -37.17770
 -28.42038  -0.98561 -35.46494
 -29.14215  -1.40296 -36.49685
 -30.00631  -0.61736 -36.46003
 -28.80500  -1.84486 -34.91747
 -29.30500  -2.78594 -34.41175
 -31.14133  -2.04126 -34.59914
 -31.10123  -2.99870 -34.13433
 -30.92693  -3.66973 -32.75053
 -31.74935  -3.75975 -32.02140
 -32.82218  -4.07890 -32.52795
 -32.23626  -4.32440 -31.16297
 -31.40074  -5.42914 -29.93139
 -32.36474  -5.41278 -30.76854
 -33.31564  -5.57644 -29.86183
 -32.40402  -6.14109 -28.61551
 -32.80254  -6.05926 -27.91993
 -33.43430  -6.81212 -28.04759
 -33.16179  -6.91851 -28.16215
 -34.13397  -7.12309 -26.15233
 -33.52513  -7.75320 -26.52877
 -33.53168  -7.68774 -26.49112
 -34.27472  -7.98234 -24.87001
 -33.87783  -8.47333 -24.93957
 -34.13479  -8.72702 -23.98621
 -33.33855  -9.14437 -23.81109
 -33.69289  -9.32440 -23.08523
 -34.54068  -9.39805 -22.05577
 -33.72808 -10.14273 -22.16052
 -34.21989 -10.37186 -21.16461
 -34.20925 -10.27366 -20.88392
 -33.84919 -10.50279 -20.39783
 -34.47685 -10.60099 -19.08441
 -34.01286 -10.87104 -19.02958
 -33.16425 -11.10836 -19.15397
 -33.60124 -11.23929 -17.30618
 -33.97603 -11.37841 -17.16461
 -32.70271 -11.65664 -18.07541
 -32.88110 -11.53389 -16.57214
 -33.68716 -11.41114 -16.48458
 -32.28372 -12.31949 -16.13924
 -32.38110 -12.49134 -15.31191
 -32.60287 -11.90214 -15.70798
 -32.10778 -11.73029 -14.62042
 -32.05050 -11.87759 -14.36756
 -31.10614 -12.31131 -14.26117
 -31.75999 -11.91032 -14.00176
 -31.15197 -11.78757 -13.60078
 -30.33364 -12.01671 -11.99440
 -31.19043 -11.73847 -13.15806
 -30.39993 -11.93487 -12.87410
 -29.73708 -11.97579 -11.64579
 -29.54068 -12.04944 -11.49276
 -29.79927 -11.81212 -10.69898
 -28.79191 -11.50934 -12.23990
 -27.73462 -11.52571 -11.11633
 -27.85655 -11.32113 -10.09587
 -26.53004 -11.53389 -11.50340
 -26.48094 -11.13291 -10.01649
 -26.97194 -10.95288  -9.25135
 -25.63315 -11.06744 -10.05741
 -24.98667 -10.37186  -9.58932
 -25.04150 -10.42096  -8.30209
 -24.32873 -10.56008  -8.51731
 -23.55623 -10.04453  -9.06886
 -23.02349  -9.61081  -7.96903
 -22.57423  -9.41441  -7.65806
 -21.63397  -9.24257  -8.07541
 -20.83937  -9.03798  -8.12124
 -20.46948  -8.67792  -7.84219
 -19.55786  -8.62063  -7.07214
 -19.23217  -8.40787  -7.53859
 -18.80909  -7.75320  -7.73580
 -17.68552  -7.77775  -6.67197
 -17.70598  -7.17219  -6.22598
 -18.04559  -6.93487  -6.20798
 -16.93102  -7.23766  -6.74317
 -16.29027  -6.51752  -6.05413
 -17.54313  -6.19019  -5.01813
 -16.66015  -6.03471  -6.17034
 -14.40238  -6.06744  -5.76690
 -15.51858  -5.78921  -4.14006
 -15.45393  -5.11818  -5.03940
 -14.40156  -4.91360  -4.89701
 -14.97276  -4.52080  -3.40438
 -13.91056  -4.47170  -3.60078
 -14.17407  -4.13618  -3.52877
 -13.76326  -3.70247  -3.43138
 -12.40074  -3.65337  -2.59260
 -13.13151  -3.30967  -1.79718
 -12.90156  -3.30967  -2.37328
 -13.05377  -2.74502  -1.27345
 -12.28618  -2.20492  -0.11469
 -11.67325  -2.37677  -9.4E-40
 -12.79927  -2.10672  -0.09751
 -11.47603  -1.64027   0.32966
