********************************************************************************
              CENTRO DE INSTRUMENTACION Y REGISTRO SISMICO  A.C.

    Anaxagoras 814, Col. Narvarte, Benito Juarez, C.P. 03020 Mexico, D.F.
           Tels. 5687 45 42/ 5687 45  82             Fax. 5669 25 12
********************************************************************************
ARCHIVO ESTANDAR DE ACELERACION:
VERSION DEL FORMATO                    : 2.0
NOMBRE DEL ARCHIVO                     : C26620200623152903
FECHA Y HORA DE CREACION               : 24/JUN/20, 12:09
REF. CATALOGO ACELEROGRAMAS, SMIS 1996 : REGISTRO No.     /PAG.


================================================================================
DATOS DE LA ESTACION:
NOMBRE DE LA ESTACION                  : CENTRAL DE ABASTO (POZO 30 MTS)
CLAVE DE LA ESTACION                   : C266
LOCALIZACION DE LA ESTACION            : Del. Iztapalapa, Central de Abasto     
                                       : Oficinas, Eje 4 Oriente.               
                                       :                                        
                                       :                                        
                                       : 
COORDENADAS DE LA ESTACION             : 19.3728 LAT. N
                                       : 99.0983 LONG. W
ALTITUD (msnm)                         : 2217
TIPO DE SUELO                          : Arcilloso, zona lago                
                                       :                           
                                       : 
INSTITUCION RESPONSABLE                : CIRES, A. C.
                                       : 

================================================================================
DATOS DEL ACELEROGRAFO:
MODELO DEL ACELEROGRAFO                : 
NUMERO DE SERIE DEL ACELEROGRAFO       : 
NUMERO DE CANALES                      : 3
ORIENTACION C1-C6 (rumbo;orientacion)  : 
ORIENTACION C7-C12 (rumbo;orientacion) : 
VEL. DE MUESTREO, C1-C6 (muestras/s)   : /200/200/200
VEL. DE MUESTREO, C7-C12 (muestras/s)  : 
ESC. COMPLETA DE SENSORES, C1-C6, (g)  : /7.0/7.0/7.0
ESC. COMPLETA DE SENSORES, C7-C12, (g) : 
FREC. NAT. DE SENSORES, C1-C6, (Hz)    : /500/500/500
FREC. NAT. DE SENSORES, C7-C12, (Hz)   : 
AMORTIGUAMIENTO DE SENSORES, C1-C6     : /0.700/0.700/0.700
AMORTIGUAMIENTO DE SENSORES, C7-C12    : 
INTERVALO DE MUESTREO, C1-C6, (s)      : /0.005/0.005/0.005
INTERVALO DE MUESTREO, C7-C12, (s)     : 
UMBRAL DE DISPARO, C1-C6, (Gal)        : /1/1   1/56
UMBRAL DE DISPARO, C7-C12, (Gal)       : 
MEMORIA DE PREEVENTO (s)               : 6
TIEMPO DE POSEVENTO (s)                : 4


================================================================================
DATOS DEL SISMO:
FECHA DEL SISMO (GMT)                  : 23/JUN/20
HORA EPICENTRO (GMT)                   : 15:29:03.0
MAGNITUD(ES)                           : /Mc=7.4
COORDENADAS DEL EPICENTRO              : 15.80 LAT. N
                                       : 96.13 LONG. W
PROFUNDIDAD FOCAL (km)                 : 22
FUENTE DE LOS DATOS EPICENTRALES       : SSN
                                       : INSTITUTO DE GEOFISICA, UNAM

================================================================================
DATOS DE ESTE REGISTRO:
HORA DE LA PRIMERA MUESTRA (GMT)       : .00
EXACTITUD DEL TIEMPO (s)               : 
DURACION DEL REGISTRO (s), C1-C6       : /310.9/310.9/310.9
DURACION DEL REGISTRO (s), C7-C12      : 
NUM. TOTAL DE MUESTRAS, C1-C6          : /62180/62180/62180
NUM. TOTAL DE MUESTRAS, C7-C12         : 
ACEL. MAX. (Gal), C1-C6                : /30.0451/6.29627/22.16186
ACEL. MAX., C1-C6, EN LA MUESTRA       : /16591/15506/15327
ACEL. MAX. (Gal), C7-C12               : 
ACEL. MAX., C7-C12, EN LA MUESTRA      : 
UNIDADES DE LOS DATOS                  : Gal (cm/s/s)
FACTOR DE DECIMACION                   : 1
FORMATO DATOS (FORTRAN,10 campos/dato) : 3F10.5


================================================================================
CALIDAD DEL ACELEROGRAMA:
REGISTRO DIGITAL COMPLETO CON TIEMPO ABSOLUTO CORRECTO.


================================================================================
COMENTARIOS:














================================================================================
DATOS DE ACELERACION:
---------+---------+---------+---------+---------+---------+---------+---------+
   CANAL-1   CANAL-2   CANAL-3   CANAL-4   CANAL-5   CANAL-6   CANAL-7   CANAL-8
      N00E        +V      N90W
---------+---------+---------+---------+---------+---------+---------+---------+
[...]
 -19.77323  -1.17509  -8.85614
 -20.06947  -1.10144  -8.34714
 -20.22577  -0.94596  -7.89951
 -20.43035  -0.76593  -7.43225
 -20.68813  -0.67591  -7.04436
 -21.02855  -0.52861  -6.72521
 -21.40744  -0.37313  -6.41752
 -21.77651  -0.20128  -6.19411
 -22.29615  -0.05398  -5.94779
 -22.72413   0.03604  -5.75467
 -23.13739   0.15879  -5.46825
 -23.62266   0.35519  -5.07054
 -23.97127   0.40429  -4.71211
 -24.28060   0.62524  -4.27676
 -24.57356   0.74799  -3.87496
 -24.92217   0.79709  -3.47153
 -25.18567   1.09168  -3.10082
 -25.53101   1.04259  -2.77103
 -25.89107   1.33718  -2.47398
 -26.14476   1.19807  -2.20393
 -26.48027   1.46812  -1.91097
 -26.59893   1.56632  -1.55991
 -26.77896   1.30445  -1.10491
 -26.81988   2.03277  -0.79968
 -26.99255   1.09168  -0.27922
 -26.98927   2.27826   0.05302
 -27.15867   1.18988   0.61031
 -27.92953  -0.29948   1.28052
 -27.28551   3.58759   1.13731
 -27.21595   1.91820   2.00392
 -27.14885   1.04259   2.70687
 -25.92872   2.48285   2.94337
 -26.19877   1.35355   3.59149
 -26.30924   1.91002   3.46219
 -26.24377   1.52540   3.74042
 -26.44099   1.59087   3.96628
 -26.02282   1.59087   4.14550
 -25.35588   1.28808   4.86235
 -24.51300   1.50085   5.30016
 -24.16931   1.19807   5.87217
 -23.80515   1.32900   6.34681
 -23.68813   1.09987   6.71096
 -23.88125   1.03440   7.11440
 -23.36325   1.01804   7.46628
 -22.79615   0.82982   8.01784
 -22.11857   0.81345   8.51047
 -21.09402   0.64160   8.94582
 -20.42872   0.55977   9.33780
 -20.00646   0.51067   9.52438
 -19.59484   0.42065   9.78789
 -19.17094   0.34700  10.02602
 -18.57438   0.18334  10.27807
 -17.70286   0.06059  10.72897
 -16.68322   0.13424  11.05630
 -15.99173  -0.04579  11.44992
 -15.49582  -0.13581  11.76906
 -15.00237  -0.13581  11.94746
 -14.68076  -0.34039  12.31162
 -14.07765  -0.32403  12.51129
 -13.26505  -0.46314  12.84026
 -12.49009  -0.50406  13.20360
 -11.52364  -0.43041  13.26743
 -10.74541  -0.56953  13.47692
 -10.20777  -0.47951  13.37463
  -9.78060  -0.56134  13.05303
  -9.27814  -0.62681  12.95810
  -8.24132  -0.55316  12.94910
  -7.01055  -0.62681  13.35335
  -5.85752  -0.58589  13.89345
  -5.02119  -0.60226  14.35253
  -4.72250  -0.65136  14.74206
  -4.56865  -0.61863  14.86563
  -4.32070  -0.64318  15.03093
  -3.69222  -0.64318  15.13731
  -2.63248  -0.61863  15.11358
  -1.37471  -0.61863  15.07839
  -0.06210  -0.64318  14.89100
   1.05083  -0.59408  14.64631
   1.86261  -0.63499  14.32307
   2.43708  -0.65954  13.97119
   2.97063  -0.62681  13.81980
   3.56228  -0.70046  13.86726
   4.37816  -0.63499  13.99411
   5.39616  -0.68409  14.31080
   6.30205  -0.74956  14.70196
   7.22186  -0.65954  14.88690
   8.04019  -0.73319  15.07021
   8.70058  -0.78229  15.14550
   9.48127  -0.79048  15.06530
  10.33970  -0.78229  15.05139
  11.26687  -0.76593  14.93355
  12.24559  -0.80684  14.81080
  13.24641  -0.78229  14.74615
  14.20631  -0.80684  14.63240
  15.01891  -0.87231  14.62258
  15.83479  -0.83139  14.62995
  16.61875  -0.83139  14.66186
  17.32906  -0.83139  14.84190
  18.16212  -0.82321  15.03011
  18.95099  -0.82321  15.23306
  19.73986  -0.77411  15.45974
  20.58029  -0.85594  15.66923
  21.36425  -0.84776  15.82307
  22.12857  -0.81503  15.95319
  22.77423  -0.83958  16.04812
  23.43381  -0.91323  16.03911
  24.01237  -0.97869  16.06776
  24.54428  -0.90504  16.08903
  25.13184  -0.88049  16.12177
  25.63102  -0.88868  16.15450
  26.09584  -0.92959  16.14304
  26.49682  -0.98687  16.18232
  26.82906  -0.97869  16.22815
  27.04264  -0.98687  16.28461
  27.24150  -0.99506  16.26825
  27.41580  -1.05234  16.30507
  27.47963  -1.06871  16.37872
  27.61302  -1.02779  16.32062
  27.70222  -1.10144  16.33862
  27.76278  -1.10144  16.32062
  27.82988  -1.21601  16.25597
  27.81515  -1.33057  16.24451
  27.80615  -1.28966  16.18478
  27.63757  -1.39604  16.21587
  27.49600  -1.39604  16.17496
  27.37080  -1.42877  16.11604
  26.98454  -1.54334  16.15041
  26.74477  -1.53516  16.06203
  26.51482  -1.60062  16.05057
  26.11138  -1.62517  16.01866
  25.79633  -1.67427  15.88772
  25.48864  -1.74792  15.80753
  25.07947  -1.78884  15.63077
  24.62120  -1.87067  15.44746
  24.19322  -1.89522  15.30589
  23.65885  -1.91977  15.10294
  23.05083  -1.94432  14.87463
  22.46081  -2.00160  14.72078
  21.84788  -2.07525  14.56121
  21.23904  -2.09980  14.37381
  20.59338  -2.14072  14.28461
  19.98209  -2.12435  14.16350
  19.33724  -2.14890  14.00393
  18.64248  -2.22255  13.82798
  18.00173  -2.23074  13.59231
  17.27669  -2.26347  13.40000
  16.57456  -2.27984  13.13731
  15.93217  -2.32075  12.83289
  15.20222  -2.37804  12.57758
  14.50664  -2.33712  12.28707
  13.79469  -2.34530  12.03420
  12.98045  -2.34530  11.76497
  12.18749  -2.31257  11.48183
  11.40271  -2.41077  11.23797
  10.55246  -2.40259  10.94664
   9.71040  -2.36167  10.70605
   8.88716  -2.39440  10.49738
   8.03282  -2.35349  10.22733
   7.14084  -2.35349   9.99492
   6.25214  -2.32894   9.74861
   5.36834  -2.32075   9.45892
   4.39862  -2.28802   9.19541
   3.45345  -2.23074   8.89181
   2.52546  -2.23074   8.56448
   1.53364  -2.21437   8.23633
   0.56310  -2.20619   7.93682
  -0.38371  -2.15709   7.65859
  -1.34934  -2.10799   7.35417
  -2.35016  -2.09162   7.08248
  -3.31660  -2.04252   6.80589
  -4.28305  -2.02615   6.53993
  -5.21759  -2.00979   6.30671
  -6.09402  -1.99342   6.09394
  -7.01464  -1.96069   5.88527
  -8.08011  -1.89522   5.59476
  -9.46063  -1.91159   5.25106
 -10.89025  -1.93614   4.78870
 -12.15048  -1.90341   4.32962
 -13.26259  -1.93614   4.03338
 -14.07683  -1.95251   3.75433
 -14.74868  -1.91977   3.56530
 -15.44590  -1.99342   3.43846
 -16.24868  -2.04252   3.26661
 -17.19549  -2.01797   3.08003
 -18.26832  -2.07525   2.84681
 -19.40007  -2.09162   2.61194
 -20.36734  -2.09980   2.37299
 -21.15949  -2.17345   2.16923
 -21.79696  -2.21437   2.00229
 -22.31660  -2.25529   1.78379
 -22.85425  -2.30439   1.54157
 -23.44345  -2.36985   1.23469
 -24.06374  -2.42714   0.87217
 -24.68240  -2.48442   0.54402
 -25.26914  -2.51715   0.23224
 -25.71186  -2.54170  -0.04518
 -26.07192  -2.63172  -0.26367
 -26.39516  -2.67264  -0.45843
 -26.64394  -2.75447  -0.60982
 -26.90662  -2.81994  -0.74730
 -27.17012  -2.81175  -0.89215
 -27.44263  -2.87722  -1.01817
 -27.68485  -2.92632  -1.17611
 -27.85425  -2.99178  -1.30868
 -27.92299  -3.08180  -1.39297
 -27.90989  -3.13908  -1.44861
 -27.89516  -3.17182  -1.49526
 -27.83870  -3.25365  -1.55991
 -27.83461  -3.33548  -1.60982
 -27.81251  -3.37640  -1.67611
 -27.74377  -3.49097  -1.68347
 -27.68731  -3.53188  -1.70066
 -27.51955  -3.58098  -1.74076
 -27.33461  -3.72010  -1.65647
 -27.10138  -3.76102  -1.60901
 -26.80269  -3.82648  -1.53945
 -26.57111  -3.90832  -1.40442
 -26.31660  -3.92468  -1.34796
 -26.06047  -3.99833  -1.22766
 -25.78796  -4.04743  -1.09100
 -25.44181  -4.04743  -0.99853
 -25.09075  -4.07198  -0.83405
 -24.68567  -4.09653  -0.69738
 -24.25523  -4.11290  -0.56482
 -23.85425  -4.13745  -0.39788
 -23.43199  -4.14563  -0.26531
 -23.01300  -4.14563  -0.09264
 -22.58256  -4.12926   0.09312
 -22.10875  -4.10471   0.27888
 -21.62675  -4.10471   0.51784
 -21.10957  -4.08016   0.76252
 -20.56374  -4.05561   1.04075
 -20.04737  -4.02288   1.30343
 -19.54574  -3.97378   1.53666
 -19.03919  -3.94105   1.81816
 -18.51955  -3.89195   2.06530
 -17.96881  -3.84285   2.30425
 -17.39598  -3.78557   2.57921
 -16.79860  -3.70373   2.82144
 -16.17994  -3.64645   3.07348
 -15.58993  -3.58098   3.31816
 -14.99827  -3.48278   3.54075
 -14.40744  -3.39277   3.78789
 -13.82070  -3.26183   4.00556
 -13.21677  -3.13908   4.22651
 -12.62020  -3.00815   4.45073
 -11.97209  -2.87722   4.67250
 -11.35752  -2.74629   4.92782
 -10.75605  -2.59080   5.11358
 -10.12511  -2.45169   5.32226
  -9.53264  -2.29620   5.56039
  -8.92299  -2.14890   5.73633
  -8.31906  -2.00160   5.95974
  -7.70122  -1.85431   6.15368
  -7.08420  -1.69064   6.30425
  -6.47372  -1.52697   6.45892
  -5.84770  -1.41241   6.56121
  -5.22413  -1.24874   6.66595
  -4.58502  -1.12599   6.78625
  -3.98600  -0.97051   6.86154
  -3.34770  -0.83958   6.90818
  -2.73559  -0.78229   6.99083
  -2.19549  -0.59408   7.02929
  -1.60957  -0.50406   7.01538
  -1.06619  -0.45496   7.01784
  -0.60629  -0.33221   6.98265
  -0.20858  -0.23401   6.89754
   0.28241  -0.16036   6.77888
   0.92644  -0.13581   6.76661
   1.76196  -0.06216   6.87054
   2.75050   0.04422   7.05466
   3.46408   0.12605   7.27561
   3.93790   0.19152   7.31653
   4.28732   0.21607   7.33289
   4.47636   0.22425   7.36317
   4.81187   0.28154   7.24288
   5.34624   0.31427   7.16104
   6.02710   0.33064   7.08739
   6.83724   0.38792   6.93273
   7.62039   0.42065   6.76006
   8.30369   0.45339   6.52929
   8.82169   0.47794   6.26334
   9.24232   0.51885   5.97528
   9.62448   0.51885   5.71342
  10.01809   0.51885   5.50965
  10.58029   0.56795   5.34026
  11.21940   0.58432   5.23960
  11.84952   0.58432   5.12422
  12.45099   0.55159   4.96628
  12.96408   0.55977   4.77316
  13.39534   0.57614   4.52520
  13.77014   0.53522   4.28870
  14.20631   0.55159   4.03338
  14.68913   0.58432   3.80343
  15.16949   0.53522   3.62422
  15.72595   0.55159   3.41145
  16.27669   0.51885   3.23224
  16.74641   0.44520   3.08985
  17.17603   0.47794   2.96383
  17.57538   0.44520   2.85499
  17.96572   0.38792   2.72978
  18.36016   0.37974   2.63895
  18.79142   0.38792   2.54075
  19.25296   0.39610   2.42127
  19.73577   0.38792   2.32307
  20.21613   0.38792   2.19623
  20.68012   0.43702   2.02520
  21.13675   0.40429   1.85826
  21.53773   0.42065   1.66350
  21.94772   0.50249   1.44991
  22.33479   0.43702   1.31325
  22.72922   0.46975   1.12667
  23.15639   0.54340   0.99247
  23.55819   0.57614   0.92864
  24.01318   0.66615   0.76334
  24.36834   0.65797   0.72569
  24.74150   0.73162   0.61276
  25.19240   0.78072   0.43355
  25.50500   0.72344   0.38527
  25.90271   0.82982   0.16023
  26.30615   0.87074  -0.03290
  26.65803   0.89529  -0.20311
  27.09993   0.92802  -0.48298
  27.45590   0.91984  -0.67938
  27.83561   0.98530  -0.96825
  28.18012   1.00985  -1.27103
  28.44690   1.08350  -1.53290
  28.77341   1.17352  -1.85041
  29.05001   1.22262  -2.12292
  29.35852   1.26353  -2.41670
  29.60729   1.32900  -2.68265
  29.79715   1.43538  -2.96089
  29.98782   1.47630  -3.27185
  30.02546   1.54995  -3.54436
  30.04510   1.63178  -3.85532
  30.04428   1.70543  -4.12537
  29.98454   1.78727  -4.40115
  29.93626   1.81182  -4.67283
  29.85934   1.88547  -4.93388
  29.74477   1.98367  -5.27758
  29.59338   2.07368  -5.61555
  29.39371   2.17188  -6.04354
  29.14412   2.27826  -6.56482
  28.83724   2.39283  -7.12619
  28.46736   2.50740  -7.79477
  28.06719   2.62196  -8.48707
  27.61629   2.72016  -9.18511
  27.16703   2.87565  -9.93470
  26.70222   2.98203 -10.66220
  26.13593   3.06386 -11.30295
  25.64575   3.21116 -11.91097
  25.11548   3.31754 -12.41833
  24.45017   3.39938 -12.79558
  23.86179   3.47303 -13.11473
  23.23495   3.54668 -13.32995
  22.59174   3.62033 -13.51735
  21.96654   3.62851 -13.70802
  21.29060   3.66943 -13.88642
  20.57783   3.70216 -14.10655
  19.75214   3.71853 -14.39378
  18.94117   3.76763 -14.74812
  18.11057   3.75944 -15.06973
  17.24068   3.74308 -15.42079
  16.45017   3.75126 -15.77185
  15.56310   3.73489 -16.02963
  14.63593   3.70216 -16.32995
  13.71368   3.63669 -16.56154
  12.67685   3.59578 -16.70884
  11.65148   3.56304 -16.85696
  10.63757   3.48121 -16.88969
   9.56965   3.42393 -16.88315
   8.51973   3.35846 -16.83977
   7.48454   3.24389 -16.70230
   6.46736   3.21116 -16.58855
   5.46654   3.14569 -16.44207
   4.43053   3.06386 -16.26776
   3.41171   3.00658 -16.18593
   2.37980   2.91656 -16.05909
   1.34297   2.90020 -15.87169
   0.36507   2.82655 -15.71130
  -0.67094   2.76108 -15.50017
  -1.66112   2.75290 -15.28331
  -2.63084   2.67106 -15.03045
  -3.64148   2.66288 -14.75058
  -4.55228   2.58923 -14.48462
  -5.47781   2.55650 -14.13192
  -6.35834   2.58923 -13.78331
  -7.18976   2.54013 -13.41752
  -8.00236   2.54013 -13.01653
  -8.84115   2.50740 -12.63437
  -9.85998   2.55650 -12.29067
 -10.88780   2.55650 -12.03372
 -11.92053   2.53195 -11.74812
 -12.87389   2.58923 -11.48789
 -13.70531   2.54831 -11.22848
 -14.46390   2.59741 -10.97316
 -15.13084   2.60560 -10.79804
 -15.80351   2.61378 -10.63928
 -16.43608   2.65470 -10.55663
 -17.22904   2.62196 -10.44370
 -17.90580   2.72835 -10.41670
 -18.50073   2.67925 -10.37905
 -19.30515   2.69561 -10.24403
 -19.87389   2.80200 -10.26203
 -20.50891   2.71198 -10.13683
 -21.20858   2.76926 -10.02144
 -21.79778   2.82655 -10.00671
 -22.50646   2.76926  -9.88806
 -23.14476   2.77745  -9.86432
 -23.74868   2.75290  -9.82423
 -24.28551   2.72016  -9.79722
 -24.78060   2.73653  -9.80377
 -25.24868   2.71198  -9.78658
 -25.60548   2.69561  -9.81932
 -26.01382   2.67106  -9.83323
 -26.38698   2.64651  -9.90606
 -26.69631   2.60560  -9.97725
 -27.03674   2.54831  -9.95925
 -27.29451   2.51558 -10.01081
 -27.55310   2.40101 -10.09837
 -27.78060   2.34373 -10.12455
 -27.96963   2.32736 -10.17365
 -28.24787   2.19643 -10.23176
 -28.42135   2.07368 -10.22112
 -28.56865   2.00822 -10.26121
 -28.71186   1.88547 -10.35287
 -28.72086   1.73817 -10.31932
 -28.69713   1.65633 -10.29558
 -28.66194   1.56632 -10.36023
 -28.58584   1.41902 -10.30377
 -28.50646   1.31263 -10.27922
 -28.41480   1.26353 -10.35860
 -28.26423   1.12442 -10.27840
 -28.10057   1.02622 -10.20393
 -27.84361   0.91984 -10.19902
 -27.55474   0.80527 -10.03208
 -27.25441   0.81345  -9.92079
 -26.85343   0.72344  -9.82995
 -26.45572   0.68252  -9.62946
 -26.00318   0.67434  -9.53208
 -25.49664   0.61705  -9.39788
 -24.95081   0.63342  -9.24894
 -24.36243   0.60887  -9.16465
 -23.73723   0.57614  -9.05581
 -23.02937   0.60069  -9.00180
 -22.35343   0.58432  -8.93634
 -21.66767   0.60887  -8.91179
 -20.91153   0.64160  -8.92897
 -20.17585   0.64979  -8.88724
 -19.37880   0.69070  -8.86842
 -18.54574   0.70707  -8.81768
 -17.70531   0.79709  -8.77513
 -16.83706   0.80527  -8.71375
 -16.01055   0.90347  -8.59919
 -15.09238   1.01804  -8.54681
 -14.25114   0.94439  -8.41997
 -13.33870   1.11623  -8.38560
 -12.27405   1.14897  -8.33241
 -11.42626   1.23898  -8.15565
 -10.35998   1.44357  -8.21457
  -9.29696   1.36992  -8.15074
  -8.47127   1.46812  -8.08691
  -7.43117   1.59087  -8.19820
  -6.41808   1.61542  -8.16302
  -5.53673   1.68907  -8.17529
  -4.55801   1.78727  -8.17693
  -3.44754   1.84455  -8.10982
  -2.53592   1.89365  -8.03945
  -1.64230   1.99185  -7.97725
  -0.58256   2.05732  -7.89706
   0.23659   2.12278  -7.78904
   1.04101   2.15551  -7.74157
   1.97718   2.21280  -7.64747
   2.81515   2.24553  -7.55991
   3.60729   2.26190  -7.51244
   4.46572   2.33555  -7.44861
   5.27832   2.35191  -7.40770
   5.95099   2.37646  -7.38233
