********************************************************************************
              CENTRO DE INSTRUMENTACION Y REGISTRO SISMICO  A.C.

    Anaxagoras 814, Col. Narvarte, Benito Juarez, C.P. 03020 Mexico, D.F.
           Tels. 5687 45 42/ 5687 45  82             Fax. 5669 25 12
********************************************************************************
ARCHIVO ESTANDAR DE ACELERACION:
VERSION DEL FORMATO                    : 2.0
NOMBRE DEL ARCHIVO                     : C36620200623152903
FECHA Y HORA DE CREACION               : 24/JUN/20, 12:09
REF. CATALOGO ACELEROGRAMAS, SMIS 1996 : REGISTRO No.     /PAG.


================================================================================
DATOS DE LA ESTACION:
NOMBRE DE LA ESTACION                  : CENTRAL DE ABASTO (POZO 60 MTS)
CLAVE DE LA ESTACION                   : C366
LOCALIZACION DE LA ESTACION            : Del. Iztapalapa, Central de Abasto     
                                       : Oficinas, Eje 4 Oriente.               
                                       :                                        
                                       :                                        
                                       : 
COORDENADAS DE LA ESTACION             : 19.3728 LAT. N
                                       : 99.0983 LONG. W
ALTITUD (msnm)                         : 2187
TIPO DE SUELO                          : Arcilloso, zona lago                
                                       :                           
                                       : 
INSTITUCION RESPONSABLE                : CIRES, A. C.
                                       : 

================================================================================
DATOS DEL ACELEROGRAFO:
MODELO DEL ACELEROGRAFO                : 
NUMERO DE SERIE DEL ACELEROGRAFO       : 
NUMERO DE CANALES                      : 3
ORIENTACION C1-C6 (rumbo;orientacion)  : 
ORIENTACION C7-C12 (rumbo;orientacion) : 
VEL. DE MUESTREO, C1-C6 (muestras/s)   : /200/200/200
VEL. DE MUESTREO, C7-C12 (muestras/s)  : 
ESC. COMPLETA DE SENSORES, C1-C6, (g)  : /7.0/7.0/7.0
ESC. COMPLETA DE SENSORES, C7-C12, (g) : 
FREC. NAT. DE SENSORES, C1-C6, (Hz)    : /500/500/500
FREC. NAT. DE SENSORES, C7-C12, (Hz)   : 
AMORTIGUAMIENTO DE SENSORES, C1-C6     : /0.700/0.700/0.700
AMORTIGUAMIENTO DE SENSORES, C7-C12    : 
INTERVALO DE MUESTREO, C1-C6, (s)      : /0.005/0.005/0.005
INTERVALO DE MUESTREO, C7-C12, (s)     : 
UMBRAL DE DISPARO, C1-C6, (Gal)        : /5 0./0.5 0./5 56
UMBRAL DE DISPARO, C7-C12, (Gal)       : 
MEMORIA DE PREEVENTO (s)               : 6
TIEMPO DE POSEVENTO (s)                : 4


================================================================================
DATOS DEL SISMO:
FECHA DEL SISMO (GMT)                  : 23/JUN/20
HORA EPICENTRO (GMT)                   : 15:29:03.0
MAGNITUD(ES)                           : /Mc=7.4
COORDENADAS DEL EPICENTRO              : 15.80 LAT. N
                                       : 96.13 LONG. W
PROFUNDIDAD FOCAL (km)                 : 22
FUENTE DE LOS DATOS EPICENTRALES       : SSN
                                       : INSTITUTO DE GEOFISICA, UNAM

================================================================================
DATOS DE ESTE REGISTRO:
HORA DE LA PRIMERA MUESTRA (GMT)       : .00
EXACTITUD DEL TIEMPO (s)               : 
DURACION DEL REGISTRO (s), C1-C6       : /310.9/310.9/310.9
DURACION DEL REGISTRO (s), C7-C12      : 
NUM. TOTAL DE MUESTRAS, C1-C6          : /62180/62180/62180
NUM. TOTAL DE MUESTRAS, C7-C12         : 
ACEL. MAX. (Gal), C1-C6                : /13.53159/6.5708/14.54885
ACEL. MAX., C1-C6, EN LA MUESTRA       : /15286/11639/16374
ACEL. MAX. (Gal), C7-C12               : 
ACEL. MAX., C7-C12, EN LA MUESTRA      : 
UNIDADES DE LOS DATOS                  : Gal (cm/s/s)
FACTOR DE DECIMACION                   : 1
FORMATO DATOS (FORTRAN,10 campos/dato) : 3F10.5


================================================================================
CALIDAD DEL ACELEROGRAMA:
REGISTRO DIGITAL COMPLETO CON TIEMPO ABSOLUTO CORRECTO.


================================================================================
COMENTARIOS:














================================================================================
DATOS DE ACELERACION:
---------+---------+---------+---------+---------+---------+---------+---------+
   CANAL-1   CANAL-2   CANAL-3   CANAL-4   CANAL-5   CANAL-6   CANAL-7   CANAL-8
      N00E        +V      N90W
---------+---------+---------+---------+---------+---------+---------+---------+
[...]
   3.10753  -3.28190  -3.37668
   2.98232  -3.32282  -3.74330
   2.88658  -3.34737  -4.19583
   2.69754  -3.37192  -4.58781
   2.50851  -3.39647  -4.91024
   2.46432  -3.39647  -5.32759
   2.36039  -3.41283  -5.62791
   2.17708  -3.41283  -5.91842
   2.05024  -3.39647  -6.29894
   1.93240  -3.38010  -6.60500
   1.77283  -3.36373  -6.87996
   1.57725  -3.33918  -7.12055
   1.43077  -3.32282  -7.37996
   1.34730  -3.27372  -7.61891
   1.17954  -3.23280  -7.75721
   0.97496  -3.22462  -7.95443
   0.85875  -3.18370  -8.17210
   0.74255  -3.13460  -8.29894
   0.60098  -3.08550  -8.46506
   0.44059  -3.03640  -8.64264
   0.26628  -3.00367  -8.73430
   0.17135  -2.96275  -8.88978
   0.04124  -2.92183  -8.97407
  -0.19035  -2.84818  -8.99452
  -0.33274  -2.77453  -9.16719
  -0.44812  -2.67634  -9.21875
  -0.59460  -2.52085  -9.32595
  -0.75090  -2.40629  -9.46752
  -0.98740  -2.27535  -9.40287
  -1.08069  -2.19352  -9.52235
  -1.10197  -2.07895  -9.60664
  -1.21899  -1.94802  -9.58781
  -1.26236  -1.84982  -9.63364
  -1.29428  -1.69434  -9.60827
  -1.32046  -1.59614  -9.64510
  -1.29264  -1.48157  -9.67783
  -1.32292  -1.35882  -9.68274
  -1.31719  -1.25244  -9.63200
  -1.18626  -1.10514  -9.60254
  -1.11097  -1.00694  -9.60664
  -1.08887  -0.87601  -9.45443
  -0.97840  -0.78599  -9.47652
  -0.88020  -0.70416  -9.50598
  -0.81228  -0.58959  -9.40124
  -0.70999  -0.51594  -9.45443
  -0.61179  -0.44229  -9.36605
  -0.45467  -0.36864  -9.28421
  -0.24108  -0.30318  -9.34723
  -0.09788  -0.23771  -9.23020
   0.05679  -0.19679  -9.10009
   0.26383  -0.14769  -9.07799
   0.45532  -0.09859  -9.05835
   0.63208  -0.04131  -8.95279
   0.78428  -3.9E-40  -8.79076
   0.99869   0.03234  -8.69747
   1.23600   0.07326  -8.55999
   1.43895   0.08962  -8.38978
   1.68608   0.08144  -8.23921
   1.93486   0.06507  -8.04690
   2.20000   0.04871  -7.89960
   2.42258   0.04052  -7.68110
   2.64271   0.03234  -7.44215
   2.96104   0.01597  -7.31777
   3.20409  -0.00858  -7.08945
   3.44713  -0.02494  -6.83904
   3.72946  -0.04949  -6.62955
   3.94386  -0.05768  -6.33331
   4.22782  -0.08223  -6.09109
   4.50278  -0.10678  -5.83904
   4.70818  -0.08223  -5.52153
   4.96023  -0.08223  -5.23430
   5.17299  -0.08223  -4.89551
   5.39721  -0.09041  -4.62137
   5.62880  -0.09859  -4.32759
   5.81784  -0.06586  -3.93560
   6.06988  -0.04949  -3.63446
   6.26710  -0.02494  -3.25230
   6.46023   0.00779  -2.90287
   6.70900   0.04052  -2.61155
   6.88985   0.09781  -2.18765
   7.10016   0.17146  -1.82595
   7.33093   0.24511  -1.44297
   7.55352   0.33512  -1.03790
   7.78428   0.42514  -0.68110
   7.96595   0.48242  -0.25966
   8.13780   0.58062   0.17814
   8.32275   0.69519   0.59549
   8.52406   0.80157   0.95965
   8.71227   0.88340   1.38191
   8.86203   0.97342   1.83690
   9.01833   1.09617   2.16996
   9.17463   1.21074   2.54230
   9.28101   1.29257   2.97192
   9.34320   1.39895   3.35245
   9.44304   1.48897   3.73379
   9.52487   1.56262   4.13068
   9.56006   1.62808   4.53003
   9.63944   1.70992   4.83772
   9.62062   1.79175   5.17733
   9.59852   1.85722   5.52512
   9.63044   1.93905   5.76080
   9.54942   2.02088   6.08076
   9.59934   2.10272   6.24852
   9.51669   2.19273   6.50384
   9.32847   2.22547   6.83854
   9.42258   2.29912   6.77471
   9.25564   2.38913   6.98011
   9.04288   2.41368   7.21988
   9.03469   2.47915   7.15850
   8.84239   2.56098   7.29926
   8.68445   2.61008   7.35654
   8.54779   2.63463   7.37618
   8.38576   2.69191   7.43919
   8.26465   2.72465   7.40155
   8.06088   2.74920   7.44656
   7.91358   2.92923   7.45147
   7.83011   3.05198   7.36718
   7.67872   3.01925   7.34017
   7.41685   2.97015   7.41464
   7.18363   2.96196   7.37700
   7.08216   3.03561   7.15769
   6.88658   3.06835   7.11022
   6.66890   3.09290   7.10613
   6.58461   3.14200   6.92364
   6.45204   3.15836   6.79026
   6.27365   3.19110   6.68796
   6.10016   3.19928   6.55294
   5.94059   3.20746   6.36227
   5.89476   3.21565   6.07503
   5.79410   3.18291   5.92692
   5.63944   3.19110   5.82708
   5.62144   3.21565   5.52675
   5.53551   3.23201   5.25179
   5.36694   3.24838   5.05048
   5.27937   3.25656   4.75589
   5.17790   3.29748   4.46947
   5.08707   3.29748   4.22233
   5.03797   3.31385   3.95228
   4.96595   3.33021   3.67651
   4.89230   3.31385   3.36963
   4.81211   3.32203   3.07422
   4.75073   3.32203   2.77634
   4.69918   3.33021   2.44165
   4.64435   3.31385   2.09140
   4.65172   3.28111   1.67405
   4.60098   3.25656   1.29926
   4.50687   3.23201   0.93346
   4.51505   3.20746   0.44083
   4.44222   3.17473   0.08158
   4.30883   3.10926  -0.20074
   4.31047   3.04380  -0.60991
   4.28183   3.01106  -0.91515
   4.18690   2.93741  -1.17701
   4.11980   2.85558  -1.48225
   4.06170   2.83103  -1.78994
   4.00851   2.77375  -2.13037
   3.89967   2.68373  -2.35213
   3.86694   2.65100  -2.62055
   3.86612   2.61826  -2.91842
   3.71800   2.54461  -3.05999
   3.65663   2.47096  -3.33250
   3.63617   2.39731  -3.65001
   3.51178   2.34003  -3.83250
   3.46268   2.29093  -4.06326
   3.37921   2.21728  -4.25721
   3.24419   2.13545  -4.39469
   3.24173   2.05362  -4.68029
   3.15335   1.98815  -4.88896
   2.97823   1.90632  -4.99289
   2.90867   1.83267  -5.25557
   2.80474   1.80812  -5.45033
   2.67627   1.74265  -5.59682
   2.57725   1.67718  -5.83495
   2.46350   1.65263  -6.02971
   2.31456   1.60353  -6.17947
   2.14271   1.52988  -6.30304
   2.06988   1.48078  -6.49371
   1.97823   1.41532  -6.66719
   1.80065   1.34167  -6.71138
   1.68363   1.28439  -6.85214
   1.57643   1.21892  -7.04526
   1.38167   1.15345  -7.11400
   1.23355   1.09617  -7.22366
   1.15826   1.01434  -7.39305
   0.97414   0.95705  -7.45115
   0.82356   0.91614  -7.52398
   0.70654   0.87522  -7.61891
   0.51424   0.83430  -7.66801
   0.38903   0.76884  -7.79976
   0.18445   0.71974  -7.86441
  -0.03323   0.63790  -7.91024
  -0.19362   0.53970  -7.98143
  -0.40229   0.48242  -7.94133
  -0.57824   0.38422  -7.92087
  -0.78118   0.30239  -7.87423
  -0.96776   0.22874  -7.86768
  -1.20426   0.15509  -7.84968
  -1.46203   0.05689  -7.75148
  -1.61097  -0.02494  -7.75803
  -1.86465  -0.09859  -7.65574
  -2.12161  -0.18043  -7.49943
  -2.29018  -0.24589  -7.46097
  -2.55614  -0.34409  -7.33986
  -2.83928  -0.40956  -7.24903
  -3.07333  -0.45866  -7.21466
  -3.29673  -0.53231  -7.12873
  -3.51031  -0.59778  -7.07472
  -3.71899  -0.66324  -6.96997
  -3.86956  -0.71234  -6.89878
  -4.08560  -0.76144  -6.75312
  -4.36138  -0.89237  -6.57881
  -4.55778  -1.04786  -6.68110
  -4.80737  -1.07241  -6.70156
  -5.08478  -0.96602  -6.66637
  -5.23372  -0.90874  -6.68683
  -5.29100  -0.94147  -6.66556
  -5.52586  -0.98239  -6.73675
  -5.93176  -1.03149  -6.83986
  -6.21408  -1.06422  -7.07472
  -6.44812  -1.08059  -7.18601
  -6.53732  -1.06422  -7.14919
  -6.44076  -1.04786  -7.24166
  -6.50213  -1.03149  -7.21875
  -6.68135  -1.01512  -7.25394
  -6.93748  -0.99057  -7.41351
  -7.29264  -0.95784  -7.45524
  -7.50540  -0.95784  -7.47488
  -7.56760  -0.91692  -7.52071
  -7.70590  -0.84327  -7.51007
  -7.98495  -0.82691  -7.42824
  -8.14779  -0.76962  -7.51089
  -8.23372  -0.72052  -7.61073
  -8.49886  -0.68779  -7.45606
  -8.66334  -0.61414  -7.41024
  -8.67480  -0.57323  -7.42742
  -8.78527  -0.51594  -7.23839
  -8.93994  -0.49139  -7.07799
  -9.11752  -0.48321  -7.04035
  -9.27955  -0.40956  -7.03544
  -9.44894  -0.37683  -6.93970
  -9.71817  -0.37683  -6.72448
  -9.82128  -0.36864  -6.68765
  -9.88757  -0.37683  -6.69911
 -10.22717  -0.39319  -6.44051
 -10.42521  -0.42593  -6.32922
 -10.57660  -0.43411  -6.32922
 -10.89739  -0.45048  -6.09272
 -11.08806  -0.51594  -5.83086
 -11.16580  -0.58141  -5.55999
 -11.22063  -0.63051  -5.29322
 -11.38757  -0.69597  -4.92578
 -11.44730  -0.75326  -4.59191
 -11.46040  -0.76144  -4.39551
 -11.77955  -0.81872  -3.88650
 -11.79755  -0.90874  -3.56490
 -11.75418  -0.94147  -3.34559
 -11.98413  -0.97421  -2.74575
 -11.92848  -1.01512  -2.45361
 -11.89739  -1.02331  -2.15164
 -11.91457  -1.09696  -1.69420
 -11.91948  -1.16242  -1.27930
 -11.81064  -1.21971  -0.87096
 -11.47104  -1.26062  -0.74903
 -11.57496  -1.30154  -0.16801
 -11.47267  -1.35882   0.32544
 -10.95549  -1.36701   0.30744
 -10.97840  -1.40792   0.93101
 -10.84747  -1.44066   1.43919
 -10.39493  -1.42429   1.51611
 -10.32455  -1.41611   1.98420
 -10.14698  -1.41611   2.32381
  -9.94321  -1.37519   2.61759
  -9.72881  -1.33427   2.99893
  -9.22390  -1.32609   3.10449
  -9.12734  -1.25244   3.66341
  -8.79591  -1.23607   4.05867
  -8.20017  -1.22789   4.12168
  -8.09051  -1.15424   4.71170
  -7.70917  -1.13787   4.93510
  -7.34829  -1.08059   5.14950
  -7.03486  -1.03149   5.51366
  -6.59297  -0.99876   5.69860
  -6.36383  -0.94147   6.15196
  -5.86547  -0.94966   6.25998
  -5.50213  -0.90874   6.44492
  -5.21899  -0.87601   6.74607
  -4.79919  -0.86782   6.84917
  -4.54223  -0.82691   7.19369
  -4.02832  -0.80236   7.28207
  -3.65761  -0.80236   7.48584
  -3.40148  -0.77781   7.80908
  -2.92848  -0.72052   7.81153
  -2.76727  -0.68779   8.12250
  -2.48740  -0.63051   8.36145
  -2.00377  -0.59778   8.43755
  -1.78609  -0.57323   8.76980
  -1.45549  -0.54049   8.93264
  -1.13879  -0.59778   9.14296
  -0.86792  -0.58141   9.36718
  -0.48085  -0.58959   9.47356
  -0.21899  -0.60596   9.79598
   0.19509  -0.52413   9.94001
   0.50523  -0.49958  10.18387
   0.77856  -0.48321  10.49484
   1.27856  -0.42593  10.53330
   1.43977  -0.40138  10.89991
   1.81784  -0.39319  11.11841
   2.27283  -0.34409  11.25098
   2.40867  -0.28681  11.66751
   2.95041  -0.26226  11.68469
   3.19836  -0.22953  11.96947
   3.40785  -0.18043  12.28289
   3.91113  -0.15588  12.19287
   3.88576  -0.13133  12.58567
   4.30147  -0.07404  12.57012
   4.62553  -0.04131  12.65114
   4.64108  -0.05768  13.06030
   5.23518  -0.03313  12.76898
   5.22618   0.00779  13.07913
   5.28919  -3.9E-40  13.28780
   5.76792   0.02416  13.10204
   5.83257   0.07326  13.45883
   6.10098   0.08962  13.51039
   6.25564   0.09781  13.69860
   6.40867   0.17146  13.85081
   6.62962   0.19601  13.87291
   6.56661   0.19601  14.21170
   6.90294   0.27784  14.12332
   6.98723   0.24511  14.25016
   6.84730   0.22056  14.48256
   7.16317   0.26966  14.29762
   7.15090   0.23692  14.40482
   7.19918   0.22874  14.41382
   7.31293   0.19601  14.43837
   7.27365   0.15509  14.54885
   7.53060   0.15509  14.36882
   7.43322   0.09781  14.47929
   7.37103   0.03234  14.46374
   7.51996  -0.04949  14.25098
   7.31211  -0.10678  14.35654
   7.34239  -0.16406  14.23952
   7.32766  -0.25408  14.18305
   7.12062  -0.31136  14.27880
   7.25155  -0.40956  14.02593
   7.09852  -0.46684  14.03494
   6.84075  -0.55686  14.11268
   7.00687  -0.63051  13.78125
   6.89803  -0.66324  13.76243
   6.72700  -0.72871  13.77962
   6.78919  -0.81054  13.52675
   6.67545  -0.90056  13.44083
   6.60834  -0.95784  13.25998
   6.44959  -1.00694  13.15359
   6.33257  -1.07241  12.97111
   6.30965  -1.10514  12.66178
   6.03879  -1.17061  12.61268
   6.02651  -1.19516  12.28289
   5.93649  -1.20334  12.00302
   5.71064  -1.25244  11.80417
   5.68281  -1.27699  11.40564
   5.49132  -1.30154  11.17896
   5.38085  -1.33427  10.77062
   5.17545  -1.35064  10.42037
   4.90458  -1.37519  10.13805
   4.78756  -1.37519   9.67569
   4.49214  -1.40792   9.34017
   4.22700  -1.44066   8.90318
   3.93322  -1.44066   8.50302
   3.56415  -1.48157   8.14459
   3.34157  -1.49794   7.62004
   3.00360  -1.50612   7.25507
   2.62307  -1.53067   6.86227
   2.34975  -1.53067   6.32053
   1.95777  -1.53886   5.87536
   1.56170  -1.53067   5.36881
   1.21473  -1.55522   4.84590
   0.81456  -1.55522   4.37536
   0.45041  -1.51431   3.80744
   0.03306  -1.51431   3.30007
  -0.41048  -1.48976   2.78616
  -0.83683  -1.44884   2.22561
  -1.31883  -1.45702   1.74770
  -1.72554  -1.45702   1.19369
  -2.14534  -1.45702   0.65605
  -2.62406  -1.44884   0.17160
  -3.07987  -1.46521  -0.32267
  -3.53568  -1.47339  -0.78994
  -3.93830  -1.48976  -1.29485
  -4.40557  -1.51431  -1.72775
  -4.86302  -1.53067  -2.18765
  -5.25009  -1.54704  -2.68274
  -5.72472  -1.58796  -3.06081
  -6.15352  -1.60432  -3.48634
  -6.53814  -1.62069  -3.92169
  -6.96285  -1.65342  -4.28667
  -7.33519  -1.66979  -4.70647
  -7.73045  -1.68616  -5.14182
  -8.16171  -1.72707  -5.51744
  -8.49640  -1.79254  -5.93724
  -8.84092  -1.81709  -6.30222
  -9.17644  -1.84164  -6.59600
  -9.45221  -1.90710  -6.97325
  -9.80246  -1.93984  -7.26048
 -10.08969  -2.00530  -7.56490
 -10.35647  -2.07077  -7.90942
 -10.68544  -2.11987  -8.15574
 -10.97431  -2.20170  -8.44297
 -11.23290  -2.28354  -8.70565
 -11.43012  -2.35719  -8.98225
 -11.71981  -2.43084  -9.20893
 -12.03568  -2.50449  -9.39551
 -12.21735  -2.57814  -9.69420
 -12.45794  -2.66815  -9.88160
 -12.68216  -2.74998 -10.00434
 -12.78609  -2.82363 -10.21384
 -12.90721  -2.91365 -10.40451
 -13.08724  -2.99548 -10.55835
 -13.26318  -3.09368 -10.70320
 -13.33928  -3.18370 -10.88569
 -13.36793  -3.27372 -11.05426
 -13.44730  -3.39647 -11.11155
 -13.44239  -3.47830 -11.20402
 -13.35074  -3.56832 -11.36359
 -13.34419  -3.67470 -11.42088
 -13.28364  -3.74835 -11.47079
 -13.11670  -3.84655 -11.57554
 -12.97185  -3.95293 -11.61482
 -12.84583  -4.04295 -11.58945
 -12.71572  -4.12478 -11.56408
 -12.50459  -4.20661 -11.55754
 -12.31964  -4.27208 -11.48798
 -12.18298  -4.32936 -11.35705
 -11.91866  -4.37846 -11.27685
 -11.67644  -4.41120 -11.17619
 -11.48658  -4.44393 -11.01580
 -11.23290  -4.50121 -10.89633
 -11.02259  -4.55031 -10.75966
 -10.76727  -4.60760 -10.62218
 -10.47349  -4.64033 -10.48307
 -10.23781  -4.68125 -10.25230
  -9.92030  -4.73853 -10.10827
  -9.63552  -4.76308  -9.96097
  -9.39166  -4.77944  -9.73839
  -9.09788  -4.80399  -9.57718
  -8.85729  -4.80399  -9.34559
  -8.57905  -4.79581  -9.14510
  -8.33765  -4.78763  -8.92742
  -8.11915  -4.77126  -8.64264
  -7.83192  -4.75489  -8.44379
  -7.63061  -4.72216  -8.15737
  -7.40802  -4.69761  -7.87178
  -7.20262  -4.66488  -7.59027
  -7.01359  -4.60760  -7.29813
  -6.81146  -4.55850  -7.03708
  -6.69035  -4.48485  -6.67701
  -6.46940  -4.41120  -6.40942
  -6.32128  -4.33755  -6.07718
  -6.21408  -4.25571  -5.72038
  -6.01031  -4.17388  -5.46834
  -5.89084  -4.09205  -5.11727
  -5.77054  -4.01840  -4.84723
  -5.67807  -3.95293  -4.52480
  -5.57496  -3.88746  -4.18847
  -5.46449  -3.81381  -3.92415
  -5.43912  -3.73198  -3.54035
  -5.37529  -3.65015  -3.24493
  -5.34419  -3.54377  -2.93479
  -5.31637  -3.45375  -2.56490
  -5.23536  -3.33918  -2.28421
  -5.20671  -3.22462  -1.93724
  -5.13879  -3.11823  -1.62709
  -5.08478  -3.02003  -1.32595
  -5.05941  -2.89728  -0.99452
  -4.94567  -2.74180  -0.79403
  -4.90966  -2.62724  -0.49698
  -4.84256  -2.50449  -0.21302
  -4.69853  -2.37355  -0.03053
  -4.62324  -2.26717   0.26489
