********************************************************************************
              CENTRO DE INSTRUMENTACION Y REGISTRO SISMICO  A.C.

    Anaxagoras 814, Col. Narvarte, Benito Juarez, C.P. 03020 Mexico, D.F.
           Tels. 5687 45 42/ 5687 45  82             Fax. 5669 25 12
********************************************************************************
ARCHIVO ESTANDAR DE ACELERACION:
VERSION DEL FORMATO                    : 2.0
NOMBRE DEL ARCHIVO                     : CE1820200623152903
FECHA Y HORA DE CREACION               : 18/AGO/21, 13:41
REF. CATALOGO ACELEROGRAMAS, SMIS 1996 : REGISTRO No.     /PAG.


================================================================================
DATOS DE LA ESTACION:
NOMBRE DE LA ESTACION                  : ESC. PRIM. "RAMÓN ESPINOZA VILLANUEVA"
CLAVE DE LA ESTACION                   : CE18
LOCALIZACION DE LA ESTACION            : Del. Iztapalapa, Col. U. H. San Nicólas
                                       : Tolentino, calle 3 entre Carril        
                                       : y Estrella.                            
                                       :                                        
                                       : 
COORDENADAS DE LA ESTACION             : 19.3398 LAT. N
                                       : 99.0847 LONG. W
ALTITUD (msnm)                         : 2240
TIPO DE SUELO                          : Arenoso, limoso, compacto           
                                       :                           
                                       : 
INSTITUCION RESPONSABLE                : CIRES
                                       : 

================================================================================
DATOS DEL ACELEROGRAFO:
MODELO DEL ACELEROGRAFO                : RADESD
NUMERO DE SERIE DEL ACELEROGRAFO       : 223
NUMERO DE CANALES                      : 3
ORIENTACION C1-C6 (rumbo;orientacion)  : /N00E/+V/N90W
ORIENTACION C7-C12 (rumbo;orientacion) : 
VEL. DE MUESTREO, C1-C6 (muestras/s)   : /100/100/100
VEL. DE MUESTREO, C7-C12 (muestras/s)  : 
ESC. COMPLETA DE SENSORES, C1-C6, (g)  : /0.5/0.5/0.5
ESC. COMPLETA DE SENSORES, C7-C12, (g) : 
FREC. NAT. DE SENSORES, C1-C6, (Hz)    : /30/30/30
FREC. NAT. DE SENSORES, C7-C12, (Hz)   : 
AMORTIGUAMIENTO DE SENSORES, C1-C6     : /0.720/0.774/0.740
AMORTIGUAMIENTO DE SENSORES, C7-C12    : 
INTERVALO DE MUESTREO, C1-C6, (s)      : /0.01/0.01/0.01
INTERVALO DE MUESTREO, C7-C12, (s)     : 
UMBRAL DE DISPARO, C1-C6, (Gal)        : /1.0/2.99/1.0
UMBRAL DE DISPARO, C7-C12, (Gal)       :
MEMORIA DE PREEVENTO (s)               : 44.0
TIEMPO DE POSEVENTO (s)                : 64.0


================================================================================
DATOS DEL SISMO:
FECHA DEL SISMO (GMT)                  : 23/JUN/20
HORA EPICENTRO (GMT)                   : 15:29:03.0
MAGNITUD(ES)                           : /Mc=7.4
COORDENADAS DEL EPICENTRO              : 15.80 LAT. N
                                       : 96.13 LONG. W
PROFUNDIDAD FOCAL (km)                 : 22
FUENTE DE LOS DATOS EPICENTRALES       : SSN
                                       : INSTITUTO DE GEOFISICA, UNAM

================================================================================
DATOS DE ESTE REGISTRO:
HORA DE LA PRIMERA MUESTRA (GMT)       : 15:30:38.00
EXACTITUD DEL TIEMPO (s)               : 0.01
DURACION DEL REGISTRO (s), C1-C6       : /222.0/222.0/222.0
DURACION DEL REGISTRO (s), C7-C12      : 
NUM. TOTAL DE MUESTRAS, C1-C6          : /22200/22200/22200
NUM. TOTAL DE MUESTRAS, C7-C12         : 
ACEL. MAX. (Gal), C1-C6                : /5.76343/2.888/3.99419
ACEL. MAX., C1-C6, EN LA MUESTRA       : /5506/4917/5568
ACEL. MAX. (Gal), C7-C12               : 
ACEL. MAX., C7-C12, EN LA MUESTRA      : 
UNIDADES DE LOS DATOS                  : Gal (cm/s/s)
FACTOR DE DECIMACION                   : 1
FORMATO DATOS (FORTRAN,10 campos/dato) : 3F10.5


================================================================================
CALIDAD DEL ACELEROGRAMA:
REGISTRO DIGITAL COMPLETO CON TIEMPO ABSOLUTO CORRECTO.


================================================================================
COMENTARIOS:














================================================================================
DATOS DE ACELERACION:
---------+---------+---------+---------+---------+---------+---------+---------+
   CANAL-1   CANAL-2   CANAL-3   CANAL-4   CANAL-5   CANAL-6   CANAL-7   CANAL-8
      N00E        +V      N90W
---------+---------+---------+---------+---------+---------+---------+---------+
[...]
  -1.55385  -0.11970  -0.08864
  -1.64363  -0.17956  -0.01383
  -1.70348  -0.26934   0.09092
  -1.64363  -0.46387   0.18070
  -1.70348  -0.52373   0.22559
  -1.52392  -0.67336   0.40516
  -1.53888  -0.70329   0.52487
  -1.50895  -0.65840   0.52487
  -1.40421  -1.04746   0.61465
  -1.40421  -1.12228   0.50991
  -1.35932  -1.42155   0.43509
  -1.25457  -1.37666   0.49494
  -1.17975  -1.42155   0.46502
  -1.23961  -1.58615   0.46502
  -1.07501  -1.49637   0.40516
  -1.22464  -1.57119   0.37523
  -1.28450  -1.76572   0.46502
  -1.23961  -1.75075   0.36027
  -1.14982  -1.72083   0.37523
  -0.98522  -1.79565   0.39020
  -0.82062  -1.72083   0.42012
  -1.00019  -1.94528   0.27049
  -0.67098  -1.87046   0.45005
  -0.44653  -1.69090   0.40516
  -0.17718  -1.85550   0.58473
  -0.16222  -1.96025   0.46502
   0.16699  -1.84054   0.53983
   0.21188  -1.93032   0.46502
   0.46626  -1.73579   0.55480
   0.67575  -1.75075   0.56976
   0.87028  -1.78068   0.50991
   0.84036  -1.46644   0.53983
   1.00496  -1.48141   0.52487
   1.03488  -1.45148   0.79422
   1.13963  -1.31680   0.97378
   0.97503  -1.22702   1.01867
   0.91517  -1.10731   1.04860
   0.78050  -1.13724   1.24313
   0.72065  -0.98760   1.31795
   0.64583  -0.97264   1.52744
   0.55604  -0.83796   1.52744
   0.54108  -0.91278   1.69204
   0.37648  -0.83796   1.58730
   0.25677  -0.85293   1.51248
   0.10713  -0.85293   1.42270
   0.16699  -0.68833   1.25809
  -0.11732  -0.65840   1.18328
  -0.23703  -0.62847   0.94386
  -0.40164  -0.70329   0.91393
  -0.52135  -0.68833   0.67451
  -0.65602  -0.53869   0.40516
  -0.74580  -0.64344   0.33034
  -1.04508  -0.64344   0.21063
  -0.95530  -0.74818   0.21063
  -1.04508  -0.74818   0.12085
  -1.11990  -0.83796   0.06099
  -1.29946  -1.01753  -0.02879
  -1.22464  -0.98760  -0.04375
  -1.17975  -1.06242  -0.22332
  -1.01515  -1.13724  -0.32806
  -1.01515  -1.25695  -0.35799
  -0.98522  -1.24199  -0.40288
  -0.94033  -1.33177  -0.52259
  -0.88048  -1.42155  -0.41785
  -0.92537  -1.40659  -0.43281
  -0.80566  -1.24199  -0.44777
  -0.88048  -1.25695  -0.49267
  -0.89544  -1.13724  -0.40288
  -0.91040  -1.12228  -0.37296
  -1.00019  -1.25695  -0.34303
  -1.00019  -1.00257  -0.32806
  -1.00019  -1.18213  -0.23828
  -0.97026  -1.13724  -0.32806
  -0.94033  -1.15220  -0.28317
  -0.70091  -1.07738  -0.17843
  -0.53631  -1.06242  -0.32806
  -0.41660  -1.04746  -0.37296
  -0.40164  -1.18213  -0.47770
  -0.19214  -0.97264  -0.56748
  -0.04251  -1.13724  -0.64230
   0.10713  -1.06242  -0.59741
   0.22684  -1.15220  -0.77698
   0.37648  -1.10731  -0.79194
   0.37648  -1.16717  -0.97151
   0.46626  -1.22702  -1.04632
   0.76554  -1.15220  -1.10618
   0.84036  -1.31680  -1.21093
   0.94510  -1.21206  -1.09122
   1.18452  -1.18213  -1.37553
   1.34912  -1.43651  -1.39049
   1.55862  -1.54126  -1.39049
   1.87286  -1.51133  -1.49524
   1.88782  -1.57119  -1.54013
   2.06738  -1.67594  -1.68977
   2.24695  -1.81061  -1.59998
   2.30680  -1.82557  -1.68977
   2.42651  -2.02010  -1.68977
   2.44148  -1.91536  -1.65984
   2.42651  -2.02010  -1.61495
   2.42651  -1.88543  -1.70473
   2.24695  -2.00514  -1.64488
   2.33673  -1.97521  -1.51020
   2.23199  -1.82557  -1.49524
   2.00753  -1.82557  -1.45035
   1.96264  -1.75075  -1.37553
   1.87286  -1.75075  -1.36056
   1.64840  -1.64601  -1.21093
   1.57358  -1.55623  -1.15107
   1.37905  -1.30184  -1.06129
   1.21445  -1.30184  -0.83683
   0.94510  -1.24199  -0.79194
   0.79546  -1.24199  -0.70216
   0.64583  -1.12228  -0.53756
   0.49619  -1.01753  -0.35799
   0.45130  -1.03249  -0.11857
   0.31662  -0.97264   0.04603
   0.19691  -1.06242   0.10588
   0.06224  -0.95767   0.25552
  -0.05747  -0.94271   0.39020
  -0.13229  -1.01753   0.52487
  -0.19214  -0.98760   0.46502
  -0.32682  -1.06242   0.55480
  -0.32682  -1.10731   0.64458
  -0.47645  -1.01753   0.56976
  -0.61113  -1.00257   0.58473
  -0.91040  -1.10731   0.55480
  -0.97026  -0.92775   0.52487
  -1.16479  -0.94271   0.34530
  -1.26953  -0.95767   0.33034
  -1.34435  -0.77811   0.22559
  -1.41917  -0.77811   0.12085
  -1.61370  -0.82300   0.00114
  -1.44910  -0.67336  -0.07368
  -1.38924  -0.38905  -0.19339
  -1.43414  -0.29927  -0.26821
  -1.31443  -0.34416  -0.40288
  -1.25457  -0.17956  -0.47770
  -1.16479   1.0E-50  -0.55252
  -0.92537   0.11972  -0.44777
  -0.88048   0.22446  -0.53756
  -0.74580   0.28432  -0.46274
  -0.47645   0.31425  -0.26821
  -0.52135   0.50877  -0.17843
  -0.52135   0.43396  -0.28317
  -0.52135   0.25439  -0.17843
  -0.56624   0.29928  -0.31310
  -0.64106   0.08979  -0.05872
  -0.61113   0.29928  -0.11857
  -0.64106   0.23943  -0.05872
  -0.88048  -0.02992  -0.01383
  -1.00019  -0.05985  -0.14850
  -0.92537   1.0E-50  -0.04375
  -1.20968  -0.23941   0.01610
  -1.17975  -0.34416  -0.01383
  -1.29946  -0.26934   0.13581
  -1.25457  -0.41898   0.07596
  -1.49399  -0.37409   0.04603
  -1.38924  -0.29927   0.18070
  -1.50895  -0.32920   0.01610
  -1.44910  -0.41898   0.12085
  -1.47903  -0.44891  -0.07368
  -1.47903  -0.31423  -0.01383
  -1.37428  -0.26934  -0.16346
  -1.40421  -0.20949  -0.16346
  -1.41917  -0.34416  -0.28317
  -1.14982  -0.13467  -0.40288
  -1.08997  -0.01496  -0.38792
  -1.25457  -0.19452  -0.40288
  -1.26953   0.08979  -0.41785
  -1.06004   0.22446  -0.32806
  -1.08997   0.16461  -0.26821
  -1.07501   0.17957  -0.04375
  -1.13486   0.17957   0.00114
  -1.07501   0.20950   0.01610
  -1.25457   0.01497   0.13581
  -1.32939  -0.10474   0.12085
  -1.38924  -0.14963   0.28545
  -1.38924  -0.31423   0.31538
  -1.19472  -0.22445   0.24056
  -1.50895  -0.28431   0.19567
  -1.44910  -0.31423   0.18070
  -1.37428  -0.38905   0.10588
  -1.41917  -0.44891  -0.08864
  -1.26953  -0.34416  -0.05872
  -1.11990  -0.23941  -0.08864
  -0.97026  -0.25438  -0.08864
  -0.86551  -0.17956  -0.44777
  -0.64106  -0.08978  -0.41785
  -0.35674   1.0E-50  -0.65727
  -0.11732   0.01497  -0.70216
   0.27173   0.23943  -0.86676
   0.48123   0.28432  -0.95654
   0.63086   0.31425  -1.12114
   0.88525   0.31425  -1.10618
   1.10970   0.20950  -1.15107
   1.33416   0.34417  -1.27078
   1.45387   0.41899  -1.15107
   1.70825   0.59856  -1.19596
   1.72322   0.65841  -1.13611
   1.87286   0.56863  -1.04632
   2.02249   0.74819  -0.95654
   2.17213   0.83798  -0.95654
   2.21702   0.88287  -0.86676
   2.26191   0.97265  -0.68719
   2.47141   0.95769  -0.67223
   2.27688   1.00258  -0.62734
   2.38162   1.18214  -0.47770
   2.17213   1.03251  -0.53756
   2.12724   1.09236  -0.61238
   2.08235   1.09236  -0.44777
   1.94767   1.09236  -0.35799
   1.78307   1.12229  -0.50763
   1.82796   1.30185  -0.34303
   1.45387   1.12229  -0.52259
   1.33416   1.16718  -0.62734
   1.22941   1.24200  -0.67223
   1.04985   1.30185  -0.74705
   0.90021   1.15222  -0.76201
   0.88525   1.19711  -0.85180
   0.67575   1.18214  -0.89669
   0.55604   1.06243  -0.94158
   0.49619   0.94272  -0.98647
   0.40641   0.76316  -0.91165
   0.49619   0.79309  -0.70216
   0.21188   0.70330  -0.74705
   0.25677   0.85294  -0.50763
   0.09217   0.68834  -0.44777
  -0.01258   0.61352  -0.52259
  -0.17718   0.53870  -0.62734
  -0.40164   0.47885  -0.76201
  -0.59616   0.41899  -0.91165
  -0.58120   0.50877  -0.83683
  -0.59616   0.43396  -1.10618
  -0.68595   0.32921  -0.95654
  -0.80566   0.29928  -1.15107
  -0.71588   0.19453  -1.36056
  -0.82062   0.19453  -1.55509
  -0.77573   0.26935  -1.57006
  -0.62609   0.23943  -1.55509
  -0.58120   0.17957  -1.68977
  -0.37171   0.34417  -1.71969
  -0.22207   0.56863  -1.76459
  -0.07243   0.59856  -1.80948
   0.01735   0.71827  -1.91422
   0.33159   0.95769  -1.79451
   0.40641   1.09236  -1.79451
   0.76554   1.25696  -1.76459
   0.84036   1.36171  -1.70473
   0.97503   1.48142  -1.46531
   1.30423   1.70587  -1.15107
   1.36409   1.88544  -1.19596
   1.43891   1.91537  -1.03136
   1.40898   1.96026  -0.86676
   1.42394   2.06500  -0.68719
   1.42394   2.07997  -0.41785
   1.27431   2.22961  -0.25325
   0.91517   1.88544  -0.07368
   0.88525   1.91537   0.04603
   0.37648   1.76573   0.19567
   0.13706   1.66098   0.15078
  -0.10236   1.66098   0.16574
  -0.50638   1.63106   0.27049
  -0.79069   1.55624   0.28545
  -1.07501   1.49638   0.13581
  -1.26953   1.60113   0.21063
  -1.56881   1.54127   0.12085
  -1.85312   1.70587   0.13581
  -2.18232   1.66098   0.00114
  -2.30203   1.75077  -0.02879
  -2.46664   1.69091   0.00114
  -2.55642   1.73580  -0.13354
  -2.69109   1.93033  -0.14850
  -2.67613   1.99019  -0.11857
  -2.87066   1.99019   0.00114
  -2.78087   2.15479  -0.02879
  -2.96044   2.03508  -0.10361
  -2.97540   1.94529   0.15078
  -2.90058   2.07997   0.37523
  -2.94548   1.96026   0.34530
  -2.97540   1.90040   0.68947
  -2.99037   1.96026   0.82415
  -3.05022   1.93033   0.89896
  -3.00533   2.05004   1.04860
  -2.91555   1.94529   1.34788
  -2.93051   1.75077   1.52744
  -2.82577   1.81062   1.81175
  -2.72102   1.55624   2.03621
  -2.70606   1.49638   2.20081
  -2.63124   1.43653   2.23074
  -2.57138   1.28689   2.42527
  -2.46664   1.18214   2.51505
  -2.19729   1.28689   2.53001
  -2.28707   1.00258   2.51505
  -2.19729   0.83798   2.24570
  -2.06261   0.95769   2.33549
  -1.91298   1.00258   2.33549
  -1.74837   1.12229   2.15592
  -1.68852   1.10732   2.18585
  -1.76334   0.98761   2.17088
  -1.77830   1.12229   2.08110
  -1.74837   1.13725   2.23074
  -1.73341   1.13725   2.18585
  -1.61370   1.28689   2.30556
  -1.67356   1.12229   2.21577
  -1.59874   1.21207   2.26067
  -1.55385   1.28689   2.30556
  -1.43414   1.12229   2.41030
  -1.43414   1.07740   2.54498
  -1.41917   0.97265   2.42527
  -1.20968   0.89783   2.48512
  -0.98522   0.85294   2.66469
  -0.91040   0.88287   2.58987
  -0.47645   0.64345   2.63476
  -0.29689   0.77812   2.60483
  -0.05747   0.52374   2.42527
   0.34655   0.53870   2.33549
   0.82539   0.35914   2.45520
   1.18452   0.19453   2.14096
   1.78307   0.25439   1.99132
   2.17213   0.17957   1.90154
   2.59112  -0.17956   1.84168
   3.09988  -0.29927   1.48255
   3.45901  -0.37409   1.30299
   3.92289  -0.62847   1.37780
   4.22217  -0.64344   1.19824
   4.58130  -0.80804   0.95882
   4.85064  -0.91278   0.97378
   5.04517  -0.92775   0.82415
   5.25467  -0.88286   0.85407
   5.46416  -0.94271   0.76429
   5.62876  -1.10731   0.91393
   5.70358  -1.10731   0.95882
   5.74847  -1.10731   1.09349
   5.76343  -1.25695   1.06357
   5.70358  -1.21206   1.15335
   5.67365  -1.13724   1.31795
   5.71854  -1.03249   1.33291
   5.43423  -1.12228   1.52744
   5.22474  -1.00257   1.52744
   4.86561  -1.01753   1.69204
   4.56633  -1.01753   1.66212
   4.32691  -0.82300   2.00628
   4.08749  -0.67336   2.11103
   3.77325  -0.58358   2.29059
   3.41412  -0.58358   2.38038
   3.01010  -0.37409   2.53001
   2.81557  -0.38905   2.60483
   2.62104  -0.23941   2.84425
   2.48637  -0.07481   2.81433
   2.14220   0.02993   2.99389
   1.94767   0.07482   3.11360
   1.88782   0.13468   3.26324
   1.66336   0.11972   3.26324
   1.42394   0.16461   3.47273
   1.25934   0.22446   3.51762
   1.16956   0.14964   3.27820
   0.97503   0.17957   3.62237
   0.75057   0.25439   3.44280
   0.63086   0.11972   3.51762
   0.57101   0.11972   3.41288
   0.51115   0.19453   3.23331
   0.55604   0.23943   3.03878
   0.55604   0.25439   2.88914
   0.51115   0.38906   2.61980
   0.60094   0.37410   2.48512
   0.43633   0.29928   2.26067
   0.34655   0.32921   1.97635
   0.43633   0.35914   1.91650
   0.28670   0.25439   1.52744
   0.28670   0.47885   1.48255
   0.28670   0.22446   1.36284
   0.36152   0.29928   1.30299
   0.37648   0.49381   1.03364
   0.25677   0.35914   0.80918
   0.28670   0.44892   0.68947
   0.33159   0.47885   0.49494
   0.30166   0.44892   0.19567
   0.27173   0.40403   0.06099
   0.10713   0.52374  -0.34303
   0.31662   0.55367  -0.61238
   0.34655   0.56863  -0.91165
   0.45130   0.55367  -1.18100
   0.49619   0.64345  -1.52517
   0.49619   0.43396  -1.76459
   0.48123   0.41899  -2.07882
   0.61590   0.47885  -2.45292
   0.54108   0.47885  -2.73723
   0.37648   0.25439  -2.99161
   0.46626   0.19453  -3.18614
   0.43633   0.20950  -3.35074
   0.37648   0.17957  -3.59016
   0.36152   0.05986  -3.67995
   0.39144  -0.02992  -3.72484
   0.42137   0.22446  -3.81462
   0.45130   0.01497  -3.91937
   0.46626  -0.22445  -3.99419
   0.52612  -0.10474  -3.96426
   0.57101  -0.17956  -3.78469
   0.61590  -0.26934  -3.82958
   0.66079  -0.37409  -3.51535
   0.54108  -0.56862  -3.45549
   0.52612  -0.53869  -3.32082
   0.36152  -0.79307  -3.29089
   0.36152  -0.83796  -3.02154
   0.15202  -0.97264  -2.84198
   0.04728  -1.07738  -2.78212
  -0.08740  -1.30184  -2.72227
  -0.07243  -1.33177  -2.51277
  -0.28193  -1.39162  -2.60256
  -0.35674  -1.54126  -2.36314
  -0.46149  -1.76572  -2.18357
  -0.52135  -1.72083  -2.09379
  -0.58120  -1.72083  -2.00401
  -0.80566  -1.79565  -2.01897
  -1.00019  -1.90039  -1.83940
  -0.92537  -1.70586  -1.83940
  -1.16479  -1.97521  -1.65984
  -1.10493  -1.91536  -1.52517
  -1.17975  -1.82557  -1.36056
  -1.19472  -1.78068  -1.22589
  -1.52392  -1.88543  -1.24085
  -1.52392  -2.03507  -1.03136
  -1.70348  -2.07996  -0.95654
  -1.73341  -1.96025  -0.64230
  -1.98779  -2.12485  -0.52259
  -2.00276  -1.99017  -0.29814
  -2.30203  -2.03507  -0.07368
  -2.40678  -1.73579   0.12085
  -2.81080  -1.79565   0.27049
  -2.91555  -1.75075   0.42012
  -3.11008  -1.67594   0.74933
  -3.34950  -1.54126   0.95882
  -3.78345  -1.46644   1.09349
  -3.85826  -1.34673   1.27306
  -4.20243  -1.19709   1.37780
  -4.38200  -0.98760   1.60226
  -4.65134  -0.97264   1.63219
  -4.77105  -0.85293   1.84168
  -4.89076  -0.91278   2.00628
  -5.08529  -0.71825   2.06614
  -5.17508  -0.71825   1.97635
  -5.14515  -0.73322   2.09606
  -5.14515  -0.52373   2.00628
  -4.99551  -0.50876   1.94643
  -4.99551  -0.37409   2.06614
  -4.92069  -0.28431   1.79679
  -4.80098  -0.19452   1.67708
  -4.62142  -0.26934   1.54241
  -4.38200  -0.23941   1.52744
  -3.76848  -0.22445   1.48255
  -3.87323  -0.23941   1.42270
  -3.55899  -0.22445   1.27306
  -3.51410  -0.19452   1.24313
  -3.08015  -0.17956   1.16831
  -2.93051  -0.37409   0.89896
  -2.66116  -0.35912   0.88400
  -2.46664  -0.16460   0.62962
  -2.24218  -0.19452   0.59969
  -2.06261  -0.43394   0.42012
  -1.91298  -0.44891   0.25552
  -1.64363  -0.47883   0.15078
  -1.23961  -0.22445   0.13581
  -0.88048  -0.43394   0.12085
  -0.55127  -0.52373   0.00114
  -0.34178  -0.53869   0.04603
  -0.10236  -0.52373  -0.08864
   0.06224  -0.41898  -0.08864
   0.40641  -0.44891  -0.16346
   0.42137  -0.58358  -0.28317
   0.67575  -0.46387  -0.32806
   0.87028  -0.46387  -0.29814
   0.96007  -0.50876  -0.38792
   1.03488  -0.41898  -0.59741
   1.28927  -0.41898  -0.62734
   1.22941  -0.55365  -0.83683
   1.52869  -0.26934  -0.83683
   1.45387  -0.52373  -0.98647
