********************************************************************************
              CENTRO DE INSTRUMENTACION Y REGISTRO SISMICO  A.C.

    Anaxagoras 814, Col. Narvarte, Benito Juarez, C.P. 03020 Mexico, D.F.
           Tels. 5687 45 42/ 5687 45  82             Fax. 5669 25 12
********************************************************************************
ARCHIVO ESTANDAR DE ACELERACION:
VERSION DEL FORMATO                    : 2.0
NOMBRE DEL ARCHIVO                     : CE3220200623152903
FECHA Y HORA DE CREACION               : 18/AGO/21, 13:41
REF. CATALOGO ACELEROGRAMAS, SMIS 1996 : REGISTRO No.     /PAG.


================================================================================
DATOS DE LA ESTACION:
NOMBRE DE LA ESTACION                  : CETIS NO. 57
CLAVE DE LA ESTACION                   : CE32
LOCALIZACION DE LA ESTACION            : Del. Iztapalapa, Col. U. H. Ejército   
                                       : Constitucionalista, calle Verduzco,    
                                       : Entre Av. Tepalcates                   
                                       : y Av. Revolución.                      
                                       : 
COORDENADAS DE LA ESTACION             : 19.3858 LAT. N
                                       : 99.0537 LONG. W
ALTITUD (msnm)                         : 2233
TIPO DE SUELO                          : Arcilloso, zona lago                
                                       :                           
                                       : 
INSTITUCION RESPONSABLE                : CIRES
                                       : 

================================================================================
DATOS DEL ACELEROGRAFO:
MODELO DEL ACELEROGRAFO                : RADESD
NUMERO DE SERIE DEL ACELEROGRAFO       : 227
NUMERO DE CANALES                      : 3
ORIENTACION C1-C6 (rumbo;orientacion)  : /N00E/+V/N90W
ORIENTACION C7-C12 (rumbo;orientacion) : 
VEL. DE MUESTREO, C1-C6 (muestras/s)   : /100/100/100
VEL. DE MUESTREO, C7-C12 (muestras/s)  : 
ESC. COMPLETA DE SENSORES, C1-C6, (g)  : /0.5/0.5/0.5
ESC. COMPLETA DE SENSORES, C7-C12, (g) : 
FREC. NAT. DE SENSORES, C1-C6, (Hz)    : /30/30/30
FREC. NAT. DE SENSORES, C7-C12, (Hz)   : 
AMORTIGUAMIENTO DE SENSORES, C1-C6     : /0.750/0.733/0.733
AMORTIGUAMIENTO DE SENSORES, C7-C12    : 
INTERVALO DE MUESTREO, C1-C6, (s)      : /0.01/0.01/0.01
INTERVALO DE MUESTREO, C7-C12, (s)     : 
UMBRAL DE DISPARO, C1-C6, (Gal)        : /2.69/6.43/2.69
UMBRAL DE DISPARO, C7-C12, (Gal)       :
MEMORIA DE PREEVENTO (s)               : 44.0
TIEMPO DE POSEVENTO (s)                : 231.0


================================================================================
DATOS DEL SISMO:
FECHA DEL SISMO (GMT)                  : 23/JUN/20
HORA EPICENTRO (GMT)                   : 15:29:03.0
MAGNITUD(ES)                           : /Mc=7.4
COORDENADAS DEL EPICENTRO              : 15.80 LAT. N
                                       : 96.13 LONG. W
PROFUNDIDAD FOCAL (km)                 : 22
FUENTE DE LOS DATOS EPICENTRALES       : SSN
                                       : INSTITUTO DE GEOFISICA, UNAM

================================================================================
DATOS DE ESTE REGISTRO:
HORA DE LA PRIMERA MUESTRA (GMT)       : 29:01:33.00
EXACTITUD DEL TIEMPO (s)               : 0.01
DURACION DEL REGISTRO (s), C1-C6       : /397.2/397.2/397.2
DURACION DEL REGISTRO (s), C7-C12      : 
NUM. TOTAL DE MUESTRAS, C1-C6          : /39720/39720/39720
NUM. TOTAL DE MUESTRAS, C7-C12         : 
ACEL. MAX. (Gal), C1-C6                : /13.91597/5.14734/17.83566
ACEL. MAX., C1-C6, EN LA MUESTRA       : /5770/6156/10871
ACEL. MAX. (Gal), C7-C12               : 
ACEL. MAX., C7-C12, EN LA MUESTRA      : 
UNIDADES DE LOS DATOS                  : Gal (cm/s/s)
FACTOR DE DECIMACION                   : 1
FORMATO DATOS (FORTRAN,10 campos/dato) : 3F10.5


================================================================================
CALIDAD DEL ACELEROGRAMA:
REGISTRO DIGITAL COMPLETO CON TIEMPO ABSOLUTO CORRECTO.


================================================================================
COMENTARIOS:














================================================================================
DATOS DE ACELERACION:
---------+---------+---------+---------+---------+---------+---------+---------+
   CANAL-1   CANAL-2   CANAL-3   CANAL-4   CANAL-5   CANAL-6   CANAL-7   CANAL-8
      N00E        +V      N90W
---------+---------+---------+---------+---------+---------+---------+---------+
[...]
  -0.86822   0.67356   6.44824
  -0.74851   0.76334   6.49313
  -0.83830   0.71845   6.32853
  -0.71859   0.71845   6.25371
  -0.76348   0.73341   6.32853
  -0.68866   0.91298   6.28364
  -0.70362   0.88305   6.23875
  -0.68866   0.80823   6.20882
  -0.61384   0.82319   6.11904
  -0.50909   0.88305   6.17889
  -0.47917   0.98780   6.05918
  -0.44924   1.13743   5.98436
  -0.32953   1.22722   5.92451
  -0.31456   1.15240   5.99933
  -0.26967   1.43671   5.80480
  -0.17989   1.46664   5.78983
   0.01464   1.60131   5.77487
  -3.3E-40   1.57138   5.64020
   0.07449   1.63124   5.61027
   0.16428   1.76591   5.52049
   0.20917   1.67613   5.49056
   0.25406   1.78088   5.34092
   0.41866   1.84073   5.17632
   0.47852   1.93051   5.22121
   0.71794   1.85569   5.28107
   0.73290   1.99037   5.01172
   0.92743   2.08015   4.96683
   1.07707   2.06519   4.93690
   1.12196   2.08015   4.93690
   1.27159   2.22979   4.65259
   1.34641   2.08015   4.65259
   1.52598   2.16993   4.59273
   1.57087   2.18490   4.48799
   1.69058   2.18490   4.35331
   1.76540   2.22979   4.30842
   1.87014   2.14001   4.15878
   2.01978   2.15497   4.17375
   2.25920   2.18490   4.17375
   2.43877   2.14001   4.02411
   2.42380   2.08015   3.88944
   2.63330   2.00533   3.72483
   2.58841   2.02030   3.50038
   2.91761   2.02030   3.50038
   2.94754   1.93051   3.36570
   3.12710   1.96044   3.21607
   3.24681   1.91555   3.11132
   3.41141   1.90059   3.06643
   3.45630   1.97540   2.84197
   3.48623   1.82577   2.63248
   3.65083   1.84073   2.46788
   3.69572   1.82577   2.37810
   3.66580   1.73598   2.22846
   3.83040   1.73598   2.07882
   3.90522   1.70606   1.89926
   4.02493   1.58635   1.79451
   4.11471   1.52649   1.67480
   4.11471   1.52649   1.28574
   4.08478   1.51153   1.24085
   4.08478   1.36189   1.15107
   4.26435   1.30204   1.12114
   4.39902   1.15240   0.92661
   4.48880   1.22722   0.70215
   4.45888   1.06261   0.44777
   4.45888   0.98780   0.35799
   4.44391   0.92794   0.22331
   4.62348   0.88305   0.04375
   4.53369   0.98780  -0.10589
   4.45888   0.89801  -0.31538
   4.47384   0.91298  -0.58473
   4.42895   0.73341  -0.64458
   4.41398   0.64363  -0.91393
   4.41398   0.58377  -1.06357
   4.41398   0.49399  -1.01868
   4.41398   0.37428  -1.27306
   4.27931   0.38925  -1.64716
   4.08478   0.19472  -1.85665
   4.08478   0.19472  -2.08110
   3.95011   0.14983  -2.20081
   3.83040  -0.05967  -2.36542
   3.90522   0.08997  -2.60484
   3.78551  -0.04470  -2.75447
   3.63587  -0.10456  -3.05375
   3.47127  -0.26916  -3.15850
   3.42638  -0.14945  -3.33806
   3.29170  -0.26916  -3.65230
   3.20192  -0.29909  -3.77201
   3.03732  -0.46369  -4.16107
   2.85775  -0.61333  -4.29574
   2.81286  -0.56843  -4.56509
   2.63330  -0.61333  -4.89429
   2.43877  -0.55347  -5.07386
   2.36395  -0.73304  -5.25342
   2.19935  -0.77793  -5.61255
   2.13949  -0.74800  -5.77715
   2.01978  -0.77793  -6.03154
   1.88511  -0.88267  -6.30088
   1.72051  -1.04728  -6.51038
   1.54094  -1.00238  -6.85454
   1.52598  -0.95749  -7.09396
   1.31649  -1.04728  -7.36331
   1.25663  -1.16699  -7.52791
   1.12196  -1.21188  -7.88704
   1.13692  -1.16699  -8.00675
   1.09203  -1.18195  -8.23121
   1.06210  -1.22684  -8.41078
   0.80772  -1.30166  -8.65020
   0.91246  -1.25677  -8.87465
   0.73290  -1.48122  -8.97940
   0.83765  -1.48122  -9.27867
   0.68801  -1.51115  -9.38342
   0.74786  -1.45130  -9.56298
   0.73290  -1.51115  -9.83233
   0.65808  -1.49619 -10.08672
   0.73290  -1.55604 -10.16154
   0.65808  -1.64583 -10.35606
   0.68801  -1.64583 -10.53563
   0.64312  -1.78050 -10.73016
   0.58326  -1.81043 -10.89476
   0.76283  -1.76554 -11.10425
   0.68801  -1.73561 -11.19403
   0.64312  -1.90021 -11.49331
   0.64312  -1.91517 -11.56813
   0.85261  -1.84035 -11.68784
   0.76283  -2.01992 -11.94222
   0.79275  -2.03488 -12.10682
   0.91246  -2.00496 -12.24150
   0.97232  -2.06481 -12.34624
   0.91246  -2.12467 -12.52581
   0.92743  -2.09474 -12.70537
   1.16685  -2.13963 -12.76523
   1.15188  -2.18452 -12.91487
   1.15188  -2.07977 -13.15429
   1.28656  -2.31919 -13.19918
   1.31649  -2.16956 -13.30392
   1.37634  -2.31919 -13.40867
   1.37634  -2.36409 -13.61816
   1.63072  -2.21445 -13.63313
   1.55591  -2.31919 -13.75284
   1.57087  -2.30423 -13.97729
   1.66065  -2.43890 -13.96233
   1.82525  -2.34912 -14.09700
   1.88511  -2.48380 -14.18679
   1.94496  -2.36409 -14.29153
   1.97489  -2.51372 -14.30650
   2.07964  -2.54365 -14.45613
   2.12453  -2.58854 -14.47110
   2.15446  -2.55862 -14.42621
   2.31906  -2.57358 -14.53095
   2.25920  -2.72322 -14.59081
   2.49862  -2.61847 -14.63570
   2.42380  -2.82796 -14.63570
   2.46870  -2.73818 -14.60577
   2.64826  -2.79804 -14.59081
   2.58841  -2.85789 -14.66563
   2.64826  -3.00753 -14.66563
   2.70812  -2.87285 -14.75541
   2.82783  -2.90278 -14.71052
   2.94754  -2.93271 -14.65066
   2.88768  -3.05242 -14.60577
   2.93257  -3.08235 -14.42621
   2.97746  -3.15717 -14.60577
   2.94754  -3.11227 -14.47110
   3.11214  -3.06738 -14.35139
   3.05228  -3.03746 -14.35139
   3.08221  -3.09731 -14.23168
   3.17199  -3.14220 -14.30650
   3.06725  -3.14220 -14.18679
   3.05228  -3.26191 -14.05211
   2.97746  -3.12724 -13.93240
   3.06725  -3.15717 -13.87255
   3.08221  -3.00753 -13.72291
   3.14206  -3.03746 -13.57327
   3.11214  -3.08235 -13.45356
   3.00739  -2.96264 -13.34882
   3.12710  -2.90278 -13.10940
   3.12710  -2.85789 -13.04954
   3.02235  -2.90278 -12.85501
   3.02235  -2.76811 -12.69041
   2.85775  -2.79804 -12.46595
   2.73804  -2.81300 -12.49588
   2.73804  -2.58854 -12.22653
   2.72308  -2.57358 -11.95719
   2.70812  -2.45387 -11.79259
   2.52855  -2.40898 -11.59806
   2.42380  -2.22941 -11.43345
   2.27417  -2.15459 -11.26885
   2.24424  -2.16956 -11.08929
   2.25920  -2.09474 -10.77505
   2.10957  -1.97503 -10.52067
   2.10957  -1.84035 -10.20643
   2.04971  -1.73561  -9.93708
   1.98986  -1.61590  -9.81737
   1.90007  -1.58597  -9.65277
   1.72051  -1.43633  -9.48817
   1.54094  -1.36151  -9.32356
   1.52598  -1.36151  -9.06918
   1.43620  -1.09217  -8.85969
   1.16685  -0.92757  -8.79983
   1.00225  -0.85275  -8.50056
   0.85261  -0.80786  -8.29107
   0.71794  -0.62829  -8.12646
   0.56830  -0.55347  -7.91697
   0.29895  -0.37391  -7.81222
   0.10442  -0.32901  -7.64762
   0.04457  -0.22427  -7.43813
  -0.19485  -0.11952  -7.21367
  -0.50909  -0.07463  -7.12389
  -0.52406   0.11990  -6.97425
  -0.76348   0.20968  -6.80965
  -0.97297   0.14983  -6.61512
  -1.18246   0.35932  -6.46549
  -1.30217   0.46406  -6.39067
  -1.43685   0.46406  -6.12132
  -1.69123   0.56881  -6.13628
  -1.97554   0.56881  -6.03154
  -2.02043   0.83816  -5.88190
  -2.24489   0.85312  -5.71730
  -2.49927   0.95787  -5.59759
  -2.54416   1.04765  -5.41802
  -2.78358   1.01772  -5.37313
  -2.88833   1.18233  -5.20853
  -3.12775   1.24218  -5.02897
  -3.32228   1.25714  -4.81947
  -3.44199   1.28707  -4.74465
  -3.51681   1.37685  -4.41545
  -3.69637   1.46664  -4.26581
  -3.83105   1.61627  -4.29574
  -4.04054   1.66117  -4.17603
  -4.19018   1.58635  -3.98150
  -4.23507   1.85569  -3.83186
  -4.51938   1.78088  -3.68223
  -4.65405   1.90059  -3.54755
  -4.80369   1.87066  -3.45777
  -4.81866   2.03526  -3.33806
  -4.98326   2.06519  -3.05375
  -5.19275   2.02030  -2.87418
  -5.32742   2.21482  -2.73951
  -5.26757   2.19986  -2.54498
  -5.50699   2.25972  -2.45520
  -5.53692   2.24475  -2.15592
  -5.58181   2.33453  -1.94643
  -5.64166   2.51410  -1.78183
  -5.82123   2.45424  -1.52745
  -5.83619   2.30461  -1.37781
  -5.97087   2.52906  -1.16832
  -6.03072   2.60388  -0.85408
  -6.04568   2.67870  -0.61466
  -6.25518   2.69366  -0.47998
  -6.25518   2.60388  -0.10589
  -6.33000   2.67870  -0.01611
  -6.37489   2.66374   0.26821
  -6.44971   2.66374   0.44777
  -6.43474   2.66374   0.65726
  -6.62927   2.76848   0.77697
  -6.61431   2.63381   1.19596
  -6.79387   2.54403   1.68976
  -6.74898   2.58892   2.16860
  -6.67416   2.79841   2.07882
  -6.62927   2.82834   2.21349
  -6.73402   2.66374   2.57262
  -6.74898   2.58892   2.85694
  -6.77891   2.69366   2.66241
  -6.74898   2.70863   3.03650
  -6.91358   2.66374   3.41060
  -6.74898   2.67870   3.85951
  -6.77891   2.72359   4.21864
  -6.80884   2.60388   4.48799
  -6.74898   2.43928   4.63762
  -6.49460   2.61885   4.87704
  -6.62927   2.43928   5.14639
  -6.74898   2.49914   5.34092
  -6.76394   2.45424   5.61027
  -6.67416   2.37943   6.14896
  -6.61431   2.39439   6.26867
  -6.71905   2.30461   6.47817
  -6.77891   2.33453   6.55299
  -6.61431   2.34950   6.95701
  -6.59934   2.25972   7.21139
  -6.59934   2.25972   7.49570
  -6.56942   2.30461   7.82490
  -6.44971   2.34950   8.21396
  -6.43474   2.36446   8.42346
  -6.40481   2.33453   8.72273
  -6.31503   2.40935   8.90230
  -6.43474   2.27468   9.02201
  -6.22525   2.43928   9.48588
  -6.15043   2.37943   9.60559
  -6.19532   2.28964   9.99465
  -6.01576   2.36446  10.20414
  -6.06065   2.27468  10.30889
  -6.00079   2.42432  10.65306
  -5.94094   2.34950  10.96729
  -5.91101   2.39439  11.31146
  -5.74641   2.45424  11.49103
  -5.64166   2.34950  11.79030
  -5.58181   2.45424  11.96987
  -5.56684   2.33453  12.38885
  -5.52195   2.45424  12.70309
  -5.41721   2.45424  12.82280
  -5.35735   2.33453  13.03229
  -5.32742   2.28964  13.15200
  -5.16282   2.42432  13.46624
  -5.16282   2.43928  13.66077
  -5.05808   2.37943  13.82537
  -5.23764   2.28964  13.93012
  -4.93837   2.31957  14.30421
  -4.96829   2.24475  14.45385
  -4.83362   2.33453  14.60349
  -4.92340   2.27468  14.75313
  -4.81866   2.34950  14.99255
  -4.77376   2.37943  15.17211
  -4.77376   2.25972  15.32175
  -4.78873   2.09511  15.47139
  -4.77376   2.12504  15.59110
  -4.63909   2.11008  15.72577
  -4.60916   2.22979  15.81555
  -4.60916   2.12504  16.02505
  -4.60916   2.15497  16.18965
  -4.60916   2.06519  16.29439
  -4.62413   2.03526  16.33928
  -4.63909   1.97540  16.56374
  -4.57924   1.94548  16.69841
  -4.63909   1.94548  16.71338
  -4.62413   1.73598  16.86302
  -4.56427   1.72102  16.87798
  -4.66902   1.58635  16.98273
  -4.66902   1.75095  17.17726
  -4.60916   1.61627  17.22215
  -4.54931   1.55642  17.40171
  -4.63909   1.39182  17.43164
  -4.56427   1.36189  17.59624
  -4.60916   1.27211  17.56631
  -4.56427   1.18233  17.82070
  -4.53434   1.03269  17.83566
  -4.57924   0.97283  17.76084
  -4.51938   0.88305  17.79077
  -4.62413   0.76334  17.67106
  -4.60916   0.67356  17.68602
  -4.50442   0.53888  17.65610
  -4.42960   0.53888  17.65610
  -4.41463   0.40421  17.53639
  -4.44456   0.35932  17.50646
  -4.36974   0.14983  17.43164
  -4.41463   0.13486  17.46157
  -4.30989   0.03012  17.29697
  -4.23507  -0.05967  17.20718
  -4.13032  -0.23923  17.13236
  -4.08543  -0.23923  16.96776
  -4.07047  -0.50858  16.77323
  -3.95076  -0.43376  16.47396
  -3.90587  -0.53851  16.51885
  -3.78616  -0.80786  16.32432
  -3.72630  -0.89764  16.17468
  -3.59163  -0.92757  15.92030
  -3.51681  -1.01735  15.74073
  -3.23250  -1.07720  15.62102
  -3.11279  -1.22684  15.35168
  -3.05293  -1.19691  15.23197
  -2.82848  -1.42137  15.02247
  -2.70877  -1.33159  14.87284
  -2.52920  -1.55604  14.67831
  -2.45438  -1.51115  14.48378
  -2.27482  -1.63086  14.18450
  -1.99051  -1.67575  14.01990
  -1.78101  -1.64583  13.97501
  -1.58648  -1.84035  13.84034
  -1.46677  -1.85532  13.57099
  -1.37699  -1.97503  13.33157
  -1.03282  -1.88525  13.18193
  -0.94304  -2.00496  12.80784
  -0.68866  -1.98999  12.65820
  -0.50909  -2.04985  12.38885
  -0.28464  -1.97503  12.01476
  -0.14996  -2.06481  12.04469
   0.08946  -2.01992  11.74541
   0.32888  -2.15459  11.43117
   0.46355  -2.12467  11.05708
   0.67304  -2.19948  10.92240
   0.86757  -2.22941  10.71291
   1.07707  -2.33416  10.48845
   1.18181  -2.22941  10.17422
   1.39130  -2.21445   9.97969
   1.54094  -2.27430   9.69537
   1.66065  -2.25934   9.47092
   1.98986  -2.19948   9.23150
   2.01978  -2.33416   8.85740
   2.24424  -2.21445   8.64791
   2.46870  -2.13963   8.43842
   2.67819  -2.21445   8.15411
   2.82783  -2.19948   8.04936
   3.03732  -2.06481   7.73512
   3.23185  -2.10970   7.63038
   3.41141  -1.98999   7.25628
   3.44134  -2.00496   7.04679
   3.66580  -2.00496   6.92708
   3.84536  -1.96006   6.65773
   4.02493  -1.93014   6.44824
   4.02493  -1.88525   6.23875
   4.29427  -1.84035   6.02925
   4.54866  -1.69072   5.81976
   4.59355  -1.67575   5.59530
   4.77311  -1.60093   5.43070
   4.81801  -1.45130   5.20625
   4.98261  -1.48122   5.04165
   5.17714  -1.37648   4.71244
   5.40159  -1.31662   4.69748
   5.31181  -1.43633   4.33835
   5.49137  -1.28670   4.17375
   5.77569  -1.19691   4.06900
   5.76072  -1.15202   3.81462
   6.01511  -1.13706   3.62009
   6.07496  -1.18195   3.39563
   6.19467  -1.04728   3.20110
   6.25453  -1.01735   3.11132
   6.34431  -1.07720   2.84197
   6.41913  -0.92757   2.66241
   6.50891  -0.88267   2.39306
   6.58373  -0.91260   2.22846
   6.67351  -0.88267   2.04889
   6.77826  -0.70311   1.77955
   6.88300  -0.74800   1.54013
   6.89797  -0.67318   1.43538
   6.98775  -0.61333   1.10618
   7.06257  -0.58340   0.98647
   7.09250  -0.59836   0.68719
   7.06257  -0.52354   0.40288
   7.19724  -0.62829   0.34302
   7.16732  -0.43376   0.08864
   7.22717  -0.50858  -0.18071
   7.36184  -0.28412  -0.30042
   7.39177  -0.25420  -0.52487
   7.42170  -0.35894  -0.73437
   7.42170  -0.29909  -1.04861
   7.46659  -0.32901  -1.28803
   7.42170  -0.34398  -1.42270
   7.58630  -0.38887  -1.58730
   7.61623  -0.26916  -1.81176
   7.58630  -0.17938  -2.06614
   7.58630  -0.23923  -2.29060
   7.55637  -0.32901  -2.58987
   7.49652  -0.28412  -2.84426
   7.66112  -0.22427  -3.02382
   7.58630  -0.22427  -3.23331
   7.58630  -0.14945  -3.36799
   7.66112  -0.14945  -3.48770
   7.78083  -0.11952  -3.75705
   7.61623  -0.11952  -3.99647
   7.64616  -0.04470  -4.35560
   7.63119   0.03012  -4.44538
   7.73594   0.01515  -4.65487
   7.55637   0.04508  -4.83444
   7.57134   0.08997  -4.96911
   7.67608   0.07501  -5.19357
   7.55637   0.10493  -5.58262
   7.61623   0.22464  -5.70233
   7.52645   0.16479  -5.88190
   7.49652   0.14983  -6.24103
   7.42170   0.17975  -6.39067
   7.42170   0.20968  -6.58520
   7.48156   0.22464  -6.74980
   7.42170   0.32939  -6.94433
   7.42170   0.28450  -7.10893
   7.33192   0.43414  -7.28849
   7.31695   0.49399  -7.49799
   7.36184   0.50896  -7.55784
   7.21221   0.52392  -7.78230
   7.09250   0.38925  -7.97683
   7.18228   0.53888  -8.21625
   7.22717   0.62867  -8.21625
   6.95782   0.59874  -8.53049
   6.97279   0.58377  -8.68012
   6.98775   0.55385  -8.90458
   6.80819   0.58377  -9.08414
   6.67351   0.55385  -9.36846
   6.67351   0.65859  -9.48817
   6.62862   0.47903  -9.65277
   6.46402   0.65859  -9.90715
