********************************************************************************
              CENTRO DE INSTRUMENTACION Y REGISTRO SISMICO  A.C.

    Anaxagoras 814, Col. Narvarte, Benito Juarez, C.P. 03020 Mexico, D.F.
           Tels. 5687 45 42/ 5687 45  82             Fax. 5669 25 12
********************************************************************************
ARCHIVO ESTANDAR DE ACELERACION:
VERSION DEL FORMATO                    : 2.0
NOMBRE DEL ARCHIVO                     : CH8420200623152903
FECHA Y HORA DE CREACION               : 18/AGO/21, 13:42
REF. CATALOGO ACELEROGRAMAS, SMIS 1996 : REGISTRO No.     /PAG.


================================================================================
DATOS DE LA ESTACION:
NOMBRE DE LA ESTACION                  : CULHUACÁN
CLAVE DE LA ESTACION                   : CH84
LOCALIZACION DE LA ESTACION            : Del. Coyoacán, Col. Ampliación         
                                       : San  Francisco Culhuacán,  entre       
                                       : Calle Ejido Santa Úrsula               
                                       : y Ejido Culhuacán.                     
                                       : 
COORDENADAS DE LA ESTACION             : 19.3300 LAT. N
                                       : 99.1254 LONG. W
ALTITUD (msnm)                         : 2234
TIPO DE SUELO                          : Alto riesgo sísmico                 
                                       :                           
                                       : 
INSTITUCION RESPONSABLE                : CIRES, A. C.
                                       : 

================================================================================
DATOS DEL ACELEROGRAFO:
MODELO DEL ACELEROGRAFO                : RAD_IO14
NUMERO DE SERIE DEL ACELEROGRAFO       : 
NUMERO DE CANALES                      : 3
ORIENTACION C1-C6 (rumbo;orientacion)  : /N00E/+V/N90W
ORIENTACION C7-C12 (rumbo;orientacion) : 
VEL. DE MUESTREO, C1-C6 (muestras/s)   : /100/100/100
VEL. DE MUESTREO, C7-C12 (muestras/s)  : 
ESC. COMPLETA DE SENSORES, C1-C6, (g)  : /2.0/2.0/2.0
ESC. COMPLETA DE SENSORES, C7-C12, (g) : 
FREC. NAT. DE SENSORES, C1-C6, (Hz)    : /32/30/33
FREC. NAT. DE SENSORES, C7-C12, (Hz)   : 
AMORTIGUAMIENTO DE SENSORES, C1-C6     : /0.793/0.714/0.776
AMORTIGUAMIENTO DE SENSORES, C7-C12    : 
INTERVALO DE MUESTREO, C1-C6, (s)      : /0.01/0.01/0.01
INTERVALO DE MUESTREO, C7-C12, (s)     : 
UMBRAL DE DISPARO, C1-C6, (Gal)        : / / /
UMBRAL DE DISPARO, C7-C12, (Gal)       :
MEMORIA DE PREEVENTO (s)               : 60
TIEMPO DE POSEVENTO (s)                : 90


================================================================================
DATOS DEL SISMO:
FECHA DEL SISMO (GMT)                  : 23/JUN/20
HORA EPICENTRO (GMT)                   : 15:29:03.0
MAGNITUD(ES)                           : /Mc=7.4
COORDENADAS DEL EPICENTRO              : 15.80 LAT. N
                                       : 96.13 LONG. W
PROFUNDIDAD FOCAL (km)                 : 22
FUENTE DE LOS DATOS EPICENTRALES       : SSN
                                       : INSTITUTO DE GEOFISICA, UNAM

================================================================================
DATOS DE ESTE REGISTRO:
HORA DE LA PRIMERA MUESTRA (GMT)       : 10:27:25.00
EXACTITUD DEL TIEMPO (s)               : 
DURACION DEL REGISTRO (s), C1-C6       : /539.88/539.88/539.88
DURACION DEL REGISTRO (s), C7-C12      : 
NUM. TOTAL DE MUESTRAS, C1-C6          : /53988/53988/53988
NUM. TOTAL DE MUESTRAS, C7-C12         : 
ACEL. MAX. (Gal), C1-C6                : /20.50766/4.94089/22.02127
ACEL. MAX., C1-C6, EN LA MUESTRA       : /19185/19644/18979
ACEL. MAX. (Gal), C7-C12               : 
ACEL. MAX., C7-C12, EN LA MUESTRA      : 
UNIDADES DE LOS DATOS                  : Gal (cm/s/s)
FACTOR DE DECIMACION                   : 1
FORMATO DATOS (FORTRAN,10 campos/dato) : 3F10.5


================================================================================
CALIDAD DEL ACELEROGRAMA:
REGISTRO DIGITAL COMPLETO CON TIEMPO ABSOLUTO CORRECTO.


================================================================================
COMENTARIOS:














================================================================================
DATOS DE ACELERACION:
---------+---------+---------+---------+---------+---------+---------+---------+
   CANAL-1   CANAL-2   CANAL-3   CANAL-4   CANAL-5   CANAL-6   CANAL-7   CANAL-8
      N00E        +V      N90W
---------+---------+---------+---------+---------+---------+---------+---------+
[...]
   2.82944   2.10619   3.01703
   1.99524   2.10759   3.10643
   1.29524   2.09769   3.40193
   0.56924   2.11339   3.48003
  -0.14646   1.96699   3.66803
  -0.94936   1.91889   3.88493
  -1.74736   1.86279   4.11133
  -2.56096   1.79399   4.14383
  -3.36666   1.63249   4.20433
  -4.12966   1.63569   4.18213
  -4.77606   1.59439   4.14493
  -5.62316   1.47209   4.06333
  -6.35926   1.67339   3.95983
  -7.00356   1.58479   3.95163
  -7.64816   1.70209   4.02483
  -8.19576   1.82249   4.05003
  -8.82236   1.76569   4.07273
  -9.47566   1.72479   3.95513
 -10.00636   1.72319   3.86513
 -10.44086   1.64789   3.83773
 -11.06816   1.56609   3.63693
 -11.48126   1.47279   3.42293
 -11.87266   1.44919   3.12793
 -12.26176   1.26749   2.74613
 -12.54016   1.21089   2.45503
 -12.72976   1.26329   2.03343
 -12.99496   1.30769   1.74233
 -13.06366   1.18519   1.32033
 -13.06136   1.33999   0.98503
 -13.17216   1.29949   0.58543
 -13.23576   1.23729   0.10433
 -13.25656   1.24149  -0.26657
 -13.22076   1.20409  -0.72387
 -13.11696   1.16859  -1.02337
 -12.99256   1.19759  -1.50927
 -13.09736   1.16039  -1.92517
 -13.02786   1.11899  -2.15057
 -12.92036   0.92659  -2.50317
 -12.93326   0.93879  -2.79727
 -12.72376   0.83939  -2.89807
 -12.76296   0.84829  -3.11007
 -12.60496   0.92749  -3.08957
 -12.46906   0.85669  -3.06527
 -12.42846   0.98269  -3.00797
 -12.28646   1.03509  -3.02147
 -12.13266   1.09559  -2.98337
 -11.99866   1.12069  -2.91957
 -11.68516   1.28829  -2.78607
 -11.40546   1.39629  -2.71497
 -11.16066   1.41949  -2.68227
 -10.75506   1.45569  -2.59457
 -10.35666   1.51319  -2.58707
  -9.93976   1.64489  -2.64787
  -9.45716   1.48519  -2.76567
  -9.04216   1.62779  -2.85297
  -8.53686   1.54429  -3.15107
  -8.10996   1.37179  -3.38457
  -7.54046   1.29019  -3.60297
  -7.01926   1.11219  -4.12787
  -6.57146   0.81509  -4.45477
  -6.08146   0.80949  -4.78887
  -5.60586   0.59739  -5.18637
  -5.15746   0.40729  -5.50737
  -4.56166   0.17929  -5.81367
  -4.07836   0.07549  -6.06387
  -3.40056  -0.09611  -6.31467
  -2.69896  -0.47301  -6.39677
  -1.87806  -0.60321  -6.46367
  -1.07956  -0.90901  -6.52397
  -0.32226  -1.09911  -6.58217
   0.58954  -1.42581  -6.64067
   1.51124  -1.62451  -6.65277
   2.39974  -1.87021  -6.74837
   3.40694  -2.02011  -6.68927
   4.29354  -2.07501  -6.73367
   5.17454  -2.08841  -6.76317
   6.11074  -2.11831  -6.67777
   6.88204  -2.01101  -6.64137
   7.87274  -1.96191  -6.61747
   8.62234  -1.92101  -6.65677
   9.61904  -1.62031  -6.76597
  10.22504  -1.42811  -6.67877
  11.12664  -1.31421  -6.76317
  11.87434  -1.09661  -6.86907
  12.44624  -0.80311  -6.96817
  13.24704  -0.72271  -6.95697
  13.75604  -0.35631  -6.95907
  14.19214  -0.22611  -7.07997
  14.61904  -0.01141  -7.07577
  15.05254   0.14309  -7.00587
  15.29924   0.28779  -6.88517
  15.48624   0.51489  -6.86507
  15.72454   0.52909  -6.70497
  15.89864   0.56889  -6.45427
  15.85424   0.51599  -6.32897
  15.97514   0.46879  -6.14047
  16.05694   0.40329  -5.76177
  15.98334   0.30489  -5.60417
  15.95664   0.25579  -5.48727
  15.88534  -0.00541  -5.05397
  15.57624   0.00979  -4.82977
  15.55424  -0.22141  -4.53327
  15.33194  -0.32291  -4.21277
  15.04694  -0.40821  -3.72527
  14.61254  -0.43981  -3.65327
  14.36844  -0.42621  -3.28807
  13.94494  -0.56601  -2.86227
  13.54514  -0.50171  -2.40287
  13.13814  -0.44311  -2.10937
  12.75704  -0.42601  -1.68157
  12.33964  -0.41381  -1.24897
  11.95054  -0.39611  -0.87867
  11.60924  -0.27961  -0.60137
  11.16404  -0.14821  -0.30327
  10.84424  -0.17821   0.15523
  10.49564  -0.11921   0.37153
   9.86804  -0.03951   0.55013
   9.58444  -0.09051   0.73203
   9.20984  -0.03251   1.04563
   8.85334  -0.10711   1.28413
   8.22324  -0.24061   1.43323
   7.73754  -0.28831   1.53703
   7.32144  -0.36291   1.80523
   6.74834  -0.46901   2.06033
   6.33124  -0.55131   2.15173
   5.69014  -0.61491   2.23893
   5.34364  -0.75451   2.63733
   4.81684  -0.82911   2.88283
   4.05134  -0.97991   3.15993
   3.40654  -1.04611   3.37063
   2.91294  -1.12391   3.68113
   2.26554  -1.12301   4.11523
   1.77944  -1.05611   4.49353
   0.98544  -1.09981   4.81483
   0.36424  -1.30581   5.16503
  -0.11276  -1.12671   5.62853
  -0.83966  -1.15201   5.91583
  -1.53296  -1.07011   6.23963
  -2.20446  -0.90271   6.60743
  -2.82586  -0.95181   6.99533
  -3.37746  -0.85831   7.13183
  -4.04446  -0.91771   7.19613
  -4.81116  -0.66561   7.39353
  -5.44156  -0.68881   7.45993
  -6.05876  -0.60721   7.54193
  -6.94066  -0.57211   7.38583
  -7.53336  -0.64761   7.42483
  -8.11696  -0.64791   7.52233
  -8.64956  -0.84971   7.46623
  -9.28046  -0.91181   7.40543
  -9.76226  -1.07601   7.36573
 -10.09286  -1.19941   7.32733
 -10.59466  -1.33481   7.31333
 -10.85256  -1.34561   7.21913
 -11.22286  -1.53121   7.14283
 -11.52946  -1.56251   7.27633
 -11.69166  -1.65491   7.13113
 -11.83436  -1.67781   7.10333
 -11.91216  -1.81861   7.03013
 -12.10036  -1.80521   7.00043
 -12.28086  -1.90441   6.82043
 -12.43846  -1.93781   6.63453
 -12.46816  -2.02361   6.29433
 -12.67066  -2.05261   6.13543
 -12.73046  -1.96771   5.85813
 -12.83266  -2.06291   5.47693
 -12.89976  -2.07761   5.02643
 -12.86686  -2.09401   4.46033
 -12.97436  -2.08371   3.92823
 -12.98766  -1.94811   3.56353
 -12.90026  -1.95701   2.94573
 -12.77376  -1.84151   2.33923
 -12.64426  -1.84431   1.65513
 -12.35246  -1.81971   1.18213
 -12.05966  -1.79541   0.55253
 -11.68276  -1.75431  -0.04187
 -11.41046  -1.67291  -0.49237
 -11.01976  -1.77971  -1.15617
 -10.56096  -1.69651  -1.69697
 -10.05086  -1.79521  -2.18007
  -9.60826  -1.77671  -2.71057
  -9.22056  -1.72361  -3.28967
  -8.69686  -1.81721  -3.83067
  -8.45526  -1.76011  -4.27427
  -7.91406  -1.79211  -4.72617
  -7.50816  -1.80501  -5.28847
  -7.15066  -1.81651  -5.69817
  -6.70126  -1.73181  -6.11177
  -6.34146  -1.72991  -6.60367
  -6.05436  -1.68251  -6.93897
  -5.72886  -1.62521  -7.44117
  -5.41436  -1.56721  -7.88517
  -5.23086  -1.58221  -8.22377
  -4.94916  -1.47461  -8.66607
  -4.52286  -1.36151  -9.03597
  -4.17876  -1.15551  -9.47207
  -3.79296  -1.13211  -9.92677
  -3.25076  -1.09001 -10.31917
  -2.87526  -1.00161 -10.65867
  -2.35106  -1.01121 -10.98127
  -1.76436  -0.92631 -11.24527
  -1.21006  -0.93451 -11.47157
  -0.70666  -1.17561 -11.57447
  -0.16986  -1.10781 -11.77107
   0.29784  -1.15731 -11.83467
   0.72164  -1.31871 -11.84947
   1.24284  -1.41341 -11.82047
   1.63094  -1.46041 -11.80687
   1.97564  -1.44801 -11.65047
   2.11844  -1.55791 -11.52487
   2.36514  -1.53331 -11.35537
   2.59804  -1.51271 -11.24757
   2.68474  -1.51861 -11.15457
   2.80544  -1.44961 -11.02877
   2.90614  -1.49151 -11.02667
   2.91734  -1.42011 -10.91957
   2.98804  -1.29371 -10.76897
   3.04924  -1.26931 -10.63647
   3.05344  -1.11991 -10.28987
   3.21834  -0.98391  -9.90907
   3.31624  -0.95111  -9.61767
   3.18674  -0.90251  -9.16317
   3.27324  -0.89451  -8.68977
   3.26924  -0.72551  -8.18957
   3.04624  -0.71521  -7.38227
   3.05184  -0.59851  -6.82227
   2.90074  -0.48401  -6.06407
   2.74464  -0.20181  -5.24687
   2.69314  -0.10081  -4.57237
   2.71234   0.16689  -3.85757
   2.66444   0.36329  -3.03577
   2.57584   0.55369  -2.32027
   2.52904   0.89549  -1.61307
   2.54964   1.05239  -0.85337
   2.64784   1.16949  -0.08837
   2.68054   1.33199   0.66173
   2.79864   1.48839   1.53873
   2.70344   1.50669   2.38323
   2.87604   1.62149   3.13633
   2.96294   1.68549   4.10313
   3.06304   1.67099   5.00933
   2.94594   1.57489   6.05703
   3.09884   1.48659   6.93853
   3.18084   1.31869   7.81063
   3.39224   1.12649   8.87583
   3.47664   1.00089   9.77933
   3.47974   0.85319  10.66453
   3.58044   0.71869  11.65653
   3.59404   0.39349  12.66173
   3.69524   0.41359  13.62423
   3.58604   0.28669  14.54083
   3.34434   0.30189  15.50343
   3.33734   0.29109  16.35123
   2.99824   0.34089  17.22823
   2.69364   0.37759  18.02593
   2.43384   0.33179  18.74473
   2.20384   0.42479  19.40383
   1.81594   0.43839  19.94463
   1.52034   0.36759  20.31513
   1.00834   0.46599  20.69883
   0.82594   0.41949  20.84643
   0.69624   0.41739  21.11413
   0.43274   0.37619  21.07113
   0.28214   0.34529  21.15783
   0.31064   0.03089  21.01613
   0.24724   0.18799  21.06683
   0.14834   0.16619  20.91093
   0.10464  -0.02831  20.63873
   0.10604  -0.11481  20.56743
   0.31554  -0.14001  20.50873
   0.40884  -0.28991  20.40193
   0.56504  -0.38371  20.08813
   0.75534  -0.56301  19.83843
   1.07074  -0.69861  19.61703
   1.18374  -0.78861  19.25043
   1.28354  -0.93081  18.87933
   1.31794  -0.99061  18.54483
   1.47904  -1.14851  18.06853
   1.36954  -1.08041  17.64153
   1.35534  -1.17161  17.19523
   1.30944  -1.12111  16.76833
   1.25944  -1.04861  16.22613
   1.31484  -0.90021  15.74893
   1.20824  -0.66661  15.19663
   1.02424  -0.38981  14.76783
   0.95154  -0.25411  14.25023
   0.73734  -0.05281  13.85853
   0.68594   0.21349  13.47583
   0.53184   0.43769  12.81463
   0.33634   0.67829  12.22423
   0.19534   0.82469  11.83913
   0.12194   1.15009  11.19963
   0.01834   1.03019  10.57443
  -0.22496   1.13019   9.83143
  -0.41886   1.26399   9.08533
  -0.58736   1.13189   8.34843
  -0.70596   1.16319   7.39533
  -1.12466   1.14329   6.36243
  -1.14716   0.96099   5.39213
  -1.34986   0.83119   4.29323
  -1.49066   0.71149   3.07273
  -1.59416   0.53659   1.67593
  -1.79016   0.43769   0.30563
  -1.70056   0.19059  -0.99717
  -1.59026   0.05259  -2.49617
  -1.64326  -0.06711  -3.91887
  -1.38466  -0.24741  -5.21977
  -1.22476  -0.25741  -6.55347
  -1.07466  -0.40071  -7.77367
  -0.98606  -0.46291  -8.96307
  -0.69146  -0.61421  -9.98997
  -0.40476  -0.59621 -10.99977
  -0.18456  -0.57771 -11.90137
   0.05204  -0.49031 -12.78697
   0.13154  -0.26071 -13.55227
   0.40884  -0.20851 -14.34137
   0.64644  -0.06171 -15.06847
   0.75704  -0.01191 -15.69837
   1.05624   0.40149 -16.43957
   1.29144   0.71339 -17.07667
   1.57464   0.80429 -17.74327
   1.77314   1.14469 -18.25387
   1.98704   1.34629 -18.82817
   2.15404   1.58379 -19.27147
   2.42774   1.86159 -19.75827
   2.54404   2.07369 -20.19807
   2.81314   2.21249 -20.64087
   2.91084   2.39939 -20.94387
   2.99854   2.49779 -21.27287
   3.00764   2.59009 -21.52607
   3.13244   2.58129 -21.67247
   3.22204   2.69419 -21.89077
   3.16194   2.76389 -21.99837
   3.12574   2.79289 -22.01377
   3.11164   2.82069 -22.02127
   3.04064   2.80969 -21.93337
   2.91834   2.68719 -21.80247
   2.96834   2.60599 -21.59647
   2.86104   2.70839 -21.25157
   2.80354   2.68039 -21.02707
   2.71814   2.55159 -20.57657
   2.87604   2.58169 -20.22917
   2.82174   2.42109 -19.79747
   3.17204   2.44819 -19.45237
   3.16144   2.52259 -18.99677
   3.36374   2.33689 -18.63927
   3.45934   2.24289 -18.24297
   3.60524   2.18209 -17.99157
   3.90574   2.02549 -17.55977
   4.01464   1.98969 -17.12037
   4.14164   1.82889 -16.79707
   4.35834   1.66429 -16.29247
   4.54894   1.60089 -15.80527
   4.81874   1.48049 -15.44797
   4.98564   1.35279 -14.97587
   5.22814   1.35869 -14.43437
   5.46944   1.34439 -13.95767
   5.74974   1.25909 -13.41637
   6.02354   1.26979 -12.88897
   6.15614   1.29979 -12.26097
   6.39434   1.48099 -11.63927
   6.60054   1.41849 -11.15947
   6.68684   1.35939 -10.57797
   6.84324   1.53499  -9.97567
   7.04524   1.66499  -9.40897
   7.08104   1.66239  -8.76037
   7.00484   1.67379  -8.15967
   7.05654   1.67619  -7.62197
   6.87974   1.64719  -7.01187
   6.57764   1.62009  -6.38137
   6.24754   1.62009  -5.78957
   5.90284   1.54899  -5.04977
   5.45234   1.44449  -4.29997
   5.04104   1.40819  -3.44117
   4.45744   1.36239  -2.47367
   3.80614   1.35489  -1.58547
   3.20984   1.34929  -0.51367
   2.37214   1.38579   0.52513
   1.79484   1.30629   1.66633
   1.31114   1.40049   2.80903
   0.77194   1.25999   3.84103
   0.08314   1.33479   4.87613
  -0.51026   1.32219   5.65093
  -0.99146   1.26559   6.47343
  -1.51986   1.22909   7.26043
  -1.92526   1.13259   7.93803
  -2.50466   1.15319   8.62333
  -3.00826   1.15219   9.12373
  -3.58906   1.01469   9.80223
  -3.96316   0.88889  10.45223
  -4.40436   0.80899  11.06193
  -5.05756   0.80709  11.43983
  -5.55886   0.52209  12.14213
  -6.04056   0.49519  12.74193
  -6.57296   0.46599  13.20673
  -7.12146   0.29929  13.81063
  -7.73076   0.30579  14.31443
  -8.29426   0.26629  15.01843
  -8.86756   0.12719  15.48493
  -9.64936   0.07339  15.97783
 -10.10036   0.08679  16.43423
 -10.74806   0.10969  16.91143
 -11.30126  -0.00561  17.38183
 -11.82936   0.09449  17.70823
 -12.36416   0.04069  18.19103
 -12.74196   0.12929  18.59673
 -12.99936   0.18399  18.82203
 -13.27696   0.11929  19.00793
 -13.48736   0.18029  19.26703
 -13.51116   0.28479  19.62313
 -13.70266   0.19129  19.67033
 -13.74456   0.02759  19.68953
 -13.72326   0.14289  19.64083
 -13.60026  -0.01431  19.50973
 -13.66386   0.01029  19.37273
 -13.51636  -0.00511  19.22193
 -13.42326  -0.06431  19.00753
 -13.42466   0.00469  18.75683
 -13.21266   0.03789  18.36783
 -13.12896   0.01289  17.98063
 -12.97926   0.13209  17.72743
 -12.82966  -0.02291  17.16693
 -12.60706   0.06079  16.77513
 -12.47896   0.20129  16.21933
 -12.25396   0.20809  15.67293
 -12.03846   0.17539  15.01313
 -11.51846   0.13979  14.22653
 -11.29426   0.12909  13.53453
 -10.96686  -0.03481  12.59083
 -10.56236  -0.09841  11.80503
 -10.10416  -0.22371  10.95563
  -9.51356  -0.37641   9.83893
  -8.84206  -0.53491   8.96543
  -8.15156  -0.53631   8.11223
  -7.52776  -0.65841   7.02833
  -6.74426  -0.73321   6.13793
  -5.95516  -1.00121   5.31803
  -5.20886  -1.04961   4.37643
  -4.37366  -1.21981   3.52723
  -3.63046  -1.47161   2.86673
  -2.85746  -1.58801   2.34463
  -2.03726  -1.81761   1.76223
  -1.19086  -1.90581   1.36643
  -0.35566  -2.12931   0.92053
   0.55354  -2.16831   0.46883
   1.57044  -2.33531  -0.03037
   2.43764  -2.26821  -0.28317
   3.35414  -2.27281  -0.54217
   4.21664  -2.42301  -1.05167
   5.19914  -2.24411  -1.47787
   6.26224  -2.23571  -1.90227
   7.25714  -2.16811  -2.32567
   8.25664  -2.12371  -2.88897
   9.06864  -1.86721  -3.53077
  10.14954  -1.81481  -4.17047
  11.11914  -1.66071  -4.66657
  12.01444  -1.50291  -5.28177
  12.74274  -1.34881  -5.87097
  13.44884  -1.26821  -6.43347
  14.35534  -1.06311  -6.88047
  14.87744  -0.92101  -7.32287
  15.43784  -0.86341  -7.76057
  15.90474  -0.55041  -8.18517
  16.25734  -0.39071  -8.47717
  16.65034  -0.20551  -8.75147
  16.94424  -0.15411  -9.14077
  17.16664   0.06549  -9.29087
  17.43714   0.25369  -9.65167
  17.62984   0.54309  -9.94407
  17.90874   0.80849 -10.18097
  17.94544   1.04329 -10.32007
  18.00014   1.31169 -10.48377
  18.20544   1.43559 -10.70707
  18.38614   1.75399 -10.80877
  18.32774   1.83679 -10.88497
  18.42964   2.07409 -10.85807
  18.44834   2.04579 -10.98407
  18.51924   2.00299 -10.95837
