********************************************************************************
              CENTRO DE INSTRUMENTACION Y REGISTRO SISMICO  A.C.

    Anaxagoras 814, Col. Narvarte, Benito Juarez, C.P. 03020 Mexico, D.F.
           Tels. 5687 45 42/ 5687 45  82             Fax. 5669 25 12
********************************************************************************
ARCHIVO ESTANDAR DE ACELERACION:
VERSION DEL FORMATO                    : 2.0
NOMBRE DEL ARCHIVO                     : CI0520200623152903
FECHA Y HORA DE CREACION               : 18/AGO/21, 13:42
REF. CATALOGO ACELEROGRAMAS, SMIS 1996 : REGISTRO No.     /PAG.


================================================================================
DATOS DE LA ESTACION:
NOMBRE DE LA ESTACION                  : CIBELES
CLAVE DE LA ESTACION                   : CI05
LOCALIZACION DE LA ESTACION            : Del. Cuauhtémoc, Col. Roma Norte,      
                                       : Colima , entre calles Oro              
                                       : y Medellín.                            
                                       :                                        
                                       : 
COORDENADAS DE LA ESTACION             : 19.4186 LAT. N
                                       : 99.1653 LONG. W
ALTITUD (msnm)                         : 2233
TIPO DE SUELO                          : Terreno blando, material compresible
                                       : (arcillas)                
                                       : 
INSTITUCION RESPONSABLE                : CIRES, A. C.
                                       : 

================================================================================
DATOS DEL ACELEROGRAFO:
MODELO DEL ACELEROGRAFO                : RAD_IO14
NUMERO DE SERIE DEL ACELEROGRAFO       : 
NUMERO DE CANALES                      : 3
ORIENTACION C1-C6 (rumbo;orientacion)  : /S00E/+V/N90W
ORIENTACION C7-C12 (rumbo;orientacion) : 
VEL. DE MUESTREO, C1-C6 (muestras/s)   : /100/100/100
VEL. DE MUESTREO, C7-C12 (muestras/s)  : 
ESC. COMPLETA DE SENSORES, C1-C6, (g)  : /2.0/2.0/2.0
ESC. COMPLETA DE SENSORES, C7-C12, (g) : 
FREC. NAT. DE SENSORES, C1-C6, (Hz)    : /52.49/51.93/50.04
FREC. NAT. DE SENSORES, C7-C12, (Hz)   : 
AMORTIGUAMIENTO DE SENSORES, C1-C6     : /0.5896/0.5763/0.5927
AMORTIGUAMIENTO DE SENSORES, C7-C12    : 
INTERVALO DE MUESTREO, C1-C6, (s)      : /0.01/0.01/0.01
INTERVALO DE MUESTREO, C7-C12, (s)     : 
UMBRAL DE DISPARO, C1-C6, (Gal)        : / / /
UMBRAL DE DISPARO, C7-C12, (Gal)       :
MEMORIA DE PREEVENTO (s)               : 60
TIEMPO DE POSEVENTO (s)                : 90


================================================================================
DATOS DEL SISMO:
FECHA DEL SISMO (GMT)                  : 23/JUN/20
HORA EPICENTRO (GMT)                   : 15:29:03.0
MAGNITUD(ES)                           : /Mc=7.4
COORDENADAS DEL EPICENTRO              : 15.80 LAT. N
                                       : 96.13 LONG. W
PROFUNDIDAD FOCAL (km)                 : 22
FUENTE DE LOS DATOS EPICENTRALES       : SSN
                                       : INSTITUTO DE GEOFISICA, UNAM

================================================================================
DATOS DE ESTE REGISTRO:
HORA DE LA PRIMERA MUESTRA (GMT)       : 10:27:25.00
EXACTITUD DEL TIEMPO (s)               : 
DURACION DEL REGISTRO (s), C1-C6       : /539.93/539.93/539.93
DURACION DEL REGISTRO (s), C7-C12      : 
NUM. TOTAL DE MUESTRAS, C1-C6          : /53993/53993/53993
NUM. TOTAL DE MUESTRAS, C7-C12         : 
ACEL. MAX. (Gal), C1-C6                : /43.3691/8.28047/33.41701
ACEL. MAX., C1-C6, EN LA MUESTRA       : /19195/19716/19519
ACEL. MAX. (Gal), C7-C12               : 
ACEL. MAX., C7-C12, EN LA MUESTRA      : 
UNIDADES DE LOS DATOS                  : Gal (cm/s/s)
FACTOR DE DECIMACION                   : 1
FORMATO DATOS (FORTRAN,10 campos/dato) : 3F10.5


================================================================================
CALIDAD DEL ACELEROGRAMA:
REGISTRO DIGITAL COMPLETO CON TIEMPO ABSOLUTO CORRECTO.


================================================================================
COMENTARIOS:














================================================================================
DATOS DE ACELERACION:
---------+---------+---------+---------+---------+---------+---------+---------+
   CANAL-1   CANAL-2   CANAL-3   CANAL-4   CANAL-5   CANAL-6   CANAL-7   CANAL-8
      S00E        +V      N90W
---------+---------+---------+---------+---------+---------+---------+---------+
[...]
   5.36120   0.99703  -9.05601
   5.00200   0.87733  -8.75671
   4.46330   0.69783  -8.39761
   3.74510   0.51823  -8.03841
   3.14650   0.45833  -7.55961
   2.24870   0.45833  -7.08071
   1.35090   0.39853  -6.54211
   0.45300   0.39853  -5.94351
  -0.38490   0.45833  -5.34501
  -1.28280   0.51823  -4.62671
  -2.24040   0.51823  -3.84861
  -3.13830   0.51823  -3.13031
  -3.97620   0.45833  -2.35221
  -4.99380   0.39853  -1.63391
  -6.01130   0.45833  -0.85581
  -7.14850   0.45833  -0.07771
  -8.22590   0.33863   0.58069
  -9.30330   0.27883   1.17919
 -10.44060   0.27883   1.77779
 -11.69750   0.15913   2.37629
 -12.83480   0.15913   2.91499
 -14.09170   0.15913   3.33399
 -15.28880   0.15913   3.69319
 -16.48590   0.09923   4.11209
 -17.62320   0.09923   4.47129
 -18.76040   0.15913   4.89029
 -19.89770   0.27883   5.30919
 -21.03490   0.33863   5.66839
 -22.11230   0.51823   6.08739
 -23.18970   0.63793   6.68589
 -24.26710   0.75763   7.22459
 -25.28460   0.87733   7.88299
 -26.24230   1.05693   8.48159
 -27.08030   1.29633   9.13999
 -28.03800   1.47593   9.91809
 -28.87590   1.47593  10.45679
 -29.77380   1.59563  10.99549
 -30.55190   1.53573  11.47429
 -31.33000   1.53573  11.95319
 -31.92850   1.47593  12.19259
 -32.58690   1.29633  12.49179
 -33.06580   1.11673  12.67139
 -33.48480   0.87733  12.85099
 -33.84390   0.57813  12.91079
 -34.08330   0.27883  12.91079
 -34.32270  -0.02047  12.85099
 -34.32270  -0.37957  12.79109
 -34.26290  -0.67887  12.67139
 -34.26290  -1.03797  12.61159
 -34.08330  -1.33727  12.49179
 -33.78400  -1.45697  12.43199
 -33.48480  -1.63657  12.25239
 -33.12560  -1.75627  12.07289
 -32.70670  -1.69637  11.77359
 -32.04820  -1.63657  11.41449
 -31.56940  -1.57667  10.99549
 -30.91100  -1.39717  10.51659
 -30.07300  -1.27747   9.91809
 -29.17520  -0.97817   9.19979
 -28.27740  -0.73877   8.42169
 -27.31970  -0.43947   7.70339
 -26.00290  -0.25987   6.92529
 -24.68610   0.03943   6.02749
 -23.36930   0.27883   5.12969
 -21.87290   0.33863   4.23189
 -20.19690   0.45833   3.33399
 -18.52100   0.51823   2.49609
 -16.72540   0.51823   1.71789
 -15.04940   0.57813   0.87999
 -13.25380   0.63793   0.10189
 -11.39830   0.57813  -0.55661
  -9.54280   0.45833  -1.15511
  -7.80700   0.33863  -1.75371
  -6.01130   0.15913  -2.29231
  -4.33540  -0.02047  -2.59161
  -2.71930  -0.20007  -2.89091
  -1.04330  -0.49927  -3.07051
   0.63260  -0.73877  -3.30991
   2.24870  -0.97817  -3.54931
   3.62540  -1.21757  -3.72891
   5.06190  -1.45697  -3.90841
   6.19910  -1.57667  -4.14791
   7.45610  -1.75627  -4.38731
   8.53350  -1.87597  -4.62671
   9.49120  -1.87597  -4.92601
  10.38900  -1.87597  -5.28511
  11.16710  -1.81617  -5.70411
  12.00510  -1.75627  -6.24281
  12.66350  -1.69637  -6.84131
  13.32190  -1.51687  -7.26031
  13.98030  -1.15767  -7.85891
  14.63870  -1.03797  -8.39761
  15.29710  -0.85847  -8.99611
  15.95550  -0.49927  -9.53481
  16.61390  -0.14017  -9.89391
  17.33220   0.21893 -10.31291
  17.93070   0.45833 -10.55231
  18.58910   0.69783 -10.73191
  19.24750   1.05693 -10.85161
  19.90590   1.23653 -10.73191
  20.50450   1.41603 -10.55231
  21.04320   1.59563 -10.37281
  21.52200   1.71533 -10.07351
  21.82130   1.77523  -9.71441
  22.12060   1.89493  -9.23551
  22.24030   1.95473  -8.81651
  22.36000   2.01463  -8.39761
  22.47970   2.07443  -7.91871
  22.47970   2.13433  -7.32021
  22.53960   2.25403  -6.66181
  22.47970   2.19413  -6.06321
  22.47970   2.25403  -5.34501
  22.41980   2.37373  -4.50701
  22.53960   2.31383  -3.66901
  22.53960   2.19413  -2.77121
  22.41980   2.13433  -1.87341
  22.47970   2.07443  -1.03541
  22.53960   1.95473  -0.13761
  22.77900   1.77523   0.70039
  22.83880   1.65543   1.35879
  22.89870   1.65543   1.95739
  22.83880   1.53573   2.31649
  22.95850   1.47593   2.61579
  22.95850   1.29633   2.79529
  22.89870   1.11673   2.85519
  22.83880   0.87733   2.79529
  22.71910   0.75763   2.61579
  22.53960   0.57813   2.49609
  22.30010   0.45833   2.31649
  22.06070   0.33863   2.01719
  21.76140   0.21893   1.65809
  21.28260   0.15913   1.35879
  20.92350   0.03943   1.11939
  20.44460  -0.02047   0.76029
  19.96580  -0.08037   0.40109
  19.42710  -0.08037   0.04199
  18.94820   0.03943  -0.31711
  18.46940  -0.02047  -0.61641
  18.05040  -0.08037  -0.91571
  17.63140  -0.14017  -1.21501
  17.21250  -0.14017  -1.57411
  16.85330  -0.25987  -1.81351
  16.49420  -0.37957  -2.17261
  16.19490  -0.49927  -2.59161
  15.83580  -0.61907  -2.89091
  15.59640  -0.85847  -3.01061
  15.29710  -1.03797  -3.25001
  15.05770  -1.15767  -3.42961
  14.93800  -1.27747  -3.54931
  14.87810  -1.39717  -3.54931
  14.81830  -1.45697  -3.48941
  14.69850  -1.57667  -3.48941
  14.63870  -1.63657  -3.36971
  14.51900  -1.69637  -3.30991
  14.45910  -1.81617  -3.19021
  14.45910  -1.93587  -2.89091
  14.51900  -2.05557  -2.71131
  14.51900  -2.11537  -2.47191
  14.45910  -2.11537  -2.17261
  14.45910  -2.17527  -1.87341
  14.39930  -2.23507  -1.51421
  14.45910  -2.35477  -1.09521
  14.39930  -2.41467  -0.61641
  14.33940  -2.41467  -0.13761
  14.21970  -2.41467   0.40109
  14.10000  -2.41467   0.87999
  13.98030  -2.35477   1.35879
  13.86060  -2.35477   1.71789
  13.56130  -2.35477   2.13689
  13.38170  -2.41467   2.25659
  13.14230  -2.53437   2.49609
  13.02260  -2.65407   2.73549
  12.78320  -2.71397   2.73549
  12.48390  -2.95337   2.79529
  12.36420  -3.07307   2.67559
  12.24450  -3.25267   2.49609
  12.06490  -3.43217   2.37629
  11.88540  -3.55187   2.07709
  11.64590  -3.79137   1.77779
  11.52620  -3.91107   1.53839
  11.40650  -4.03077   1.41869
  11.22690  -4.09057   1.17919
  10.92770  -4.03077   0.93979
  10.68830  -3.85117   0.76029
  10.38900  -3.79137   0.52079
   9.97000  -3.61177   0.40109
   9.37140  -3.37237   0.22159
   8.77290  -3.25267  -0.01791
   8.05460  -3.07307  -0.07771
   7.21670  -2.77377  -0.19741
   6.37870  -2.47457  -0.37701
   5.42100  -2.17527  -0.49671
   4.46330  -2.05557  -0.67631
   3.56550  -1.81617  -0.67631
   2.60780  -1.75627  -0.67631
   1.65010  -1.51687  -0.61641
   0.51290  -1.45697  -0.61641
  -0.38490  -1.33727  -0.49671
  -1.22290  -1.39717  -0.31711
  -2.18060  -1.39717  -0.07771
  -3.19810  -1.45697   0.22159
  -4.27550  -1.57667   0.46099
  -5.17330  -1.63657   0.64059
  -6.31060  -1.75627   0.87999
  -7.32810  -1.81617   1.29899
  -8.34570  -1.75627   1.59819
  -9.36320  -1.75627   1.95739
 -10.50040  -1.63657   2.25659
 -11.51800  -1.57667   2.49609
 -12.59540  -1.45697   2.79529
 -13.61290  -1.33727   2.97489
 -14.69030  -1.27747   3.09459
 -15.88740  -1.15767   3.21429
 -16.96480  -1.03797   3.33399
 -18.04220  -0.97817   3.51359
 -19.05970  -0.85847   3.75299
 -20.01740  -0.67887   4.11209
 -20.91520  -0.55917   4.53109
 -21.81300  -0.43947   4.89029
 -22.71090  -0.37957   5.18949
 -23.60870  -0.31977   5.42899
 -24.50650  -0.20007   5.66839
 -25.46420  -0.14017   5.90779
 -26.36200  -0.08037   6.14719
 -27.31970  -0.14017   6.08739
 -28.21750  -0.14017   6.02749
 -29.11540  -0.20007   5.84789
 -30.13290  -0.20007   5.66839
 -30.97090  -0.08037   5.48879
 -31.74900   0.03943   5.12969
 -32.52710   0.09923   4.83039
 -33.24530   0.21893   4.53109
 -33.78400   0.33863   4.29169
 -34.44240   0.45833   3.99239
 -34.98110   0.51823   3.69319
 -35.40010   0.63793   3.51359
 -35.75930   0.69783   3.39389
 -36.11840   0.81753   3.39389
 -36.41770   0.75763   3.39389
 -36.65710   0.63793   3.45369
 -36.89650   0.57813   3.51359
 -37.01620   0.57813   3.51359
 -36.95640   0.51823   3.63329
 -36.77680   0.39853   3.69319
 -36.59720   0.45833   3.75299
 -36.41770   0.57813   3.93259
 -36.23810   0.57813   4.11209
 -35.99870   0.69783   4.29169
 -35.63950   0.81753   4.59099
 -35.28040   0.93723   4.89029
 -34.92130   1.05693   5.12969
 -34.56220   1.23653   5.42899
 -34.08330   1.35623   5.78809
 -33.66430   1.47593   6.08739
 -33.24530   1.53573   6.32679
 -32.76650   1.53573   6.56619
 -32.10810   1.47593   6.62609
 -31.38980   1.53573   6.62609
 -30.73140   1.41603   6.56619
 -30.07300   1.35623   6.50629
 -29.17520   1.23653   6.44649
 -28.33720   1.05693   6.44649
 -27.43940   0.87733   6.38659
 -26.48170   0.75763   6.26689
 -25.46420   0.51823   6.08739
 -24.50650   0.33863   5.84789
 -23.48900   0.15913   5.48879
 -22.59120   0.03943   5.12969
 -21.69330  -0.20007   4.71069
 -20.85540  -0.20007   4.23189
 -20.07720  -0.31977   3.81289
 -19.35900  -0.37957   3.39389
 -18.70060  -0.37957   2.91499
 -17.92250  -0.37957   2.43619
 -17.14430  -0.49927   2.01719
 -16.30640  -0.55917   1.47849
 -15.52830  -0.73877   0.93979
 -14.75010  -0.97817   0.40109
 -13.91220  -1.09787  -0.07771
 -13.13410  -1.21757  -0.55661
 -12.35590  -1.27747  -1.03541
 -11.57780  -1.21757  -1.63391
 -10.79970  -1.15767  -2.17261
 -10.02160  -1.03797  -2.65151
  -9.24350  -0.73877  -3.30991
  -8.40550  -0.67887  -3.84861
  -7.50770  -0.61907  -4.50701
  -6.55000  -0.49927  -5.22521
  -5.59230  -0.49927  -5.88361
  -4.57480  -0.55917  -6.54211
  -3.49740  -0.67887  -7.38001
  -2.36010  -0.79857  -8.27791
  -1.16300  -0.91827  -9.05601
   0.03410  -1.03797  -9.77421
   1.23120  -1.03797 -10.55231
   2.42830  -1.09787 -11.21071
   3.74510  -1.09787 -11.80931
   5.00200  -1.03797 -12.40781
   6.25900  -1.03797 -12.88671
   7.63560  -0.91827 -13.24581
   8.83270  -0.79857 -13.66481
   9.91010  -0.67887 -14.08381
  11.16710  -0.43947 -14.50281
  12.36420  -0.14017 -14.92181
  13.56130   0.15913 -15.34071
  14.81830   0.57813 -15.64001
  16.07520   0.87733 -16.05901
  17.45190   1.17663 -16.41811
  18.82850   1.71533 -16.59771
  20.08550   2.13433 -16.71741
  21.46220   2.55333 -16.83711
  22.89870   2.91243 -16.89701
  24.45490   3.21173 -16.83711
  26.13090   3.63073 -16.83711
  27.80680   3.75043 -16.71741
  29.36300   3.98983 -16.53781
  30.91930   4.16943 -16.29841
  32.35580   4.16943 -16.05901
  33.61270   4.16943 -15.87941
  34.86970   4.16943 -15.52031
  35.94710   4.22923 -15.22101
  36.84490   4.28913 -14.92181
  37.62300   4.34893 -14.50281
  38.34130   4.46863 -14.02391
  38.99970   4.58833 -13.48521
  39.71790   4.64823 -12.82681
  40.25660   4.82783 -11.98891
  40.79530   5.00733 -11.21071
  41.27420   5.12703 -10.31291
  41.75300   5.12703  -9.53481
  42.35160   5.24673  -8.69681
  42.65080   5.42633  -7.79901
  42.89030   5.54603  -6.96101
  43.18950   5.66573  -6.12311
  43.36910   5.78543  -5.34501
  43.30930   5.72563  -4.50701
  43.30930   5.66573  -3.90841
  43.24940   5.60593  -3.25001
  42.95010   5.60593  -2.59161
  42.59100   5.54603  -1.99311
  42.05230   5.42633  -1.45441
  41.39390   5.24673  -0.97551
  40.67560   5.06723  -0.67631
  39.71790   4.94753  -0.31711
  38.76030   4.70803   0.04199
  37.68290   4.40883   0.64059
  36.54560   4.04963   1.11939
  35.22880   3.75043   1.77779
  33.79230   3.57083   2.37629
  32.23610   3.45113   3.09459
  30.79950   3.33143   3.75299
  29.30320   3.03213   4.47129
  27.74690   2.67303   5.36909
  26.25060   2.19413   6.20709
  24.63450   2.01463   7.04499
  23.01840   1.95473   7.94289
  21.34240   2.01463   8.78079
  19.72640   2.07443   9.49909
  18.23000   1.89493  10.15749
  16.73360   1.65543  10.75609
  15.11750   1.23653  11.23489
  13.44160   0.87733  11.65389
  11.82550   0.69783  12.07289
  10.26930   0.69783  12.37209
   8.89260   0.75763  12.55169
   7.45610   0.87733  12.85099
   6.07940   0.81753  12.91079
   4.94220   0.57813  12.91079
   3.56550   0.27883  12.97069
   2.24870   0.09923  12.97069
   0.99170   0.03943  13.03049
  -0.20540  -0.20007  13.03049
  -1.28280  -0.49927  13.09039
  -2.30030  -0.73877  13.15029
  -3.25800  -0.97817  13.09039
  -4.09590  -1.09787  13.09039
  -4.87410  -1.21757  13.21009
  -5.65220  -1.45697  13.38969
  -6.31060  -1.57667  13.62909
  -6.90910  -1.81617  13.86849
  -7.50770  -2.05557  14.16779
  -7.92670  -2.41467  14.46709
  -8.10620  -2.77377  14.76629
  -8.22590  -3.25267  15.00579
  -8.40550  -3.73147  15.36489
  -8.46540  -4.09057  15.60429
  -8.64490  -4.33007  15.90359
  -8.82450  -4.56947  16.08319
  -8.88430  -4.74897  16.20289
  -8.88430  -4.80887  16.26269
  -9.06390  -4.86877  16.26269
  -9.12380  -4.80887  16.20289
  -9.06390  -4.50957  16.08319
  -9.06390  -4.27017  16.02329
  -9.24350  -3.97087  15.84369
  -9.42300  -3.79137  15.78389
  -9.60260  -3.55187  15.60429
  -9.84200  -3.49207  15.60429
 -10.14130  -3.43217  15.48459
 -10.56030  -3.31247  15.42469
 -10.97930  -3.01327  15.30499
 -11.33840  -2.65407  15.36489
 -11.87710  -2.17527  15.24519
 -12.29610  -1.69637  15.12549
 -12.71510  -1.33727  14.88609
 -13.37350  -0.91827  14.70649
 -14.03190  -0.61907  14.58679
 -14.81000  -0.25987  14.46709
 -15.70780   0.15913  14.34739
 -16.72540   0.51823  14.10789
 -17.68300   0.87733  13.68889
 -18.70060   1.17663  13.21009
 -19.71810   1.59563  12.73129
 -20.55610   1.89493  12.25239
 -21.39400   2.19413  11.77359
 -22.23200   2.49343  11.11519
 -23.07000   2.73283  10.69619
 -23.78830   2.85253  10.03779
 -24.44670   2.97233   9.25969
 -24.98540   2.97233   8.54139
 -25.34450   2.91243   7.88299
 -25.64380   2.79273   7.28449
 -25.88320   2.85253   6.62609
 -26.18250   2.85253   5.84789
 -26.48170   2.97233   4.89029
 -26.72110   3.27153   3.69319
 -26.90070   3.39123   2.49609
 -26.96060   3.45113   1.41869
 -26.96060   3.33143   0.34129
 -26.60140   3.09203  -0.85581
 -26.12260   2.85253  -2.05291
 -25.76350   2.67303  -3.13031
 -25.28460   2.49343  -4.02811
 -24.80580   2.37373  -5.04571
 -24.26710   2.31383  -5.94351
 -23.90800   2.07443  -6.78151
 -23.54880   1.83503  -7.49971
 -23.24960   1.59563  -8.39761
 -23.07000   1.35623  -9.17571
 -22.77070   1.17663 -10.07351
 -22.35170   0.99703 -10.85161
 -21.75320   0.93723 -11.68961
 -21.15460   0.87733 -12.64731
 -20.43640   0.93723 -13.42541
 -19.71810   0.75763 -14.26341
 -18.82030   0.63793 -15.10131
 -17.80270   0.45833 -15.87941
 -16.84510   0.15913 -16.53781
 -16.00710   0.03943 -17.13641
 -15.16910   0.15913 -17.73491
 -14.39100   0.39853 -18.21381
 -13.61290   0.63793 -18.69261
 -12.77490   0.57813 -19.05181
 -11.69750   0.57813 -19.41091
 -11.03910   0.57813 -19.65031
 -10.32090   0.69783 -19.94961
  -9.54280   0.99703 -20.24891
  -8.88430   1.41603 -20.42841
  -8.04640   1.65543 -20.54811
  -7.26830   1.59563 -20.66781
  -6.43030   1.47593 -20.84741
  -5.71200   1.53573 -21.02701
  -5.11350   1.77523 -21.32621
  -4.39520   2.19413 -21.62551
  -3.55720   2.37373 -21.92481
  -2.65940   2.31383 -22.40361
  -1.94120   2.07443 -22.76281
  -1.34260   1.59563 -22.94231
  -0.80390   1.23653 -23.24161
  -0.14550   0.87733 -23.48101
   0.45300   0.75763 -23.66061
   1.11140   0.63793 -23.78031
   1.82970   0.39853 -23.84021
   2.42830   0.15913 -23.78031
   2.90710  -0.25987 -23.90001
   3.44580  -0.61907 -23.78031
   3.74510  -0.97817 -23.60071
   4.04430  -1.21757 -23.30151
