********************************************************************************
              CENTRO DE INSTRUMENTACION Y REGISTRO SISMICO  A.C.

    Anaxagoras 814, Col. Narvarte, Benito Juarez, C.P. 03020 Mexico, D.F.
           Tels. 5687 45 42/ 5687 45  82             Fax. 5669 25 12
********************************************************************************
ARCHIVO ESTANDAR DE ACELERACION:
VERSION DEL FORMATO                    : 2.0
NOMBRE DEL ARCHIVO                     : CO5620200623152903
FECHA Y HORA DE CREACION               : 18/AGO/21, 13:42
REF. CATALOGO ACELEROGRAMAS, SMIS 1996 : REGISTRO No.     /PAG.


================================================================================
DATOS DE LA ESTACION:
NOMBRE DE LA ESTACION                  : ESC. SEC. TÉC. NO. 18
CLAVE DE LA ESTACION                   : CO56
LOCALIZACION DE LA ESTACION            : Del. Cuauhtémoc, Col. Roma Norte,      
                                       : Calle Córdoba entre Colima             
                                       : y Tabasco.                             
                                       :                                        
                                       : 
COORDENADAS DE LA ESTACION             : 19.4215 LAT. N
                                       : 99.1590 LONG. W
ALTITUD (msnm)                         : 2233
TIPO DE SUELO                          : Alto riesgo sísmico                 
                                       :                           
                                       : 
INSTITUCION RESPONSABLE                : CIRES
                                       : 

================================================================================
DATOS DEL ACELEROGRAFO:
MODELO DEL ACELEROGRAFO                : RADESD
NUMERO DE SERIE DEL ACELEROGRAFO       : 213
NUMERO DE CANALES                      : 3
ORIENTACION C1-C6 (rumbo;orientacion)  : /N00E/+V/N90W
ORIENTACION C7-C12 (rumbo;orientacion) : 
VEL. DE MUESTREO, C1-C6 (muestras/s)   : /100/100/100
VEL. DE MUESTREO, C7-C12 (muestras/s)  : 
ESC. COMPLETA DE SENSORES, C1-C6, (g)  : /0.5/0.5/0.5
ESC. COMPLETA DE SENSORES, C7-C12, (g) : 
FREC. NAT. DE SENSORES, C1-C6, (Hz)    : /30/30/30
FREC. NAT. DE SENSORES, C7-C12, (Hz)   : 
AMORTIGUAMIENTO DE SENSORES, C1-C6     : /0.733/0.700/0.733
AMORTIGUAMIENTO DE SENSORES, C7-C12    : 
INTERVALO DE MUESTREO, C1-C6, (s)      : /0.01/0.01/0.01
INTERVALO DE MUESTREO, C7-C12, (s)     : 
UMBRAL DE DISPARO, C1-C6, (Gal)        : /1.65/4.79/1.65
UMBRAL DE DISPARO, C7-C12, (Gal)       :
MEMORIA DE PREEVENTO (s)               : 44.0
TIEMPO DE POSEVENTO (s)                : 64.0


================================================================================
DATOS DEL SISMO:
FECHA DEL SISMO (GMT)                  : 23/JUN/20
HORA EPICENTRO (GMT)                   : 15:29:03.0
MAGNITUD(ES)                           : /Mc=7.4
COORDENADAS DEL EPICENTRO              : 15.80 LAT. N
                                       : 96.13 LONG. W
PROFUNDIDAD FOCAL (km)                 : 22
FUENTE DE LOS DATOS EPICENTRALES       : SSN
                                       : INSTITUTO DE GEOFISICA, UNAM

================================================================================
DATOS DE ESTE REGISTRO:
HORA DE LA PRIMERA MUESTRA (GMT)       : 15:28:33.00
EXACTITUD DEL TIEMPO (s)               : 0.01
DURACION DEL REGISTRO (s), C1-C6       : /467.2/467.2/467.2
DURACION DEL REGISTRO (s), C7-C12      : 
NUM. TOTAL DE MUESTRAS, C1-C6          : /46720/46720/46720
NUM. TOTAL DE MUESTRAS, C7-C12         : 
ACEL. MAX. (Gal), C1-C6                : /45.49176/15.44613/26.16045
ACEL. MAX., C1-C6, EN LA MUESTRA       : /18578/19328/18445
ACEL. MAX. (Gal), C7-C12               : 
ACEL. MAX., C7-C12, EN LA MUESTRA      : 
UNIDADES DE LOS DATOS                  : Gal (cm/s/s)
FACTOR DE DECIMACION                   : 1
FORMATO DATOS (FORTRAN,10 campos/dato) : 3F10.5


================================================================================
CALIDAD DEL ACELEROGRAMA:
REGISTRO DIGITAL COMPLETO CON TIEMPO ABSOLUTO CORRECTO.


================================================================================
COMENTARIOS:














================================================================================
DATOS DE ACELERACION:
---------+---------+---------+---------+---------+---------+---------+---------+
   CANAL-1   CANAL-2   CANAL-3   CANAL-4   CANAL-5   CANAL-6   CANAL-7   CANAL-8
      N00E        +V      N90W
---------+---------+---------+---------+---------+---------+---------+---------+
[...]
 -22.29407  -4.47770 -15.44640
 -21.86012  -4.40288 -15.74567
 -21.54588  -4.38791 -16.10480
 -21.15683  -4.04375 -16.37415
 -20.90244  -3.90907 -16.23948
 -20.90244  -3.75944 -16.61357
 -20.75281  -3.74447 -16.40408
 -20.79770  -3.66965 -16.31430
 -20.84259  -3.69958 -16.14970
 -21.29150  -3.74447 -15.82049
 -21.48603  -3.95396 -15.35662
 -21.72545  -4.29813 -14.90770
 -22.15940  -4.44777 -14.41390
 -22.30904  -4.77697 -13.87520
 -22.38386  -4.91165 -12.82774
 -22.38386  -4.73208 -11.95984
 -22.11451  -4.49266 -11.00216
 -21.60574  -3.96893 -10.08937
 -21.15683  -3.26563  -9.37111
 -21.09697  -2.32291  -8.56307
 -20.76777  -1.33531  -7.81488
 -20.52835  -0.33273  -7.11158
 -20.51339   0.62495  -6.57289
 -20.34878   1.43299  -6.07908
 -20.39368   2.07643  -5.63017
 -20.21411   2.63009  -5.24111
 -20.19915   2.91440  -4.92688
 -19.76520   3.18375  -4.52285
 -19.60060   3.22864  -4.29840
 -19.21154   3.43813  -3.83452
 -18.89730   3.64763  -3.61006
 -18.49328   3.97683  -3.08633
 -18.23889   4.47063  -2.57757
 -17.76005   4.76991  -2.11369
 -17.23632   5.21882  -1.66478
 -16.63777   5.59291  -1.08119
 -16.36842   5.87723  -0.76695
 -15.44067   5.96701  -0.28811
 -14.78226   6.14657   0.01117
 -14.27350   6.20643   0.43015
 -13.54027   6.01190   0.81921
 -12.65741   5.78744   1.35790
 -12.07382   5.56299   1.76193
 -11.11614   5.39839   2.28566
 -10.03875   5.12904   2.89917
  -9.29056   4.78487   3.27327
  -8.30296   4.57538   4.21598
  -7.16571   4.27610   4.91928
  -6.31278   4.09654   5.54776
  -5.44488   4.08157   6.08645
  -4.39742   3.87208   6.61018
  -3.40981   3.91697   7.56786
  -2.51198   3.37828   8.25620
  -1.49445   3.28850   8.98942
  -0.59662   3.07900   9.75257
   0.51070   2.98922  10.51573
   1.31874   2.55527  11.02449
   2.24649   2.45052  11.66793
   2.99468   2.24103  12.44605
   3.63812   2.01658  13.16431
   4.34142   1.92679  13.65811
   4.93997   1.85197  14.21177
   5.79291   1.71730  14.81032
   6.57102   1.28335  15.33406
   7.28928   0.62495  16.00743
   8.41156   0.43042  16.21692
   9.42910  -0.01850  16.63590
  10.28203  -0.55719  16.77058
  11.13497  -0.96121  16.92021
  12.21236  -1.48494  17.14467
  13.08026  -1.67947  17.20453
  13.79852  -2.18824  17.33920
  14.45692  -2.54737  17.15963
  15.33978  -2.77183  17.15963
  16.01315  -3.35541  16.99503
  16.91098  -3.68462  17.02496
  17.46464  -4.10360  16.86036
  18.22779  -4.59741  16.77058
  18.97598  -5.06128  16.39648
  19.72417  -5.22588  16.00743
  19.99351  -5.59998  15.69319
  20.72674  -5.65983  15.63333
  21.53478  -5.71969  15.27420
  21.93880  -5.68976  15.01982
  22.37275  -5.74962  14.34645
  23.04612  -5.46530  14.18185
  23.79431  -5.37552  13.64315
  24.33300  -5.27078  13.25409
  25.05127  -4.83683  12.88000
  25.64982  -4.94157  12.46101
  26.62246  -4.62733  12.20663
  27.34072  -4.25324  11.83254
  27.80460  -3.98389  11.47341
  28.32833  -3.52002  11.14420
  28.86702  -3.32549  10.87486
  29.34586  -2.60723  10.57558
  29.76485  -2.24810  10.47083
  29.88456  -1.79918  10.30623
  29.95938  -1.54480   9.81243
  30.15391  -1.09589   9.70768
  30.21376  -0.75172   9.25877
  30.36340  -0.64697   9.00439
  30.16887  -0.46741   8.61533
  30.16887  -0.37763   8.52555
  30.09405  -0.31777   8.45073
  30.07909  -0.31777   8.40584
  29.79478  -0.37763   8.24123
  29.57032  -0.49734   8.27116
  29.30097  -0.66194   8.16641
  28.92688  -0.82654   8.19634
  28.65753  -1.17071   8.25620
  28.22358  -1.32034   8.45073
  28.02905  -1.66451   8.49562
  27.77467  -1.96378   8.64526
  27.59510  -2.12839   8.73504
  27.49036  -2.41270   8.70511
  27.43050  -2.50248   8.97446
  27.50532  -2.60723   8.86971
  27.59510  -2.62219   8.97446
  27.52029  -2.66708   9.07920
  27.53525  -2.81672   9.15402
  27.49036  -2.84665   9.00439
  27.46043  -3.11599   8.97446
  27.22101  -3.25067   9.06424
  27.08634  -3.32549   8.95949
  26.98159  -3.57987   9.00439
  26.66735  -3.74447   8.95949
  26.54764  -3.95396   9.01935
  26.17355  -4.16346   9.13906
  25.90420  -4.26820   8.92957
  25.53011  -4.41784   9.04928
  25.15601  -4.44777   9.19891
  24.52753  -4.58244   9.37848
  23.98884  -4.49266   9.54308
  23.33043  -4.50762   9.60294
  22.80670  -4.50762   9.97703
  21.98369  -4.43281  10.21645
  21.32529  -4.44777  10.45587
  20.48732  -4.64230  10.44091
  19.78402  -4.65726  10.51573
  19.08072  -4.62733  10.47083
  18.27268  -4.73208  10.39602
  17.61428  -4.62733  10.36609
  16.80623  -4.55252  10.41098
  15.99819  -4.46273  10.06681
  15.22007  -4.40288   9.70768
  14.48685  -4.02878   9.30366
  13.64888  -3.75944   8.73504
  12.99047  -3.47512   8.52555
  12.12258  -3.26563   7.91203
  11.38935  -2.81672   7.58283
  10.50649  -2.32291   7.01421
   9.56377  -2.02364   6.52040
   8.71084  -1.61962   6.22113
   7.79805  -1.17071   5.48790
   6.91519  -0.81158   5.12877
   5.95751  -0.33273   4.36562
   5.10457  -0.10828   3.70721
   4.05711   0.40049   3.28823
   3.05454   0.65487   2.56997
   2.00707   1.17860   1.86667
   0.98954   1.55270   1.16338
  -0.10282   2.07643   0.31044
  -1.13532   2.37571  -0.24322
  -2.22767   2.77973  -1.17097
  -3.11053   3.09397  -2.00894
  -4.24778   3.27353  -2.92173
  -5.23539   3.55784  -3.89438
  -6.01350   3.82719  -4.44804
  -6.98615   4.05165  -5.70499
  -8.10843   4.23121  -6.66267
  -8.87158   4.26114  -7.79992
  -9.66466   4.24618  -8.68278
 -10.36796   4.32099  -9.53571
 -10.93658   4.24618 -10.50836
 -11.66980   4.14143 -11.43611
 -12.19353   4.18632 -12.34890
 -12.85194   3.90201 -13.41133
 -13.25596   3.63266 -14.12959
 -13.77969   3.51295 -15.11720
 -14.45306   2.88447 -15.97013
 -14.79723   2.80965 -16.97270
 -15.33592   2.36074 -17.70593
 -15.78484   2.03154 -18.48404
 -16.20382   1.74723 -19.24719
 -16.78741   1.61255 -19.99538
 -17.41589   1.26839 -20.69868
 -17.83487   0.92422 -21.52169
 -18.46335   0.44538 -22.04542
 -18.88234   0.14611 -22.35966
 -19.45096   0.01143 -22.98813
 -20.09440  -0.52726 -23.61661
 -20.67799  -1.20063 -24.03560
 -21.35136  -1.60465 -24.48451
 -21.77034  -1.97875 -24.93342
 -22.59335  -2.36781 -25.14292
 -23.50614  -2.54737 -25.68161
 -24.28425  -2.93643 -25.86118
 -25.22697  -2.89154 -25.98089
 -26.12480  -2.90650 -25.95096
 -27.30693  -2.93643 -26.16045
 -28.07008  -2.92147 -26.01081
 -28.81827  -2.60723 -25.54694
 -29.85077  -2.69701 -25.51701
 -30.56903  -2.66708 -25.23270
 -31.24240  -2.75686 -24.81371
 -31.70628  -2.74190 -24.27502
 -32.30483  -2.74190 -23.99071
 -32.78367  -2.62219 -23.28741
 -33.02309  -2.63715 -22.62900
 -33.33733  -2.53241 -22.00053
 -33.66653  -2.41270 -21.26730
 -33.90595  -2.33788 -20.92314
 -34.22019  -2.36781 -20.36948
 -34.26508  -1.97875 -19.92056
 -34.32494  -1.82911 -19.39683
 -34.32494  -1.79918 -18.84317
 -34.42968  -1.57473 -18.28951
 -34.22019  -1.21560 -17.76578
 -34.13041  -1.05100 -17.28694
 -33.66653  -0.45244 -16.79314
 -32.82856  -0.10828 -16.56868
 -32.76870   0.02640 -16.10480
 -33.45704  -0.37763 -15.41647
 -33.86106  -0.49734 -15.23691
 -33.74135  -0.16813 -14.77303
 -33.72639  -0.34770 -14.41390
 -33.02309  -0.52726 -13.83031
 -32.11030  -0.42252 -13.60586
 -31.43693   0.44538 -13.39636
 -31.16758   1.61255 -13.06716
 -30.98802   2.71987 -12.55839
 -30.89823   3.58777 -12.06459
 -30.71867   3.84215 -11.49597
 -30.55407   3.75237 -10.71785
 -30.17997   3.45310 -10.17916
 -29.65624   3.27353  -9.26637
 -29.14747   3.69252  -8.60796
 -28.80331   4.39581  -7.93459
 -28.39929   5.27868  -7.50064
 -27.74088   5.83233  -6.66267
 -27.65110   6.02686  -5.71995
 -27.08248   6.25132  -4.88198
 -26.72335   6.22139  -3.92430
 -26.33429   6.41592  -3.25093
 -25.91530   6.49074  -2.89180
 -25.22697   6.65534  -2.17354
 -24.49375   6.47578  -1.56003
 -23.95505   6.58052  -0.84177
 -23.43132   6.74512  -0.09358
 -23.34154   6.93965   0.69950
 -23.13204   7.23893   1.26812
 -22.95248   7.08929   1.95645
 -22.99737   6.81994   2.68968
 -22.50357   6.32614   3.37801
 -22.17436   5.77248   3.96160
 -21.65063   5.36846   4.33569
 -21.27654   5.21882   4.99410
 -20.67799   4.94947   5.60761
 -20.33382   4.62027   5.86200
 -19.39110   4.29107   6.41565
 -18.61299   4.00676   6.78975
 -17.71516   3.54288   7.37334
 -16.68266   3.40821   7.77736
 -15.47060   3.13886   8.28612
 -14.19868   2.88447   8.76497
 -13.16618   2.88447   9.30366
 -12.29828   2.85455   9.66279
 -11.32564   3.01915  10.26134
 -10.50263   3.04908  10.60551
  -9.55991   3.13886  11.08435
  -8.40770   2.74980  11.50333
  -7.31535   2.37571  12.07196
  -5.92372   2.18118  12.61065
  -4.71165   1.85197  12.89496
  -3.42477   1.97168  13.02964
  -2.10796   2.52534  13.34388
  -1.46452   3.40821  13.77783
  -1.06050   4.02172  14.09206
   0.21142   4.29107  14.30156
   1.57313   4.68012  14.76543
   3.17425   5.44328  14.98989
   3.83265   5.81737  15.48369
   4.55091   5.53306  15.76801
   5.44874   4.93451  15.85779
   6.85533   4.26114  15.69319
   8.03747   3.69252  16.03735
   9.18968   2.98922  16.23188
  10.41671   2.25600  16.23188
  11.76345   2.04650  16.32166
  13.14011   2.10636  16.23188
  14.38210   2.27096  15.97750
  14.93576   2.25600  15.93261
  15.69891   2.09139  15.94757
  16.94091   1.68737  15.76801
  18.33254   1.17860  15.55851
  19.79899   0.86437  15.30413
  21.01105   0.75962  15.18442
  22.19319   0.58005  15.09464
  23.27058   0.35560  15.10960
  24.37790  -0.13821  14.88514
  25.27572  -0.70683  14.69061
  26.60750  -1.00610  14.57090
  27.49036  -0.94625  14.15192
  28.58271  -0.88639  14.21177
  29.64514  -0.52726  14.16688
  30.49807  -0.09331  13.77783
  31.27619  -0.10828  13.52344
  32.26380  -0.15317  13.28402
  32.98206  -0.19806  12.56576
  33.67039  -0.63201  12.17670
  34.20909  -1.29042  11.96721
  35.00217  -1.78422  11.54822
  35.92992  -1.87400  11.47341
  36.78285  -2.39773  11.05442
  37.69564  -2.42766  10.57558
  38.54858  -2.08349  10.12667
  38.74311  -1.97875   9.60294
  39.25187  -1.81415   9.24381
  39.79057  -1.57473   8.48065
  40.44897  -1.60465   8.18138
  40.92781  -1.39516   8.07663
  41.40666  -1.32034   7.86714
  42.03513  -1.08092   7.49305
  42.69354  -0.82654   7.20873
  43.02274  -0.72179   6.96931
  43.56144  -0.27288   6.86457
  43.77093  -0.16813   6.67004
  43.92057  -0.21302   6.59522
  44.33955  -0.48237   6.58026
  44.83336  -0.37763   6.71493
  45.19249  -0.58712   6.72989
  45.37205  -0.36266   6.81968
  45.49176  -0.43748   6.75982
  45.16256  -0.37763   6.64011
  44.89321  -0.42252   6.49047
  44.60890  -0.39259   6.23609
  44.04028   0.05632   6.20616
  43.60633   0.16107   5.96674
  43.15742   0.29574   5.90689
  42.55886   0.44538   5.75725
  41.96031   0.55013   5.75725
  41.27198   0.60998   5.63754
  40.77818   0.84940   5.38316
  40.08984   0.90926   5.18863
  39.19202   0.96911   4.66489
  38.60843   1.05889   4.17109
  37.71061   0.77458   3.76707
  36.81278   0.77458   3.25830
  35.58575   0.60998   2.85428
  34.25398   0.47531   2.54004
  32.93717   0.28078   2.00135
  31.38094   0.28078   1.49258
  30.07909   0.23589   1.04366
  28.58271   0.25085   0.51993
  26.74217   0.28078   0.01117
  25.32061   0.26582  -0.42278
  23.65964   0.19100  -0.84177
  21.84902  -0.16813  -1.41039
  20.09826  -0.66194  -1.67974
  18.28765  -1.02107  -2.18851
  16.68652  -1.49991  -2.66735
  15.17518  -1.88897  -3.01151
  13.70873  -2.14335  -3.26590
  12.19740  -2.47255  -3.55021
  10.95540  -2.65212  -3.98416
   9.51888  -2.96636  -4.32833
   7.99258  -3.11599  -4.68746
   6.64584  -3.40031  -5.09148
   5.49363  -3.62476  -5.45061
   4.26660  -3.95396  -5.95937
   3.20418  -4.14849  -6.07908
   2.29139  -4.43281  -6.55793
   1.25889  -4.68719  -7.08166
   0.28624  -4.89668  -7.42582
  -0.65648  -5.03136  -7.78495
  -1.89847  -5.00143  -8.14408
  -2.73644  -4.79194  -8.56307
  -3.82879  -4.56748  -8.77256
  -4.75655  -4.34302  -9.04191
  -5.71423  -3.98389  -9.01198
  -6.76169  -3.80433  -9.34118
  -7.56973  -3.44520  -9.55068
  -8.28799  -3.05614  -9.67039
  -9.42524  -2.78679  -9.65542
 -10.39788  -2.63715  -9.71528
 -11.25082  -2.48752  -9.67039
 -12.22346  -2.27802  -9.84995
 -12.92676  -2.03860  -9.86492
 -13.49538  -1.90393  -9.68535
 -14.30342  -1.60465  -9.61053
 -15.11147  -1.60465  -9.62550
 -15.75491  -1.60465  -9.50579
 -16.50310  -1.67947  -9.47586
 -17.34107  -1.79918  -9.37111
 -17.95458  -2.18824  -9.11673
 -18.44839  -2.17328  -8.95213
 -18.88234  -2.24810  -8.47329
 -19.60060  -2.66708  -8.09919
 -19.94476  -2.77183  -8.08423
 -20.25900  -2.60723  -7.66524
 -21.17179  -3.01125  -7.57546
 -21.39625  -2.80176  -7.09662
 -21.91998  -2.78679  -6.61778
 -22.20429  -2.59226  -6.33347
 -22.74299  -2.48752  -5.80974
 -23.10212  -2.26306  -5.34586
 -23.50614  -2.05357  -4.83709
 -23.74556  -1.75429  -4.53782
 -24.28425  -1.49991  -3.98416
 -24.73317  -1.03603  -3.41554
 -24.88280  -0.49734  -3.01151
 -25.30179  -0.00353  -2.54764
 -26.00509   0.11618  -2.29325
 -26.40911   0.49027  -1.87427
 -26.84306   0.77458  -1.26075
 -27.20219   0.98408  -1.06623
 -27.56132   1.29832  -0.45271
 -28.14490   1.32824   0.04109
 -28.68360   1.35817   0.34037
 -28.95295   1.73226   0.84914
 -29.68617   1.61255   1.02870
 -30.34458   1.55270   1.38783
 -30.95809   1.47788   1.61229
 -31.67635   1.23846   1.94149
 -32.39461   0.90926   2.12106
 -33.20265   0.80451   2.54004
 -33.74135   0.75962   2.86924
 -34.63917   0.38553   2.92910
 -35.35744   0.22092   3.25830
 -36.19541   0.07129   3.10866
 -36.77899  -0.40755   3.63240
 -37.37754  -0.72179   3.91671
 -37.54214  -0.70683   4.23095
 -37.57207  -0.78165   4.42547
 -37.66185  -0.78165   4.67986
 -37.61696  -0.91632   4.88935
 -37.60200  -0.99114   5.17366
 -37.57207  -1.12581   5.18863
 -37.57207  -1.35027   5.05395
 -37.73667  -1.78422   4.64993
 -37.78156  -2.24810   4.41051
 -37.72171  -2.54737   4.14116
 -37.57207  -3.08607   3.91671
 -37.34762  -3.84922   3.81196
 -36.95856  -4.26820   3.79700
 -36.33008  -4.64230   4.18605
 -35.92606  -4.80690   4.26087
 -35.47715  -4.91165   4.62000
 -35.05816  -4.83683   4.87439
 -34.56436  -4.53755   5.08388
 -34.13041  -4.08864   5.29337
 -33.63660  -3.57987   5.08388
 -33.02309  -3.05614   4.76964
 -32.52928  -2.62219   4.59008
 -32.06541  -2.12839   4.44044
 -31.25737  -1.46998   4.14116
 -30.76356  -0.97618   3.82692
 -30.17997  -0.67690   3.66232
 -29.58142  -0.57216   3.49772
 -29.04273  -0.39259   3.34808
 -28.14490  -0.12324   3.18348
 -26.96277   0.29574   3.45283
 -25.97516   0.63991   3.27327
 -24.80798   1.28335   3.21341
 -23.53606   2.16621   2.97399
 -22.17436   2.82462   2.89917
 -20.90244   3.46806   2.54004
 -19.39110   4.12647   2.13602
 -17.78998   4.81480   1.98638
 -16.45821   5.36846   1.76193
 -15.21621   5.80241   1.49258
 -14.45306   6.13161   0.96885
 -13.52531   6.55059   0.53490
 -12.68734   6.77505   0.29548
 -12.02893   6.93965  -0.46767
 -11.32564   6.67031  -0.58738
