********************************************************************************
              CENTRO DE INSTRUMENTACION Y REGISTRO SISMICO  A.C.

    Anaxagoras 814, Col. Narvarte, Benito Juarez, C.P. 03020 Mexico, D.F.
           Tels. 5687 45 42/ 5687 45  82             Fax. 5669 25 12
********************************************************************************
ARCHIVO ESTANDAR DE ACELERACION:
VERSION DEL FORMATO                    : 2.0
NOMBRE DEL ARCHIVO                     : CS7820200623152903
FECHA Y HORA DE CREACION               : 18/AGO/21, 13:42
REF. CATALOGO ACELEROGRAMAS, SMIS 1996 : REGISTRO No.     /PAG.


================================================================================
DATOS DE LA ESTACION:
NOMBRE DE LA ESTACION                  : ESC. SEC. NO. TÉC. NO. 243
CLAVE DE LA ESTACION                   : CS78
LOCALIZACION DE LA ESTACION            : Del. Magdalena Contreras, Col. Colinas 
                                       : del Sur, entre calle de los Corceles   
                                       : y Corrido.                             
                                       :                                        
                                       : 
COORDENADAS DE LA ESTACION             : 19.3656 LAT. N
                                       : 99.2262 LONG. W
ALTITUD (msnm)                         : 2430
TIPO DE SUELO                          : Arenoso, limoso, compacto           
                                       :                           
                                       : 
INSTITUCION RESPONSABLE                : CIRES, A. C.
                                       : 

================================================================================
DATOS DEL ACELEROGRAFO:
MODELO DEL ACELEROGRAFO                : RAD_IO14
NUMERO DE SERIE DEL ACELEROGRAFO       : 
NUMERO DE CANALES                      : 3
ORIENTACION C1-C6 (rumbo;orientacion)  : /N00E/+V/N90W
ORIENTACION C7-C12 (rumbo;orientacion) : 
VEL. DE MUESTREO, C1-C6 (muestras/s)   : /100/100/100
VEL. DE MUESTREO, C7-C12 (muestras/s)  : 
ESC. COMPLETA DE SENSORES, C1-C6, (g)  : /2.0/2.0/2.0
ESC. COMPLETA DE SENSORES, C7-C12, (g) : 
FREC. NAT. DE SENSORES, C1-C6, (Hz)    : /33/33/33
FREC. NAT. DE SENSORES, C7-C12, (Hz)   : 
AMORTIGUAMIENTO DE SENSORES, C1-C6     : /0.800/0.795/0.795
AMORTIGUAMIENTO DE SENSORES, C7-C12    : 
INTERVALO DE MUESTREO, C1-C6, (s)      : /0.01/0.01/0.01
INTERVALO DE MUESTREO, C7-C12, (s)     : 
UMBRAL DE DISPARO, C1-C6, (Gal)        : / / /
UMBRAL DE DISPARO, C7-C12, (Gal)       :
MEMORIA DE PREEVENTO (s)               : 60
TIEMPO DE POSEVENTO (s)                : 90


================================================================================
DATOS DEL SISMO:
FECHA DEL SISMO (GMT)                  : 23/JUN/20
HORA EPICENTRO (GMT)                   : 15:29:03.0
MAGNITUD(ES)                           : /Mc=7.4
COORDENADAS DEL EPICENTRO              : 15.80 LAT. N
                                       : 96.13 LONG. W
PROFUNDIDAD FOCAL (km)                 : 22
FUENTE DE LOS DATOS EPICENTRALES       : SSN
                                       : INSTITUTO DE GEOFISICA, UNAM

================================================================================
DATOS DE ESTE REGISTRO:
HORA DE LA PRIMERA MUESTRA (GMT)       : 10:27:25.00
EXACTITUD DEL TIEMPO (s)               : 
DURACION DEL REGISTRO (s), C1-C6       : /539.92/539.92/539.92
DURACION DEL REGISTRO (s), C7-C12      : 
NUM. TOTAL DE MUESTRAS, C1-C6          : /53992/53992/53992
NUM. TOTAL DE MUESTRAS, C7-C12         : 
ACEL. MAX. (Gal), C1-C6                : /10.24788/4.72749/9.49785
ACEL. MAX., C1-C6, EN LA MUESTRA       : /19661/19761/19430
ACEL. MAX. (Gal), C7-C12               : 
ACEL. MAX., C7-C12, EN LA MUESTRA      : 
UNIDADES DE LOS DATOS                  : Gal (cm/s/s)
FACTOR DE DECIMACION                   : 1
FORMATO DATOS (FORTRAN,10 campos/dato) : 3F10.5


================================================================================
CALIDAD DEL ACELEROGRAMA:
REGISTRO DIGITAL COMPLETO CON TIEMPO ABSOLUTO CORRECTO.


================================================================================
COMENTARIOS:














================================================================================
DATOS DE ACELERACION:
---------+---------+---------+---------+---------+---------+---------+---------+
   CANAL-1   CANAL-2   CANAL-3   CANAL-4   CANAL-5   CANAL-6   CANAL-7   CANAL-8
      N00E        +V      N90W
---------+---------+---------+---------+---------+---------+---------+---------+
[...]
  -0.57678   0.71059  -2.76545
  -0.73998   0.70269  -2.54425
  -0.94318   0.50349  -2.47035
  -0.98318   0.21139  -2.21365
  -1.11968   0.14459  -2.11445
  -1.09398   0.10039  -1.91085
  -1.24368   0.03089  -1.83855
  -1.18028   0.02439  -1.80655
  -1.23588   0.02859  -1.75375
  -1.33788  -0.00581  -1.69665
  -1.19268   0.10599  -1.74525
  -1.18448   0.18569  -1.84115
  -1.19358   0.33839  -1.93045
  -1.21418   0.52799  -2.04905
  -1.12578   0.69289  -2.14605
  -1.03438   0.77889  -2.25075
  -0.90698   0.76859  -2.35505
  -0.81198   0.84529  -2.38755
  -0.69398   0.83029  -2.41285
  -0.41458   0.75529  -2.39875
  -0.02758   0.68539  -2.44275
   0.33462   0.63279  -2.47265
   0.72272   0.30309  -2.46755
   1.23282   0.15699  -2.43295
   1.71802   0.02629  -2.40275
   2.27592  -0.20031  -2.35225
   2.61192  -0.43831  -2.25755
   3.24032  -0.54731  -2.13505
   3.70822  -0.64551  -2.14625
   4.11732  -0.69431  -2.09175
   4.52252  -0.82531  -2.04245
   4.66982  -0.80491  -1.94455
   4.99322  -0.85241  -1.90245
   5.16532  -1.01511  -1.88955
   5.13962  -0.85801  -1.81405
   5.21252  -0.94661  -1.74065
   5.27942  -0.95061  -1.67675
   5.17162  -1.02211  -1.71705
   5.09212  -1.14001  -1.71585
   4.98832  -1.05931  -1.68145
   4.90652  -1.05981  -1.55245
   4.91392  -1.04811  -1.54095
   4.75612  -1.04131  -1.60595
   4.64482  -1.09771  -1.47735
   4.67502  -0.89921  -1.58185
   4.62122  -0.90381  -1.59005
   4.54102  -0.87861  -1.48175
   4.57962  -0.66581  -1.60035
   4.53702  -0.55731  -1.66675
   4.51042  -0.35841  -1.85285
   4.61262  -0.30901  -1.84135
   4.65212  -0.23561  -1.93865
   4.67592   0.05239  -2.14585
   4.83192   0.27109  -2.30995
   4.95042   0.42859  -2.60055
   5.20222   0.60869  -2.81095
   5.41972   0.80229  -2.99825
   5.61332   0.77139  -3.19285
   5.78322   0.78989  -3.42285
   5.80732   0.75569  -3.58065
   5.92872   0.77889  -3.74385
   5.90272   0.68559  -3.92415
   5.91512   0.53639  -4.02565
   5.83022   0.53149  -3.84185
   5.56562   0.17079  -3.93395
   5.31962   0.09449  -3.85565
   4.98592  -0.00581  -3.65365
   4.85712  -0.06241  -3.42125
   4.43112  -0.11051  -3.26295
   4.14102  -0.10231  -3.08265
   3.74562  -0.20151  -2.81165
   3.37082  -0.17971  -2.59965
   2.96842  -0.07221  -2.28045
   2.62352  -0.03031  -1.91805
   2.18262  -0.00271  -1.65995
   1.71472   0.09219  -1.36675
   1.47722   0.13329  -1.12245
   1.02902   0.23439  -0.73435
   0.71802   0.35919  -0.37635
   0.27312   0.44619  -0.07215
  -0.01168   0.61129   0.20135
  -0.36778   0.68139   0.43875
  -0.62008   0.73139   0.80205
  -1.11228   0.73329   1.05055
  -1.50218   0.82029   1.41765
  -1.95138   0.87639   1.71745
  -2.38578   0.86679   2.06765
  -2.92258   0.82729   2.57855
  -3.45598   0.84739   2.98815
  -4.16628   0.80269   3.49695
  -4.64228   0.86259   4.23695
  -5.21048   0.92639   4.73165
  -5.80128   0.86309   5.34935
  -6.33058   0.94329   5.92315
  -6.76388   1.04219   6.56285
  -7.26468   1.02439   7.20135
  -7.65118   0.97109   7.79315
  -7.99488   1.01129   8.29565
  -8.31468   0.91679   8.70225
  -8.60108   0.98509   8.98745
  -8.71568   0.97389   9.33885
  -8.82068   0.92269   9.36975
  -8.71658   1.08749   9.49785
  -8.77808   0.99629   9.44525
  -8.81108   1.10809   9.21825
  -8.61938   1.11459   9.09595
  -8.46198   1.06949   8.89115
  -8.14518   0.97039   8.61875
  -7.82608   0.99419   8.20135
  -7.42698   0.87939   7.98515
  -7.06548   0.88339   7.55675
  -6.53728   0.79989   7.13925
  -5.97288   0.74549   6.75485
  -5.34348   0.57029   6.32885
  -4.84918   0.52049   5.77305
  -4.30698   0.46089   5.43265
  -3.72298   0.43869   4.83195
  -3.09258   0.25069   4.51445
  -2.77528   0.29069   4.13355
  -2.18378   0.17709   3.72165
  -1.92818   0.22799   3.35105
  -1.60648   0.19879   3.08945
  -1.46878   0.17359   2.84765
  -1.16558   0.23759   2.68325
  -0.92608   0.17959   2.44855
  -0.85858   0.24279   2.15085
  -0.63408   0.38069   2.06045
  -0.64788   0.35099   1.84765
  -0.46088   0.39659   1.77915
  -0.47818   0.41949   1.74385
  -0.36378   0.32599   1.56685
  -0.25578   0.38959   1.70365
   0.02972   0.37459   1.73655
   0.23892   0.38609   1.72845
   0.49422   0.36999   1.85695
   0.63432   0.41909   1.85535
   0.94342   0.40359   2.05295
   1.14192   0.46249   2.15085
   1.30512   0.46159   2.06505
   1.54572   0.66949   2.12775
   1.75752   0.74589   2.18665
   1.90272   0.88949   2.11585
   2.03202   1.00499   2.09645
   2.24762   1.15669   1.93045
   2.34392   1.19269   1.84605
   2.31872   1.17679   1.59445
   2.39912   1.42559   1.43635
   2.33362   1.34349   1.23925
   2.41832   1.49809   0.89605
   2.35122   1.32529   0.77635
   2.35002   1.32129   0.55725
   2.26512   1.27179   0.29815
   2.33012   1.28419   0.09475
   2.16482   1.19319   5.5E-40
   2.20112   1.07859   0.01065
   2.09792   0.98909  -0.10255
   1.97152   0.87569  -0.00365
   1.83822   0.81819  -0.07845
   1.54522   0.69709  -0.07425
   1.34302   0.66689   0.02955
   0.91512   0.45759   0.22855
   0.58502   0.27039   0.28325
   0.30722   0.25469   0.53765
  -0.20998   0.17919   0.66245
  -0.58198   0.03579   0.73265
  -0.73888  -0.03801   1.03375
  -1.02428  -0.29921   0.93975
  -1.28078  -0.29831   1.34915
  -1.43678  -0.44371   1.49855
  -1.51158  -0.53251   1.73725
  -1.58168  -0.67521   2.01855
  -1.51698  -0.81191   2.26035
  -1.43938  -0.84961   2.27315
  -1.28268  -0.97021   2.52895
  -1.19918  -1.18001   2.62365
  -1.01258  -1.21811   2.63375
  -0.75938  -1.23681   2.63065
  -0.62308  -1.35511   2.66485
  -0.41568  -1.51171   2.71885
  -0.22138  -1.54381   2.63305
  -0.19598  -1.70811   2.66485
  -0.05748  -1.78111   2.56665
  -0.02008  -1.77431   2.33135
   0.12442  -1.77241   2.41865
   0.07082  -1.91201   2.27415
   0.13822  -2.02801   2.23035
   0.02032  -2.03661   2.14555
  -0.07318  -2.09161   2.10315
  -0.20458  -2.12481   2.12725
  -0.22678  -2.11501   2.00335
  -0.36498  -2.09861   1.86685
  -0.26978  -1.83041   1.85625
  -0.24408  -1.81171   1.67695
  -0.32968  -1.68081   1.43285
  -0.17698  -1.49371   1.43405
  -0.08928  -1.48131   1.23815
   0.19222  -1.26021   1.08565
   0.31402  -1.15521   0.80395
   0.43282  -1.11171   0.59985
   0.76992  -0.81761   0.42235
   1.13072  -0.65881   0.12375
   1.38202  -0.52341  -0.02375
   1.78882  -0.33471  -0.44785
   2.09092  -0.24541  -0.84345
   2.62942  -0.17501  -1.07355
   3.00212  -0.12591  -1.37045
   3.48772  -0.23421  -1.71845
   3.69062  -0.05071  -1.97535
   4.15762  -0.18881  -2.18605
   4.49922  -0.13251  -2.51425
   4.90082  -0.24361  -2.57065
   5.21412  -0.23491  -2.58655
   5.41662  -0.13831  -2.74035
   5.64622  -0.24451  -2.58255
   5.85032  -0.15911  -2.64965
   5.90532  -0.36441  -2.61175
   6.09422  -0.10631  -2.50005
   6.22542  -0.20501  -2.31955
   6.30022  -0.17221  -2.25965
   6.50482  -0.18391  -2.25475
   6.45172  -0.15141  -2.16355
   6.61442  -0.14021  -2.12175
   6.53352   0.02349  -2.06355
   6.59882  -0.01111  -1.88185
   6.42222  -0.11661  -1.94565
   6.38012  -0.01351  -1.81595
   6.22612  -0.19191  -1.76445
   5.88102  -0.13321  -1.65295
   5.64442  -0.35251  -1.53605
   5.30492  -0.34551  -1.48785
   4.91422  -0.29551  -1.24335
   4.46012  -0.46751  -1.31715
   4.09702  -0.47151  -1.20635
   3.72062  -0.59261  -1.18085
   3.18562  -0.49371  -1.17015
   2.87142  -0.54421  -1.09815
   2.44282  -0.57251  -1.13295
   1.91252  -0.45421  -1.11145
   1.99812  -0.47711  -0.90425
   1.33602  -0.40071  -1.11635
   1.18842  -0.33521  -0.98725
   1.09512  -0.31231  -1.10745
   0.71592  -0.26721  -1.27065
   0.77062  -0.20731  -1.31905
   0.61542  -0.09861  -1.61925
   0.56582  -0.07521  -1.62255
   0.64902  -0.08551  -1.96295
   0.80732   0.06859  -2.13345
   0.82462   0.09409  -2.45655
   1.17652   0.14709  -2.52295
   1.13092   0.10459  -2.85055
   1.32542   0.07979  -2.95125
   1.52352   0.15109  -3.08595
   1.60602   0.17289  -3.21735
   1.86112   0.05759  -3.31135
   1.96892  -0.04501  -3.41795
   2.18612  -0.19311  -3.45655
   2.36102  -0.33011  -3.44905
   2.51832  -0.43391  -3.49305
   2.66262  -0.54381  -3.46825
   2.80012  -0.59431  -3.38055
   2.96232  -0.74411  -3.22785
   2.95952  -0.79321  -3.16635
   2.91792  -0.78321  -2.83535
   2.89662  -0.78551  -2.50425
   2.93992  -0.86431  -2.24655
   2.85412  -0.82991  -2.06845
   2.67712  -0.83131  -1.67255
   2.57682  -0.75071  -1.27465
   2.35542  -0.79511  -0.96115
   2.19872  -0.78441  -0.65315
   1.96542  -0.80471  -0.19395
   1.75892  -0.84071   0.17005
   1.56352  -0.85541   0.47055
   1.22542  -0.90871   0.89485
   1.01402  -0.99671   1.20585
   0.74792  -0.82361   1.49835
   0.69462  -0.96701   1.84975
   0.29342  -1.14911   2.11515
  -0.00628  -0.98101   2.42775
  -0.13188  -1.09811   2.78495
  -0.53328  -1.07291   2.98865
  -0.92608  -1.06311   3.28365
  -1.12068  -1.05161   3.45435
  -1.49128  -0.99921   3.65775
  -1.81228  -1.04831   3.77535
  -2.06428  -0.99411   3.80325
  -2.29788  -0.84581   3.82055
  -2.54988  -0.89331   3.78195
  -2.76548  -0.66321   3.56425
  -3.09188  -0.58121   3.45645
  -3.30418  -0.61301   3.34795
  -3.38318  -0.51481   3.13995
  -3.42578  -0.46121   2.77755
  -3.44818  -0.22131   2.63745
  -3.43718  -0.06021   2.45225
  -3.49148   0.16279   2.16675
  -3.54038   0.35589   2.01035
  -3.53608   0.49129   1.77655
  -3.62688   0.59089   1.62925
  -3.56958   0.86629   1.41555
  -3.68908   1.07909   1.33705
  -3.71898   1.25609   1.07495
  -3.80598   1.53389   1.14805
  -3.85058   1.67059   1.02085
  -3.89078   1.91849   0.83525
  -4.05238   1.94859   0.84135
  -4.06148   2.13429   0.85725
  -4.09348   2.14549   0.84785
  -4.30328   2.27639   0.87145
  -4.23448   2.27009   0.94355
  -4.34818   2.40709   1.02085
  -4.39868   2.45369   1.27205
  -4.44798   2.38259   1.34755
  -4.50528   2.44949   1.45995
  -4.62828   2.42489   1.72235
  -4.77948   2.33859   1.70055
  -5.02338   2.28929   1.98255
  -5.20298   2.22099   2.12025
  -5.55418   2.01199   2.27065
  -5.84478   1.91889   2.33935
  -6.10168   1.77119   2.50465
  -6.56278   1.56309   2.60565
  -6.87418   1.43889   2.77355
  -7.37408   1.42399   2.79015
  -7.87098   1.20069   2.94515
  -8.27688   0.97199   3.09365
  -8.85178   0.81859   3.17265
  -9.19058   0.62429   3.34495
  -9.47628   0.52849   3.37395
  -9.81648   0.39189   3.45815
  -9.89618   0.28629   3.43265
 -10.09538   0.09919   3.43455
 -10.24788   0.03299   3.38375
 -10.16038  -0.06801   3.49295
 -10.20318  -0.16551   3.45885
 -10.08138  -0.21501   3.45715
 -10.06058  -0.29621   3.42495
  -9.82838  -0.40611   3.43215
  -9.61138  -0.40511   3.30985
  -9.53728  -0.66231   3.25585
  -9.29628  -0.70161   3.31735
  -8.97378  -0.78671   3.04055
  -8.73678  -0.73311   2.93885
  -8.41878  -0.83321   2.74965
  -8.13238  -0.90571   2.54365
  -7.96658  -0.93561   2.44405
  -7.68368  -0.98991   2.31945
  -7.21978  -0.98431   2.15625
  -6.93688  -1.14211   2.00195
  -6.54268  -0.99921   1.77095
  -6.01758  -1.09861   1.48995
  -5.56538  -1.07871   1.34775
  -5.09328  -1.10401   1.13875
  -4.74168  -1.04251   0.81865
  -4.12178  -1.05741   0.63275
  -3.56698  -1.20221   0.55795
  -3.06338  -1.01771   0.32395
  -2.42948  -1.07571   0.08655
  -1.96448  -0.97281  -0.24405
  -1.49868  -1.00251  -0.25525
  -1.03068  -0.95741  -0.51825
  -0.66358  -0.87511  -0.74765
  -0.25278  -0.78741  -0.85615
   0.03222  -0.77641  -1.11055
   0.34532  -0.78971  -1.31785
   0.46572  -0.97281  -1.49605
   0.43562  -1.01651  -1.61365
   0.55462  -1.19561  -1.83115
   0.45522  -1.44791  -1.90965
   0.35422  -1.71351  -1.98635
   0.31072  -1.86501  -2.20635
   0.06712  -1.93801  -2.34405
   0.08232  -2.25971  -2.37285
   0.01732  -2.32231  -2.65625
   0.07992  -2.47391  -2.65945
   0.14842  -2.51271  -2.97985
   0.05632  -2.50211  -3.01745
   0.09542  -2.57841  -3.19915
  -0.01008  -2.44251  -3.45045
  -0.01518  -2.45491  -3.51705
  -0.10918  -2.32451  -3.75695
  -0.31468  -2.18951  -3.74485
  -0.56858  -2.08971  -3.81495
  -0.83288  -1.89471  -4.01115
  -0.98158  -1.72851  -4.01605
  -1.34348  -1.54911  -4.10795
  -1.63198  -1.27421  -4.11635
  -1.82858  -1.26411  -4.30905
  -1.88868  -1.06211  -4.32065
  -2.01798  -1.02751  -4.33075
  -2.04588  -0.99551  -4.51075
  -1.94998  -0.90241  -4.67355
  -1.88168  -0.84051  -4.60945
  -1.67708  -0.73671  -5.04295
  -1.29368  -1.02261  -5.29195
  -1.06218  -0.82431  -5.40085
  -0.63338  -0.96741  -5.66935
  -0.18748  -0.96981  -5.86245
  -0.06878  -0.96601  -6.13385
   0.48722  -0.99311  -6.26455
   0.64272  -0.97401  -6.63515
   0.79732  -0.90831  -6.67635
   1.11032  -0.77731  -6.80215
   1.17162  -0.68401  -7.00155
   1.22892  -0.57581  -6.87695
   1.06942  -0.52531  -6.90985
   0.93292  -0.12691  -6.77335
   0.84262  -0.02071  -6.55315
   0.54572   0.21049  -6.38685
   0.43812   0.46249  -6.05345
   0.09822   0.63509  -5.76565
  -0.04588   0.89669  -5.30385
  -0.18818   1.11769  -4.95295
  -0.33268   1.32879  -4.59425
  -0.38178   1.47819  -4.15865
  -0.44608   1.72909  -3.75555
  -0.63648   1.80999  -3.29405
  -0.53708   1.95889  -2.79255
  -0.65308   2.17589  -2.39245
  -0.68478   2.33819  -1.86385
  -0.77108   2.57849  -1.50655
  -0.76548   2.73679  -0.97485
  -0.78228   2.92029  -0.73125
  -0.82678   3.10999  -0.41425
  -0.82278   3.36389  -0.13365
  -1.00488   3.65049   0.19115
  -1.07688   3.89669   0.34825
  -1.24368   4.08309   0.80975
  -1.34368   4.34049   1.05265
  -1.45128   4.43219   1.27555
  -1.58618   4.60349   1.64465
  -1.63788   4.62339   1.75925
  -1.92708   4.72749   2.14105
  -2.02268   4.71649   2.31435
  -2.13768   4.45339   2.39705
  -2.26168   4.47959   2.64535
  -2.33198   4.19439   2.71035
  -2.45638   4.20419   2.92875
  -2.37788   3.87639   2.77655
  -2.42668   3.74339   2.95985
  -2.36868   3.46559   2.83155
  -2.44798   3.27689   2.87405
  -2.37508   2.96429   2.97715
  -2.31868   2.66739   2.86055
  -2.21538   2.40639   2.91105
  -2.03858   2.16649   2.80835
  -2.11128   1.82279   2.72135
  -1.94108   1.59209   2.79195
  -1.70238   1.25559   2.75595
  -1.35258   0.89389   2.77795
  -1.19408   0.67089   2.82445
  -0.92868   0.23689   2.76375
  -0.56628   0.03469   2.71365
  -0.07718  -0.35701   2.76975
   0.39582  -0.51201   2.69915
   0.86482  -0.86881   2.63975
   1.58402  -1.02171   2.59795
   2.20742  -1.19751   2.49885
   2.82492  -1.27351   2.42815
   3.64832  -1.36421   2.30525
   4.25042  -1.50611   2.17105
   4.84682  -1.55731   2.21565
   5.41902  -1.54031   2.05765
   5.94852  -1.61371   2.14835
   6.53682  -1.54101   2.19065
   6.92072  -1.34971   2.22125
   7.16862  -1.28451   2.39105
   7.55012  -1.20241   2.51685
   7.72882  -1.03831   2.61005
   8.04952  -0.96441   2.82755
   8.14072  -0.62261   3.13475
   8.28342  -0.50071   3.25335
   8.32122  -0.28211   3.46205
   8.32992  -0.07941   3.76255
   8.58222  -0.01911   3.90705
   8.56632   0.11109   4.18245
