********************************************************************************
              CENTRO DE INSTRUMENTACION Y REGISTRO SISMICO  A.C.

    Anaxagoras 814, Col. Narvarte, Benito Juarez, C.P. 03020 Mexico, D.F.
           Tels. 5687 45 42/ 5687 45  82             Fax. 5669 25 12
********************************************************************************
ARCHIVO ESTANDAR DE ACELERACION:
VERSION DEL FORMATO                    : 2.0
NOMBRE DEL ARCHIVO                     : CT6420200623152903
FECHA Y HORA DE CREACION               : 18/AGO/21, 13:42
REF. CATALOGO ACELEROGRAMAS, SMIS 1996 : REGISTRO No.     /PAG.


================================================================================
DATOS DE LA ESTACION:
NOMBRE DE LA ESTACION                  : CERRO DEL TEPEYAC
CLAVE DE LA ESTACION                   : CT64
LOCALIZACION DE LA ESTACION            : Del. Gustavo A. Madero, Col. Rosas     
                                       : del Tepeyac, Av. Cantera,              
                                       : Rinconada Gral. Maríano Salas.         
                                       :                                        
                                       : 
COORDENADAS DE LA ESTACION             : 19.4876 LAT. N
                                       : 99.1137 LONG. W
ALTITUD (msnm)                         : 2240
TIPO DE SUELO                          : Arenoso, limoso, compacto           
                                       :                           
                                       : 
INSTITUCION RESPONSABLE                : CIRES, A. C.
                                       : 

================================================================================
DATOS DEL ACELEROGRAFO:
MODELO DEL ACELEROGRAFO                : RAD_IO14
NUMERO DE SERIE DEL ACELEROGRAFO       : 
NUMERO DE CANALES                      : 3
ORIENTACION C1-C6 (rumbo;orientacion)  : /N00E/+V/N90W
ORIENTACION C7-C12 (rumbo;orientacion) : 
VEL. DE MUESTREO, C1-C6 (muestras/s)   : /100/100/100
VEL. DE MUESTREO, C7-C12 (muestras/s)  : 
ESC. COMPLETA DE SENSORES, C1-C6, (g)  : /2.0/2.0/2.0
ESC. COMPLETA DE SENSORES, C7-C12, (g) : 
FREC. NAT. DE SENSORES, C1-C6, (Hz)    : /30/30/30
FREC. NAT. DE SENSORES, C7-C12, (Hz)   : 
AMORTIGUAMIENTO DE SENSORES, C1-C6     : /0.700/0.700/0.700
AMORTIGUAMIENTO DE SENSORES, C7-C12    : 
INTERVALO DE MUESTREO, C1-C6, (s)      : /0.01/0.01/0.01
INTERVALO DE MUESTREO, C7-C12, (s)     : 
UMBRAL DE DISPARO, C1-C6, (Gal)        : / / /
UMBRAL DE DISPARO, C7-C12, (Gal)       :
MEMORIA DE PREEVENTO (s)               : 60
TIEMPO DE POSEVENTO (s)                : 90


================================================================================
DATOS DEL SISMO:
FECHA DEL SISMO (GMT)                  : 23/JUN/20
HORA EPICENTRO (GMT)                   : 15:29:03.0
MAGNITUD(ES)                           : /Mc=7.4
COORDENADAS DEL EPICENTRO              : 15.80 LAT. N
                                       : 96.13 LONG. W
PROFUNDIDAD FOCAL (km)                 : 22
FUENTE DE LOS DATOS EPICENTRALES       : SSN
                                       : INSTITUTO DE GEOFISICA, UNAM

================================================================================
DATOS DE ESTE REGISTRO:
HORA DE LA PRIMERA MUESTRA (GMT)       : 10:27:25.00
EXACTITUD DEL TIEMPO (s)               : 
DURACION DEL REGISTRO (s), C1-C6       : /539.78/539.78/539.78
DURACION DEL REGISTRO (s), C7-C12      : 
NUM. TOTAL DE MUESTRAS, C1-C6          : /53978/53978/53978
NUM. TOTAL DE MUESTRAS, C7-C12         : 
ACEL. MAX. (Gal), C1-C6                : /2.66269/1.91655/3.01995
ACEL. MAX., C1-C6, EN LA MUESTRA       : /19104/18806/19742
ACEL. MAX. (Gal), C7-C12               : 
ACEL. MAX., C7-C12, EN LA MUESTRA      : 
UNIDADES DE LOS DATOS                  : Gal (cm/s/s)
FACTOR DE DECIMACION                   : 1
FORMATO DATOS (FORTRAN,10 campos/dato) : 3F10.5


================================================================================
CALIDAD DEL ACELEROGRAMA:
REGISTRO DIGITAL COMPLETO CON TIEMPO ABSOLUTO CORRECTO.


================================================================================
COMENTARIOS:














================================================================================
DATOS DE ACELERACION:
---------+---------+---------+---------+---------+---------+---------+---------+
   CANAL-1   CANAL-2   CANAL-3   CANAL-4   CANAL-5   CANAL-6   CANAL-7   CANAL-8
      N00E        +V      N90W
---------+---------+---------+---------+---------+---------+---------+---------+
[...]
  -0.45669   0.60245  -0.33115
  -0.46179   0.63945  -0.35645
  -0.44479   0.64835  -0.55565
  -0.45899   0.73505  -0.64095
  -0.50979   0.83885  -0.61105
  -0.51049   0.77975  -0.73425
  -0.49879   0.88185  -0.91785
  -0.46769   0.78115  -0.89325
  -0.49409   0.96095  -0.97205
  -0.49179   1.10095  -1.10815
  -0.50879   1.04575  -1.08735
  -0.52429   1.08535  -1.10065
  -0.52869   1.17275  -1.14955
  -0.55649   1.12575  -1.15185
  -0.55629   1.26255  -1.10815
  -0.52849   1.33295  -1.26665
  -0.64749   1.34925  -1.25775
  -0.64139   1.30085  -1.21215
  -0.55189   1.33335  -1.34245
  -0.58019   1.35655  -1.19445
  -0.62999   1.35655  -1.13715
  -0.65329   1.41145  -1.18995
  -0.56209   1.45215  -1.24185
  -0.57409   1.33825  -1.14835
  -0.63039   1.40325  -1.14645
  -0.57079   1.44655  -1.09345
  -0.49429   1.46315  -1.03895
  -0.64399   1.46145  -0.97795
  -0.70339   1.32515  -0.96805
  -0.56099   1.41965  -0.91575
  -0.65379   1.39835  -0.64875
  -0.64189   1.28565  -0.60595
  -0.59179   1.39365  -0.66415
  -0.69279   1.23095  -0.62625
  -0.52779   1.13515  -0.61835
  -0.61619   1.25085  -0.37515
  -0.73279   1.27795  -0.38175
  -0.64629   1.15475  -0.24425
  -0.67299   1.13745  -0.15605
  -0.65099   1.14395  -0.28515
  -0.77909   1.00585  -0.04825
  -0.64889   1.08065  -0.12945
  -0.85439   0.96865  -0.15185
  -0.88249   0.75795  -0.01085
  -0.84369   0.75985   0.12495
  -0.95309   0.64665   0.04995
  -1.04309   0.53675   0.16165
  -1.09269   0.53495   0.31805
  -0.96799   0.28285   0.30175
  -0.98159   0.37475   0.40815
  -1.02129   0.16035   0.43455
  -1.15419   0.02265   0.64495
  -1.18849   0.01935   0.74735
  -1.19389  -0.12025   0.64475
  -1.21209  -0.19555   0.82335
  -1.22549  -0.23615   0.91595
  -1.25589  -0.32295   0.94795
  -1.26899  -0.46695   1.04925
  -1.34659  -0.60675   1.16915
  -1.40289  -0.55935   1.15835
  -1.39989  -0.63625   1.30805
  -1.35569  -0.65825   1.30355
  -1.45459  -0.83915   1.21665
  -1.46539  -0.92915   1.41535
  -1.43869  -0.73255   1.30195
  -1.62929  -0.88245   1.40975
  -1.57099  -0.99375   1.32725
  -1.50229  -0.96075   1.43475
  -1.59679  -0.93505   1.34595
  -1.46979  -1.02555   1.38215
  -1.55559  -1.11435   1.38195
  -1.60379  -1.13355   1.58155
  -1.67459  -1.11785   1.53765
  -1.65219  -1.16395   1.62765
  -1.66179  -1.27715   1.57765
  -1.73839  -1.21865   1.55615
  -1.71339  -1.18035   1.59145
  -1.69099  -1.30865   1.62555
  -1.77839  -1.37605   1.64215
  -1.80059  -1.38625   1.74015
  -1.72909  -1.37955   1.68215
  -1.74099  -1.46645   1.64355
  -1.69279  -1.52985   1.82035
  -1.59789  -1.50765   1.83315
  -1.51939  -1.46325   1.93275
  -1.51189  -1.53595   1.86335
  -1.42999  -1.42345   1.94985
  -1.44169  -1.60325   1.93095
  -1.29259  -1.47205   1.94305
  -1.22499  -1.52195   1.87615
  -1.25279  -1.50135   1.86355
  -1.06829  -1.41035   1.97275
  -0.93549  -1.48725   1.95965
  -0.83409  -1.48685   1.86685
  -0.81959  -1.48915   1.92065
  -0.78639  -1.45545   1.91215
  -0.73749  -1.47095   1.80065
  -0.62149  -1.43375   1.80185
  -0.70589  -1.52495   1.77965
  -0.70269  -1.41315   1.80375
  -0.53809  -1.42085   1.80955
  -0.48409  -1.48095   1.80815
  -0.49949  -1.34355   1.71815
  -0.51379  -1.33785   1.69965
  -0.52589  -1.23155   1.58605
  -0.44339  -1.16465   1.59255
  -0.28129  -1.15455   1.55965
  -0.35969  -1.00375   1.53415
  -0.30469  -1.08025   1.43545
  -0.12489  -0.95145   1.39995
  -0.19129  -0.93455   1.43965
  -0.13709  -0.78845   1.31765
  -0.01319  -0.80455   1.40295
   0.03451  -0.83025   1.31315
   0.10721  -0.80625   1.28305
   0.16241  -0.55905   1.22555
   0.28121  -0.43865   1.14435
   0.26321  -0.48865   1.10955
   0.39111  -0.42185   1.08355
   0.50921  -0.40055   1.12915
   0.48741  -0.25095   1.03655
   0.64921  -0.20785   0.94865
   0.69831  -0.13405   1.00525
   0.66701  -0.11155   0.89915
   0.90711   0.00865   0.86845
   0.98871  -0.05945   0.74785
   0.96511   0.04465   0.77795
   1.08811   0.09115   0.63305
   1.10841   0.04505   0.58765
   1.13601   0.21155   0.59005
   1.28911   0.20035   0.54765
   1.24311   0.30185   0.52925
   1.20611   0.30995   0.37635
   1.32701   0.24875   0.29005
   1.37191   0.42595   0.17945
   1.26551   0.38625   0.10015
   1.29311   0.31565   0.15815
   1.43671   0.35975   0.04665
   1.20971   0.36325   0.06935
   1.44391   0.34575   0.07515
   1.34621   0.37195  -0.01505
   1.36771   0.34315   0.06555
   1.39441   0.55085   0.08405
   1.41731   0.41845  -0.10485
   1.38641   0.36845  -0.07685
   1.38921   0.38835  -0.06745
   1.50261   0.29315  -0.12035
   1.41611   0.37265  -0.09785
   1.40911   0.29475   0.03095
   1.35091   0.11175  -0.01065
   1.32981   0.28245  -0.05745
   1.27631   0.33685  -0.10255
   1.26511   0.35485  -0.20405
   1.22601   0.36005  -0.10465
   1.04461   0.22445  -0.10835
   1.12151   0.30115  -0.10395
   0.97651   0.36515  -0.01575
   0.86551   0.28665   0.06305
   0.74271   0.31165   0.02395
   0.63571   0.33685   0.06675
   0.44041   0.21155   0.05415
   0.23441   0.20245   0.01575
   0.13341   0.19985   0.12615
   0.05601   0.18635   0.15765
  -0.01689   0.21415   0.04755
  -0.17309   0.09835   0.18595
  -0.29049   0.19725   0.19445
  -0.42299   0.24455   0.24515
  -0.63089   0.23825   0.22155
  -0.64819   0.16225   0.13085
  -0.84109   0.16685   0.29445
  -0.88689   0.19845   0.36785
  -1.10109   0.14955   0.39455
  -1.12589   0.17905   0.43615
  -1.26099   0.18395   0.31385
  -1.40039   0.16105   0.36905
  -1.35199   0.08555   0.42235
  -1.52399   0.24965   0.56195
  -1.54339   0.15025   0.63865
  -1.59699   0.13675   0.63165
  -1.66289   0.20925   0.68615
  -1.73309   0.18885   0.57015
  -1.76769   0.24425   0.79085
  -1.72599   0.15915   0.64475
  -1.76299   0.23145   0.83925
  -1.72889   0.20715   0.84935
  -1.58019   0.27185   0.81895
  -1.72579   0.26955   0.87035
  -1.67229   0.22045   0.80135
  -1.59649   0.33545   0.81305
  -1.55959   0.33365   0.77795
  -1.45089   0.36355   0.68865
  -1.38979   0.37985   0.75835
  -1.28999   0.36165   0.74855
  -1.32599   0.27465   0.71725
  -1.18519   0.28735   0.63325
  -1.24599   0.22745   0.66385
  -1.14989   0.28475   0.58905
  -1.10219   0.27515   0.52365
  -1.03259   0.18205   0.61595
  -1.00379   0.20315   0.42445
  -1.01689   0.23495   0.47775
  -1.09099   0.26485   0.48015
  -1.02349   0.18445   0.39055
  -0.98789   0.18635   0.41955
  -0.82569   0.27235   0.54555
  -0.71249   0.29295   0.39925
  -0.84079   0.27165   0.33655
  -0.68749   0.21835   0.22365
  -0.60729   0.10005   0.13105
  -0.62199   0.14445   0.14625
  -0.48919   0.09325   0.07605
  -0.41529   0.10565  -0.01645
  -0.19109   0.02845  -0.21405
  -0.20179   0.00765  -0.29775
  -0.10549  -0.13895  -0.27745
  -0.07189  -0.12275  -0.50305
   0.18021  -0.10225  -0.53345
   0.10981  -0.17325  -0.69215
   0.20121  -0.34115  -0.60755
   0.43061  -0.22965  -0.62795
   0.49051  -0.31825  -0.82715
   0.60901  -0.28365  -0.72705
   0.58771  -0.46695  -0.93185
   0.70561  -0.49545  -0.94685
   0.88401  -0.45195  -0.99105
   0.92601  -0.46365  -0.95945
   1.05351  -0.60955  -1.09135
   1.08411  -0.70565  -1.13405
   1.28521  -0.65615  -1.14415
   1.37171  -0.80295  -1.22765
   1.32981  -0.70895  -1.15955
   1.46611  -0.79705  -1.15845
   1.47431  -0.79245  -1.26525
   1.53251  -0.92335  -1.23485
   1.60391  -0.99705  -1.31955
   1.64921  -0.96265  -1.32905
   1.63141  -0.99375  -1.46235
   1.62091  -1.06385  -1.31815
   1.58771  -1.01595  -1.41165
   1.55361  -1.06455  -1.41465
   1.54141  -1.04755  -1.49435
   1.44211  -1.05545  -1.41725
   1.37941  -0.94625  -1.36155
   1.43011  -1.20785  -1.33285
   1.19891  -1.00725  -1.24865
   1.20471  -1.06945  -1.37845
   1.12781  -1.03835  -1.22905
   0.99761  -0.96875  -1.31625
   0.87181  -0.97035  -1.31885
   0.78651  -0.96825  -1.22855
   0.62351  -0.94935  -1.27535
   0.56501  -0.89035  -1.41745
   0.52301  -0.90185  -1.37845
   0.40421  -0.82285  -1.34825
   0.28521  -0.79735  -1.48385
   0.20471  -0.69425  -1.48905
   0.21201  -0.53735  -1.55705
   0.15521  -0.63695  -1.61155
   0.09271  -0.52585  -1.62905
   0.03921  -0.48585  -1.64915
  -0.04569  -0.47135  -1.68935
  -0.15629  -0.30305  -1.86075
  -0.27409  -0.26825  -1.68865
  -0.32299  -0.23125  -1.83945
  -0.31199  -0.11155  -1.88835
  -0.46419  -0.16095  -1.93345
  -0.44129  -0.12065  -2.01045
  -0.64799   0.02405  -2.05175
  -0.70079   0.21765  -2.19905
  -0.83449   0.03925  -2.09505
  -0.89599   0.17115  -2.15705
  -0.99699   0.28335  -2.35155
  -1.12329   0.25735  -2.28565
  -1.27179   0.28265  -2.22435
  -1.40759   0.35185  -2.27255
  -1.52519   0.45775  -2.23585
  -1.65079   0.52395  -2.19765
  -1.64679   0.42295  -2.19325
  -1.73049   0.38345  -2.25965
  -1.94189   0.49255  -2.09665
  -2.01709   0.45265  -2.04315
  -2.01389   0.47085  -2.10905
  -2.16719   0.52675  -1.89445
  -2.24739   0.53255  -1.84415
  -2.32179   0.50355  -1.83385
  -2.42679   0.37825  -1.73755
  -2.47729   0.48065  -1.50675
  -2.48499   0.47455  -1.54345
  -2.60139   0.56695  -1.38545
  -2.52119   0.46225  -1.23935
  -2.55539   0.50965  -1.26435
  -2.57289   0.50245  -1.08405
  -2.55139   0.53865  -0.78195
  -2.60749   0.58305  -0.88395
  -2.57269   0.51035  -0.65965
  -2.57289   0.42085  -0.57625
  -2.45549   0.46405  -0.50075
  -2.48779   0.40655  -0.45345
  -2.48659   0.43555  -0.23115
  -2.41299   0.43485  -0.13195
  -2.33209   0.49895  -0.04035
  -2.31449   0.54095   0.03635
  -2.22709   0.42805   0.29895
  -2.17169   0.46455   0.46165
  -2.12819   0.34315   0.44455
  -1.97689   0.29785   0.69285
  -2.04589   0.21505   0.75465
  -2.00619   0.26885   0.82355
  -1.84899   0.29225   0.96645
  -1.79549   0.18955   1.15115
  -1.86349   0.28355   1.22625
  -1.69609   0.22375   1.29825
  -1.77889   0.18815   1.46425
  -1.59019   0.10355   1.54535
  -1.59839   0.12905   1.68445
  -1.43519   0.07435   1.77055
  -1.44479   0.14795   1.94305
  -1.35359   0.12435   2.07045
  -1.26709   0.12925   1.99335
  -1.30659   0.14935   2.16655
  -1.14989   0.05395   2.34245
  -1.12139   0.12595   2.37865
  -0.93599   0.18815   2.34335
  -0.98859   0.22655   2.34915
  -0.86309   0.22065   2.46325
  -0.84949   0.19005   2.62225
  -0.80619   0.34135   2.61475
  -0.80909   0.41425   2.74455
  -0.64439   0.35445   2.69525
  -0.63229   0.37405   2.85985
  -0.56849   0.41335   2.85635
  -0.54579   0.38945   2.85885
  -0.51119   0.40095   2.93205
  -0.36929   0.54845   3.01995
  -0.38839   0.49865   2.86145
  -0.33369   0.56715   2.98845
  -0.24179   0.60645   2.79785
  -0.16419   0.68755   2.84865
  -0.12309   0.75145   2.83595
  -0.15599   0.77765   2.78365
  -0.11069   0.93755   2.82335
  -0.09429   0.92045   2.76205
   0.01701   0.82905   2.71065
   0.00671   0.83725   2.66575
   0.05021   0.89195   2.77405
   0.12851   1.00835   2.67255
   0.04601   1.02425   2.64165
   0.10931   1.00465   2.60845
   0.22631   0.93095   2.64195
   0.19211   1.04855   2.52225
   0.20661   1.00765   2.48525
   0.19451   1.01745   2.55935
   0.22511   1.02195   2.45415
   0.27021   1.00345   2.36365
   0.21761   0.95815   2.18855
   0.37641   0.99295   2.19955
   0.26791   0.94335   2.14925
   0.30201   0.87765   2.16195
   0.44511   1.00445   1.98815
   0.38901   0.93095   1.98635
   0.50141   0.81085   1.77545
   0.51011   0.82955   1.68145
   0.61481   0.85175   1.67095
   0.50451   0.77385   1.53015
   0.59031   0.79705   1.46585
   0.55571   0.69205   1.36485
   0.57771   0.66165   1.20795
   0.68711   0.75005   1.11395
   0.56881   0.65415   1.04545
   0.60201   0.76335   0.97765
   0.67631   0.63125   0.83155
   0.60341   0.53355   0.81185
   0.60621   0.55525   0.68755
   0.69271   0.47175   0.66245
   0.66041   0.47975   0.58725
   0.68851   0.41945   0.59585
   0.77551   0.43535   0.56245
   0.89561   0.41615   0.51825
   0.75401   0.45655   0.47355
   0.74791   0.33435   0.34735
   0.72431   0.34505   0.37865
   0.64571   0.26365   0.36485
   0.72451   0.30715   0.43075
   0.61791   0.21345   0.23135
   0.68031   0.23145   0.23815
   0.57021   0.20315   0.27555
   0.55661   0.14075   0.25565
   0.54821   0.13345   0.24605
   0.52721   0.12455   0.31805
   0.51521   0.12065   0.19275
   0.41771   0.18935   0.17125
   0.37001   0.11665   0.28955
   0.28891   0.12225   0.22905
   0.17881   0.04925   0.15625
   0.22651   0.10335   0.28745
   0.18321   0.09885   0.06955
   0.13761   0.17255   0.24185
  -0.00919   0.04975   0.14295
  -0.03909   0.11925   0.27855
  -0.12819   0.04185   0.31485
  -0.21659  -0.01805   0.23785
  -0.18219   0.05885   0.25635
  -0.22239  -0.02135   0.31455
  -0.27079   0.00515   0.20895
  -0.34749  -0.10715   0.34055
  -0.33439  -0.05705   0.40695
  -0.55119  -0.10435   0.30005
  -0.49549  -0.07255   0.28165
  -0.51279   0.01965   0.31785
  -0.59389  -0.08585   0.33605
  -0.66949  -0.21565   0.31085
  -0.69749  -0.23245   0.45085
  -0.67299  -0.30255   0.41555
  -0.85249  -0.27855   0.42655
  -0.66989  -0.34395   0.44105
  -0.74919  -0.49855   0.43175
  -0.76229  -0.44755   0.47195
  -0.85649  -0.63625   0.58485
  -0.73839  -0.51045   0.55045
  -0.72599  -0.54485   0.51685
  -0.69659  -0.64625   0.50275
  -0.73379  -0.51935   0.61785
  -0.71949  -0.70525   0.59215
  -0.78189  -0.70245   0.53925
  -0.74779  -0.67805   0.58535
  -0.66739  -0.75925   0.60195
  -0.64589  -0.69915   0.44575
  -0.62129  -0.86555   0.61385
  -0.66459  -0.84615   0.51545
  -0.63629  -0.82165   0.51145
  -0.66529  -0.81085   0.58415
  -0.57639  -0.87635   0.52175
  -0.55579  -0.90025   0.54065
  -0.58899  -0.79105   0.56195
  -0.48759  -0.90585   0.53435
  -0.46649  -0.95675   0.47245
  -0.56449  -1.01735   0.56945
  -0.57689  -0.97785   0.61365
  -0.43819  -0.88455   0.61715
  -0.32809  -0.99065   0.62295
  -0.30589  -0.87635   0.63465
  -0.30539  -0.93455   0.67025
  -0.22429  -0.84295   0.68215
  -0.14339  -0.86275   0.69665
  -0.14809  -0.87775   0.61245
   0.06451  -0.90835   0.54235
   0.06211  -0.84265   0.59185
   0.08671  -0.74755   0.60245
   0.19311  -0.72085   0.57275
   0.16731  -0.73535   0.58135
   0.32801  -0.61125   0.51545
   0.37381  -0.73705   0.59535
   0.46331  -0.57335   0.52595
   0.48371  -0.54575   0.54835
   0.67191  -0.43445   0.48665
   0.65971  -0.37625   0.41395
   0.69711  -0.36125   0.39455
   0.85961  -0.20345   0.33325
   0.89401  -0.35915   0.26805
   0.99621  -0.14785   0.18805
   1.09881  -0.05545   0.24045
   1.10211  -0.01055   0.04455
   1.16661   0.05135  -0.02635
   1.31491   0.18325  -0.10675
   1.30651   0.25715  -0.13195
   1.40371   0.35165  -0.04295
   1.42711   0.39795  -0.24395
   1.36121   0.44325  -0.18275
   1.47271   0.50755  -0.18785
   1.32311   0.58125  -0.41235
   1.41561   0.61135  -0.59755
   1.37291   0.68965  -0.52715
   1.42731   0.65205  -0.42865
   1.34431   0.70345  -0.55795
   1.26161   0.82815  -0.61995
   1.24151   0.87155  -0.71135
   1.15841   0.95065  -0.61505
