********************************************************************************
              CENTRO DE INSTRUMENTACION Y REGISTRO SISMICO  A.C.

    Anaxagoras 814, Col. Narvarte, Benito Juarez, C.P. 03020 Mexico, D.F.
           Tels. 5687 45 42/ 5687 45  82             Fax. 5669 25 12
********************************************************************************
ARCHIVO ESTANDAR DE ACELERACION:
VERSION DEL FORMATO                    : 2.0
NOMBRE DEL ARCHIVO                     : CU8020200623152903
FECHA Y HORA DE CREACION               : 18/AGO/21, 13:42
REF. CATALOGO ACELEROGRAMAS, SMIS 1996 : REGISTRO No.     /PAG.


================================================================================
DATOS DE LA ESTACION:
NOMBRE DE LA ESTACION                  : ESC. PRIM. "AURORA LÓPEZ VELARDE"
CLAVE DE LA ESTACION                   : CU80
LOCALIZACION DE LA ESTACION            : Del. Tlalpan, Col. Unidad Habitacional 
                                       : Hueso, calle Hacienda Torrecillas      
                                       : y esq. con Anillo Periférico Sur.      
                                       :                                        
                                       : 
COORDENADAS DE LA ESTACION             : 19.2938 LAT. N
                                       : 99.1037 LONG. W
ALTITUD (msnm)                         : 2232
TIPO DE SUELO                          : Arcilloso, zona lago                
                                       :                           
                                       : 
INSTITUCION RESPONSABLE                : CIRES
                                       : 

================================================================================
DATOS DEL ACELEROGRAFO:
MODELO DEL ACELEROGRAFO                : RADESD
NUMERO DE SERIE DEL ACELEROGRAFO       : 225
NUMERO DE CANALES                      : 3
ORIENTACION C1-C6 (rumbo;orientacion)  : /N00E/+V/N90W
ORIENTACION C7-C12 (rumbo;orientacion) : 
VEL. DE MUESTREO, C1-C6 (muestras/s)   : /100/100/100
VEL. DE MUESTREO, C7-C12 (muestras/s)  : 
ESC. COMPLETA DE SENSORES, C1-C6, (g)  : /0.5/0.5/0.5
ESC. COMPLETA DE SENSORES, C7-C12, (g) : 
FREC. NAT. DE SENSORES, C1-C6, (Hz)    : /33/30/30
FREC. NAT. DE SENSORES, C7-C12, (Hz)   : 
AMORTIGUAMIENTO DE SENSORES, C1-C6     : /0.790/0.733/0.733
AMORTIGUAMIENTO DE SENSORES, C7-C12    : 
INTERVALO DE MUESTREO, C1-C6, (s)      : /0.01/0.01/0.01
INTERVALO DE MUESTREO, C7-C12, (s)     : 
UMBRAL DE DISPARO, C1-C6, (Gal)        : /5.39/13.47/7.48
UMBRAL DE DISPARO, C7-C12, (Gal)       :
MEMORIA DE PREEVENTO (s)               : 44.0
TIEMPO DE POSEVENTO (s)                : 64.0


================================================================================
DATOS DEL SISMO:
FECHA DEL SISMO (GMT)                  : 23/JUN/20
HORA EPICENTRO (GMT)                   : 15:29:03.0
MAGNITUD(ES)                           : /Mc=7.4
COORDENADAS DEL EPICENTRO              : 15.80 LAT. N
                                       : 96.13 LONG. W
PROFUNDIDAD FOCAL (km)                 : 22
FUENTE DE LOS DATOS EPICENTRALES       : SSN
                                       : INSTITUTO DE GEOFISICA, UNAM

================================================================================
DATOS DE ESTE REGISTRO:
HORA DE LA PRIMERA MUESTRA (GMT)       : 15:30:43.00
EXACTITUD DEL TIEMPO (s)               : 0.01
DURACION DEL REGISTRO (s), C1-C6       : /273.2/273.2/273.2
DURACION DEL REGISTRO (s), C7-C12      : 
NUM. TOTAL DE MUESTRAS, C1-C6          : /27320/27320/27320
NUM. TOTAL DE MUESTRAS, C7-C12         : 
ACEL. MAX. (Gal), C1-C6                : /48.81938/10.60974/49.94904
ACEL. MAX., C1-C6, EN LA MUESTRA       : /6819/7526/7720
ACEL. MAX. (Gal), C7-C12               : 
ACEL. MAX., C7-C12, EN LA MUESTRA      : 
UNIDADES DE LOS DATOS                  : Gal (cm/s/s)
FACTOR DE DECIMACION                   : 1
FORMATO DATOS (FORTRAN,10 campos/dato) : 3F10.5


================================================================================
CALIDAD DEL ACELEROGRAMA:
REGISTRO DIGITAL COMPLETO CON TIEMPO ABSOLUTO CORRECTO.


================================================================================
COMENTARIOS:














================================================================================
DATOS DE ACELERACION:
---------+---------+---------+---------+---------+---------+---------+---------+
   CANAL-1   CANAL-2   CANAL-3   CANAL-4   CANAL-5   CANAL-6   CANAL-7   CANAL-8
      N00E        +V      N90W
---------+---------+---------+---------+---------+---------+---------+---------+
[...]
  15.37537   1.69048  30.01730
  16.21335   1.84011  30.07715
  16.81190   1.97479  30.19686
  17.39548   2.09450  30.25672
  17.93418   2.01968  30.30161
  18.41302   2.10946  30.33154
  19.13128   2.07953  30.37643
  19.74479   1.94486  30.25672
  20.17874   1.89997  29.92751
  20.77729   1.79522  29.35889
  21.07657   1.89997  28.68552
  21.42073   1.89997  28.05704
  21.42073   1.95982  27.48842
  21.51052   1.92990  26.78512
  21.51052   1.87004  26.06686
  21.40577   1.72040  25.21393
  21.15139   1.57077  24.42085
  21.00175   1.30142  23.44821
  20.73240   1.25653  22.40074
  20.43313   1.01711  21.45803
  20.01414   0.91236  20.50034
  19.59516   0.71783  19.51274
  19.22106   0.55323  18.34556
  18.83200   0.47841  17.32803
  18.27834   0.37367  16.53495
  17.78454   0.28388  15.80172
  17.14110   0.19410  14.99368
  16.66226   0.25396  14.24549
  16.03378   0.34374  13.46738
  15.73451   0.43352  12.56955
  15.27063   0.68790  11.73158
  14.89653   0.73280  11.04325
  14.52244   0.94229  10.44470
  14.01367   0.89740   9.78629
  13.63958   0.97222   9.11292
  13.13081   1.12185   8.63408
  12.60708   1.15178   8.14028
  12.11328   1.18171   7.66144
  11.52969   0.89740   7.25742
  11.02092   0.91236   6.86836
  10.58697   0.88243   6.40448
  10.21288   0.77769   5.79097
  10.03331   0.67294   5.32709
   9.74900   0.56819   4.59387
   9.47965   0.55323   4.02524
   9.30009   0.35870   3.44166
   8.98585   0.31381   2.91793
   8.70154   0.26892   2.10988
   8.38730   0.31381   1.72083
   8.14788   0.01453   1.15220
   8.05810   0.28388   0.70329
   7.98328   0.01453   0.16459
   7.89349   0.17914  -0.34417
   7.66904   0.32877  -0.77812
   7.65407   0.37367  -1.42156
   7.71393   0.49338  -1.88544
   7.68400   0.52330  -2.45406
   7.69897   0.67294  -3.09751
   7.80371   0.67294  -3.75591
   7.92342   0.83754  -4.38439
   7.89349   0.95725  -5.01287
   7.98328   0.98718  -5.70120
   8.05810   0.94229  -6.38953
   8.17781   1.18171  -7.01801
   8.29752   1.30142  -7.78116
   8.31248   1.30142  -8.57424
   8.41723   1.30142  -9.50199
   8.44715   1.40616 -10.57939
   8.71650   1.57077 -11.55203
   9.06067   1.67551 -12.71920
   9.35994   1.94486 -13.88638
   9.64425   2.03464 -14.99370
   9.85375   2.12443 -16.20576
  10.03331   2.24414 -17.56746
  10.16799   2.33392 -18.80945
  10.30266   2.46859 -20.08137
  10.33259   2.49852 -21.21862
  10.37748   2.72298 -22.68507
  10.33259   2.64816 -23.80735
  10.45230   2.70801 -25.00445
  10.19791   2.70801 -26.14170
   9.97346   2.70801 -27.33880
   9.82382   2.76787 -28.53590
   9.61433   2.87261 -29.52351
   9.58440   2.91750 -30.43630
   9.49462   3.15692 -31.18448
   9.33002   3.32153 -32.05238
   8.85118   3.12700 -32.92028
   8.58183   3.23174 -34.13234
   8.46212   2.96240 -35.20974
   8.56686   2.99232 -36.27216
   8.91103   3.24671 -37.37948
   9.09060   3.26167 -38.27731
   9.09060   3.45620 -38.96564
   8.92599   3.35145 -39.54923
   8.77636   3.48613 -39.96821
   8.52197   3.48613 -40.37223
   8.43219   3.50109 -40.64158
   8.32744   3.42627 -41.19524
   8.29752   3.09707 -41.55437
   8.22270   2.78283 -41.88357
   8.20773   2.43866 -42.09307
   7.98328   2.18428 -42.21278
   7.63911   1.95982 -42.10803
   7.29494   1.70544 -42.07810
   6.92085   1.36127 -41.97335
   6.56172   0.94229 -41.88357
   6.17266   0.53827 -41.67408
   5.75368   0.23899 -41.28502
   5.39455  -0.12014 -40.86604
   4.93067  -0.53912 -40.37223
   4.45183  -0.98804 -39.87843
   4.03284  -1.43695 -39.26491
   3.62882  -1.99061 -38.74118
   3.19487  -2.40959 -38.00796
   2.65618  -3.08296 -37.25977
   2.05763  -3.32238 -36.36194
   1.53390  -3.74137 -35.64368
   0.96527  -4.14539 -34.76082
   0.48643  -4.75890 -33.92285
  -0.02233  -5.08811 -33.12977
  -0.48621  -5.65673 -32.24691
  -1.08476  -5.97097 -31.31916
  -1.69828  -6.65930 -30.45126
  -2.17712  -7.10822 -29.71804
  -2.73078  -7.42245 -28.99977
  -3.25451  -7.88633 -28.41619
  -3.67349  -8.08086 -27.66800
  -4.09248  -8.45495 -27.12930
  -4.70599  -8.76919 -26.54572
  -5.27461  -9.12832 -25.69278
  -5.88813  -9.36774 -24.97452
  -6.50164  -9.62213 -24.01684
  -7.02537  -9.90644 -23.16391
  -7.53414  -9.99622 -22.43068
  -7.89327 -10.34039 -21.60768
  -8.44693 -10.37031 -20.69489
  -8.91081 -10.54988 -19.67735
  -9.61410 -10.59477 -18.74960
 -10.07798 -10.60973 -17.79192
 -10.64660 -10.50499 -16.75942
 -11.15537 -10.53492 -15.51743
 -11.72400 -10.17579 -14.39514
 -12.20284 -10.14586 -13.06337
 -12.83131  -9.60716 -11.82138
 -13.44483  -9.41263 -10.57939
 -14.16309  -9.08343  -9.18776
 -14.70178  -8.73926  -7.94576
 -15.46494  -8.41006  -6.85341
 -16.13830  -8.12575  -5.64134
 -16.85656  -7.81151  -4.41432
 -17.45512  -7.45238  -3.24714
 -18.12848  -6.86879  -2.15479
 -18.83178  -6.38995  -0.92776
 -19.57997  -5.89615   0.20949
 -20.28327  -5.20782   1.40659
 -20.92671  -4.74394   2.46901
 -21.60008  -4.33992   3.30698
 -22.19863  -3.80122   4.23474
 -22.91689  -3.39720   5.14753
 -23.56033  -3.03807   6.03039
 -24.26363  -2.66398   6.94318
 -24.98189  -2.39463   7.82604
 -25.41584  -2.00557   8.88847
 -26.10417  -1.58659   9.95089
 -26.23884  -1.52673  10.93850
 -26.35855  -1.18257  11.70165
 -26.43337  -0.92818  12.34510
 -26.41841  -0.92818  12.62941
 -26.47826  -0.89825  13.34767
 -26.79250  -0.82344  14.03600
 -26.88228  -0.62891  14.99368
 -27.09178  -0.44934  16.01122
 -27.22645  -0.46431  17.28314
 -27.45091  -0.15007  18.65980
 -27.57062   0.02950  20.09632
 -27.78011   0.32877  21.35328
 -27.81004   0.37367  22.16132
 -27.42098   0.43352  22.95440
 -26.67279   0.47841  24.09165
 -25.52058   0.56819  25.72270
 -24.45816   0.64301  27.71288
 -23.81471   0.98718  29.35889
 -23.51544   1.30142  30.78045
 -23.68004   1.55580  31.66331
 -23.90450   1.95982  32.44143
 -23.88953   2.33392  33.14472
 -23.66508   2.60327  34.40168
 -23.26105   2.64816  35.77834
 -22.49790   2.60327  36.91559
 -21.73475   2.48356  37.66378
 -20.95664   2.33392  38.20247
 -20.20845   2.34888  38.72620
 -19.56501   2.30399  39.23497
 -19.04127   2.31895  39.56418
 -18.57740   2.45363  39.98316
 -18.23323   2.28903  40.10287
 -18.05367   2.16932  40.26747
 -17.78432   2.01968  40.19265
 -17.33541   1.89997  40.59667
 -16.51240   1.58573  40.91091
 -15.49486   1.30142  40.88099
 -14.31273   1.07696  40.73135
 -13.31015   0.83754  40.58171
 -12.48715   0.58316  40.10287
 -12.23276   0.64301  38.80102
 -11.91852   1.15178  38.11269
 -10.27251   0.41856  39.75870
  -8.94074  -0.32963  41.35983
  -8.52175  -0.09021  40.38718
  -7.98305  -0.34460  38.12765
  -7.13012  -0.53912  36.82581
  -6.62135  -0.29970  37.00537
  -6.24726  -0.29970  37.82838
  -5.37936  -0.38949  37.75356
  -4.12240  -0.56905  37.22983
  -3.04501  -0.35956  36.40682
  -2.43150   0.04446  35.25461
  -1.74317   0.47841  34.64110
  -0.96505   0.47841  34.08744
  -0.18694   0.56819  33.21954
   0.47147   0.52330  32.21697
   1.24959   0.44848  31.78302
   1.84814   0.32877  31.24432
   2.43172   0.20906  30.49614
   3.00035   0.22403  29.73298
   3.55400   0.20906  29.11947
   4.00292   0.35870  28.29646
   4.55658   0.52330  27.81762
   5.20002   0.53827  27.20411
   5.87339   0.55323  26.60556
   6.56172   0.53827  26.02197
   7.29494   0.53827  25.45335
   7.84860   0.64301  24.95955
   8.32744   0.74776  24.48070
   8.83621   0.82258  23.92705
   9.37491   1.16674  23.41828
   9.97346   1.28645  22.90951
  10.52712   1.78026  22.50549
  11.03588   1.98975  21.99672
  11.48480   2.36385  21.48795
  12.12824   2.64816  21.06897
  12.53226   2.85765  20.75473
  13.20563   2.97736  20.32078
  13.75929   3.27663  19.78208
  14.32791   3.63576  19.18353
  14.70201   3.89015  18.80944
  15.06114   3.97993  18.46527
  15.56990   4.09964  18.27074
  16.12356   4.27921  17.98643
  16.66226   4.47374  17.56745
  17.14110   4.65330  17.23824
  17.70972   4.53359  16.90904
  18.24842   4.63834  16.65466
  18.78711   4.56352  16.47509
  19.11632   4.71316  16.16085
  19.55026   4.66826  15.81669
  19.96925   4.69819  15.72691
  20.28349   4.68323  15.51741
  20.79226   4.77301  15.23310
  21.07657   4.77301  15.03857
  21.49555   4.86279  14.61959
  21.88461   4.86279  14.29038
  22.21381   4.90768  14.00607
  22.37841   5.01243  13.76665
  22.55798   5.05732  13.37759
  22.61783   4.99747  12.94365
  22.82733   4.98250  12.47977
  22.93207   4.96754  12.01589
  22.84229   5.05732  11.61187
  22.82733   5.13214  10.99836
  22.75251   5.13214  10.56441
  22.54302   5.14710  10.10053
  22.25870   5.19200   9.35234
  21.94447   5.19200   8.73883
  21.60030   5.07229   8.06546
  21.21124   5.16207   7.46691
  20.74736   5.26681   6.64390
  20.29845   5.08725   6.07528
  19.72983   4.92265   5.53658
  19.10135   4.86279   4.83329
  18.45791   4.80294   3.90553
  17.99403   4.54855   2.99274
  17.53016   4.53359   2.03506
  17.36556   4.32410   1.06242
  17.23088   4.35403   0.35912
  16.90168   4.27921  -0.50877
  16.54255   4.41388  -1.48142
  15.94400   4.11461  -2.82816
  15.27063   4.00986  -4.14497
  14.74690   3.92008  -5.31214
  14.04360   3.71058  -6.34464
  13.37023   3.51605  -7.39210
  12.81657   3.17189  -8.54431
  12.27788   3.00729  -9.69652
  11.76911   2.75290 -11.05823
  11.26034   2.51348 -12.52467
  10.64683   2.31895 -14.09587
  10.03331   1.95982 -15.59225
   9.61433   1.87004 -16.99884
   9.31505   1.63062 -18.57003
   8.76139   1.52587 -20.00655
   8.26759   1.36127 -21.48797
   7.90846   1.27149 -23.47815
   7.42962   1.00214 -25.15409
   6.98071   0.82258 -26.93478
   6.78618   0.64301 -28.79028
   6.71136   0.50834 -30.54104
   6.83107   0.43352 -32.15713
   6.56172   0.41856 -33.72832
   6.39712   0.40359 -35.20974
   6.06792   0.44848 -36.55647
   5.87339   0.28388 -37.78350
   5.81353   0.08935 -39.22002
   5.63397   0.04446 -40.61165
   5.51426  -0.35956 -41.88357
   5.36462  -0.62891 -43.02082
   5.15513  -0.95811 -44.09821
   4.96060  -1.22746 -45.05589
   4.69125  -1.49680 -45.84897
   4.34708  -1.90083 -46.61212
   4.10766  -2.03550 -47.28549
   3.65875  -2.06543 -47.82419
   3.32955  -2.18514 -48.21324
   2.92553  -2.21507 -48.60230
   2.61129  -2.42456 -49.06618
   2.04266  -2.49938 -49.48516
   1.60872  -2.75376 -49.76947
   1.20469  -2.82858 -49.87422
   0.65103  -3.00814 -49.78444
   0.20212  -3.15778 -49.82933
  -0.32161  -3.12785 -49.87422
  -0.89023  -3.14282 -49.88918
  -1.20447  -3.23260 -49.94904
  -1.53367  -3.39720 -49.87422
  -1.71324  -3.75633 -49.55998
  -1.89280  -4.23517 -48.99136
  -2.10230  -4.47459 -48.19828
  -2.34172  -4.72898 -47.27053
  -2.73078  -5.07314 -46.31285
  -2.94027  -5.29760 -45.47487
  -3.37422  -5.28264 -44.68180
  -3.55378  -5.19285 -44.21792
  -3.65853  -5.35746 -43.49966
  -3.76327  -5.56695 -42.64672
  -3.79320  -5.68666 -41.67408
  -4.04759  -5.62680 -40.62662
  -4.37679  -5.71659 -39.86346
  -4.73592  -5.82133 -38.62147
  -5.22972  -5.92608 -37.76854
  -5.45418  -5.79140 -36.82582
  -5.90309  -5.59688 -35.91303
  -6.29215  -5.62680 -35.06010
  -6.60639  -5.44724 -34.26702
  -6.74106  -5.29760 -33.54876
  -6.93559  -5.23774 -32.83050
  -7.18998  -5.01329 -32.08231
  -7.24983  -4.80380 -31.31916
  -7.62392  -4.75890 -30.33155
  -8.07284  -4.69905 -29.17934
  -8.53671  -4.60927 -28.11691
  -8.80606  -4.33992 -27.00959
  -9.01555  -4.16035 -25.97710
  -9.24001  -4.04064 -25.24387
  -9.38965  -3.96583 -24.24130
  -9.61410  -3.89101 -23.31355
  -9.97324  -3.90597 -22.20623
 -10.12287  -3.93590 -21.02409
 -10.27251  -3.92093 -19.78210
 -10.49697  -3.90597 -18.58500
 -10.51193  -3.54684 -17.37293
 -10.63164  -3.48699 -16.22072
 -10.91595  -3.41217 -14.87398
 -10.96084  -3.26253 -13.52725
 -10.90099  -3.18771 -11.91116
 -10.93092  -3.15778 -10.25018
 -11.12544  -3.06800  -8.51439
 -11.29005  -2.88843  -6.95816
 -11.51450  -2.78369  -5.22236
 -11.76889  -2.66398  -3.81577
 -11.88860  -2.72383  -2.43910
 -12.00831  -2.58916  -0.91280
 -12.11305  -2.36470   0.73322
 -11.96342  -2.27492   2.33434
 -11.66414  -2.23003   3.56137
 -11.40976  -2.25996   4.48912
 -10.99077  -2.23003   5.47673
 -10.69150  -2.11032   6.50923
 -10.31740  -2.21507   7.57166
 -10.07798  -1.79608   8.69394
  -9.73381  -1.72126   9.65162
  -9.35972  -1.46688  10.45966
  -9.19512  -1.33220  11.41734
  -8.91081  -1.13767  12.40495
  -8.56664  -0.95811  13.51227
  -8.26737  -0.73365  14.66448
  -7.98305  -0.40445  15.71194
  -7.59400  -0.09021  17.08861
  -7.44436  -0.07525  18.10614
  -7.18998   0.11928  19.06382
  -6.68121   0.23899  19.78208
  -5.88813   0.35870  20.67991
  -5.33447   0.26892  21.93687
  -4.63117   0.28388  23.23871
  -4.25708   0.50834  24.46574
  -4.22715   0.59812  25.79752
  -4.31693   0.70287  27.02454
  -4.34686   0.61309  28.26654
  -4.27204   0.64301  29.59831
  -4.19722   0.49338  30.73556
  -4.07751   0.47841  31.82791
  -3.92788   0.44848  32.63595
  -3.80817   0.34374  33.39911
  -3.65853   0.29885  34.17722
  -3.52385   0.26892  34.83563
  -3.47896   0.25396  35.56885
  -3.64356   0.17914  36.36193
  -3.82313   0.16417  36.96048
  -4.01766   0.07439  37.79845
  -4.15233  -4.3E-40  38.47182
  -4.39175   0.10432  38.92073
  -4.48154   0.20906  39.13023
  -4.58628   0.25396  39.33972
  -4.61621   0.35870  39.30979
  -4.73592   0.53827  39.66892
  -4.66110   0.49338  40.13280
  -4.55635   0.52330  40.65653
  -4.57132   0.49338  41.01566
  -4.51146   0.55323  41.13537
  -4.70599   0.53827  40.95581
  -4.82570   0.62805  40.77624
  -5.08009   0.59812  40.43207
  -5.45418   0.68790  39.99812
  -5.42425   0.59812  39.54921
  -5.36440   0.56819  39.22001
  -5.34943   0.76272  38.44189
  -5.28958   0.79265  37.55903
  -5.30454   0.94229  36.58639
  -5.25965   1.12185  35.68856
  -5.19980   1.24156  34.59621
  -5.15490   1.31638  33.66845
  -5.08009   1.22660  32.51624
  -4.99030   1.25653  31.27425
  -4.85563   1.39120  30.21183
  -4.67606   1.63062  29.11947
  -4.40672   1.60069  28.37128
  -3.89795   1.25653  27.87748
  -3.61364   1.22660  27.12929
  -3.49393   1.30142  25.69277
  -3.31436   1.30142  24.21136
  -3.20962   1.45106  22.81973
  -2.59610   1.67551  21.57774
  -2.19208   1.98975  20.60509
  -1.63842   1.81019  19.79705
  -1.18951   1.48098  19.07879
  -0.53110   1.42113  18.27074
   0.15723   1.48098  17.61234
   0.87549   1.54084  16.83422
   1.71346   1.67551  15.84662
   2.52150   1.52587  14.93383
   3.38940   1.36127  14.24549
   4.13759   1.12185  13.52723
   4.82592   1.07696  12.68926
   5.51426   0.88243  12.00093
   6.30734   0.82258  11.25274
   6.90589   0.83754  10.35492
   7.68400   0.85251   9.59176
   8.19277   0.88243   8.75379
   8.70154   1.09193   7.99064
   9.37491   1.07696   7.31727
  10.00338   1.21164   6.77858
  10.58697   1.18171   6.15010
  11.12567   1.37624   5.55155
  11.63443   1.46602   4.86322
  12.24795   1.64558   4.24970
  12.72679   1.97479   3.84568
  13.16074   2.12443   3.42669
