********************************************************************************
              CENTRO DE INSTRUMENTACION Y REGISTRO SISMICO  A.C.

    Anaxagoras 814, Col. Narvarte, Benito Juarez, C.P. 03020 Mexico, D.F.
           Tels. 5687 45 42/ 5687 45  82             Fax. 5669 25 12
********************************************************************************
ARCHIVO ESTANDAR DE ACELERACION:
VERSION DEL FORMATO                    : 2.0
NOMBRE DEL ARCHIVO                     : DM1220200623152903
FECHA Y HORA DE CREACION               : 18/AGO/21, 13:42
REF. CATALOGO ACELEROGRAMAS, SMIS 1996 : REGISTRO No.     /PAG.


================================================================================
DATOS DE LA ESTACION:
NOMBRE DE LA ESTACION                  : DEPORTIVO MOCTEZUMA
CLAVE DE LA ESTACION                   : DM12
LOCALIZACION DE LA ESTACION            : Del. Venustiano Carranza,              
                                       : Col. Moctezuma 2da. Sección,           
                                       : Calle Norte 25 esq. con Oriente 160.   
                                       :                                        
                                       : 
COORDENADAS DE LA ESTACION             : 19.4312 LAT. N
                                       : 99.0963 LONG. W
ALTITUD (msnm)                         : 2232
TIPO DE SUELO                          : Arcilloso, zona lago                
                                       :                           
                                       : 
INSTITUCION RESPONSABLE                : CIRES
                                       : 

================================================================================
DATOS DEL ACELEROGRAFO:
MODELO DEL ACELEROGRAFO                : RADESD
NUMERO DE SERIE DEL ACELEROGRAFO       : 214
NUMERO DE CANALES                      : 3
ORIENTACION C1-C6 (rumbo;orientacion)  : /N00E/+V/N90W
ORIENTACION C7-C12 (rumbo;orientacion) : 
VEL. DE MUESTREO, C1-C6 (muestras/s)   : /100/100/100
VEL. DE MUESTREO, C7-C12 (muestras/s)  : 
ESC. COMPLETA DE SENSORES, C1-C6, (g)  : /0.5/0.5/0.5
ESC. COMPLETA DE SENSORES, C7-C12, (g) : 
FREC. NAT. DE SENSORES, C1-C6, (Hz)    : /30/30/32
FREC. NAT. DE SENSORES, C7-C12, (Hz)   : 
AMORTIGUAMIENTO DE SENSORES, C1-C6     : /0.725/0.709/0.733
AMORTIGUAMIENTO DE SENSORES, C7-C12    : 
INTERVALO DE MUESTREO, C1-C6, (s)      : /0.01/0.01/0.01
INTERVALO DE MUESTREO, C7-C12, (s)     : 
UMBRAL DE DISPARO, C1-C6, (Gal)        : /1.2/2.99/1.2
UMBRAL DE DISPARO, C7-C12, (Gal)       :
MEMORIA DE PREEVENTO (s)               : 44.0
TIEMPO DE POSEVENTO (s)                : 81.0


================================================================================
DATOS DEL SISMO:
FECHA DEL SISMO (GMT)                  : 23/JUN/20
HORA EPICENTRO (GMT)                   : 15:29:03.0
MAGNITUD(ES)                           : /Mc=7.4
COORDENADAS DEL EPICENTRO              : 15.80 LAT. N
                                       : 96.13 LONG. W
PROFUNDIDAD FOCAL (km)                 : 22
FUENTE DE LOS DATOS EPICENTRALES       : SSN
                                       : INSTITUTO DE GEOFISICA, UNAM

================================================================================
DATOS DE ESTE REGISTRO:
HORA DE LA PRIMERA MUESTRA (GMT)       : 15:28:34.00
EXACTITUD DEL TIEMPO (s)               : 0.01
DURACION DEL REGISTRO (s), C1-C6       : /546.8/546.8/546.8
DURACION DEL REGISTRO (s), C7-C12      : 
NUM. TOTAL DE MUESTRAS, C1-C6          : /54680/54680/54680
NUM. TOTAL DE MUESTRAS, C7-C12         : 
ACEL. MAX. (Gal), C1-C6                : /36.71248/5.80207/26.48346
ACEL. MAX., C1-C6, EN LA MUESTRA       : /19855/20269/18665
ACEL. MAX. (Gal), C7-C12               : 
ACEL. MAX., C7-C12, EN LA MUESTRA      : 
UNIDADES DE LOS DATOS                  : Gal (cm/s/s)
FACTOR DE DECIMACION                   : 1
FORMATO DATOS (FORTRAN,10 campos/dato) : 3F10.5


================================================================================
CALIDAD DEL ACELEROGRAMA:
REGISTRO DIGITAL COMPLETO CON TIEMPO ABSOLUTO CORRECTO.


================================================================================
COMENTARIOS:














================================================================================
DATOS DE ACELERACION:
---------+---------+---------+---------+---------+---------+---------+---------+
   CANAL-1   CANAL-2   CANAL-3   CANAL-4   CANAL-5   CANAL-6   CANAL-7   CANAL-8
      N00E        +V      N90W
---------+---------+---------+---------+---------+---------+---------+---------+
[...]
  22.12281  -1.42543  10.19272
  22.61661  -1.61996  10.13286
  22.99071  -1.73967  10.19272
  23.42466  -1.96412  10.20768
  23.90350  -1.97909  10.23761
  24.21774  -2.08383  10.11790
  24.59183  -2.36814  10.04308
  24.80132  -2.56267   9.78870
  25.13052  -2.62253   9.60913
  25.50462  -2.84698   9.51935
  25.69915  -3.04151   9.26497
  26.01339  -3.22108   8.92080
  26.32763  -3.31086   8.77116
  26.44734  -3.44553   8.38210
  26.73165  -3.49043   8.15765
  26.74661  -3.61014   7.90326
  26.88128  -3.65503   7.58903
  27.10574  -3.62510   7.48428
  27.03092  -3.68496   7.12515
  27.12070  -3.61014   6.87076
  27.13567  -3.47546   6.57149
  27.10574  -3.38568   6.18243
  27.06085  -3.43057   5.86819
  27.12070  -3.34079   5.56892
  26.95610  -3.10137   5.17986
  26.95610  -2.87691   4.95540
  26.74661  -2.77217   4.56635
  26.59697  -2.69735   4.26707
  26.71668  -2.30829   3.90794
  26.55208  -2.21851   3.44406
  26.52215  -1.94916   3.20464
  26.11813  -1.82945   2.68091
  25.38491  -1.59003   2.02251
  24.92103  -1.42543   1.36410
  25.90864  -1.48528   0.66080
  27.22545  -1.08126   0.22686
  26.94114  -0.79695  -0.10235
  26.26777  -0.58746  -0.34177
  25.87871  -0.45278  -1.31441
  25.56447   0.04102  -2.45166
  25.42980   0.26548  -3.22977
  25.38491   0.80417  -3.90314
  24.98089   0.95381  -4.63637
  25.05571   1.37280  -5.27981
  24.99585   1.77682  -6.02800
  24.95096   2.18084  -6.74626
  24.68161   2.24069  -7.43459
  24.71154   2.62975  -7.92839
  24.44219   2.85421  -8.55687
  24.12795   3.12356  -9.27513
  23.69400   3.24327  -9.99339
  23.40969   3.36298 -10.54705
  22.91589   3.36298 -11.34013
  22.63158   3.69218 -11.84890
  22.04799   3.54254 -12.49234
  21.65893   3.61736 -12.94125
  21.43448   3.78196 -13.49491
  21.00053   3.78196 -13.94383
  20.70125   3.84182 -14.39274
  20.22241   3.91664 -14.58727
  19.78846   3.93160 -14.84165
  19.47422   3.93160 -14.93143
  19.02531   3.97649 -15.32049
  18.53151   3.85678 -15.55991
  18.17238   3.96153 -15.48509
  17.91799   3.87174 -15.36538
  17.42419   3.58743 -15.57488
  17.25959   3.54254 -15.26064
  16.78075   3.31808 -15.17085
  16.37672   3.18341 -15.09604
  16.01759   3.10859 -14.82669
  15.53875   2.92903 -14.61719
  15.29933   2.94399 -14.12339
  14.89531   2.76443 -13.82412
  14.41647   2.61479 -13.56973
  13.92267   2.62975 -13.28542
  13.47376   2.68961 -13.01607
  13.05477   2.46515 -12.76169
  12.65075   2.43522 -12.47738
  12.30658   2.43522 -12.04343
  11.90256   2.46515 -11.69926
  11.51350   2.49508 -11.32517
  10.94488   2.43522 -11.13064
  10.61568   2.40530 -10.72662
  10.09195   2.21077 -10.47223
   9.55325   2.16588 -10.41238
   9.23901   2.24069 -10.08318
   8.80506   2.04617  -9.93354
   8.71528   2.07609  -9.60434
   8.38608   2.00127  -9.33499
   8.25140   1.97135  -9.14046
   7.65285   1.80674  -8.70651
   7.33861   1.65711  -8.39227
   6.79992   1.50747  -8.25760
   6.21633   1.35783  -8.00321
   5.58785   0.96877  -8.04810
   5.40829   0.99870  -7.85358
   5.06412   0.60964  -7.77876
   4.89952   0.40015  -7.35977
   4.54039   0.01109  -7.21013
   4.22615  -0.28818  -7.15028
   3.88199  -0.55753  -6.86597
   3.40314  -0.91666  -6.68640
   2.96920  -1.36557  -6.50684
   2.58014  -1.69478  -6.16267
   2.11626  -1.94916  -5.99807
   1.90677  -2.12872  -5.69879
   1.54764  -2.45793  -5.59405
   1.18851  -2.71231  -5.51923
   0.94909  -2.84698  -5.23492
   0.69470  -2.99662  -5.14513
   0.35054  -3.22108  -5.05535
  -0.00859  -3.23604  -4.87579
  -0.29290  -3.25101  -4.57651
  -0.57722  -3.20611  -4.53162
  -0.98124  -3.29590  -4.33709
  -1.19073  -3.22108  -4.26227
  -1.49000  -3.13130  -4.14256
  -1.78928  -3.22108  -4.03782
  -2.04366  -3.20611  -3.85825
  -2.14841  -3.13130  -3.58890
  -2.38783  -3.16122  -3.42430
  -2.49258  -3.05648  -3.34948
  -2.59732  -2.93677  -3.21481
  -2.71703  -2.78713  -2.97539
  -2.71703  -2.47289  -2.87064
  -2.82178  -2.12872  -2.78086
  -2.95645  -1.96412  -2.78086
  -2.95645  -1.85938  -2.63122
  -2.92653  -1.47032  -2.46662
  -2.91156  -1.18601  -2.54144
  -3.01631  -1.14112  -2.48159
  -2.92653  -0.73709  -2.36188
  -2.91156  -0.57249  -2.25713
  -2.94149  -0.36300  -2.22720
  -2.98638   0.08591  -2.31698
  -3.18091   0.16073  -2.28706
  -3.04624   0.71439  -2.06260
  -3.10609   0.99870  -2.21224
  -3.06120   1.13338  -2.13742
  -3.28566   1.46258  -2.25713
  -3.28566   1.85164  -2.25713
  -3.36047   1.97135  -2.28706
  -3.42033   2.34544  -2.28706
  -3.80939   2.39033  -2.49655
  -3.74953   2.71953  -2.34691
  -3.98895   2.70457  -2.51151
  -3.98895   3.06370  -2.49655
  -4.31816   3.04874  -2.54144
  -4.52765   3.16845  -2.73597
  -4.81196   3.04874  -2.84072
  -4.97656   3.25823  -2.90057
  -5.44044   3.24327  -3.11006
  -5.63497   3.28816  -3.15495
  -6.06892   3.25823  -3.24474
  -6.66747   3.09363  -3.52905
  -6.83207   3.33305  -3.49912
  -7.50544   3.03377  -3.69365
  -7.75982   3.18341  -3.76847
  -8.25362   3.09363  -3.84329
  -8.67261   3.07866  -3.93307
  -9.31605   2.92903  -4.15753
  -9.70511   2.97392  -4.12760
 -10.37848   2.73450  -4.33709
 -10.76754   2.71953  -4.18745
 -11.41098   2.56990  -4.38198
 -12.00953   2.46515  -4.27724
 -12.69786   2.39033  -4.38198
 -13.16174   2.28559  -4.26227
 -13.82014   1.91149  -4.30716
 -14.49351   1.86660  -4.44184
 -15.15192   1.59725  -4.27724
 -15.87018   1.44761  -4.35206
 -16.39391   1.19323  -4.30716
 -17.18699   0.78921  -4.36702
 -17.68079   0.46001  -4.24731
 -18.12971   0.34030  -4.17249
 -18.69833   0.13080  -4.09767
 -19.20710  -0.09365  -4.12760
 -19.79068  -0.27322  -4.17249
 -20.22463  -0.49767  -4.06774
 -20.88304  -0.90170  -4.14256
 -21.15239  -1.05133  -3.94803
 -21.70605  -1.17104  -3.94803
 -22.16992  -1.39550  -3.82832
 -22.55898  -1.69478  -3.72358
 -22.94804  -1.93420  -3.67869
 -23.42688  -2.15865  -3.54401
 -23.72615  -2.12872  -3.43927
 -23.96557  -2.17362  -3.05021
 -24.32470  -2.35318  -2.99035
 -24.59405  -2.38311  -2.84072
 -24.72872  -2.26340  -2.60130
 -25.05793  -2.36814  -2.46662
 -25.17764  -2.18858  -2.28706
 -25.34224  -2.32325  -2.04764
 -25.31231  -2.03894  -1.73340
 -25.46195  -2.06887  -1.61369
 -25.32728  -1.96412  -1.14981
 -25.46195  -1.97909  -0.94032
 -25.26742  -1.79952  -0.65601
 -25.04296  -1.61996  -0.19213
 -24.89333  -1.54514  -0.07242
 -24.78858  -1.48528   0.25678
 -24.60901  -1.45535   0.63088
 -24.19003  -1.21593   1.04986
 -24.02543  -1.27579   1.33417
 -23.66630  -1.27579   1.79805
 -23.39695  -1.29075   2.02251
 -22.84329  -1.21593   2.48638
 -22.54402  -1.17104   2.75573
 -22.08014  -1.15608   3.06997
 -21.82576  -1.17104   3.29443
 -21.37684  -1.15608   3.74334
 -20.82318  -1.11119   4.02765
 -20.52391  -1.09622   4.31196
 -20.13485  -1.20097   4.58131
 -19.53630  -1.14112   4.94044
 -19.10235  -1.02141   5.28461
 -18.99760  -0.99148   5.58388
 -18.56366  -0.88673   6.06272
 -18.33920  -0.85680   6.25725
 -17.90525  -0.69220   6.52660
 -17.84540  -0.67724   6.78098
 -17.71072  -0.67724   7.15508
 -17.51619  -0.46775   7.39450
 -17.47130  -0.54257   7.79852
 -17.50123  -0.51264   8.18758
 -17.54612  -0.25825   8.27736
 -17.39648  -0.19840   8.81605
 -17.56108  -0.21336   9.04051
 -17.60597  -0.09365   9.39964
 -17.68079   0.13080   9.71388
 -17.75561   0.19066  10.10294
 -18.05489   0.25051  10.29747
 -18.41402   0.29541  10.40221
 -18.45891   0.51986  10.70149
 -18.75818   0.48993  11.01573
 -19.01257   0.66950  11.13544
 -19.20710   0.86403  11.52449
 -19.46148   0.89396  11.76391
 -19.67097   1.05856  12.10808
 -19.91039   1.20819  12.21283
 -20.06003   1.25309  12.43728
 -20.34434   1.37280  12.51210
 -20.35931   1.56732  12.64678
 -20.47902   1.68703  12.87123
 -20.49398   1.83667  12.99094
 -20.55384   1.85164  13.00591
 -20.50894   1.91149  13.15554
 -20.43413   1.82171  13.17051
 -20.32938   1.76185  13.23036
 -20.22463   1.70200  13.20044
 -19.97025   1.61222  13.12562
 -19.89543   1.47754  13.02087
 -19.62608   1.26805  12.91612
 -19.37170   1.08848  12.90116
 -19.14724   1.01367  12.73656
 -18.80308   0.80417  12.67670
 -18.30927   0.80417  12.42232
 -17.98007   0.47497  12.21283
 -17.47130   0.46001  11.94348
 -17.00742   0.22059  11.65917
 -16.43880   0.17570  11.34493
 -15.87018  -0.06373  10.98580
 -15.22674  -0.39293  10.68652
 -14.58330  -0.67724  10.22265
 -13.90993  -0.88673   9.84855
 -13.20663  -1.11119   9.44453
 -12.47341  -1.42543   8.89087
 -11.69529  -1.88930   8.47189
 -10.76754  -1.94916   7.88830
  -9.91460  -2.20354   7.39450
  -9.03174  -2.54771   6.78098
  -8.11895  -2.56267   6.25725
  -7.20616  -2.78713   5.74848
  -6.21855  -2.89188   5.35943
  -5.39555  -3.11633   4.64116
  -4.28823  -3.11633   4.13240
  -3.34551  -3.28093   3.60867
  -2.31301  -3.38568   3.06997
  -1.38526  -3.61014   2.51631
  -0.30787  -3.59517   2.05243
   0.64981  -3.64006   1.48381
   1.87684  -3.64006   1.00497
   2.77467  -3.71488   0.45131
   3.61264  -3.96927  -0.31184
   4.79477  -3.77474  -0.68593
   5.82727  -3.78970  -1.17974
   6.75503  -3.86452  -1.73340
   7.78753  -3.69992  -2.15238
   8.71528  -3.69992  -2.54144
   9.70289  -3.64006  -2.96043
  10.60071  -3.52035  -3.36445
  11.52847  -3.35575  -3.70861
  12.62082  -3.07144  -3.93307
  13.45879  -2.89188  -4.33709
  14.43144  -2.80209  -4.36702
  15.38912  -2.53275  -4.65133
  16.16723  -2.60756  -4.84586
  17.19973  -2.33822  -4.89075
  18.05267  -2.15865  -5.07032
  18.98042  -2.09880  -5.14513
  20.01292  -1.90427  -5.17506
  20.88082  -1.81449  -5.21995
  21.76368  -1.56010  -5.20499
  22.66150  -1.54514  -5.26484
  23.60422  -1.39550  -5.10024
  24.62176  -1.17104  -5.04039
  25.48966  -1.11119  -4.93564
  26.38748  -0.90170  -4.83090
  27.25538  -0.66228  -4.75608
  27.98860  -0.58746  -4.63637
  28.90139  -0.43782  -4.38198
  29.60469  -0.31811  -4.24731
  30.45762  -0.16847  -4.09767
  31.19085   0.10088  -3.91811
  31.93904   0.22059  -3.70861
  32.68722   0.38519  -3.55898
  33.28577   0.71439  -3.39437
  33.74965   0.81914  -3.31956
  34.27338   0.95381  -3.08014
  34.70733   1.11841  -3.03524
  35.12632   1.37280  -2.81079
  35.50041   1.52243  -2.57137
  35.72487   1.52243  -2.43669
  36.05407   1.98631  -2.27209
  36.24860   2.13595  -2.15238
  36.26356   2.22573  -2.10749
  36.54787   2.62975  -1.76332
  36.54787   2.59982  -1.56880
  36.68255   2.89910  -1.38923
  36.65262   3.03377  -1.26952
  36.71248   3.09363  -0.92535
  36.51795   3.10859  -0.80564
  36.29349   3.10859  -0.64104
  36.20371   3.25823  -0.41659
  35.99421   3.15348  -0.20709
  35.57523   3.07866   0.06225
  35.38070   3.19837   0.39146
  34.99164   3.18341   0.75059
  34.42302   3.06370   0.96008
  34.06389   3.00385   1.37906
  33.48030   2.95895   1.51374
  32.98650   2.85421   1.94769
  32.46277   2.62975   2.14222
  31.86422   2.61479   2.47142
  31.19085   2.48011   2.62106
  30.44266   2.24069   2.89040
  29.72440   2.13595   3.06997
  28.93132   1.91149   3.32435
  28.25795   1.79178   3.56377
  27.39005   1.41769   3.62363
  26.59697   1.35783   3.96780
  25.77397   1.11841   4.16232
  24.84621   0.99870   4.31196
  23.99328   0.60964   4.44664
  23.17027   0.60964   4.55138
  22.09288   0.23555   4.53642
  21.26987   0.23555   4.58131
  20.38701   0.16073   4.89555
  19.30962  -0.18344   4.86562
  18.36691  -0.25825   4.85066
  17.33441  -0.34804   4.65613
  16.42162  -0.63235   4.71598
  15.37415  -0.79695   4.55138
  14.58107  -0.82688   4.49153
  13.56354  -1.03637   4.14736
  12.66571  -1.27579   3.84809
  11.75292  -1.44039   3.59370
  10.98977  -1.36557   3.23457
  10.24158  -1.47032   3.17472
   9.43354  -1.51521   2.78566
   8.52075  -1.69478   2.50135
   7.72767  -1.85938   2.03747
   7.03934  -1.91923   1.75316
   6.27619  -1.91923   1.18454
   5.75246  -1.91923   0.79548
   5.19880  -1.99405   0.40642
   4.61521  -2.12872  -0.29688
   4.06155  -2.15865  -0.80564
   3.83709  -1.99405  -1.23959
   3.38818  -2.33822  -1.79325
   3.25351  -2.14369  -2.15238
   2.95423  -2.09880  -2.88561
   2.78963  -2.24843  -3.36445
   2.77467  -2.12872  -3.84329
   2.61007  -2.12872  -4.32213
   2.74474  -1.84441  -4.68126
   2.53525  -1.85938  -5.39952
   2.74474  -1.73967  -5.74369
   2.59510  -1.87434  -6.29734
   2.65496  -1.61996  -6.89589
   2.63999  -1.61996  -7.41963
   2.66992  -1.53017  -8.01818
   2.80459  -1.39550  -8.45213
   2.87941  -1.02141  -9.08060
   2.96920  -1.02141  -9.42477
   3.13380  -0.72213  -9.75397
   3.20862  -0.42286 -10.44231
   3.43307  -0.18344 -10.69669
   3.49293   0.13080 -11.10071
   3.49293   0.22059 -11.41495
   3.53782   0.57972 -11.86386
   3.61264   0.86403 -12.16314
   3.82213   0.98374 -12.43249
   3.71738   1.10345 -12.79162
   3.80717   1.26805 -13.09089
   3.85206   1.50747 -13.34528
   3.77724   1.58229 -13.52484
   3.68746   1.74689 -13.80915
   3.67249   1.91149 -14.07850
   3.56775   1.98631 -14.12339
   3.38818   2.06113 -14.31792
   3.11883   2.04617 -14.55734
   2.99912   2.21077 -14.46756
   2.80459   2.07609 -14.46756
   2.43050   2.12098 -14.66209
   2.35568   2.16588 -14.46756
   1.99655   2.25566 -14.48252
   1.62246   2.06113 -14.40770
   1.18851   1.97135 -14.39274
   0.91916   1.95638 -14.22814
   0.51514   1.91149 -13.98872
   0.17097   1.83667 -13.82412
  -0.27794   1.76185 -13.58470
  -0.75678   1.74689 -13.40513
  -1.22066   1.68703 -13.16571
  -1.57979   1.65711 -12.83651
  -2.13345   1.55236 -12.68687
  -2.56740   1.47754 -12.29781
  -3.03127   1.41769 -11.90875
  -3.37544   1.49251 -11.54962
  -3.76450   1.50747 -11.08575
  -4.27326   1.53740 -10.69669
  -4.72218   1.34287 -10.20289
  -4.99152   1.46258  -9.72405
  -5.35066   1.40272  -9.12549
  -5.67986   1.28301  -8.69155
  -6.05395   1.41769  -8.27256
  -6.26344   1.32790  -7.68897
  -6.50286   1.59725  -7.18021
  -6.68243   1.52243  -6.55173
  -6.96674   1.58229  -6.10282
  -7.32587   1.52243  -5.56412
  -7.44558   1.74689  -5.14513
  -7.64011   1.70200  -4.56155
  -7.83464   1.94142  -4.17249
  -8.08902   1.95638  -3.66372
  -8.22370   2.06113  -3.02028
  -8.35837   2.04617  -2.51151
  -8.64268   2.16588  -2.12246
  -8.92699   2.12098  -1.68851
  -9.19634   2.34544  -1.28448
  -9.39087   2.28559  -0.71586
  -9.52554   2.42026  -0.19213
  -9.89964   2.31551   0.31664
 -10.06424   2.31551   0.78051
 -10.43833   2.22573   1.25935
 -10.66279   2.10602   1.70827
 -11.06681   2.09106   2.02251
 -11.30623   2.03120   2.63602
 -11.75514   1.95638   2.89040
 -12.35369   1.58229   3.20464
 -12.53326   1.64214   3.78823
 -13.11685   1.35783   4.11743
 -13.52087   1.22316   4.64116
 -14.07453   1.11841   4.83569
 -14.43366   0.98374   5.37439
 -15.07710   0.72935   5.59885
 -15.49608   0.59468   5.97294
 -16.00485   0.56475   6.30214
 -16.57348   0.37022   6.55653
 -17.09721   0.11584   6.73609
 -17.66583   0.01109   6.97551
 -18.17460  -0.18344   7.21493
 -18.75818  -0.49767   7.30471
