********************************************************************************
              CENTRO DE INSTRUMENTACION Y REGISTRO SISMICO  A.C.

    Anaxagoras 814, Col. Narvarte, Benito Juarez, C.P. 03020 Mexico, D.F.
           Tels. 5687 45 42/ 5687 45  82             Fax. 5669 25 12
********************************************************************************
ARCHIVO ESTANDAR DE ACELERACION:
VERSION DEL FORMATO                    : 2.0
NOMBRE DEL ARCHIVO                     : DR1620200623152903
FECHA Y HORA DE CREACION               : 18/AGO/21, 13:42
REF. CATALOGO ACELEROGRAMAS, SMIS 1996 : REGISTRO No.     /PAG.


================================================================================
DATOS DE LA ESTACION:
NOMBRE DE LA ESTACION                  : DEPORTIVO REYNOSA
CLAVE DE LA ESTACION                   : DR16
LOCALIZACION DE LA ESTACION            : Del. Azcapotzalco, Col. Nueva España,  
                                       : Entre calle San Pablo y Eje 5 Norte.   
                                       :                                        
                                       :                                        
                                       : 
COORDENADAS DE LA ESTACION             : 19.5005 LAT. N
                                       : 99.1829 LONG. W
ALTITUD (msnm)                         : 2233
TIPO DE SUELO                          : Transición                          
                                       :                           
                                       : 
INSTITUCION RESPONSABLE                : CIRES, A. C.
                                       : 

================================================================================
DATOS DEL ACELEROGRAFO:
MODELO DEL ACELEROGRAFO                : RAD_IO14
NUMERO DE SERIE DEL ACELEROGRAFO       : 
NUMERO DE CANALES                      : 3
ORIENTACION C1-C6 (rumbo;orientacion)  : /N00E/+V/N90W
ORIENTACION C7-C12 (rumbo;orientacion) : 
VEL. DE MUESTREO, C1-C6 (muestras/s)   : /100/100/100
VEL. DE MUESTREO, C7-C12 (muestras/s)  : 
ESC. COMPLETA DE SENSORES, C1-C6, (g)  : /2.0/2.0/2.0
ESC. COMPLETA DE SENSORES, C7-C12, (g) : 
FREC. NAT. DE SENSORES, C1-C6, (Hz)    : /30/30/30
FREC. NAT. DE SENSORES, C7-C12, (Hz)   : 
AMORTIGUAMIENTO DE SENSORES, C1-C6     : /0.720/0.774/0.740
AMORTIGUAMIENTO DE SENSORES, C7-C12    : 
INTERVALO DE MUESTREO, C1-C6, (s)      : /0.01/0.01/0.01
INTERVALO DE MUESTREO, C7-C12, (s)     : 
UMBRAL DE DISPARO, C1-C6, (Gal)        : / / /
UMBRAL DE DISPARO, C7-C12, (Gal)       :
MEMORIA DE PREEVENTO (s)               : 60
TIEMPO DE POSEVENTO (s)                : 90


================================================================================
DATOS DEL SISMO:
FECHA DEL SISMO (GMT)                  : 23/JUN/20
HORA EPICENTRO (GMT)                   : 15:29:03.0
MAGNITUD(ES)                           : /Mc=7.4
COORDENADAS DEL EPICENTRO              : 15.80 LAT. N
                                       : 96.13 LONG. W
PROFUNDIDAD FOCAL (km)                 : 22
FUENTE DE LOS DATOS EPICENTRALES       : SSN
                                       : INSTITUTO DE GEOFISICA, UNAM

================================================================================
DATOS DE ESTE REGISTRO:
HORA DE LA PRIMERA MUESTRA (GMT)       : 10:27:25.00
EXACTITUD DEL TIEMPO (s)               : 
DURACION DEL REGISTRO (s), C1-C6       : /539.8/539.8/539.8
DURACION DEL REGISTRO (s), C7-C12      : 
NUM. TOTAL DE MUESTRAS, C1-C6          : /53980/53980/53980
NUM. TOTAL DE MUESTRAS, C7-C12         : 
ACEL. MAX. (Gal), C1-C6                : /14.67867/2.84554/13.29483
ACEL. MAX., C1-C6, EN LA MUESTRA       : /19283/20091/19388
ACEL. MAX. (Gal), C7-C12               : 
ACEL. MAX., C7-C12, EN LA MUESTRA      : 
UNIDADES DE LOS DATOS                  : Gal (cm/s/s)
FACTOR DE DECIMACION                   : 1
FORMATO DATOS (FORTRAN,10 campos/dato) : 3F10.5


================================================================================
CALIDAD DEL ACELEROGRAMA:
REGISTRO DIGITAL COMPLETO CON TIEMPO ABSOLUTO CORRECTO.


================================================================================
COMENTARIOS:














================================================================================
DATOS DE ACELERACION:
---------+---------+---------+---------+---------+---------+---------+---------+
   CANAL-1   CANAL-2   CANAL-3   CANAL-4   CANAL-5   CANAL-6   CANAL-7   CANAL-8
      N00E        +V      N90W
---------+---------+---------+---------+---------+---------+---------+---------+
[...]
   1.31083  -1.50344   0.90837
   1.42533  -1.52944   0.91937
   1.49033  -1.66154   0.98527
   1.69633  -1.56634   0.99087
   1.75643  -1.71294   0.97667
   1.89723  -1.59094   0.95397
   2.08353  -1.51584   0.83827
   2.30053  -1.63464   0.77577
   2.37773  -1.58804   0.71217
   2.73003  -1.73634   0.67927
   2.88763  -1.67954   0.68247
   3.09903  -1.71924   0.52207
   3.24773  -1.62414   0.53587
   3.56683  -1.57994   0.41947
   3.68233  -1.68984   0.24177
   3.98063  -1.45154   0.10267
   4.20913  -1.40994  -0.08273
   4.59723  -1.31804  -0.16623
   4.71623  -1.40264  -0.32633
   4.97043  -1.23314  -0.41733
   5.20493  -1.29954  -0.50103
   5.49133  -1.08724  -0.81783
   5.93953  -1.14264  -0.72083
   6.12773  -1.00354  -0.79443
   6.43333  -1.04584  -0.86903
   6.56963  -1.00824  -0.89223
   6.66803  -0.99774  -0.83253
   6.76583  -0.98414  -0.89403
   6.86913  -0.80394  -0.72413
   7.01853  -0.94464  -0.65413
   7.04313  -0.87664  -0.68433
   7.06723  -0.83544  -0.60813
   6.89723  -0.65474  -0.52703
   6.81093  -0.65404  -0.35073
   6.78473  -0.54464  -0.39253
   6.49533  -0.60444  -0.34443
   6.51073  -0.48454  -0.26583
   6.13403  -0.34044  -0.17693
   6.01853  -0.17404  -0.19963
   5.77683  -0.11114  -0.21953
   5.60683  -0.07514  -0.26203
   5.35963  -0.09284  -0.45593
   5.08403  -0.01874  -0.34253
   4.82173  -0.02924  -0.33573
   4.51563  -0.01544  -0.46243
   4.29233  -0.16274  -0.68993
   4.17173  -0.05454  -0.74253
   3.93693   0.03576  -0.70543
   3.73023  -0.07674  -0.72123
   3.42863  -0.18614  -0.94363
   3.19043  -0.21824  -0.92093
   3.22713  -0.26094  -1.09863
   2.99793  -0.17004  -1.20853
   2.68233  -0.25464  -1.40053
   2.64983  -0.16094  -1.38183
   2.36713  -0.01334  -1.26653
   2.18663  -0.02644  -1.51223
   1.99403   0.11166  -1.61003
   1.92273   0.17906  -1.75733
   1.75343   0.14276  -1.75423
   1.70433   0.12786  -1.73133
   1.65783   0.23986  -1.65953
   1.51913   0.23636  -1.66163
   1.39663   0.35156  -1.69953
   1.47053   0.48156  -1.60813
   1.30333   0.53936  -1.73083
   1.35573   0.48136  -1.61703
   1.44013   0.40066  -1.53053
   1.31943   0.60436  -1.60413
   1.39573   0.69206  -1.46433
   1.50203   0.62936  -1.54803
   1.53573   0.65296  -1.34863
   1.61873   0.73526  -1.08483
   1.70593   0.68686  -0.94013
   1.86893   0.75706  -0.82203
   1.88133   0.77876  -0.75123
   1.81373   0.79116  -0.54943
   2.01413   0.98406  -0.40263
   2.11233   0.94006  -0.06893
   2.30383   1.05236  -0.08513
   2.51583   0.91576   0.16907
   2.49133   0.97726   0.37857
   2.76273   0.90036   0.43557
   2.86963   0.78506   0.59977
   3.09663   0.69856   0.66237
   3.14883   0.42876   0.81767
   3.14553   0.48996   0.94577
   3.34053   0.26716   0.94137
   3.40243   0.37586   1.00567
   3.25843   0.29196   1.10427
   3.31273   0.41306   1.06247
   3.40223   0.34406   0.96147
   3.44973   0.45026   0.97967
   3.43053   0.36186   0.87517
   3.28113   0.39556   0.83897
   3.36813   0.36916   0.81507
   3.33213   0.31516   0.59207
   3.26753   0.28776   0.27587
   3.14993   0.28096   0.29857
   3.07793   0.35016   0.03557
   2.93533   0.21016  -0.27373
   3.03403   0.18486  -0.54383
   2.82753   0.24986  -0.91533
   2.60163   0.17666  -1.22603
   2.53453   0.32916  -1.67593
   2.40413   0.28476  -1.99553
   2.23713   0.46246  -2.05353
   2.02553   0.46006  -2.53213
   1.90233   0.58496  -2.56953
   1.72393   0.69786  -2.87213
   1.45813   0.87556  -2.91413
   1.24063   0.80426  -3.01943
   1.02233   0.72686  -3.12153
   0.65753   0.93686  -3.01753
   0.57903   0.85756  -2.96163
   0.21233   0.89476  -2.85053
  -0.03667   0.88566  -2.86533
  -0.37727   0.84916  -2.58283
  -0.63097   0.72596  -2.32143
  -0.70247   0.71216  -1.85973
  -0.93607   0.66206  -1.69903
  -1.39977   0.60436  -1.37973
  -1.57997   0.65556  -1.03293
  -1.82647   0.66606  -0.56723
  -1.94847   0.67586  -0.22583
  -2.25287   0.72006   0.21727
  -2.48877   0.81876   0.57937
  -2.78477   0.84726   1.01897
  -3.01467   0.98356   1.60297
  -3.26627   1.02826   1.98197
  -3.60387   1.17696   2.49357
  -3.82007   1.08996   3.02597
  -4.08807   1.19046   3.55557
  -4.30017   1.15056   3.99747
  -4.77777   1.13906   4.51507
  -4.83277   0.99666   4.85457
  -5.09247   0.99806   5.37407
  -5.35367   0.93496   5.95697
  -5.70627   0.87886   6.20247
  -6.10837   0.75636   6.56257
  -6.32027   0.72356   6.99717
  -6.68587   0.85686   7.27917
  -6.99597   0.79696   7.43117
  -7.32307   0.77176   7.66707
  -7.72687   0.59316   7.78747
  -8.02957   0.58676   7.73627
  -8.22417   0.60056   7.79307
  -8.55127   0.44376   7.83447
  -9.01117   0.42596   7.69117
  -9.36467   0.45676   7.42227
  -9.67677   0.29806   7.22657
  -9.79047   0.26246   6.89457
  -9.98917   0.20566   6.46787
 -10.18537   0.09276   5.93757
 -10.36327   0.18656   5.54077
 -10.34127   0.06216   5.05427
 -10.32167   0.00466   4.37737
 -10.31907  -0.01014   3.72247
 -10.32677   0.23816   2.97777
 -10.29167   0.13786   2.42487
 -10.11357   0.06706   1.75707
  -9.96577   0.17366   1.04587
  -9.66347  -0.01224   0.37367
  -9.45137   0.20526  -0.43653
  -9.22297   0.06286  -0.95863
  -8.93447   0.11216  -1.58213
  -8.57607   0.15726  -2.35633
  -8.19747  -0.01504  -2.97123
  -7.85867   0.08316  -3.64923
  -7.51147   0.07076  -4.19213
  -6.93517   0.08766  -4.66843
  -6.50307   1.6E-40  -5.12203
  -6.04017  -0.00754  -5.46173
  -5.55377   0.14046  -5.84613
  -5.08687   0.06076  -5.93923
  -4.42917   0.19986  -6.15803
  -4.02677   0.14916  -6.34153
  -3.48947   0.13486  -6.48323
  -2.99687   0.16456  -6.11663
  -2.41777   0.17736  -5.99323
  -1.88657   0.14066  -5.65163
  -1.53047   0.23586  -5.41573
  -0.93957   0.13996  -5.19993
  -0.44537   0.15826  -4.65863
  -0.06847  -0.03024  -4.20623
   0.51233   0.09466  -3.68273
   0.98673   0.12016  -3.29013
   1.34913  -0.11274  -2.89543
   1.77233   0.08226  -2.37263
   2.07373   0.05466  -2.01003
   2.47983  -0.00544  -1.49633
   2.81043   0.01276  -1.24053
   3.16353   0.00416  -0.86363
   3.46043   0.05976  -0.40703
   3.49993  -0.08404  -0.11243
   3.64653   0.02216   0.34907
   3.94043  -0.00474   0.69327
   3.75693  -0.07864   1.04307
   3.92503  -0.19624   1.23757
   4.11113  -0.17614   1.58877
   3.86873  -0.24464   1.80477
   3.71623  -0.15624   2.05477
   3.51613  -0.29094   2.32567
   3.36783  -0.54974   2.50267
   3.09993  -0.42814   2.47797
   2.87893  -0.63274   2.53657
   2.46743  -0.71664   2.51767
   2.23673  -0.77304   2.49527
   2.07323  -0.77984   2.50687
   1.72863  -1.06344   2.41227
   1.45273  -1.00004   2.25137
   1.10273  -0.91094   1.91607
   0.94023  -0.91354   1.82097
   0.68963  -0.83244   1.61727
   0.57123  -0.83594   1.36737
   0.35713  -0.79594   1.15827
   0.16843  -0.91944   0.84287
   0.21873  -1.00004   0.58707
   0.11983  -0.95614   0.27637
   0.46003  -0.89854   0.06057
   0.41743  -1.03704  -0.18683
   0.56283  -1.12164  -0.35113
   1.00943  -1.00564  -0.50403
   1.05383  -1.07304  -0.51713
   1.39943  -1.14644  -0.76893
   1.69473  -1.16564  -0.81693
   2.26383  -1.17284  -0.86763
   2.66273  -1.07604  -0.95933
   3.26453  -0.76834  -1.08323
   3.61053  -0.77254  -1.10663
   4.23573  -0.59584  -1.14543
   4.79873  -0.26844  -0.92613
   5.39923  -0.41694  -1.01733
   5.99093  -0.28154  -1.08933
   6.46883  -0.02954  -1.23893
   7.10323   0.00676  -1.19213
   7.56663   0.08436  -1.08933
   8.16753   0.09786  -0.89783
   8.60823   0.25476  -0.75123
   9.05483   0.38966  -0.83233
   9.48853   0.25896  -0.76333
   9.80153   0.24356  -0.68803
  10.22823   0.37336  -0.59293
  10.23713   0.38266  -0.61283
  10.33653   0.31976  -0.29643
  10.44763   0.39996  -0.30763
  10.38963   0.28266  -0.17233
  10.36833   0.29666  -0.01073
   9.99493   0.31086   0.23427
   9.86443   0.32306   0.37127
   9.53553   0.30576   0.35727
   9.06343   0.05606   0.58267
   8.66063   0.25296   0.62567
   8.26643   0.36846   0.76577
   7.70193   0.18556   0.89757
   7.14713  -0.02184   0.83657
   6.68583   0.13856   1.01897
   6.10813   0.23096   0.92827
   5.51723   0.20806   0.78257
   4.90683   0.07756   0.93927
   4.35733   0.15336   0.80367
   3.85353   0.28266   0.71687
   3.19793   0.10116   0.64207
   2.79133   0.24756   0.55577
   2.23973  -5.4E-40   0.76407
   1.68283   0.05066   0.62757
   1.36833   0.10586   0.55927
   1.04593   0.19116   0.62097
   0.71813   0.19046   0.78307
   0.43173   0.12996   0.54547
   0.21163   0.18516   0.74327
   0.05343   0.00766   0.66337
  -0.02047   0.02636   0.49217
  -0.11377   0.10046   0.56887
  -0.10257  -0.16274   0.45967
  -0.00577  -0.22174   0.48237
   0.08353  -0.13874   0.28527
   0.35153  -0.25914   0.15507
   0.49923  -0.34354   0.12577
   0.99233  -0.25024   0.11177
   1.27903  -0.33184  -0.22143
   1.54533  -0.23554  -0.24623
   1.84693  -0.17964  -0.39633
   2.58553  -0.06484  -0.59663
   2.91263  -0.05384  -0.53333
   3.54863  -0.08564  -0.70753
   4.06553  -0.01364  -0.87023
   4.56473   0.18816  -1.07713
   5.04263   0.25036  -1.33453
   5.59953   0.33526  -1.52703
   6.24463   0.47646  -1.69323
   6.60873   0.59596  -1.97143
   7.11093   0.47596  -2.24993
   7.50583   0.46456  -2.55993
   7.83473   0.59756  -2.77743
   8.30683   0.50496  -3.00353
   8.57033   0.65956  -3.39443
   8.72533   0.70836  -3.61303
   8.96593   0.53536  -3.83583
   9.05803   0.56556  -4.04043
   9.01883   0.51316  -4.21743
   8.98863   0.42566  -4.32123
   8.88623   0.51016  -4.45213
   8.62483   0.54826  -4.41263
   8.31243   0.64876  -4.57003
   7.95473   0.61346  -4.56133
   7.54163   0.61676  -4.29813
   7.05903   0.56946  -4.30413
   6.38773   0.41726  -3.99133
   5.87083   0.53486  -3.73323
   5.02513   0.35136  -3.48583
   4.14173   0.35206  -3.23803
   3.23323   0.40306  -2.72343
   2.30733   0.22626  -2.46013
   1.41813   0.17276  -2.06243
   0.25093   0.06256  -1.52793
  -0.65667   0.03546  -0.97773
  -1.93957  -0.15764  -0.54573
  -3.00737  -0.28574  -0.09913
  -3.96787  -0.21254   0.52867
  -5.15917  -0.30074   1.00567
  -6.42287  -0.47164   1.63337
  -7.56877  -0.50464   2.18217
  -8.35767  -0.70754   2.77137
  -9.38387  -0.86394   3.37267
 -10.47947  -1.08584   3.76877
 -11.15747  -0.95544   4.29157
 -11.92557  -1.04724   4.77887
 -12.44717  -0.98414   5.40057
 -13.13877  -0.98204   5.87447
 -13.76847  -0.96074   6.27197
 -14.02817  -0.73604   6.81387
 -14.27257  -0.96594   6.98907
 -14.63537  -0.74354   7.36527
 -14.67867  -0.46204   7.68837
 -14.52127  -0.44174   7.76477
 -14.53437  -0.50394   8.04887
 -14.46757  -0.43634   8.20927
 -14.25667  -0.29774   8.19617
 -13.91407  -0.33864   8.26797
 -13.59097  -0.33444   8.23807
 -13.37677  -0.46814   8.38787
 -12.90287  -0.37364   8.17467
 -12.28377  -0.42604   7.93787
 -11.85477  -0.36014   7.76107
 -11.21617  -0.35564   7.49217
 -10.81827  -0.45344   7.22027
 -10.11257  -0.35244   6.96447
  -9.56267  -0.29254   6.62777
  -9.03687  -0.13734   6.15057
  -8.50517  -0.22214   5.79427
  -8.05367  -0.12584   5.45077
  -7.45867  -0.21614   4.86627
  -7.13857  -0.10174   4.40517
  -6.76497  -0.14334   3.92307
  -6.49257  -0.01594   3.39307
  -6.11187  -0.02834   2.97707
  -6.04407  -0.10274   2.63977
  -5.85657  -0.22384   2.19857
  -5.71957  -0.20464   1.73207
  -5.81057  -0.27014   1.39027
  -5.80307  -0.29704   0.85417
  -5.82337  -0.06554   0.63827
  -5.89847  -0.08914   0.10387
  -6.09417  -0.44874  -0.24973
  -6.26267  -0.52664  -0.49543
  -6.60457  -0.52124  -0.80543
  -6.81727  -0.59444  -1.13673
  -7.05507  -0.75784  -1.44723
  -7.53927  -0.87174  -1.68383
  -7.78947  -1.11904  -1.81383
  -8.10537  -1.21964  -1.97593
  -8.32047  -1.08024  -2.12573
  -8.78947  -1.22994  -2.21153
  -9.08967  -1.35384  -2.38763
  -9.31907  -1.38564  -2.37383
  -9.41217  -1.45014  -2.38623
  -9.53277  -1.62834  -2.43343
  -9.59287  -1.48684  -2.36963
  -9.72937  -1.59584  -2.29343
  -9.59727  -1.49854  -2.36383
  -9.48417  -1.64704  -2.43763
  -9.51967  -1.28014  -2.37103
  -9.17197  -1.27854  -2.15963
  -8.79537  -1.43054  -2.06003
  -8.30157  -0.96244  -2.05333
  -7.88347  -0.77374  -1.84983
  -7.45767  -0.65494  -1.62893
  -6.67867  -0.59464  -1.51743
  -6.12847  -0.37204  -1.25533
  -5.45207  -0.20444  -1.03673
  -4.70837  -0.01104  -0.95093
  -3.78107   0.22606  -0.62213
  -2.96627   0.28516  -0.51203
  -2.06347   0.59916  -0.22563
  -1.17947   0.70556  -0.04723
  -0.17827   0.69856  -0.00393
   0.76163   0.83766   0.10967
   1.60123   0.93986   0.22027
   2.60983   1.01986   0.23527
   3.45813   0.98756   0.50527
   4.17453   1.07496   0.55177
   5.02533   0.97726   0.39987
   5.93533   0.95276   0.63787
   6.46073   1.00886   0.53897
   7.20603   0.87886   0.57257
   7.77423   0.75706   0.48047
   8.36203   0.68706   0.35467
   8.71623   0.87766   0.21187
   9.23463   0.84166  -0.12083
   9.39893   0.77056  -0.28753
   9.61593   0.80846  -0.59943
   9.63373   0.89006  -1.02683
   9.66643   0.78176  -1.36983
   9.70853   0.72756  -1.95043
   9.51933   0.50796  -2.18683
   9.16373   0.51526  -2.69393
   9.06293   0.44676  -3.29533
   8.77933   0.41026  -3.85903
   8.44873   0.22536  -4.48113
   8.01103   0.30786  -4.86293
   7.67183   0.31016  -5.44403
   7.29023   0.15376  -6.06873
   6.94423   0.10236  -6.63033
   6.52473   0.02916  -7.19493
   6.06933  -0.10644  -7.62023
   5.72953  -0.30584  -8.32383
   5.17753  -0.29704  -8.86393
   4.73123  -0.27474  -9.44373
   4.46843  -0.37764  -9.90813
   3.93533  -0.33374 -10.47343
   3.73653  -0.25184 -10.89523
   3.35593  -0.49154 -11.29903
   3.21073  -0.47444 -11.86153
   2.91213  -0.44754 -12.18213
   2.83223  -0.55344 -12.51883
   2.69873  -0.60044 -12.85923
   2.81513  -0.65774 -13.06103
   2.82473  -0.65374 -13.27003
   2.93973  -0.69494 -13.29483
   3.01553  -0.44994 -13.25133
   3.24843  -0.41064 -13.13303
   3.44413  -0.53084 -13.11293
   3.72603  -0.26354 -13.03033
   3.80113  -0.25304 -12.72483
   4.25793  -0.04964 -12.46243
   4.48333  -0.07444 -11.94063
   4.71763  -0.02924 -11.58243
   4.95963   0.05676 -11.01373
   5.07673   0.18416 -10.61303
   5.28163   0.35716  -9.83233
   5.32673   0.28846  -9.25973
   5.43383   0.19636  -8.57143
   5.54443   0.29946  -7.89733
   5.59953   0.19846  -7.22353
   5.50063   0.25386  -6.47603
   5.32973   0.12526  -5.77323
   5.30633  -0.16234  -5.03573
   5.24533  -0.35964  -4.24173
   5.06413  -0.36174  -3.37733
   4.75203  -0.50324  -2.48043
   4.51773  -0.71294  -1.84213
   4.32973  -0.75384  -0.97423
   3.95983  -1.01644  -0.18403
   3.65143  -1.01974   0.60117
   3.25653  -1.08704   1.39917
   2.72813  -0.94064   2.17187
   2.20113  -0.94814   2.83537
   1.68443  -1.12044   3.55907
   1.10083  -1.07414   4.21227
   0.57123  -0.98064   4.75407
  -0.15147  -0.98344   5.19567
  -0.65717  -1.13614   5.69307
  -1.30927  -1.08704   6.06127
  -1.88187  -1.02324   6.26657
  -2.29377  -0.97174   6.60507
  -2.94127  -1.02394   6.99277
  -3.39577  -1.10504   7.15737
