********************************************************************************
              CENTRO DE INSTRUMENTACION Y REGISTRO SISMICO  A.C.

    Anaxagoras 814, Col. Narvarte, Benito Juarez, C.P. 03020 Mexico, D.F.
           Tels. 5687 45 42/ 5687 45  82             Fax. 5669 25 12
********************************************************************************
ARCHIVO ESTANDAR DE ACELERACION:
VERSION DEL FORMATO                    : 2.0
NOMBRE DEL ARCHIVO                     : EX0820200623152903
FECHA Y HORA DE CREACION               : 18/AGO/21, 13:42
REF. CATALOGO ACELEROGRAMAS, SMIS 1996 : REGISTRO No.     /PAG.


================================================================================
DATOS DE LA ESTACION:
NOMBRE DE LA ESTACION                  : ESC. SEC. NO. 3, AZOTEA - CENTRO EDIF.1
CLAVE DE LA ESTACION                   : EX08
LOCALIZACION DE LA ESTACION            : Del. Cuauhtémoc, Col. Juárez,          
                                       : Av. Chapultepec, entre Venecia         
                                       : y Niza.                                
                                       :                                        
                                       : 
COORDENADAS DE LA ESTACION             : 19.4236 LAT. N
                                       : 99.1602 LONG. W
ALTITUD (msnm)                         : 2233
TIPO DE SUELO                          : Alto riesgo sísmico                 
                                       :                           
                                       : 
INSTITUCION RESPONSABLE                : CIRES, A. C.
                                       : 

================================================================================
DATOS DEL ACELEROGRAFO:
MODELO DEL ACELEROGRAFO                : RAD_IO14
NUMERO DE SERIE DEL ACELEROGRAFO       : 
NUMERO DE CANALES                      : 3
ORIENTACION C1-C6 (rumbo;orientacion)  : /N00E/+V/N90W
ORIENTACION C7-C12 (rumbo;orientacion) : 
VEL. DE MUESTREO, C1-C6 (muestras/s)   : /100/100/100
VEL. DE MUESTREO, C7-C12 (muestras/s)  : 
ESC. COMPLETA DE SENSORES, C1-C6, (g)  : /2.0/2.0/2.0
ESC. COMPLETA DE SENSORES, C7-C12, (g) : 
FREC. NAT. DE SENSORES, C1-C6, (Hz)    : /30/30/30
FREC. NAT. DE SENSORES, C7-C12, (Hz)   : 
AMORTIGUAMIENTO DE SENSORES, C1-C6     : /0.700/0.700/0.700
AMORTIGUAMIENTO DE SENSORES, C7-C12    : 
INTERVALO DE MUESTREO, C1-C6, (s)      : /0.01/0.01/0.01
INTERVALO DE MUESTREO, C7-C12, (s)     : 
UMBRAL DE DISPARO, C1-C6, (Gal)        : / / /
UMBRAL DE DISPARO, C7-C12, (Gal)       :
MEMORIA DE PREEVENTO (s)               : 60
TIEMPO DE POSEVENTO (s)                : 90


================================================================================
DATOS DEL SISMO:
FECHA DEL SISMO (GMT)                  : 23/JUN/20
HORA EPICENTRO (GMT)                   : 15:29:03.0
MAGNITUD(ES)                           : /Mc=7.4
COORDENADAS DEL EPICENTRO              : 15.80 LAT. N
                                       : 96.13 LONG. W
PROFUNDIDAD FOCAL (km)                 : 22
FUENTE DE LOS DATOS EPICENTRALES       : SSN
                                       : INSTITUTO DE GEOFISICA, UNAM

================================================================================
DATOS DE ESTE REGISTRO:
HORA DE LA PRIMERA MUESTRA (GMT)       : 10:27:25.00
EXACTITUD DEL TIEMPO (s)               : 
DURACION DEL REGISTRO (s), C1-C6       : /540.12/540.12/540.12
DURACION DEL REGISTRO (s), C7-C12      : 
NUM. TOTAL DE MUESTRAS, C1-C6          : /54012/54012/54012
NUM. TOTAL DE MUESTRAS, C7-C12         : 
ACEL. MAX. (Gal), C1-C6                : /45.83528/6.20997/20.58599
ACEL. MAX., C1-C6, EN LA MUESTRA       : /19688/20233/20737
ACEL. MAX. (Gal), C7-C12               : 
ACEL. MAX., C7-C12, EN LA MUESTRA      : 
UNIDADES DE LOS DATOS                  : Gal (cm/s/s)
FACTOR DE DECIMACION                   : 1
FORMATO DATOS (FORTRAN,10 campos/dato) : 3F10.5


================================================================================
CALIDAD DEL ACELEROGRAMA:
REGISTRO DIGITAL COMPLETO CON TIEMPO ABSOLUTO CORRECTO.


================================================================================
COMENTARIOS:














================================================================================
DATOS DE ACELERACION:
---------+---------+---------+---------+---------+---------+---------+---------+
   CANAL-1   CANAL-2   CANAL-3   CANAL-4   CANAL-5   CANAL-6   CANAL-7   CANAL-8
      N00E        +V      N90W
---------+---------+---------+---------+---------+---------+---------+---------+
[...]
 -33.11352  -0.04497  -6.40861
 -32.63462   0.01493  -6.28891
 -32.45512  -0.16467  -6.40861
 -32.45512  -0.34417  -6.22901
 -31.97622  -0.04497  -6.16921
 -31.49742   0.01493  -6.04941
 -30.95872  -0.46397  -5.86991
 -30.36022  -1.00257  -5.92971
 -30.06092  -0.64347  -5.81001
 -29.40252  -0.40407  -5.92971
 -29.16312  -0.10477  -6.04941
 -28.62442  -0.16467  -6.10931
 -28.32512  -0.58367  -6.10931
 -27.96592  -0.82307  -6.16921
 -27.48712  -1.36177  -6.22901
 -27.18782  -1.30187  -6.28891
 -26.58932  -0.88287  -6.16921
 -26.11042  -0.58367  -6.16921
 -25.69152  -0.70337  -5.75021
 -25.33232  -1.06247  -5.27131
 -25.03312  -1.12237  -4.61291
 -24.49442  -1.12237  -4.01441
 -23.95572  -1.24207  -3.41581
 -23.41702  -1.12237  -2.63771
 -22.81842  -0.70337  -1.79971
 -22.16002  -0.40407  -0.96181
 -21.50162  -0.16467  -0.36321
 -20.84322  -0.10477   0.47479
 -19.94542  -0.10477   1.13319
 -19.16732  -0.16467   1.73169
 -18.32932  -0.22447   2.15069
 -17.25192   0.01493   2.50979
 -16.23442   0.55363   2.62949
 -15.27672   0.67333   2.74919
 -14.01972   0.55363   2.62949
 -12.64312   0.37403   2.39009
 -11.08682   0.49373   2.03099
  -9.53062   0.43393   1.79159
  -7.91452   0.67333   1.55209
  -6.11892   0.97263   1.43239
  -4.44292   1.15213   1.19299
  -2.76702   0.97263   1.19299
  -1.03122   0.79303   1.31269
   0.76448   0.73323   1.67189
   2.50028   0.73323   1.91129
   4.35578   0.73323   2.33029
   6.09158   0.85293   2.74919
   7.88718   1.09233   2.98869
   9.56318   1.09233   3.40759
  11.23908   0.73323   3.58719
  12.91498   0.31423   3.82659
  14.47128   0.07473   4.00619
  15.90778  -0.16467   4.18579
  17.10488  -0.34417   4.30549
  18.18228  -0.70337   4.30549
  19.25968  -0.52377   4.42519
  20.39688  -0.88287   4.48499
  21.23488  -1.12237   4.66459
  22.01298  -1.60117   5.02369
  22.43198  -2.25957   5.56239
  22.79108  -2.61867   6.40039
  23.09038  -2.97787   7.05879
  23.44948  -2.85817   7.77709
  23.56918  -2.61867   8.61499
  23.68898  -2.49897   9.57269
  23.62908  -2.67857  10.47049
  23.44948  -2.67857  11.36839
  23.21008  -2.55887  12.20629
  23.15028  -2.49897  13.04429
  22.79108  -2.37927  13.88229
  22.73128  -2.25957  14.66039
  22.49188  -2.19967  15.31879
  22.31228  -1.90047  15.91739
  22.25238  -1.42157  16.27649
  22.01298  -1.30187  16.63559
  21.77358  -1.36177  16.93489
  21.59398  -1.36177  17.23419
  21.59398  -1.48147  17.35389
  21.59398  -1.48147  17.53339
  21.65388  -1.24207  17.41369
  21.95318  -1.00257  17.11449
  22.07288  -0.70337  16.87499
  22.01298  -0.82307  16.63559
  22.07288  -0.82307  16.45599
  22.25238  -0.64347  16.09689
  22.73128  -0.64347  15.61809
  23.09038  -0.88287  15.25889
  23.50938  -1.00257  14.95969
  24.10788  -0.82307  14.60049
  24.70648  -0.76317  14.24139
  25.66418  -1.00257  13.88229
  26.44228  -0.82307  13.58299
  27.57948  -0.82307  13.16399
  28.29778  -1.12237  12.50559
  28.83648  -1.12237  12.08659
  29.79418  -1.00257  11.24869
  30.69198  -1.06247  11.00919
  31.47008  -1.06247  10.35079
  32.36788  -0.94277  10.11139
  32.96648  -0.58367   9.15369
  33.92418  -0.58367   8.79459
  34.40298  -0.52377   7.83689
  34.94168  -0.52377   7.29819
  35.48038  -0.46397   6.28069
  36.13878  -0.70337   5.62229
  36.19868  -0.16467   4.78429
  36.07888  -0.10477   3.70689
  36.25848  -0.16467   3.22809
  36.43808  -0.22447   1.97109
  35.95918   0.31423   0.77399
  36.25848  -0.34417   0.17549
  36.31838   0.19453  -0.54281
  35.60008   0.25433  -1.85961
  36.07888   0.13463  -1.56031
  34.94168   0.25433  -2.99681
  35.18108   0.07473  -3.53551
  35.00158   0.07473  -3.59541
  34.70228  -0.64347  -4.79251
  34.28328  -0.70337  -4.55311
  33.98398  -1.06247  -5.15161
  32.96648  -0.76317  -5.63051
  32.60738  -1.36177  -5.75021
  31.58978  -2.19967  -5.86991
  30.99128  -1.84057  -6.40861
  30.09338  -2.85817  -6.22901
  29.31528  -3.27707  -6.34871
  28.35758  -3.45667  -6.40861
  27.28028  -3.63627  -6.22901
  26.50208  -3.63627  -6.16921
  25.12548  -4.05527  -5.75021
  24.28748  -4.59387  -5.33121
  23.15028  -4.65377  -4.91221
  22.19258  -4.65377  -4.37351
  20.87578  -4.89317  -3.77501
  19.85818  -5.19247  -2.99681
  19.02028  -4.53407  -2.57791
  18.12238  -5.07277  -1.91951
  16.98518  -5.55157  -1.56031
  16.08738  -5.31217  -0.78221
  15.06978  -5.07277  -0.66251
  14.17198  -5.01287  -0.60261
  13.03478  -4.77347  -0.48291
  11.95738  -4.23477  -0.60261
  10.93978  -4.23477  -0.72241
   9.92228  -3.93547  -1.08151
   8.66528  -3.81577  -1.20121
   7.40838  -3.33697  -1.38081
   6.51058  -2.55887  -1.62021
   5.37328  -2.31947  -1.97931
   4.11638  -1.66107  -1.91951
   3.09878  -0.88287  -2.21871
   1.90168  -0.46397  -2.39831
   0.64478  -0.10477  -2.15891
  -0.49252   0.43393  -2.33841
  -1.45022   0.73323  -2.21871
  -2.58742   1.21203  -2.33841
  -3.66482   1.99013  -2.27861
  -4.62252   2.64853  -2.33841
  -5.64002   2.70843  -2.33841
  -6.71742   2.88793  -2.21871
  -7.67512   3.06753  -2.21871
  -8.63282   3.48653  -2.33841
  -9.65032   3.66603  -2.33841
 -10.72772   3.66603  -2.51801
 -11.86492   4.08503  -2.69761
 -13.06202   4.50403  -2.93701
 -14.13942   4.50403  -2.87711
 -15.39642   4.62373  -2.81731
 -16.65332   4.44423  -2.81731
 -17.61102   4.56393  -2.93701
 -18.56872   4.74343  -3.05671
 -19.58622   4.80333  -3.29611
 -20.66362   4.68363  -3.41581
 -21.68122   4.50403  -3.59541
 -22.51912   4.56393  -3.77501
 -23.35712   4.38433  -4.19391
 -24.19512   3.96533  -4.49321
 -24.67392   3.90553  -5.09181
 -25.15282   3.54633  -5.57061
 -25.63162   3.18723  -6.16921
 -26.17032   2.88793  -6.82761
 -26.64912   2.94783  -7.72541
 -27.06812   2.70843  -8.32391
 -27.48712   2.28943  -9.22181
 -27.78642   1.75073  -9.94001
 -28.02582   1.51133 -10.83791
 -28.26522   1.39163 -11.61601
 -28.50462   1.21203 -12.57361
 -28.80392   0.91273 -13.29191
 -29.04332   0.79303 -13.83061
 -29.28282   0.61343 -14.18971
 -29.58202   0.19453 -14.36931
 -29.70172  -0.04497 -14.18971
 -30.00102  -0.04497 -13.95031
 -30.42002  -0.22447 -13.65101
 -30.77912  -0.52377 -13.05251
 -31.13832  -0.76317 -12.57361
 -31.43752  -0.76317 -11.85541
 -31.85652  -0.76317 -11.19701
 -32.27552  -1.00257 -10.71811
 -32.63462  -1.06247  -9.99991
 -33.11352  -1.06247  -9.58091
 -33.65222  -1.30187  -9.28161
 -34.19092  -1.60117  -8.98231
 -34.66972  -1.78077  -8.86261
 -35.20842  -1.66107  -8.92251
 -35.56752  -1.78077  -8.92251
 -35.98652  -2.02017  -9.22181
 -36.82452  -2.02017  -9.34151
 -37.96172  -1.48147 -10.05971
 -39.03912  -1.42157 -10.71811
 -38.68002  -1.72087 -10.41891
 -38.38072  -2.43917 -10.35901
 -39.09902  -2.61867  -9.94001
 -39.63772  -2.97787  -9.46121
 -40.29612  -1.84057  -9.76051
 -39.75742  -0.34417  -9.70061
 -39.63772  -0.34417  -9.10211
 -40.23622  -1.96027  -7.78521
 -40.77492  -3.21727  -6.16921
 -40.95452  -2.43917  -5.03191
 -40.53552  -0.64347  -4.19391
 -40.41582  -0.16467  -3.05671
 -40.71512  -0.64347  -1.62021
 -40.83482  -0.88287  -0.18371
 -40.59542  -0.76317   1.19299
 -40.23622  -0.34417   2.68939
 -40.17642  -0.16467   4.06609
 -39.81722   0.31423   5.08359
 -39.03912   0.37403   5.98139
 -38.02162  -0.28437   6.52009
 -37.18362  -0.04497   7.11869
 -36.34572   1.09233   6.93909
 -35.74712   1.93033   6.69969
 -34.72962   1.63103   6.34049
 -33.41282   0.79303   5.98139
 -31.97622   1.03243   5.50259
 -30.71932   1.21203   4.72449
 -29.82152   1.15213   4.12589
 -28.80392   1.75073   3.46749
 -27.78642   2.05003   2.74919
 -26.46962   2.16973   2.33029
 -25.21262   1.75073   2.15069
 -23.95572   1.69083   2.09079
 -22.81842   1.75073   2.15069
 -22.04032   1.81053   2.03099
 -21.02282   1.99013   2.15069
 -20.06512   2.40913   2.15069
 -18.98772   2.70843   2.21049
 -18.03002   2.46893   2.39009
 -17.13222   2.16973   2.44999
 -15.93512   2.22953   2.44999
 -14.85772   1.99013   2.44999
 -13.90002   1.63103   2.27039
 -12.94232   1.93033   1.91129
 -11.74522   2.16973   1.49229
 -10.54812   2.10983   1.13319
  -9.41092   1.99013   0.77399
  -8.03422   1.81053   0.41489
  -6.77732   1.27183   0.17549
  -5.52032   1.09233   0.05579
  -3.96412   1.51133  -0.18371
  -2.46772   2.22953  -0.42311
  -0.79182   2.40913  -0.48291
   0.58488   2.40913  -0.24351
   1.96158   2.22953   0.11559
   3.51778   1.99013   0.59449
   5.07398   1.99013   1.13319
   6.69008   2.16973   1.67189
   8.00688   2.58873   2.21049
   9.56318   2.58873   2.92879
  11.05948   2.28943   3.70689
  12.55588   2.22953   4.36529
  13.93258   1.99013   4.96389
  15.12968   1.75073   5.50259
  16.32678   1.51133   5.92159
  17.70338   1.45143   6.22079
  18.96038   1.33173   6.28069
  19.97788   1.21203   6.28069
  20.81588   1.03243   6.28069
  21.65388   0.79303   6.10109
  22.49188   0.13463   5.98139
  23.38968  -0.46397   5.86169
  24.22758  -0.28437   5.50259
  24.94588   0.07473   5.44269
  25.66418  -0.10477   5.74199
  26.32258  -0.94277   5.98139
  26.98098  -1.54127   6.16099
  27.57948  -1.42157   6.46029
  28.11818  -1.36177   6.99889
  28.71678  -1.24207   7.65739
  29.37518  -0.94277   8.25589
  30.21318  -0.94277   8.79459
  30.63208  -0.94277   9.27339
  30.99128  -0.70337   9.81209
  31.41028  -0.82307  10.23109
  31.88908  -0.88287  10.53039
  32.42778  -0.82307  10.70999
  32.90658  -0.52377  10.53039
  33.26578   0.31423  10.23109
  33.62488   0.73323   9.69239
  34.04388   1.15213   9.09389
  34.52268   1.33173   8.19609
  34.94168   1.63103   7.41789
  34.94168   2.16973   6.63979
  35.06138   2.64853   5.32299
  35.36068   3.18723   4.18579
  35.65998   3.30693   2.98869
  36.01908   3.42663   2.03099
  36.01908   4.02523   1.13319
  36.25848   4.02523   0.47479
  36.43808   4.50403   0.47479
  36.55778   4.62373   0.29519
  36.67748   4.32453   0.41489
  36.85708   4.62373   0.47479
  37.09648   5.10263   0.65429
  37.87458   5.40183   1.07329
  37.99428   5.64133   0.89369
  39.07168   5.70113   1.79159
  40.92718   4.92303   2.39009
  41.22648   4.50403   2.39009
  41.52578   4.86313   2.44999
  41.64548   4.98293   2.39009
  41.76518   6.00043   1.19299
  43.08198   6.06023   1.07329
  43.44108   5.34203   0.65429
  44.45868   3.42663   0.71419
  45.35648   3.24713   0.83389
  45.29658   4.26463  -0.24351
  45.35648   5.64133  -1.32091
  45.35648   5.76103  -1.68001
  45.59588   4.92303  -2.45811
  45.59588   3.84563  -2.39831
  45.83528   3.24713  -2.09901
  45.35648   2.82813  -1.91951
  45.05718   2.94783  -2.09901
  44.27908   3.48653  -2.09901
  43.44108   3.30693  -2.51801
  42.36368   3.12743  -1.97931
  41.16658   3.06753  -1.50051
  39.13158   2.82813  -0.78221
  37.57528   1.75073   0.17549
  35.83948   1.45143   0.89369
  34.76208   1.39163   1.07329
  32.72708   1.81053   1.37259
  30.57228   1.75073   1.49229
  28.41748   1.81053   1.85139
  26.44228   1.45143   2.21049
  24.22758   0.73323   2.68939
  22.07288  -0.04497   2.80909
  20.09758  -0.16467   2.68939
  18.24208   0.25433   2.09079
  16.02748  -0.22447   1.61199
  13.39388   0.13463   0.71419
  11.11938   0.55363  -0.00411
   8.90478   0.79303  -0.96181
   6.69008   0.31423  -1.73991
   4.41558  -0.52377  -2.57791
   2.85938  -0.82307  -3.29611
   1.06368  -0.70337  -4.25381
  -0.91152  -0.76317  -5.21151
  -3.06632  -0.46397  -5.98961
  -4.92182  -0.40407  -6.70791
  -6.65762  -0.46397  -7.00711
  -8.03422  -1.06247  -7.18671
  -9.29122  -1.36177  -7.06701
 -10.48832  -1.42157  -6.94731
 -11.92482  -1.72087  -6.76771
 -13.42122  -1.48147  -6.82761
 -14.79782  -1.12237  -6.52831
 -15.87522  -1.00257  -6.04941
 -16.71322  -1.30187  -5.27131
 -17.43152  -1.36177  -4.61291
 -17.79062  -1.66107  -3.89471
 -18.32932  -1.72087  -3.35601
 -18.92782  -1.60117  -2.99681
 -19.58622  -1.42157  -2.99681
 -19.88552  -1.24207  -3.05671
 -19.76582  -1.48147  -2.93701
 -19.70602  -1.66107  -2.87711
 -19.58622  -1.78077  -2.75741
 -19.46652  -1.72087  -2.87711
 -19.16732  -1.84057  -2.99681
 -19.04752  -2.25957  -3.59541
 -18.86802  -2.61867  -3.77501
 -18.74832  -2.49897  -3.89471
 -18.38912  -2.31947  -3.83481
 -18.44902  -2.37927  -3.83481
 -18.56872  -2.85817  -3.35601
 -18.62862  -2.79827  -2.87711
 -18.50892  -2.73837  -2.63771
 -18.56872  -2.97787  -2.33841
 -18.80812  -3.21727  -2.15891
 -19.04752  -2.91797  -1.91951
 -19.46652  -2.61867  -1.56031
 -19.88552  -2.79827  -1.14131
 -20.48412  -2.91797  -0.48291
 -21.08262  -2.79827   0.11559
 -21.80092  -3.27707   0.41489
 -22.69872  -3.75597   0.77399
 -23.47682  -4.05527   1.13319
 -24.37462  -3.87567   1.55209
 -25.27252  -3.63627   2.03099
 -26.29002  -3.81577   2.44999
 -27.36742  -3.93547   2.92879
 -28.38492  -3.69607   3.46749
 -29.52222  -3.57637   4.06609
 -30.71932  -3.51657   4.72449
 -31.67702  -3.45667   5.50259
 -32.39522  -2.97787   6.34049
 -33.05362  -2.61867   7.41789
 -33.59232  -2.37927   8.49529
 -33.89162  -2.19967   9.51289
 -34.13102  -2.02017  10.65009
 -34.37042  -2.07997  11.78739
 -34.55002  -1.96027  12.92459
 -34.37042  -1.36177  13.88229
 -34.01132  -0.82307  14.72029
 -33.83172  -1.12237  15.55819
 -33.59232  -1.54127  16.21659
 -33.29302  -1.72087  16.75529
 -32.99382  -1.84057  17.05459
 -32.63462  -2.07997  17.11449
 -32.51492  -1.78077  16.87499
 -32.45512  -1.54127  16.81519
 -32.15582  -1.42157  16.27649
 -31.49742  -1.72087  15.85749
 -30.30032  -2.67857  15.55819
 -31.31782  -2.61867  14.48079
 -32.75442  -2.07997  13.22389
 -32.33542  -2.13987  12.74499
 -31.25802  -1.90047  11.66759
 -29.94122  -3.15737  11.66759
 -29.10322  -5.25237  12.32599
 -28.86382  -6.09027  12.02679
 -28.20542  -4.11507  11.06909
 -27.72652  -1.72087   9.93179
 -27.78642  -1.30187   9.21359
 -27.24772  -3.15737  10.17129
 -26.58932  -5.49177  10.94939
 -26.34992  -5.85087  11.12889
 -25.81122  -4.77347  11.06909
 -25.03312  -2.79827  10.17129
 -24.37462  -0.58367   8.73469
 -23.83602  -1.24207   7.89679
 -23.35712  -3.09757   7.77709
 -23.11772  -3.57637   7.53759
 -22.75862  -2.67857   6.81939
 -22.39942  -2.02017   5.20329
 -21.26222  -2.19967   3.70689
 -20.06512  -2.79827   1.73169
 -19.10742  -2.37927  -0.48291
 -18.62862  -1.18217  -2.51801
 -18.32932  -0.64347  -4.25381
 -17.67092  -1.18217  -5.75021
 -16.83292  -2.31947  -7.18671
 -15.51612  -3.39677  -8.62321
 -14.01972  -3.93547  -9.64081
 -12.58322  -2.73837 -10.83791
 -11.50582  -0.94277 -11.67581
 -10.60802  -0.34417 -12.09481
  -9.77002  -0.70337 -11.85541
  -8.99192  -1.66107 -11.25681
  -7.97442  -2.85817 -10.53861
  -6.53782  -3.51657  -9.76051
  -5.22102  -3.45667  -9.04221
  -4.02392  -3.03767  -8.26411
  -3.06632  -2.49897  -7.66551
  -2.22832  -2.19967  -6.94731
  -1.86922  -2.19967  -6.34871
  -1.21072  -2.49897  -5.92971
  -0.19322  -3.09757  -5.39101
   0.76448  -3.63627  -5.03191
   1.54258  -3.75597  -4.97211
   2.02138  -3.33697  -5.33121
   2.32068  -2.49897  -5.81001
   2.56008  -1.54127  -6.28891
