********************************************************************************
              CENTRO DE INSTRUMENTACION Y REGISTRO SISMICO  A.C.

    Anaxagoras 814, Col. Narvarte, Benito Juarez, C.P. 03020 Mexico, D.F.
           Tels. 5687 45 42/ 5687 45  82             Fax. 5669 25 12
********************************************************************************
ARCHIVO ESTANDAR DE ACELERACION:
VERSION DEL FORMATO                    : 2.0
NOMBRE DEL ARCHIVO                     : EX0920200623152903
FECHA Y HORA DE CREACION               : 18/AGO/21, 13:42
REF. CATALOGO ACELEROGRAMAS, SMIS 1996 : REGISTRO No.     /PAG.


================================================================================
DATOS DE LA ESTACION:
NOMBRE DE LA ESTACION                  : ESC. SEC. NO. 3, BIBLIOTECA
CLAVE DE LA ESTACION                   : EX09
LOCALIZACION DE LA ESTACION            : Del. Cuauhtémoc, Col. Juárez,          
                                       : Av. Chapultepec, entre Venecia         
                                       : y Niza.                                
                                       :                                        
                                       : 
COORDENADAS DE LA ESTACION             : 19.4236 LAT. N
                                       : 99.1602 LONG. W
ALTITUD (msnm)                         : 2233
TIPO DE SUELO                          : Alto riesgo sísmico                 
                                       :                           
                                       : 
INSTITUCION RESPONSABLE                : CIRES, A. C.
                                       : 

================================================================================
DATOS DEL ACELEROGRAFO:
MODELO DEL ACELEROGRAFO                : RAD_IO14
NUMERO DE SERIE DEL ACELEROGRAFO       : 
NUMERO DE CANALES                      : 3
ORIENTACION C1-C6 (rumbo;orientacion)  : /N00E/+V/N90W
ORIENTACION C7-C12 (rumbo;orientacion) : 
VEL. DE MUESTREO, C1-C6 (muestras/s)   : /100/100/100
VEL. DE MUESTREO, C7-C12 (muestras/s)  : 
ESC. COMPLETA DE SENSORES, C1-C6, (g)  : /2.0/2.0/2.0
ESC. COMPLETA DE SENSORES, C7-C12, (g) : 
FREC. NAT. DE SENSORES, C1-C6, (Hz)    : /30/30/30
FREC. NAT. DE SENSORES, C7-C12, (Hz)   : 
AMORTIGUAMIENTO DE SENSORES, C1-C6     : /0.700/0.700/0.700
AMORTIGUAMIENTO DE SENSORES, C7-C12    : 
INTERVALO DE MUESTREO, C1-C6, (s)      : /0.01/0.01/0.01
INTERVALO DE MUESTREO, C7-C12, (s)     : 
UMBRAL DE DISPARO, C1-C6, (Gal)        : / / /
UMBRAL DE DISPARO, C7-C12, (Gal)       :
MEMORIA DE PREEVENTO (s)               : 60
TIEMPO DE POSEVENTO (s)                : 90


================================================================================
DATOS DEL SISMO:
FECHA DEL SISMO (GMT)                  : 23/JUN/20
HORA EPICENTRO (GMT)                   : 15:29:03.0
MAGNITUD(ES)                           : /Mc=7.4
COORDENADAS DEL EPICENTRO              : 15.80 LAT. N
                                       : 96.13 LONG. W
PROFUNDIDAD FOCAL (km)                 : 22
FUENTE DE LOS DATOS EPICENTRALES       : SSN
                                       : INSTITUTO DE GEOFISICA, UNAM

================================================================================
DATOS DE ESTE REGISTRO:
HORA DE LA PRIMERA MUESTRA (GMT)       : 10:27:25.00
EXACTITUD DEL TIEMPO (s)               : 
DURACION DEL REGISTRO (s), C1-C6       : /540.01/540.01/540.01
DURACION DEL REGISTRO (s), C7-C12      : 
NUM. TOTAL DE MUESTRAS, C1-C6          : /54001/54001/54001
NUM. TOTAL DE MUESTRAS, C7-C12         : 
ACEL. MAX. (Gal), C1-C6                : /42.2096/5.47406/17.77572
ACEL. MAX., C1-C6, EN LA MUESTRA       : /19676/19198/20056
ACEL. MAX. (Gal), C7-C12               : 
ACEL. MAX., C7-C12, EN LA MUESTRA      : 
UNIDADES DE LOS DATOS                  : Gal (cm/s/s)
FACTOR DE DECIMACION                   : 1
FORMATO DATOS (FORTRAN,10 campos/dato) : 3F10.5


================================================================================
CALIDAD DEL ACELEROGRAMA:
REGISTRO DIGITAL COMPLETO CON TIEMPO ABSOLUTO CORRECTO.


================================================================================
COMENTARIOS:














================================================================================
DATOS DE ACELERACION:
---------+---------+---------+---------+---------+---------+---------+---------+
   CANAL-1   CANAL-2   CANAL-3   CANAL-4   CANAL-5   CANAL-6   CANAL-7   CANAL-8
      N00E        +V      N90W
---------+---------+---------+---------+---------+---------+---------+---------+
[...]
 -28.41930  -3.44434  -3.76962
 -28.95800  -3.44434  -4.00902
 -29.43680  -3.38444  -4.18862
 -29.85580  -3.26474  -4.30832
 -30.21500  -3.08524  -4.48792
 -30.39450  -3.02534  -4.66742
 -30.63390  -2.90564  -4.84702
 -30.81350  -2.90564  -4.96672
 -31.11280  -2.78594  -5.08642
 -31.41210  -2.60634  -5.20612
 -31.65150  -2.42684  -5.14632
 -31.83100  -2.18734  -5.14632
 -31.83100  -1.88814  -5.20612
 -32.01060  -1.58884  -5.02662
 -32.01060  -1.28954  -4.96672
 -32.01060  -0.99024  -4.90692
 -31.95070  -0.69104  -4.84702
 -31.83100  -0.51144  -4.78722
 -31.59160  -0.33184  -4.72732
 -31.41210  -0.15234  -4.78722
 -31.29230   0.14696  -4.66742
 -30.93320   0.44626  -4.66742
 -30.63390   0.68566  -4.60762
 -30.27480   0.86526  -4.48792
 -29.91570   1.10466  -4.30832
 -29.49670   1.34406  -4.18862
 -28.95800   1.58346  -4.18862
 -28.29960   1.76306  -4.06892
 -27.70100   1.82296  -4.12882
 -26.92290   1.82296  -3.94922
 -26.02510   1.70316  -3.70982
 -25.06740   1.70316  -3.53022
 -24.10970   1.52366  -3.23092
 -23.21190   1.34406  -3.11122
 -22.13450   1.16446  -2.81192
 -21.17680   0.92506  -2.45282
 -20.21920   0.80536  -2.09372
 -19.26150   0.62586  -1.73462
 -18.24390   0.56596  -1.49512
 -17.16660   0.44626  -1.19592
 -16.02930   0.44626  -0.95642
 -14.65260   0.44626  -0.59732
 -13.45550   0.44626  -0.35792
 -12.01900   0.20686  -0.17832
 -10.70220   0.02726   0.00118
  -9.26570  -0.21214   0.24068
  -7.94890  -0.45154   0.48008
  -6.69190  -0.69104   0.77938
  -5.43500  -0.75084   0.89908
  -4.23790  -0.69104   1.19828
  -3.10060  -0.63114   1.49758
  -1.84370  -0.57134   1.79688
  -0.64660  -0.57134   2.09618
   0.55050  -0.45154   2.27568
   1.62790  -0.33184   2.51518
   2.82500  -0.33184   2.75458
   4.02210  -0.33184   2.99398
   5.15940  -0.15234   3.23338
   6.23680  -0.21214   3.53268
   7.31420  -0.03264   3.89178
   8.45140  -0.03264   4.19108
   9.46890   0.08716   4.55018
  10.48650   0.08716   4.96918
  11.44420   0.14696   5.44808
  12.34200   0.08716   5.86698
  13.18000   0.02726   6.28598
  14.01790  -0.15234   6.58528
  14.79600  -0.33184   7.00428
  15.63400  -0.51144   7.54298
  16.35230  -0.63114   7.90208
  16.95080  -0.75084   8.38098
  17.36980  -0.81074   8.85978
  17.72890  -0.93044   9.33858
  18.02820  -0.93044   9.81748
  18.26760  -1.10994  10.29628
  18.62680  -1.16984  10.71528
  18.80630  -1.34944  11.25398
  19.10560  -1.46914  11.61308
  19.34500  -1.52894  12.09198
  19.58440  -1.70854  12.51088
  19.82390  -1.76844  12.87008
  20.12310  -1.82824  13.28908
  20.36260  -1.88814  13.58828
  20.48230  -1.94794  14.00728
  20.72170  -2.00784  14.24668
  21.02100  -2.00784  14.48618
  21.43990  -2.06764  14.78538
  21.79910  -2.18734  14.90518
  22.27790  -2.42684  15.08468
  22.63710  -2.54654  15.08468
  23.17570  -2.66624  14.96498
  23.77430  -2.66624  14.90518
  24.31300  -2.78594  14.78538
  24.91150  -2.78594  14.72558
  25.45020  -2.96554  14.54598
  25.98890  -2.96554  14.30658
  26.46780  -2.84574  14.12698
  26.88680  -2.84574  13.88758
  27.24590  -2.78594  13.52848
  27.60500  -2.66624  13.22918
  27.96410  -2.60634  12.92988
  28.20360  -2.48664  12.51088
  28.56270  -2.30704  12.15178
  28.80210  -2.18734  11.73278
  29.10140  -2.06764  11.37368
  29.22110  -2.00784  10.95468
  29.40070  -1.76844  10.41598
  29.58020  -1.64864   9.99698
  29.87950  -1.34944   9.45828
  30.11890  -1.28954   8.91958
  30.29850  -1.22974   8.32108
  30.59780  -1.10994   7.78238
  30.95690  -1.05014   7.12398
  31.19630  -1.05014   6.52538
  31.37590  -0.87054   5.80718
  31.55550  -0.93044   5.26848
  31.73500  -0.81074   4.49038
  31.97440  -0.87054   3.77208
  32.09410  -0.99024   3.05388
  32.21390  -0.93044   2.45528
  32.27370  -0.99024   1.79688
  32.39340  -0.93044   1.13848
  32.39340  -0.93044   0.53988
  32.39340  -0.93044   0.00118
  32.33360  -0.99024  -0.53752
  32.27370  -0.99024  -1.01632
  32.03430  -1.16984  -1.55502
  31.67520  -1.16984  -1.97402
  31.37590  -1.28954  -2.27322
  31.01680  -1.58884  -2.57252
  30.65760  -1.76844  -2.81192
  30.29850  -2.00784  -3.11122
  29.93940  -2.18734  -3.41052
  29.64010  -2.24724  -3.53022
  29.22110  -2.48664  -3.64992
  28.80210  -2.54654  -3.70982
  28.38310  -2.66624  -3.70982
  27.90430  -2.90564  -3.76962
  27.36560  -3.14504  -3.70982
  26.70720  -3.26474  -3.59012
  26.04880  -3.44434  -3.53022
  25.33050  -3.68374  -3.41052
  24.49260  -3.74364  -3.29082
  23.71440  -3.80344  -3.11122
  22.75680  -3.86334  -2.93172
  21.73920  -3.74364  -2.81192
  20.78150  -3.62394  -2.75212
  19.64430  -3.50414  -2.81192
  18.38730  -3.32464  -2.69222
  17.25010  -3.14504  -2.63242
  15.99310  -2.90564  -2.69222
  14.67630  -2.60634  -2.81192
  13.53910  -2.30704  -2.93172
  12.28210  -2.12754  -3.05142
  11.02520  -1.88814  -3.17112
   9.76820  -1.58884  -3.41052
   8.45140  -1.34944  -3.59012
   7.19440  -0.99024  -3.76962
   5.81780  -0.69104  -3.94922
   4.62070  -0.39174  -4.18862
   3.42360  -0.33184  -4.30832
   2.16660  -0.15234  -4.42802
   1.02940   0.08716  -4.60762
  -0.10790   0.26666  -4.78722
  -1.24510   0.32656  -4.90692
  -2.26260   0.38636  -4.96672
  -3.34000   0.50606  -4.96672
  -4.53710   0.56596  -4.90692
  -5.79410   0.68566  -4.90692
  -7.05100   0.92506  -4.72732
  -8.24820   1.22436  -4.60762
  -9.32550   1.28426  -4.48792
 -10.46280   1.52366  -4.30832
 -11.54020   1.58346  -4.18862
 -12.61760   1.76306  -4.06892
 -13.69500   1.82296  -4.00902
 -14.65260   1.88276  -3.94922
 -15.67020   2.00246  -3.94922
 -16.56800   2.18206  -3.94922
 -17.40600   2.48136  -4.06892
 -18.12420   2.60106  -4.12882
 -18.72280   2.72076  -4.24852
 -19.20160   2.84046  -4.36822
 -19.68050   2.78056  -4.60762
 -20.09940   2.72076  -4.90692
 -20.51840   2.60106  -5.14632
 -20.93740   2.54116  -5.44562
 -21.29650   2.30176  -5.80472
 -21.59580   2.12216  -6.22372
 -21.83520   1.94266  -6.58282
 -22.07470   1.70316  -6.94192
 -22.43380   1.46376  -7.24122
 -22.73310   1.28426  -7.54052
 -23.15210   1.04476  -7.83982
 -23.51120   0.98496  -8.07922
 -23.93020   1.04476  -8.25882
 -24.28930   1.10466  -8.37852
 -24.70830   1.16446  -8.43832
 -25.18710   1.34406  -8.55802
 -25.66600   1.58346  -8.55802
 -26.20470   1.70316  -8.49822
 -26.80320   1.88276  -8.55802
 -27.40180   2.06236  -8.43832
 -28.00030   2.24186  -8.31862
 -28.77840   2.36156  -8.25882
 -29.49670   2.36156  -8.13902
 -30.27480   2.42146  -8.13902
 -31.05290   2.36156  -8.25882
 -31.89090   2.30176  -8.25882
 -32.78870   2.24186  -8.31862
 -33.62670   1.94266  -8.37852
 -34.52450   1.64336  -8.43832
 -35.24280   1.40396  -8.61792
 -35.84130   1.22436  -8.67772
 -36.38000   0.92506  -8.61792
 -36.73920   0.62586  -8.67772
 -37.09830   0.26666  -8.73762
 -37.51730  -0.09244  -8.67772
 -37.87640  -0.39174  -8.55802
 -38.11580  -0.69104  -8.43832
 -38.29540  -0.87054  -8.25882
 -38.35520  -1.16984  -8.01932
 -38.35520  -1.46914  -7.83982
 -38.35520  -1.58884  -7.36092
 -38.41510  -1.64864  -7.06162
 -38.41510  -1.64864  -6.70252
 -38.23550  -1.64864  -6.22372
 -37.99610  -1.64864  -5.74482
 -37.99610  -1.70854  -5.14632
 -37.81650  -1.40924  -4.54772
 -37.57710  -1.10994  -4.00902
 -37.27780  -1.05014  -3.47032
 -36.91870  -0.81074  -2.93172
 -36.67930  -0.39174  -2.39302
 -36.26030  -0.21214  -1.91412
 -35.90120   0.02726  -1.49512
 -35.36250   0.26666  -0.95642
 -34.88360   0.56596  -0.53752
 -34.28510   0.86526  -0.17832
 -33.68650   1.04476   0.12098
 -33.14780   1.10466   0.53988
 -32.54930   1.22436   0.83918
 -31.77120   1.52366   1.19828
 -31.11280   1.70316   1.37788
 -30.27480   1.76306   1.61728
 -29.31710   1.82296   1.79688
 -28.47920   1.94266   1.97648
 -27.70100   2.06236   2.09618
 -26.80320   2.12216   2.15598
 -25.90540   2.18206   2.21588
 -24.94770   2.24186   2.27568
 -23.87030   2.42146   2.33558
 -22.85280   2.42146   2.33558
 -21.83520   2.36156   2.39538
 -20.75790   2.30176   2.33558
 -19.68050   2.18206   2.33558
 -18.66290   2.00246   2.45528
 -17.64540   1.82296   2.33558
 -16.68770   1.70316   2.33558
 -15.73000   1.64336   2.33558
 -14.71250   1.52366   2.27568
 -13.63510   1.40396   2.15598
 -12.55770   1.28426   2.15598
 -11.65990   1.10466   2.15598
 -10.70220   0.98496   2.21588
  -9.74450   0.74556   2.33558
  -8.78680   0.62586   2.33558
  -7.88900   0.50606   2.39538
  -6.99120   0.44626   2.45528
  -5.97370   0.44626   2.63488
  -5.01600   0.44626   2.75458
  -4.11820   0.56596   2.93408
  -3.16050   0.56596   3.17358
  -2.14290   0.74556   3.41298
  -1.18530   0.62586   3.71228
  -0.10790   0.56596   3.77208
   0.84980   0.62586   4.01148
   1.92720   0.68566   4.43048
   3.12430   0.68566   4.72978
   4.20170   0.80536   5.14878
   5.39880   0.98496   5.38818
   6.47620   1.10466   5.74728
   7.49370   1.22436   6.04658
   8.57110   1.46376   6.34588
   9.52880   1.64336   6.70498
  10.42660   1.70316   6.88458
  11.32440   1.94266   7.00428
  12.28210   2.00246   7.12398
  13.23980   2.24186   7.12398
  14.25730   2.24186   7.24368
  15.21500   2.24186   7.18378
  16.35230   2.24186   7.18378
  17.25010   2.12216   7.06408
  18.26760   2.06236   6.94438
  19.22530   1.88276   6.88458
  20.12310   1.70316   6.88458
  20.96110   1.52366   6.88458
  21.67940   1.40396   6.88458
  22.33780   1.28426   6.76488
  23.11590   1.16446   6.64518
  23.95390   1.04476   6.46558
  24.61230   0.86526   6.46558
  25.21080   0.74556   6.28598
  26.04880   0.74556   6.16628
  26.70720   0.86526   6.10648
  27.36560   1.04476   5.86698
  28.02400   1.16446   5.50788
  28.86200   1.40396   5.26848
  29.52040   1.46376   5.02908
  30.11890   1.58346   4.61008
  30.77730   1.76306   4.25098
  31.49560   1.64336   3.89178
  32.21390   1.76306   3.59248
  32.81240   1.88276   3.35308
  33.35110   1.94266   2.99398
  33.94970   1.70316   2.63488
  34.48830   1.52366   2.33558
  35.02700   1.52366   1.91658
  35.56570   1.70316   1.55748
  36.10440   1.64336   1.25818
  36.58330   1.70316   0.95888
  37.18180   1.76306   0.59978
  37.78040   1.76306   0.36038
  38.31910   1.88276   0.12098
  38.91760   1.94266  -0.05862
  39.63590   1.88276  -0.41772
  40.23440   2.00246  -0.65722
  40.77310   2.06236  -0.83672
  41.13230   2.00246  -0.89662
  41.55120   1.94266  -0.83672
  41.85050   1.94266  -0.77692
  41.97020   1.82296  -0.71702
  42.08990   1.82296  -0.65722
  42.20960   1.76306  -0.65722
  42.20960   1.70316  -0.47762
  42.14980   1.70316  -0.41772
  41.97020   1.76306  -0.17832
  41.73080   1.82296   0.12098
  41.43150   1.88276   0.42018
  40.89280   1.94266   0.77938
  40.41400   2.12216   0.95888
  39.93520   2.18206   1.13848
  39.39650   2.36156   1.31808
  38.67820   2.42146   1.55748
  37.90010   2.42146   1.79688
  37.12200   2.54116   2.03628
  36.28400   2.72076   2.15598
  35.44600   2.84046   2.27568
  34.54820   3.07986   2.45528
  33.71020   3.31926   2.69468
  32.87230   3.55866   2.87428
  31.91460   3.55866   3.05388
  30.83720   3.67846   3.11368
  29.75980   3.67846   3.17358
  28.62260   3.67846   3.29328
  27.36560   3.67846   3.11368
  26.04880   3.49886   2.87428
  24.79180   3.31926   2.69468
  23.29550   3.07986   2.39538
  21.79910   2.66086   1.97648
  20.24280   2.36156   1.49758
  18.56690   1.94266   0.89908
  16.89100   1.58346   0.24068
  15.27490   1.22436  -0.35792
  13.71860   0.80536  -1.07612
  12.04270   0.50606  -1.85432
  10.42660   0.20686  -2.57252
   8.87040  -0.03264  -3.41052
   7.31420  -0.21214  -4.18862
   5.75790  -0.51144  -4.96672
   4.20170  -0.81074  -5.62512
   2.70530  -1.05014  -6.22372
   1.14910  -1.40924  -6.82222
  -0.28740  -1.64864  -7.36092
  -1.78380  -2.00784  -7.77992
  -3.22030  -2.24724  -8.19892
  -4.59700  -2.36694  -8.43832
  -5.85390  -2.60634  -8.73762
  -6.93130  -2.78594  -8.85732
  -8.06860  -2.90564  -8.85732
  -9.20580  -3.02534  -8.79742
 -10.22340  -3.08524  -8.61792
 -11.18100  -2.96554  -8.43832
 -12.25840  -2.96554  -8.13902
 -13.21610  -2.96554  -7.77992
 -14.23370  -2.96554  -7.30112
 -15.19130  -2.96554  -6.76242
 -16.08920  -2.84574  -6.22372
 -16.98700  -2.90564  -5.56532
 -17.82500  -2.90564  -4.90692
 -18.54320  -2.90564  -4.24852
 -19.26150  -3.02534  -3.47032
 -19.91990  -3.02534  -2.81192
 -20.51840  -3.14504  -2.09372
 -21.11700  -3.20494  -1.55502
 -21.71550  -3.26474  -0.95642
 -22.19440  -3.26474  -0.23822
 -22.67320  -3.20494   0.42018
 -23.03230  -3.14504   1.07858
 -23.39150  -3.02534   1.49758
 -23.75060  -2.90564   1.97648
 -23.99000  -2.78594   2.45528
 -24.04990  -2.60634   2.93408
 -24.16960  -2.36694   3.23338
 -24.28930  -2.18734   3.53268
 -24.40900  -2.00784   3.77208
 -24.58860  -1.88814   4.07138
 -24.70830  -1.70854   4.31078
 -24.76810  -1.40924   4.49038
 -24.88790  -1.22974   4.66988
 -25.00760  -1.10994   4.84948
 -25.12730  -1.05014   4.96918
 -25.12730  -0.93044   5.26848
 -25.18710  -0.81074   5.50788
 -25.24700  -0.81074   5.68748
 -25.30680  -0.75084   5.92688
 -25.54630  -0.75084   6.22618
 -25.72580  -0.81074   6.64518
 -25.84550  -0.75084   7.00428
 -25.96520  -0.81074   7.36338
 -25.96520  -1.05014   7.84228
 -26.02510  -1.10994   8.26118
 -26.20470  -1.34944   8.62038
 -26.26450  -1.46914   9.03938
 -26.38420  -1.52894   9.39848
 -26.50390  -1.58884   9.69778
 -26.62360  -1.76844   9.99698
 -26.74340  -1.70854  10.23648
 -26.98280  -1.76844  10.47588
 -27.04260  -1.88814  10.71528
 -27.16230  -1.82824  10.83498
 -27.28210  -1.82824  10.95468
 -27.28210  -1.82824  11.07438
 -27.28210  -1.82824  11.19408
 -27.40180  -1.88814  11.25398
 -27.34190  -1.82824  11.19408
 -27.28210  -1.82824  11.13428
 -27.28210  -1.94794  11.01458
 -27.16230  -1.94794  10.89488
 -27.04260  -2.12754  10.83498
 -26.86310  -2.24724  10.59558
 -26.50390  -2.30704  10.23648
 -26.26450  -2.48664   9.99698
 -26.08500  -2.60634   9.87728
 -25.90540  -2.60634   9.63788
 -25.54630  -2.60634   9.27878
 -25.06740  -2.78594   8.91958
 -24.58860  -3.02534   8.50068
 -23.99000  -2.96554   8.08168
 -23.33160  -3.14504   7.72248
 -22.91260  -3.32464   7.48308
 -22.49370  -3.32464   7.06408
 -21.95500  -3.44434   6.64518
 -21.35640  -3.32464   6.16628
 -20.81770  -3.20494   5.74728
 -20.45860  -2.96554   5.38818
 -19.97970  -2.72604   5.02908
 -19.50090  -2.24724   4.55018
 -19.14180  -1.88814   4.07138
 -18.66290  -1.52894   3.65238
 -18.12420  -1.16984   2.99398
 -17.64540  -1.10994   2.45528
 -17.10670  -0.87054   1.97648
 -16.44830  -0.75084   1.37788
 -15.90960  -0.75084   0.83918
 -15.31100  -0.75084   0.18078
 -14.89210  -0.81074  -0.23822
 -14.35340  -0.93044  -0.71702
 -13.93440  -1.10994  -1.07612
 -13.45550  -1.10994  -1.43532
 -12.91680  -1.05014  -1.79442
 -12.37810  -1.05014  -2.27322
 -11.65990  -1.16984  -2.63242
 -11.06130  -1.22974  -2.93172
 -10.40290  -1.28954  -3.29082
  -9.80440  -1.34944  -3.53022
  -9.08610  -1.40924  -3.76962
