********************************************************************************
              CENTRO DE INSTRUMENTACION Y REGISTRO SISMICO  A.C.

    Anaxagoras 814, Col. Narvarte, Benito Juarez, C.P. 03020 Mexico, D.F.
           Tels. 5687 45 42/ 5687 45  82             Fax. 5669 25 12
********************************************************************************
ARCHIVO ESTANDAR DE ACELERACION:
VERSION DEL FORMATO                    : 2.0
NOMBRE DEL ARCHIVO                     : EX1220200623152903
FECHA Y HORA DE CREACION               : 18/AGO/21, 13:43
REF. CATALOGO ACELEROGRAMAS, SMIS 1996 : REGISTRO No.     /PAG.


================================================================================
DATOS DE LA ESTACION:
NOMBRE DE LA ESTACION                  : ESC. SEC. NO. 3, P. B. - CENTRO EDIF.
CLAVE DE LA ESTACION                   : EX12
LOCALIZACION DE LA ESTACION            : Del. Cuauhtémoc, Col. Juárez,          
                                       : Av. Chapultepec, entre Venecia         
                                       : y Niza.                                
                                       :                                        
                                       : 
COORDENADAS DE LA ESTACION             : 19.4236 LAT. N
                                       : 99.1602 LONG. W
ALTITUD (msnm)                         : 2232
TIPO DE SUELO                          : Alto riesgo sísmico                 
                                       :                           
                                       : 
INSTITUCION RESPONSABLE                : CIRES, A. C.
                                       : 

================================================================================
DATOS DEL ACELEROGRAFO:
MODELO DEL ACELEROGRAFO                : RAD_IO14
NUMERO DE SERIE DEL ACELEROGRAFO       : 
NUMERO DE CANALES                      : 3
ORIENTACION C1-C6 (rumbo;orientacion)  : /N00E/+V/N90W
ORIENTACION C7-C12 (rumbo;orientacion) : 
VEL. DE MUESTREO, C1-C6 (muestras/s)   : /100/100/100
VEL. DE MUESTREO, C7-C12 (muestras/s)  : 
ESC. COMPLETA DE SENSORES, C1-C6, (g)  : /2.0/2.0/2.0
ESC. COMPLETA DE SENSORES, C7-C12, (g) : 
FREC. NAT. DE SENSORES, C1-C6, (Hz)    : /30/30/30
FREC. NAT. DE SENSORES, C7-C12, (Hz)   : 
AMORTIGUAMIENTO DE SENSORES, C1-C6     : /0.700/0.700/0.700
AMORTIGUAMIENTO DE SENSORES, C7-C12    : 
INTERVALO DE MUESTREO, C1-C6, (s)      : /0.01/0.01/0.01
INTERVALO DE MUESTREO, C7-C12, (s)     : 
UMBRAL DE DISPARO, C1-C6, (Gal)        : / / /
UMBRAL DE DISPARO, C7-C12, (Gal)       :
MEMORIA DE PREEVENTO (s)               : 60
TIEMPO DE POSEVENTO (s)                : 90


================================================================================
DATOS DEL SISMO:
FECHA DEL SISMO (GMT)                  : 23/JUN/20
HORA EPICENTRO (GMT)                   : 15:29:03.0
MAGNITUD(ES)                           : /Mc=7.4
COORDENADAS DEL EPICENTRO              : 15.80 LAT. N
                                       : 96.13 LONG. W
PROFUNDIDAD FOCAL (km)                 : 22
FUENTE DE LOS DATOS EPICENTRALES       : SSN
                                       : INSTITUTO DE GEOFISICA, UNAM

================================================================================
DATOS DE ESTE REGISTRO:
HORA DE LA PRIMERA MUESTRA (GMT)       : 10:27:25.00
EXACTITUD DEL TIEMPO (s)               : 
DURACION DEL REGISTRO (s), C1-C6       : /539.95/539.95/539.95
DURACION DEL REGISTRO (s), C7-C12      : 
NUM. TOTAL DE MUESTRAS, C1-C6          : /53995/53995/53995
NUM. TOTAL DE MUESTRAS, C7-C12         : 
ACEL. MAX. (Gal), C1-C6                : /43.36011/6.79772/17.48141
ACEL. MAX., C1-C6, EN LA MUESTRA       : /19685/20999/20283
ACEL. MAX. (Gal), C7-C12               : 
ACEL. MAX., C7-C12, EN LA MUESTRA      : 
UNIDADES DE LOS DATOS                  : Gal (cm/s/s)
FACTOR DE DECIMACION                   : 1
FORMATO DATOS (FORTRAN,10 campos/dato) : 3F10.5


================================================================================
CALIDAD DEL ACELEROGRAMA:
REGISTRO DIGITAL COMPLETO CON TIEMPO ABSOLUTO CORRECTO.


================================================================================
COMENTARIOS:














================================================================================
DATOS DE ACELERACION:
---------+---------+---------+---------+---------+---------+---------+---------+
   CANAL-1   CANAL-2   CANAL-3   CANAL-4   CANAL-5   CANAL-6   CANAL-7   CANAL-8
      N00E        +V      N90W
---------+---------+---------+---------+---------+---------+---------+---------+
[...]
 -31.09959   0.09392  -4.13371
 -30.91999   0.03412  -4.37311
 -31.33899   0.15382  -4.55271
 -31.63829   0.33332  -4.73221
 -31.45869   0.27352  -4.85201
 -31.03979   0.15382  -4.97171
 -30.62079  -0.02578  -4.91181
 -30.62079  -0.44478  -4.91181
 -30.38139  -0.20538  -4.97171
 -30.50109  -0.44478  -5.03151
 -30.26159  -0.14548  -4.97171
 -30.02219  -0.50458  -5.03151
 -29.54339  -0.56448  -4.91181
 -29.12439  -0.68418  -4.73221
 -28.64559  -0.92358  -4.61251
 -28.22659  -0.92358  -4.61251
 -27.92729  -0.92358  -4.31331
 -27.68789  -0.92358  -4.07381
 -27.14919  -0.80388  -3.95411
 -26.49079  -1.16298  -3.59501
 -26.01189  -0.98348  -3.41541
 -25.41339  -1.22288  -3.11621
 -24.93449  -0.92358  -2.93661
 -24.39579  -0.98348  -2.45781
 -23.85719  -0.92358  -2.21831
 -23.25859  -0.86378  -1.79941
 -22.60019  -0.74408  -1.26071
 -21.76219  -0.68418  -0.78181
 -20.98409  -0.38488  -0.42271
 -20.14609  -0.26518  -0.06361
 -19.30819  -0.02578   0.41529
 -18.35049   0.09392   0.71459
 -17.33299   0.15382   0.89409
 -16.13589   0.33332   1.13349
 -14.99859   0.39322   1.55249
 -13.86139   0.57282   1.61239
 -12.60439   0.63262   1.73209
 -11.28759   0.87202   1.79199
  -9.73139   0.81222   2.09119
  -8.29479   1.05162   2.21089
  -6.79849   0.99172   2.33059
  -5.24219   1.05162   2.51019
  -3.68599   0.99172   2.62989
  -2.24949   1.17132   2.74959
  -0.63339   1.17132   2.80949
   0.98271   1.05162   2.86929
   2.41921   1.11142   3.04889
   3.91561   0.99172   2.98909
   5.41201   0.87202   3.10879
   6.84851   0.63262   3.22849
   8.22521   0.69252   3.22849
   9.48211   0.45302   3.40799
  10.61941   0.21362   3.58759
  11.75661  -0.14548   3.82699
  12.89381  -0.38488   4.24599
  13.85151  -0.74408   4.60509
  14.74941  -1.10318   4.96429
  15.58731  -1.46228   5.38329
  16.30561  -1.88128   5.68249
  17.02381  -2.06088   6.16139
  17.62241  -2.36008   6.52049
  18.22091  -2.83898   6.99929
  18.58011  -3.01858   7.29859
  19.05891  -3.25798   7.77749
  19.29831  -3.49738   8.31619
  19.71731  -3.61708   8.55559
  20.19621  -3.73678   9.09429
  20.43561  -3.49738   9.45339
  20.67501  -3.49738   9.93219
  20.91441  -3.25798  10.41109
  21.21371  -3.07838  10.83009
  21.27351  -2.77908  11.24899
  21.39331  -2.59958  11.54829
  21.63271  -2.36008  11.90749
  21.75241  -2.18058  12.14689
  21.93201  -1.88128  12.56589
  22.11151  -1.64188  12.86509
  22.29111  -1.40248  13.16439
  22.47071  -1.16298  13.34399
  22.71011  -1.04328  13.52349
  23.00931  -0.98348  13.58339
  23.42831  -0.80388  13.76299
  23.78751  -0.56448  13.70309
  24.14661  -0.32508  13.70309
  24.38601  -0.20538  13.64319
  24.74511  -0.14548  13.58339
  24.98461   0.09392  13.34399
  25.52331   0.09392  13.16439
  26.06201  -0.08568  12.98479
  26.54081  -0.14548  12.68559
  27.01961  -0.02578  12.32639
  27.55831  -0.02578  11.90749
  28.15691  -0.02578  11.48849
  28.63571  -0.26518  11.06949
  29.35401  -0.26518  10.53079
  29.83281  -0.20538  10.05189
  30.19201  -0.38488   9.69279
  30.67081  -0.56448   9.21399
  31.20951  -0.68418   8.67529
  31.68831  -0.62438   8.01689
  32.04751  -0.68418   7.41829
  32.34671  -0.62438   6.70009
  32.76571  -0.92358   6.10149
  32.94531  -0.74408   5.26349
  33.42411  -0.80388   4.66499
  33.42411  -0.50458   3.88689
  33.24461  -0.86378   3.34819
  33.78331  -0.32508   2.39049
  34.02271  -1.52218   1.79199
  33.30441   0.33332   1.01379
  34.14241  -0.62438   0.65469
  33.90301  -0.62438  -0.00371
  33.48401   0.03412  -0.60231
  33.60371  -0.50458  -1.20081
  33.30441  -0.32508  -1.79941
  33.12481  -0.32508  -2.21831
  32.76571   0.21362  -2.99651
  32.76571  -1.04328  -3.29571
  32.22701   0.03412  -3.89431
  31.74821  -1.10318  -4.01401
  31.44891  -0.74408  -4.43301
  30.97011  -1.10318  -4.55271
  30.43141  -1.28278  -4.73221
  30.01241  -2.00098  -4.73221
  29.41381  -2.12068  -4.79211
  28.69561  -2.36008  -4.67241
  27.97731  -2.89878  -4.67241
  27.37881  -3.25798  -4.61251
  26.54081  -3.79668  -4.25341
  25.76271  -3.73678  -4.01401
  24.98461  -4.21568  -3.71471
  24.02691  -4.27548  -3.71471
  23.12911  -4.57478  -3.41541
  22.17141  -4.69448  -3.17601
  21.21371  -4.87408  -2.75701
  20.19621  -4.87408  -2.69721
  19.41801  -5.29298  -2.39791
  18.40051  -5.05358  -2.27821
  17.38301  -5.35288  -2.15851
  16.48511  -5.35288  -2.15851
  15.58731  -5.29298  -2.03881
  14.50991  -5.11348  -1.97891
  13.61211  -5.11348  -1.97891
  12.59461  -4.93388  -2.09861
  11.57701  -4.57478  -2.09861
  10.55951  -4.39518  -2.21831
   9.60181  -4.03608  -2.33801
   8.46461  -3.73678  -2.39791
   7.38721  -3.13828  -2.51761
   6.36961  -2.83898  -2.69721
   5.29231  -2.30028  -2.87671
   4.27471  -2.00098  -2.93661
   3.19731  -1.28278  -3.29571
   2.23961  -0.86378  -3.35561
   1.34181  -0.26518  -3.71471
   0.20461   0.15382  -3.77461
  -0.87279   0.87202  -3.83441
  -2.01009   1.17132  -4.07381
  -3.02759   1.59032  -4.19361
  -4.10499   2.00932  -4.19361
  -5.12249   2.42832  -4.19361
  -6.14009   2.72752  -4.25341
  -7.15759   2.90712  -4.25341
  -8.35469   3.32612  -4.19361
  -9.37219   3.38592  -4.25341
 -10.50949   3.62542  -4.25341
 -11.58689   3.80492  -4.01401
 -12.66429   4.04432  -3.95411
 -13.74159   4.10422  -3.95411
 -14.75919   4.40352  -3.89431
 -15.65699   4.52322  -3.71471
 -16.61469   4.58302  -3.71471
 -17.57239   4.64292  -3.71471
 -18.41029   4.76262  -3.71471
 -19.18849   4.70272  -3.71471
 -20.02639   4.46332  -3.71471
 -20.68479   4.52322  -3.83441
 -21.34319   4.46332  -3.95411
 -21.76219   4.28382  -4.01401
 -22.18119   4.10422  -4.31331
 -22.60019   3.98452  -4.55271
 -23.07899   3.74512  -4.79211
 -23.49799   3.56552  -5.03151
 -23.73739   3.14652  -5.27091
 -23.97689   3.08672  -5.68991
 -24.33599   2.90712  -6.16881
 -24.93449   2.54802  -6.46801
 -25.17399   2.24872  -6.76731
 -25.35349   1.94942  -7.12641
 -25.53309   1.82972  -7.36591
 -26.07179   1.53042  -7.54541
 -26.37109   1.29102  -7.84471
 -26.73019   1.11142  -8.08411
 -27.14919   0.93192  -8.14401
 -27.62799   0.57282  -8.14401
 -28.16669   0.39322  -8.32361
 -28.76529  -0.02578  -8.50311
 -29.36379  -0.14548  -8.56301
 -29.96239  -0.26518  -8.56301
 -30.56089  -0.32508  -8.68271
 -31.09959  -0.62438  -8.74251
 -31.69819  -0.86378  -8.80241
 -32.41639  -0.98348  -8.80241
 -32.89529  -1.22288  -8.62281
 -33.61349  -1.58198  -8.56301
 -34.33179  -1.76158  -8.56301
 -34.63109  -1.88128  -8.62281
 -35.16979  -2.06088  -8.68271
 -35.94789  -1.94118  -8.50311
 -37.86319  -2.00098  -8.14401
 -38.88079  -1.34258  -7.60531
 -37.92309  -2.53968  -7.54541
 -37.14499  -3.01858  -7.96441
 -37.98289  -2.41998  -7.78491
 -39.65889  -1.76158  -7.42571
 -39.83839  -2.30028  -6.64761
 -39.47929  -1.76158  -6.64761
 -39.29979  -1.94118  -5.98921
 -39.71869  -1.46228  -5.57021
 -40.01799  -2.12068  -4.73221
 -39.89829  -1.52218  -4.25341
 -39.41949  -1.70168  -3.47531
 -39.59899  -1.10318  -2.69721
 -39.89829  -1.04328  -1.79941
 -39.89829  -1.04328  -0.90151
 -39.29979  -0.50458  -0.30301
 -38.52159  -0.86378   0.53499
 -38.52159  -0.26518   1.19339
 -38.52159  -0.44478   2.21089
 -38.16249   0.39322   2.74959
 -37.20479   0.15382   3.34819
 -36.36689   0.51292   3.52769
 -35.76829   0.45302   4.06639
 -35.28949   0.81222   4.36569
 -34.57119   0.81222   4.72479
 -33.67339   1.11142   4.78469
 -32.65579   1.11142   5.02409
 -31.57849   1.05162   5.20369
 -30.74049   1.23122   5.14379
 -29.96239   1.35092   5.08399
 -29.06449   1.65012   4.90439
 -27.86739   1.76992   4.96429
 -26.78999   1.94942   4.72479
 -25.65279   1.59032   4.54529
 -24.75499   2.00932   4.12629
 -23.79729   1.88962   3.94669
 -22.66009   2.12902   3.58759
 -21.52279   2.00932   3.46789
 -20.56509   2.36842   3.04889
 -19.30819   2.18882   2.86929
 -18.23079   2.42832   2.45039
 -17.09349   2.36842   2.27079
 -16.01609   2.60782   2.15109
 -15.05849   2.54802   1.79199
 -14.10079   2.42832   1.55249
 -13.14309   2.42832   1.61239
 -11.88609   2.36842   1.55249
 -10.68899   2.48812   1.61239
  -9.55179   2.12902   1.61239
  -8.47439   2.06912   1.55249
  -7.27729   1.82972   1.67219
  -6.08019   1.94942   1.61239
  -4.76339   1.76992   1.73209
  -3.50639   1.82972   1.85179
  -2.30929   1.94942   2.21089
  -1.05239   2.00932   2.27079
   0.26441   2.00932   2.51019
   1.58121   2.18882   2.68979
   3.01781   2.00932   2.92919
   4.39441   1.94942   3.16859
   5.77111   2.06912   3.28829
   7.02801   2.00932   3.64749
   8.22521   2.00932   3.88689
   9.54201   1.76992   4.18619
  10.67921   1.71002   4.42559
  11.93621   1.53042   4.66499
  13.19311   1.29102   4.78469
  14.27051   1.05162   4.96429
  15.40781   0.99172   5.14379
  16.36541   0.69252   5.20369
  17.20341   0.63262   5.20369
  18.10121   0.45302   5.20369
  19.05891   0.21362   5.32339
  19.71731  -0.08568   5.38329
  20.43561  -0.32508   5.38329
  21.27351  -0.56448   5.50299
  22.05171  -0.80388   5.68249
  22.76991  -1.04328   5.68249
  23.48821  -1.34258   5.80219
  24.14661  -1.28278   5.92189
  24.98461  -1.52218   6.04169
  25.76271  -1.46228   6.04169
  26.54081  -1.52218   6.22119
  27.25911  -1.40248   6.16139
  28.09701  -1.34258   6.16139
  28.69561  -1.22288   5.98179
  29.23431  -1.16298   5.74239
  30.01241  -1.04328   5.50299
  30.67081  -0.86378   5.38329
  31.20951  -0.56448   5.14379
  31.80801  -0.26518   4.84459
  32.34671  -0.14548   4.60509
  32.82561   0.33332   4.36569
  33.30441   0.81222   3.88689
  33.60371   1.05162   3.22849
  33.78331   1.65012   2.86929
  34.14241   2.12902   2.45039
  34.50151   2.48812   1.97149
  34.74091   2.84722   1.61239
  34.98041   3.14652   1.31309
  35.21981   3.68522   1.01379
  35.45921   3.74512   0.77439
  35.75851   3.98452   0.35539
  35.99791   4.28382   0.17589
  36.05771   4.52322   0.05619
  36.47671   4.88232  -0.00371
  36.77601   4.70272  -0.18331
  36.65631   5.12172  -0.24311
  38.15271   5.60062  -0.12341
  39.70891   4.40352  -0.42271
  39.64901   4.82252  -0.90151
  39.05051   5.60062  -1.32051
  39.28991   5.06192  -1.14091
  39.70891   5.00202  -0.78181
  40.30751   5.24142  -0.78181
  41.08561   4.76262  -0.78181
  42.28271   3.98452  -0.84171
  42.76151   4.10422  -1.02121
  42.58191   4.40352  -1.32051
  42.04321   4.82252  -1.20081
  41.98341   4.34362  -0.96141
  42.40241   3.98452  -1.02121
  43.06081   4.22392  -1.32051
  43.36011   3.62542  -1.55991
  43.24041   2.96702  -1.85921
  42.52211   3.14652  -1.85921
  41.56441   3.14652  -1.61981
  40.60671   3.08672  -1.55991
  39.64901   2.60782  -1.32051
  39.17021   2.30852  -1.32051
  38.81111   1.76992  -1.14091
  37.73371   1.59032  -1.02121
  36.11761   1.23122  -0.66211
  34.50151   1.41072  -0.42271
  33.00511   1.05162  -0.06361
  31.44891   1.29102   0.05619
  29.77301   0.87202   0.41529
  28.51601   0.51292   0.53499
  27.01961   0.21362   0.59489
  25.16411   0.45302   0.59489
  23.48821   0.27352   0.47509
  21.75241   0.03412   0.29559
  19.83701  -0.02578   0.11599
  17.86181  -0.02578  -0.18331
  16.00631  -0.14548  -0.72201
  14.15081  -0.20538  -1.02121
  12.35511   0.03412  -1.38041
  10.55951   0.09392  -1.91911
   8.76381   0.09392  -2.51761
   6.96821   0.15382  -2.99651
   4.93311   0.33332  -3.59501
   2.89811   0.09392  -4.01401
   1.22211   0.03412  -4.43301
  -0.33409   0.03412  -4.79211
  -1.59109  -0.14548  -5.27091
  -2.90789  -0.20538  -5.63011
  -4.40429  -0.26518  -6.04911
  -6.08019  -0.08568  -6.28851
  -7.63639  -0.08568  -6.40821
  -8.83349  -0.14548  -6.46801
  -9.97079  -0.20538  -6.40821
 -10.74889  -0.32508  -6.28851
 -11.46719  -0.32508  -6.28851
 -12.42479  -0.32508  -6.22861
 -13.44239  -0.26518  -6.10891
 -14.40009  -0.20538  -5.92931
 -15.11829  -0.20538  -5.63011
 -15.65699  -0.26518  -5.51041
 -16.01609  -0.50458  -5.27091
 -16.43509  -0.80388  -4.97171
 -16.73439  -0.74408  -4.67241
 -17.09349  -0.86378  -4.49281
 -17.63219  -0.98348  -4.19361
 -17.99139  -1.22288  -3.71471
 -18.11109  -1.46228  -3.35561
 -18.29059  -1.76158  -2.99651
 -18.53009  -2.18058  -2.57751
 -18.70959  -2.36008  -2.15851
 -19.06869  -2.41998  -1.67961
 -19.36799  -2.59958  -1.14091
 -19.54759  -2.95868  -0.66211
 -19.90669  -2.95868  -0.36281
 -20.20599  -3.25798   0.05619
 -20.50529  -3.49738   0.47509
 -20.92429  -3.61708   0.95399
 -21.22349  -3.73678   1.43279
 -21.70239  -3.73678   1.85179
 -22.06149  -3.67698   2.21089
 -22.48049  -3.97618   2.68979
 -22.95929  -4.03608   3.16859
 -23.55789  -4.15578   3.64749
 -24.15639  -4.33538   4.00659
 -24.75499  -4.45508   4.48539
 -25.41339  -4.57478   5.02409
 -26.13159  -4.51488   5.74239
 -26.67029  -4.45508   6.28109
 -27.38859  -4.33538   6.81979
 -27.86739  -4.09588   7.35849
 -28.52579  -3.91638   8.01689
 -29.06449  -3.61708   8.67529
 -29.36379  -3.43748   9.33369
 -29.78279  -3.07838   9.93219
 -29.90249  -2.71928  10.29139
 -30.08209  -2.41998  10.77019
 -30.26159  -2.00098  11.42859
 -30.32149  -1.76158  12.08699
 -30.32149  -1.46228  12.56589
 -30.26159  -1.40248  13.04469
 -29.96239  -1.04328  13.46369
 -29.78279  -0.92358  13.88269
 -29.72289  -0.92358  14.24179
 -29.60319  -0.86378  14.48119
 -29.30399  -0.92358  14.60089
 -29.18429  -0.92358  14.60089
 -29.06449  -0.98348  14.60089
 -29.36379  -1.10318  14.54109
 -27.86739  -1.16298  14.24179
 -26.43089  -1.76158  13.64319
 -27.92729  -1.10318  13.34399
 -30.80029  -0.20538  14.06219
 -30.62079  -0.98348  14.00239
 -28.46599  -2.36008  13.28409
 -27.44849  -2.24038  12.20669
 -27.02949  -2.95868  11.72789
 -27.32869  -3.55718  11.42859
 -28.04699  -2.53968  11.24899
 -28.88499  -2.00098  11.18919
 -29.00469  -2.59958  10.94979
 -28.16669  -3.61708  10.53079
 -26.96959  -3.91638   9.69279
 -26.01189  -3.91638   8.91469
 -25.95209  -3.85648   8.61539
 -26.25139  -3.73678   8.49569
 -26.37109  -3.07838   8.19639
 -26.07179  -2.77908   7.77749
 -25.05429  -2.89878   7.17889
 -23.79729  -3.25798   6.40079
 -22.60019  -3.13828   5.56279
 -22.00159  -2.77908   4.96429
 -21.52279  -2.53968   4.48539
 -21.10379  -2.06088   3.64749
 -20.44539  -1.70168   2.80949
 -19.78699  -1.28278   1.91169
 -18.94899  -1.76158   1.25329
 -18.05119  -1.88128   0.41529
 -17.09349  -1.88128  -0.30301
 -16.07599  -1.64188  -0.90151
 -15.17819  -1.64188  -1.50011
 -14.40009  -1.76158  -2.03881
 -13.68179  -1.70168  -2.57751
 -13.02339  -1.70168  -2.81691
 -12.30509  -1.70168  -3.23591
 -11.52699  -2.06088  -3.71471
 -10.38979  -2.12068  -4.01401
  -9.31239  -2.24038  -4.37311
  -8.47439  -2.36008  -4.73221
  -7.75609  -2.77908  -5.03151
  -6.91819  -2.77908  -5.33081
  -6.37949  -2.95868  -5.33081
  -5.84079  -3.13828  -5.33081
  -5.06269  -3.43748  -5.33081
  -4.16479  -3.55718  -5.33081
  -3.26699  -3.61708  -5.39071
  -2.36919  -3.49738  -5.33081
  -1.65089  -3.55718  -5.33081
  -1.29179  -3.37768  -5.39071
  -0.87279  -3.19808  -5.15121
