********************************************************************************
              CENTRO DE INSTRUMENTACION Y REGISTRO SISMICO  A.C.

    Anaxagoras 814, Col. Narvarte, Benito Juarez, C.P. 03020 Mexico, D.F.
           Tels. 5687 45 42/ 5687 45  82             Fax. 5669 25 12
********************************************************************************
ARCHIVO ESTANDAR DE ACELERACION:
VERSION DEL FORMATO                    : 2.0
NOMBRE DEL ARCHIVO                     : FJ7420200623152903
FECHA Y HORA DE CREACION               : 18/AGO/21, 13:43
REF. CATALOGO ACELEROGRAMAS, SMIS 1996 : REGISTRO No.     /PAG.


================================================================================
DATOS DE LA ESTACION:
NOMBRE DE LA ESTACION                  : FUNDACIÓN JAVIER BARROS SIERRA
CLAVE DE LA ESTACION                   : FJ74
LOCALIZACION DE LA ESTACION            : Del. Tlalpan, Col. Jardines en la      
                                       : Montaña, Carretera al Ajusco, No.203   
                                       :                                        
                                       :                                        
                                       : 
COORDENADAS DE LA ESTACION             : 19.2990 LAT. N
                                       : 99.2100 LONG. W
ALTITUD (msnm)                         : 2240
TIPO DE SUELO                          : Arenoso, limoso, compacto           
                                       :                           
                                       : 
INSTITUCION RESPONSABLE                : CIRES
                                       : 

================================================================================
DATOS DEL ACELEROGRAFO:
MODELO DEL ACELEROGRAFO                : RADESD
NUMERO DE SERIE DEL ACELEROGRAFO       : 240
NUMERO DE CANALES                      : 3
ORIENTACION C1-C6 (rumbo;orientacion)  : /N00E/+V/N90W
ORIENTACION C7-C12 (rumbo;orientacion) : 
VEL. DE MUESTREO, C1-C6 (muestras/s)   : /100/100/100
VEL. DE MUESTREO, C7-C12 (muestras/s)  : 
ESC. COMPLETA DE SENSORES, C1-C6, (g)  : /0.5/0.5/0.5
ESC. COMPLETA DE SENSORES, C7-C12, (g) : 
FREC. NAT. DE SENSORES, C1-C6, (Hz)    : /30/30/30
FREC. NAT. DE SENSORES, C7-C12, (Hz)   : 
AMORTIGUAMIENTO DE SENSORES, C1-C6     : /0.700/0.700/0.700
AMORTIGUAMIENTO DE SENSORES, C7-C12    : 
INTERVALO DE MUESTREO, C1-C6, (s)      : /0.01/0.01/0.01
INTERVALO DE MUESTREO, C7-C12, (s)     : 
UMBRAL DE DISPARO, C1-C6, (Gal)        : /1.5/2.99/1.5
UMBRAL DE DISPARO, C7-C12, (Gal)       :
MEMORIA DE PREEVENTO (s)               : 44.0
TIEMPO DE POSEVENTO (s)                : 64.0


================================================================================
DATOS DEL SISMO:
FECHA DEL SISMO (GMT)                  : 23/JUN/20
HORA EPICENTRO (GMT)                   : 15:29:03.0
MAGNITUD(ES)                           : /Mc=7.4
COORDENADAS DEL EPICENTRO              : 15.80 LAT. N
                                       : 96.13 LONG. W
PROFUNDIDAD FOCAL (km)                 : 22
FUENTE DE LOS DATOS EPICENTRALES       : SSN
                                       : INSTITUTO DE GEOFISICA, UNAM

================================================================================
DATOS DE ESTE REGISTRO:
HORA DE LA PRIMERA MUESTRA (GMT)       : 15:30:39.00
EXACTITUD DEL TIEMPO (s)               : 0.01
DURACION DEL REGISTRO (s), C1-C6       : /187.6/187.6/187.6
DURACION DEL REGISTRO (s), C7-C12      : 
NUM. TOTAL DE MUESTRAS, C1-C6          : /18760/18760/18760
NUM. TOTAL DE MUESTRAS, C7-C12         : 
ACEL. MAX. (Gal), C1-C6                : /10.93245/3.56424/10.40527
ACEL. MAX., C1-C6, EN LA MUESTRA       : /5124/5310/5352
ACEL. MAX. (Gal), C7-C12               : 
ACEL. MAX., C7-C12, EN LA MUESTRA      : 
UNIDADES DE LOS DATOS                  : Gal (cm/s/s)
FACTOR DE DECIMACION                   : 1
FORMATO DATOS (FORTRAN,10 campos/dato) : 3F10.5


================================================================================
CALIDAD DEL ACELEROGRAMA:
REGISTRO DIGITAL COMPLETO CON TIEMPO ABSOLUTO CORRECTO.


================================================================================
COMENTARIOS:














================================================================================
DATOS DE ACELERACION:
---------+---------+---------+---------+---------+---------+---------+---------+
   CANAL-1   CANAL-2   CANAL-3   CANAL-4   CANAL-5   CANAL-6   CANAL-7   CANAL-8
      N00E        +V      N90W
---------+---------+---------+---------+---------+---------+---------+---------+
[...]
  -2.23850   0.41612   2.96828
  -2.46296   0.32634   2.95332
  -2.64252   0.20663   2.81865
  -2.64252   0.16174   2.80368
  -2.89691  -0.03279   2.69894
  -2.97173  -0.01783   2.41462
  -3.01662  -0.03279   2.38470
  -3.10640  -0.01783   2.16024
  -3.10640  -0.27221   2.29491
  -3.30093  -0.19739   2.02557
  -3.07647  -0.07768   2.11535
  -3.03158  -0.16747   2.07046
  -3.15129  -0.18243   1.99564
  -3.01662  -0.03279   1.86096
  -2.97173  -0.03279   2.01060
  -2.91187  -0.13754   2.04053
  -2.86698  -0.13754   2.04053
  -2.91187  -0.21236   1.92082
  -2.85202  -0.18243   1.78615
  -2.58267  -0.25725   1.95075
  -2.52281  -0.28718   1.80111
  -2.29836  -0.19739   1.69636
  -2.05894  -0.12258   1.84600
  -1.78959  -0.31710   1.98067
  -1.56513  -0.30214   1.92082
  -1.37060  -0.34703   1.77118
  -1.25089  -0.40689   1.75622
  -0.93665  -0.34703   1.75622
  -0.75709  -0.52660   1.80111
  -0.63738  -0.54156   1.69636
  -0.36803  -0.45178   1.62154
  -0.12861  -0.49667   1.51680
  -0.03883  -0.42185   1.35220
   0.00606  -0.51163   1.18760
   0.08088  -0.64631   0.96314
   0.21556  -0.51163   0.70876
   0.14074  -0.61638   0.55912
   0.41008  -0.31710   0.42444
   0.29037  -0.39192   0.06531
   0.33527  -0.24229  -0.02447
   0.32030  -0.28718  -0.21900
   0.36519  -0.28718  -0.30878
   0.26045  -0.19739  -0.51827
   0.27541  -0.07768  -0.71280
   0.24548  -0.03279  -0.89237
   0.39512   0.02706  -0.89237
   0.38016   0.28145  -1.19164
   0.39512   0.31137  -1.23653
   0.49987   0.41612  -1.31135
   0.55972   0.49094  -1.52085
   0.58965   0.61065  -1.59566
   0.67943   0.55079  -1.65552
   0.66447   0.58072  -1.73034
   0.63454   0.47598  -1.85005
   0.94878   0.70043  -1.82012
   0.94878   0.40116  -1.67048
   0.85900   0.43108  -1.87998
   1.05353   0.35627  -1.64056
   1.21813   0.26648  -1.46099
   1.36777   0.41612  -1.44603
   1.36777   0.23656  -1.17668
   1.24805   0.14677  -1.26646
   1.48748   0.26648  -0.96719
   1.39769  -0.01783  -0.65295
   1.30791  -0.00287  -0.60806
   1.39769   0.08692  -0.51827
   1.14331  -0.03279  -0.44345
   0.75425  -0.22732  -0.53324
   0.91885   0.13181  -0.50331
   0.72432  -0.03279  -0.41353
   0.44001  -0.01783  -0.81755
   0.35023   0.08692  -0.78762
   0.06592  -0.03279  -1.05697
  -0.11365  -0.01783  -1.25150
  -0.35307  -0.01783  -1.59566
  -0.33810   0.13181  -1.68545
  -0.33810   0.13181  -1.71537
  -0.42789   0.11684  -2.07450
  -0.66731  -0.01783  -2.34385
  -0.74213   0.10188  -2.61320
  -0.90673   0.08692  -2.71795
  -0.93665   0.26648  -2.98729
  -1.10126   0.08692  -3.03219
  -1.11622   0.28145  -3.09204
  -1.28082   0.25152  -3.24168
  -1.58010   0.20663  -3.54095
  -1.52024   0.25152  -3.34642
  -1.61002   0.35627  -3.37635
  -1.75966   0.32634  -3.25664
  -1.72973   0.43108  -3.19679
  -1.71477   0.44605  -3.07708
  -2.01404   0.19166  -3.03219
  -1.99908   0.35627  -3.01722
  -1.93923   0.34130  -2.80773
  -2.11879   0.29641  -2.88255
  -2.08886   0.23656  -2.76284
  -2.01404   0.65554  -2.79276
  -1.98412   0.58072  -2.71795
  -1.99908   0.58072  -2.59824
  -2.01404   0.76029  -2.68802
  -2.04397   0.89496  -2.64313
  -2.11879   0.90992  -2.68802
  -2.34325   0.93985  -2.70298
  -2.37318   0.92489  -2.74787
  -2.37318   0.98474  -2.76284
  -2.61260   0.98474  -3.03219
  -2.50785   0.89496  -2.80773
  -2.67245   0.88000  -2.94240
  -2.71734   0.83511  -2.92744
  -2.91187   0.64058  -2.97233
  -3.04654   0.41612  -3.09204
  -3.09144   0.44605  -3.13693
  -3.13633   0.05699  -2.97233
  -3.28596   0.02706  -3.12197
  -3.16625  -0.01783  -3.07708
  -3.24107  -0.19739  -3.04715
  -3.24107  -0.24229  -3.19679
  -3.09144  -0.21236  -3.12197
  -3.24107  -0.46674  -3.42124
  -3.00165  -0.25725  -3.42124
  -2.86698  -0.30214  -3.57088
  -2.70238  -0.40689  -3.55592
  -2.64252  -0.40689  -3.84023
  -2.44799  -0.27221  -3.82526
  -2.23850  -0.45178  -3.91505
  -2.01404  -0.37696  -4.01979
  -1.86441  -0.40689  -4.04972
  -1.52024  -0.40689  -4.04972
  -1.22097  -0.33207  -4.12454
  -0.99651  -0.31710  -4.16943
  -0.81694  -0.42185  -4.30410
  -0.68227  -0.43681  -4.36396
  -0.26328  -0.24229  -4.22929
  -0.17350  -0.25725  -4.40885
   0.17066  -0.07768  -4.31907
   0.38016  -0.04776  -4.28914
   0.61958  -0.01783  -4.10958
   0.73929  -0.09265  -4.15447
   0.91885   0.01210  -4.09461
   1.03856  -0.09265  -3.98987
   1.18820  -0.04776  -3.63074
   1.48748  -0.03279  -3.37635
   1.60719   0.16174  -3.30153
   1.66704   0.16174  -3.19679
   1.90646   0.32634  -2.95737
   2.07106   0.23656  -2.77780
   1.98128   0.28145  -2.71795
   2.16084   0.44605  -2.56831
   2.17581   0.50590  -2.40371
   2.14588   0.53583  -2.50845
   1.98128   0.50590  -2.49349
   1.93639   0.50590  -2.47853
   1.87653   0.35627  -2.46356
   1.86157   0.56576  -2.50845
   1.92142   0.55079  -2.32889
   1.63711   0.04203  -2.29896
   1.47251   0.11684  -2.61320
   1.74186   0.13181  -2.41867
   1.74186  -0.10761  -2.47853
   1.90646  -0.13754  -2.22414
   1.75682  -0.42185  -2.43363
   2.04113  -0.30214  -2.31392
   2.08603  -0.51163  -2.16429
   2.23566  -0.51163  -2.08947
   2.19077  -0.64631  -2.07450
   2.11595  -0.99047  -2.05954
   2.13092  -0.96055  -2.11940
   2.22070  -1.08026  -1.89494
   2.14588  -1.09522  -2.11940
   2.47508  -0.93062  -1.79019
   2.44516  -1.14011  -1.73034
   2.19077  -1.52917  -1.96976
   2.43019  -1.33464  -1.98472
   2.74443  -1.27478  -1.76027
   2.72947  -1.54413  -1.79019
   2.80429  -1.48428  -1.86501
   3.02874  -1.49924  -1.83508
   3.17838  -1.55910  -1.85005
   3.26816  -1.57406  -1.76027
   3.17838  -1.88830  -1.65552
   3.17838  -1.87334  -1.71537
   3.16342  -1.67881  -1.83508
   3.34298  -1.66384  -1.34128
   3.19334  -1.84341  -1.20661
   2.81925  -2.08283  -1.20661
   2.77436  -1.94815  -0.95222
   2.54990  -1.96312  -0.81755
   2.20574  -2.08283  -0.54820
   1.89150  -2.12772  -0.53324
   1.80171  -2.00801  -0.14418
   1.27798  -2.41203  -0.05440
   1.09842  -2.17261  -0.03943
   1.02360  -2.24743   0.49926
   0.78418  -2.47189   0.69379
   0.72432  -2.44196   1.14270
   0.58965  -2.65145   1.53176
   0.35023  -2.59160   1.65147
   0.29037  -2.63649   1.98067
   0.60461  -2.23247   2.32484
   0.67943  -2.23247   2.89346
   0.45498  -2.38210   3.14785
   0.54476  -2.21750   3.55187
   0.52979  -1.94815   3.83618
   0.41008  -1.81348   3.89604
   0.58965  -1.64888   4.37488
   0.70936  -1.28975   4.47962
   0.75425  -1.22989   4.77890
   0.85900  -1.06529   4.95846
   0.70936  -1.11018   4.86868
   1.03856  -0.79594   5.04825
   1.24805  -0.60142   5.21285
   1.32287  -0.51163   5.18292
   1.44258  -0.46674   5.09314
   1.62215  -0.57149   5.04825
   1.81668  -0.31710   4.89861
   1.95135  -0.22732   4.79386
   2.25063  -0.09265   4.56941
   2.46012  -0.04776   4.30006
   2.63968   0.04203   4.15042
   2.84918   0.10188   3.88107
   2.96889   0.17670   3.43216
   2.92400   0.26648   3.04310
   3.05867   0.29641   2.81865
   3.17838   0.23656   2.44455
   3.34298   0.49094   1.99564
   3.44773   0.49094   1.71133
   3.53751   0.52087   1.30731
   3.65722   0.55079   0.91825
   3.80686   0.43108   0.60401
   3.82182   0.32634   0.30473
   4.01635   0.35627   0.03539
   4.10613   0.31137  -0.18907
   4.18095   0.14677  -0.33871
   4.31563  -0.01783  -0.29382
   4.31563  -0.07768  -0.42849
   4.34555  -0.24229  -0.30878
   4.36052  -0.22732  -0.33871
   4.31563  -0.46674  -0.24893
   4.15102  -0.75105  -0.15914
   4.22584  -0.64631  -0.20403
   4.19592  -0.84084  -0.06936
   4.07621  -1.00544   0.03539
   3.98642  -0.88573  -0.11425
   4.07621  -1.03536  -0.06936
   4.03131  -1.09522  -0.03943
   4.19592  -1.15507   0.06531
   4.27073  -1.05033   0.03539
   4.22584  -1.15507   0.02042
   4.36052  -1.08026  -0.06936
   4.64483  -0.97551  -0.00951
   4.68972  -1.00544  -0.06936
   4.67476  -1.24486  -0.21900
   4.86928  -1.06529  -0.39856
   5.12367  -0.97551  -0.29382
   5.33316  -0.99047  -0.24893
   5.31820  -1.24486  -0.29382
   5.39302  -1.42442  -0.30878
   5.52769  -1.37953  -0.42849
   5.48280  -1.73866  -0.50331
   5.49776  -1.60399  -0.80258
   5.66236  -1.66384  -0.45842
   5.54265  -2.05290  -0.60806
   5.28827  -2.18757  -0.87740
   5.34813  -2.14268  -0.81755
   5.18352  -2.33721  -0.80258
   5.03389  -2.24743  -1.02704
   5.22842  -2.12772  -0.68287
   4.82439  -2.33721  -0.83251
   5.04885  -1.93319  -0.62302
   4.94410  -2.03794  -0.35367
   4.73461  -1.99305  -0.35367
   4.55505  -1.90326  -0.24893
   4.54008  -1.76859  -0.02447
   4.39044  -1.82844   0.08028
   4.27073  -1.63392   0.11020
   4.33059  -1.52917   0.51423
   4.28570  -1.63392   0.81350
   3.97146  -1.64888   0.70876
   4.36052  -1.31968   1.03796
   4.40541  -1.28975   1.23249
   4.33059  -1.09522   1.17263
   4.61490  -0.93062   1.48687
   4.58497  -0.91565   1.63651
   4.34555  -1.02040   1.48687
   4.54008  -0.78098   1.60658
   4.39044  -0.72113   1.51680
   4.24081  -0.61638   1.42702
   4.15102  -0.55652   1.45694
   3.67218  -0.73609   1.21752
   3.62729  -0.42185   1.27738
   3.26816  -0.57149   1.38212
   2.87910  -0.60142   1.26241
   2.53494  -0.72113   1.39709
   1.84661  -0.91565   1.26241
   1.75682  -0.66127   1.39709
   1.44258  -0.79594   1.71133
   0.73929  -1.17004   1.63651
   0.61958  -0.91565   1.86096
   0.17066  -1.12515   2.11535
   0.02103  -1.02040   2.30988
  -0.29321  -0.90069   2.62412
  -0.57752  -0.93062   2.86354
  -1.14615  -1.14011   2.90843
  -1.35564  -0.84084   3.11792
  -1.53520  -0.63134   3.31245
  -1.89433  -0.46674   3.50698
  -2.32828  -0.30214   3.62669
  -2.67245  -0.15250   3.62669
  -3.07647   0.07195   3.76136
  -3.54035   0.10188   3.76136
  -3.85459   0.37123   3.86611
  -4.37832   0.61065   3.71647
  -4.76738   0.67050   3.80625
  -5.21629   0.76029   3.58180
  -5.65024   0.86503   3.50698
  -5.93455   1.07453   3.43216
  -6.26375   1.14934   3.20770
  -6.57799   1.19424   3.28252
  -6.90719   1.26905   3.13288
  -7.13165   1.44862   2.99821
  -7.52071   1.34387   2.92339
  -7.70027   1.44862   2.99821
  -7.90977   1.43366   3.05807
  -8.20904   1.31395   3.01317
  -8.74774   1.19424   2.81865
  -9.04701   1.14934   2.69894
  -9.30140   1.01467   2.80368
  -9.55578   0.99971   2.68397
  -9.91491   0.99971   2.53433
 -10.10944   0.83511   2.50441
 -10.36382   0.93985   2.30988
 -10.40871   0.98474   2.33980
 -10.72295   0.77525   2.08542
 -10.93245   0.74532   1.86096
 -10.87259   0.96978   1.60658
 -10.90252   1.01467   1.47191
 -10.91748   0.89496   1.39709
 -10.63317   1.16431   1.30731
 -10.37879   1.13438   1.57665
 -10.48353   0.80518   1.45694
 -10.09448   1.08949   1.41205
  -9.78024   1.02963   1.69636
  -9.57074   1.02963   1.71133
  -9.57074   0.80518   1.53176
  -9.04701   0.96978   1.65147
  -8.68788   0.89496   1.69636
  -8.47839   0.82014   1.77118
  -8.25393   0.77525   1.57665
  -7.77509   0.85007   1.51680
  -7.23640   0.96978   1.48687
  -6.78748   0.93985   1.41205
  -6.48821   0.67050   1.26241
  -6.09915   0.83511   0.87336
  -5.60535   0.90992   0.88832
  -5.50060   0.71540   0.43941
  -4.87212   0.92489   0.30473
  -4.72249   0.70043   0.06531
  -4.39328   0.79021  -0.24893
  -3.95933   0.80518  -0.32374
  -3.77977   0.67050  -0.69784
  -3.18122   0.98474  -0.72777
  -2.92683   0.93985  -0.78762
  -2.64252   0.88000  -0.98215
  -2.25346   0.80518  -1.10186
  -1.83448   0.80518  -1.20661
  -1.29578   0.93985  -1.05697
  -1.04140   0.65554  -1.04200
  -0.74213   0.74532  -1.35624
  -0.21839   0.86503  -1.26646
   0.42505   0.90992  -1.02704
   0.81411   0.85007  -0.92229
   1.08345   0.79021  -0.93726
   1.41266   0.92489  -0.92229
   1.87653   0.93985  -0.68287
   1.95135   0.77525  -0.77266
   2.28055   0.90992  -0.59309
   2.56487   0.79021  -0.17411
   2.37034   0.46101  -0.24893
   2.69954   0.77525   0.18502
   2.72947   0.56576   0.45437
   2.83421   0.64058   0.61897
   2.72947   0.56576   0.93321
   2.47508   0.35627   0.94818
   2.72947   0.79021   1.12774
   2.65465   0.86503   1.30731
   2.66961   0.98474   1.65147
   2.57983   1.16431   1.57665
   2.32545   1.20920   1.45694
   2.20574   1.32891   1.51680
   2.01121   1.34387   1.39709
   1.95135   1.58329   1.18760
   1.90646   1.61322   1.11278
   1.77179   1.76286   0.88832
   1.66704   1.82271   0.76861
   1.30791   1.71797   0.34962
   1.27798   1.95739   0.05035
   0.97871   1.74789  -0.15914
   0.96374   1.92746  -0.35367
   0.85900   1.95739  -0.32374
   0.48490   1.76286  -0.71280
   0.24548   1.91250  -0.95222
   0.05095   1.92746  -1.19164
  -0.17350   2.07710  -1.56574
  -0.45781   2.01724  -1.83508
  -0.75709   2.01724  -2.20918
  -0.95162   1.98732  -2.49349
  -0.98155   2.12199  -2.67305
  -1.10126   2.12199  -3.04715
  -1.31075   2.13695  -3.36139
  -1.23593   2.25666  -3.55592
  -1.34068   2.10703  -3.58584
  -1.55017   2.03221  -3.90008
  -1.55017   1.98732  -3.94497
  -1.69981   1.86760  -4.03476
  -1.59506   1.86760  -4.10958
  -1.74470   1.77782  -4.10958
  -1.52024   2.01724  -4.27418
  -1.40053   1.98732  -4.03476
  -1.56513   1.80775  -4.31907
  -1.11622   2.00228  -4.09461
  -1.01147   1.85264  -4.06468
  -0.96658   1.83768  -4.28914
  -0.42789   2.09206  -3.95994
  -0.33810   1.73293  -4.01979
  -0.17350   1.95739  -4.28914
   0.15570   1.95739  -4.12454
   0.38016   1.83768  -4.34900
   0.52979   1.68804  -4.48367
   0.49987   1.55337  -5.00740
   0.96374   1.73293  -4.97747
   0.93382   1.26905  -5.24682
   1.03856   1.37380  -5.74063
   1.26302   1.19424  -5.87530
   1.38273   1.10445  -6.21947
   1.59222   0.88000  -6.42896
   1.75682   0.95482  -6.75816
   2.07106   0.86503  -6.72823
   1.99624   0.49094  -7.22204
   2.26559   0.68547  -7.44649
   2.56487   0.59569  -7.65599
   2.40026   0.34130  -8.04504
   2.81925   0.59569  -8.37425
   3.10356   0.65554  -8.50892
   3.28313   0.41612  -8.58374
   3.44773   0.35627  -8.79323
   3.62729   0.32634  -9.00273
   4.33059   0.52087  -8.64360
   4.59994   0.22159  -8.50892
   4.91418   0.19166  -8.46403
   5.51273   0.16174  -8.06001
   5.91675   0.02706  -7.65599
   6.57515  -0.01783  -7.11729
   7.11385   0.04203  -6.62349
   7.69744   0.05699  -5.92019
   7.89196  -0.13754  -5.45631
   8.56533   0.19166  -4.63331
   8.81972   0.19166  -4.06468
   9.13396   0.43108  -3.51103
   9.34345   0.55079  -2.68802
   9.34345   0.62561  -2.37378
   9.46316   0.85007  -1.76027
   9.41827   1.10445  -1.35624
   9.22374   1.11942  -1.04200
   8.86461   1.25409  -0.80258
   8.72994   1.26905  -0.44345
   8.47555   1.40373  -0.23396
   8.13138   1.44862  -0.00951
   7.84707   1.47855   0.22991
   7.44305   1.35884   0.37955
   6.85947   1.25409   0.27481
   6.57515   1.13438   0.60401
   5.84193   0.76029   0.49926
   5.60251   0.98474   0.49926
   5.03389   0.52087   0.45437
   4.21088   0.34130   0.03539
   3.77693   0.43108  -0.00951
   3.37291   0.26648  -0.38360
