********************************************************************************
              CENTRO DE INSTRUMENTACION Y REGISTRO SISMICO  A.C.

    Anaxagoras 814, Col. Narvarte, Benito Juarez, C.P. 03020 Mexico, D.F.
           Tels. 5687 45 42/ 5687 45  82             Fax. 5669 25 12
********************************************************************************
ARCHIVO ESTANDAR DE ACELERACION:
VERSION DEL FORMATO                    : 2.0
NOMBRE DEL ARCHIVO                     : GC3820200623152903
FECHA Y HORA DE CREACION               : 18/AGO/21, 13:43
REF. CATALOGO ACELEROGRAMAS, SMIS 1996 : REGISTRO No.     /PAG.


================================================================================
DATOS DE LA ESTACION:
NOMBRE DE LA ESTACION                  : JARDÍN DE NIÑOS "LUZ GARCÍA CAMPILLO"
CLAVE DE LA ESTACION                   : GC38
LOCALIZACION DE LA ESTACION            : Del. Iztapalapa, Col. Culhuacán entre  
                                       : Juana Medina y Guardería.              
                                       :                                        
                                       :                                        
                                       : 
COORDENADAS DE LA ESTACION             : 19.3161 LAT. N
                                       : 99.1059 LONG. W
ALTITUD (msnm)                         : 2233
TIPO DE SUELO                          : Alto riesgo sísmico                 
                                       :                           
                                       : 
INSTITUCION RESPONSABLE                : CIRES
                                       : 

================================================================================
DATOS DEL ACELEROGRAFO:
MODELO DEL ACELEROGRAFO                : RADESD
NUMERO DE SERIE DEL ACELEROGRAFO       : 251
NUMERO DE CANALES                      : 3
ORIENTACION C1-C6 (rumbo;orientacion)  : /N00E/+V/N90W
ORIENTACION C7-C12 (rumbo;orientacion) : 
VEL. DE MUESTREO, C1-C6 (muestras/s)   : /100/100/100
VEL. DE MUESTREO, C7-C12 (muestras/s)  : 
ESC. COMPLETA DE SENSORES, C1-C6, (g)  : /0.5/0.5/0.5
ESC. COMPLETA DE SENSORES, C7-C12, (g) : 
FREC. NAT. DE SENSORES, C1-C6, (Hz)    : /30/30/32
FREC. NAT. DE SENSORES, C7-C12, (Hz)   : 
AMORTIGUAMIENTO DE SENSORES, C1-C6     : /0.788/0.790/0.790
AMORTIGUAMIENTO DE SENSORES, C7-C12    : 
INTERVALO DE MUESTREO, C1-C6, (s)      : /0.01/0.01/0.01
INTERVALO DE MUESTREO, C7-C12, (s)     : 
UMBRAL DE DISPARO, C1-C6, (Gal)        : /1.5/2.99/1.5
UMBRAL DE DISPARO, C7-C12, (Gal)       :
MEMORIA DE PREEVENTO (s)               : 44.0
TIEMPO DE POSEVENTO (s)                : 0.0


================================================================================
DATOS DEL SISMO:
FECHA DEL SISMO (GMT)                  : 23/JUN/20
HORA EPICENTRO (GMT)                   : 15:29:03.0
MAGNITUD(ES)                           : /Mc=7.4
COORDENADAS DEL EPICENTRO              : 15.80 LAT. N
                                       : 96.13 LONG. W
PROFUNDIDAD FOCAL (km)                 : 22
FUENTE DE LOS DATOS EPICENTRALES       : SSN
                                       : INSTITUTO DE GEOFISICA, UNAM

================================================================================
DATOS DE ESTE REGISTRO:
HORA DE LA PRIMERA MUESTRA (GMT)       : 15:30:19.00
EXACTITUD DEL TIEMPO (s)               : 0.01
DURACION DEL REGISTRO (s), C1-C6       : /287.6/287.6/287.6
DURACION DEL REGISTRO (s), C7-C12      : 
NUM. TOTAL DE MUESTRAS, C1-C6          : /28760/28760/28760
NUM. TOTAL DE MUESTRAS, C7-C12         : 
ACEL. MAX. (Gal), C1-C6                : /26.34662/5.17135/24.27696
ACEL. MAX., C1-C6, EN LA MUESTRA       : /7673/8925/7478
ACEL. MAX. (Gal), C7-C12               : 
ACEL. MAX., C7-C12, EN LA MUESTRA      : 
UNIDADES DE LOS DATOS                  : Gal (cm/s/s)
FACTOR DE DECIMACION                   : 1
FORMATO DATOS (FORTRAN,10 campos/dato) : 3F10.5


================================================================================
CALIDAD DEL ACELEROGRAMA:
REGISTRO DIGITAL COMPLETO CON TIEMPO ABSOLUTO CORRECTO.


================================================================================
COMENTARIOS:














================================================================================
DATOS DE ACELERACION:
---------+---------+---------+---------+---------+---------+---------+---------+
   CANAL-1   CANAL-2   CANAL-3   CANAL-4   CANAL-5   CANAL-6   CANAL-7   CANAL-8
      N00E        +V      N90W
---------+---------+---------+---------+---------+---------+---------+---------+
[...]
  -4.26011   2.10104  -5.16823
  -4.67909   2.04118  -4.21055
  -5.20282   1.75687  -3.41747
  -5.51706   1.81673  -2.28023
  -5.75648   1.56234  -1.17291
  -6.19043   1.42767  -0.21523
  -6.38496   1.09846   0.84720
  -6.92366   1.02365   1.90962
  -7.22293   0.90394   3.15162
  -7.34264   0.94883   4.31879
  -7.85141   0.96379   5.35129
  -8.13572   0.88897   6.42868
  -8.46492   0.76926   7.47614
  -9.04851   0.67948   8.40390
  -9.45253   0.72437   9.42143
  -9.85655   0.82912  10.40904
 -10.36532   0.54481  11.41161
 -10.78431   0.57473  12.17476
 -11.09855   0.45502  13.08755
 -11.68213   0.24553  13.83574
 -12.11608   0.06597  14.50911
 -12.47521   0.18568  15.40694
 -12.71463   0.23057  15.96060
 -13.01391  -0.12856  16.63396
 -13.14858  -0.30813  17.11281
 -13.43289  -0.26324  17.72632
 -13.35807  -0.47273  18.17523
 -13.46282  -0.60740  18.60918
 -13.49275  -0.75704  19.02817
 -13.20844  -0.72711  19.50701
 -13.41793  -0.87675  19.88110
 -13.25333  -0.86179  20.19534
 -13.13362  -1.08624  20.67418
 -13.07376  -1.10121  21.03331
 -12.81938  -1.08624  21.54208
 -12.83434  -1.10121  21.87128
 -12.69967  -1.16106  22.14063
 -12.65478  -1.07128  22.49976
 -12.71463  -1.16106  22.72422
 -12.69967  -1.14610  23.06838
 -12.71463  -1.10121  23.18809
 -12.63981  -1.13114  23.38262
 -12.83434  -1.11617  23.39758
 -12.84931  -0.99646  23.63700
 -12.75952  -1.07128  23.53226
 -12.65478  -1.02639  23.47240
 -12.37047  -0.93661  23.30780
 -12.04126  -1.04135  23.18809
 -11.41278  -0.90668  22.94867
 -10.90402  -1.04135  22.78407
 -10.23065  -0.98150  22.48480
  -9.49742  -1.07128  22.24537
  -8.58463  -1.01143  21.81143
  -7.68681  -0.96653  21.37748
  -6.90869  -1.04135  20.91360
  -5.87619  -0.99646  20.46469
  -4.78384  -0.87675  20.15045
  -3.76630  -0.96653  19.70154
  -2.82359  -0.95157  18.87853
  -1.43196  -0.75704  18.54933
  -0.53413  -0.74208  18.07049
   0.48340  -0.62237  17.41208
   1.44109  -0.39791  16.75367
   2.54840  -0.36798  16.43944
   3.56594  -0.24827  15.84089
   4.65829  -0.24827  15.39197
   5.61597  -0.11360  14.95802
   6.75322  -0.00885  14.44926
   7.77076   0.14078  13.98538
   8.86311   0.32035  13.50654
   9.91057   0.24553  13.23719
  10.91315   0.27546  12.72842
  12.30478   0.36524  12.27951
  13.35224   0.27546  11.89045
  14.42963   0.17071  11.56125
  15.59680   0.09589  10.94774
  17.12311  -0.02382  10.70832
  18.05086  -0.14353  10.27437
  19.06840  -0.47273   9.93020
  20.19068  -0.84682   9.48129
  21.14836  -1.04135   9.06230
  21.98633  -1.17603   8.50864
  22.95897  -1.62494   7.89513
  23.52760  -1.90925   7.32651
  24.05133  -2.31327   6.96738
  24.56010  -2.56766   6.06955
  25.03894  -2.80708   5.48596
  25.21850  -2.82204   4.76770
  25.27836  -2.77715   3.89980
  25.42799  -2.95671   3.03191
  25.29332  -3.34577   2.35854
  25.17361  -3.39066   1.50560
  24.96412  -3.34577   0.57785
  24.60499  -3.42059  -0.29005
  24.32068  -3.49541  -1.18787
  24.14111  -3.54030  -1.74153
  23.75205  -3.24103  -2.57950
  23.45278  -3.51037  -3.37258
  23.18343  -3.45052  -4.16566
  22.86919  -3.03153  -4.82407
  22.51006  -3.12132  -5.57226
  22.31553  -2.94175  -6.03613
  21.97136  -2.85197  -6.72447
  21.79180  -2.62751  -7.23323
  21.28303  -2.61255  -8.02631
  20.80419  -2.43298  -8.75954
  20.44506  -2.19356  -9.44787
  19.83155  -2.16363 -10.03146
  19.08336  -2.10378 -10.85446
  18.42495  -1.96911 -11.69243
  17.51216  -2.19356 -12.48551
  16.70412  -2.11874 -13.32348
  15.82126  -2.13371 -14.04174
  14.66905  -2.22349 -14.84979
  13.51684  -1.95414 -15.56805
  12.24492  -2.23845 -16.33120
  10.92811  -2.29831 -17.24399
   9.41677  -2.19356 -18.06700
   8.12989  -1.92421 -18.57576
   6.78315  -2.11874 -19.15935
   5.46634  -2.34320 -19.81776
   4.17945  -2.04392 -20.28163
   3.05717  -2.20853 -20.89515
   2.06956  -2.10378 -21.53859
   0.94728  -2.08882 -21.95757
   0.12427  -2.05889 -22.25685
  -0.68377  -1.93918 -22.58605
  -1.55167  -1.96911 -22.87036
  -2.21007  -2.01400 -23.28935
  -2.98819  -1.99903 -23.45395
  -3.52688  -2.01400 -23.78315
  -4.20025  -1.96911 -23.93279
  -4.82873  -2.35816 -24.00761
  -5.26268  -2.08882 -24.03754
  -5.86123  -2.23845 -24.20214
  -6.51963  -2.44795 -24.23206
  -7.14811  -2.43298 -24.14228
  -7.53717  -2.53773 -24.18717
  -8.34521  -2.38809 -24.27696
  -8.71931  -2.64248 -23.91783
  -9.22808  -2.80708 -23.76819
  -9.97626  -2.59758 -23.51380
 -10.38029  -2.52277 -23.12475
 -10.81423  -2.40306 -22.72073
 -11.50257  -1.87932 -22.21196
 -12.02630  -2.08882 -21.59844
 -12.60989  -1.93918 -21.02982
 -12.87923  -1.71472 -20.28163
 -13.41793  -1.41545 -19.51848
 -13.86684  -1.04135 -18.60569
 -14.33072  -1.10121 -17.63305
 -14.61503  -0.89172 -16.89982
 -14.95920  -0.66726 -15.91221
 -15.28840  -0.47273 -15.02935
 -15.64753  -0.35302 -14.01182
 -15.99170  -0.08367 -13.06910
 -16.30593  -0.11360 -11.99171
 -16.60521  -0.00885 -10.91432
 -16.88952   0.09589  -9.98656
 -17.44318   0.24553  -9.08874
 -17.69756   0.26049  -8.07120
 -18.02677   0.27546  -7.23323
 -18.55050   0.20064  -6.29052
 -18.87970   0.12582  -5.66204
 -19.16401   0.18568  -5.04852
 -19.92716   0.21560  -4.37515
 -20.45090   0.15575  -3.67186
 -20.69032   0.36524  -3.25287
 -20.89981   0.20064  -2.71418
 -21.40858   0.38020  -2.23534
 -21.42354   0.27546  -1.68168
 -21.67792   0.51488  -1.09809
 -21.78267   0.70941  -0.52947
 -21.73778   0.48495   0.03915
 -21.85749   0.90394   0.78734
 -21.88742   0.88897   1.43078
 -21.75274   1.00868   2.07423
 -21.66296   1.09846   2.79249
 -21.60311   1.36781   3.51075
 -21.37865   1.29299   4.10930
 -21.09434   1.53241   4.81259
 -20.72024   1.86162   5.69546
 -20.48082   1.80176   5.99473
 -20.13666   1.78680   6.45861
 -19.65782   1.93644   6.92248
 -19.47825   1.81673   7.22176
 -18.93956   1.87658   7.67067
 -18.55050   1.95140   8.19440
 -18.13151   1.81673   8.49368
 -17.66764   1.89154   8.77799
 -16.97930   1.77183   9.21194
 -16.50046   1.59227   9.58603
 -16.08148   1.44263  10.04991
 -15.40811   1.23314  10.43897
 -14.79459   1.15832  10.82803
 -14.10626   1.15832  11.29190
 -13.55260   0.75430  11.90542
 -12.75952   0.63459  12.24958
 -11.81681   0.51488  12.56382
 -10.94891   0.39517  13.08755
 -10.08101   0.21560  13.58136
  -9.16822   0.29042  13.98538
  -7.91126   0.23057  14.23976
  -6.78898   0.12582  14.62882
  -5.71159   0.08093  14.73357
  -4.64916   0.11086  14.91313
  -3.45206   0.21560  15.25730
  -2.53927   0.12582  15.16752
  -1.31225   0.17071  15.37701
  -0.23486   0.17071  15.37701
   0.78268   0.15575  15.43686
   1.84511   0.27546  15.36205
   2.87761   0.33531  15.40694
   3.86521   0.32035  15.18248
   4.91268   0.29042  15.21241
   5.96014   0.30539  15.19744
   6.84300   0.45502  14.91313
   7.86054   0.45502  15.06277
   8.83318   0.55977  14.88320
   9.92554   0.55977  14.85328
  10.76351   0.38020  14.82335
  11.64637   0.78423  14.92810
  12.42449   0.57473  14.86824
  13.38217   0.84408  15.03284
  13.95079   0.93386  14.86824
  14.89351   0.82912  15.22737
  15.49206   1.02365  15.37701
  16.24024   1.02365  15.54161
  16.62930   1.00868  15.43686
  17.36253   0.99372  15.64636
  18.03590   1.00868  15.63139
  18.79905   1.06854  15.49672
  19.11329   0.96379  15.36205
  19.72680   1.05357  15.28723
  20.41513   1.09846  15.18248
  20.89397   1.15832  14.94306
  21.37281   1.02365  14.52407
  21.73194   0.82912  14.03027
  22.39035   0.81415  13.61129
  22.70459   1.08350  13.23719
  22.94401   1.14336  12.78828
  23.21336   0.99372  12.17476
  23.54256   0.96379  11.47147
  23.55752   0.88897  10.93277
  23.64731   1.27803  10.24444
  23.55752   1.17328   9.81049
  23.57249   1.03861   9.18201
  23.46774   1.08350   8.49368
  23.52760   1.21817   7.91009
  23.37796   1.27803   7.19183
  23.04876   1.23314   6.59328
  22.89912   1.48752   5.99473
  22.58488   1.44263   5.44107
  22.33050   1.57731   4.75274
  21.80676   1.86162   4.15419
  21.29800   1.62220   3.34615
  21.25310   1.99629   2.82241
  20.48995   1.77183   1.96948
  20.01111   1.93644   1.29611
  19.39760   2.16089   0.41325
  18.79905   2.13096  -0.27508
  18.32021   2.01125  -1.05320
  17.72166   2.25067  -1.81635
  17.07822   2.22075  -2.35505
  16.50959   2.07111  -3.29776
  15.92601   2.13096  -4.12077
  15.28256   2.07111  -4.80910
  14.72890   2.02622  -5.51240
  14.16028   2.05615  -6.39526
  13.51684   2.07111  -7.11352
  12.82851   1.98133  -7.92157
  12.21499   2.11600  -8.68472
  11.58652   2.05615  -9.29823
  10.89818   2.10104 -10.04642
  10.10510   2.26564 -10.77964
   9.67115   2.49009 -11.40812
   8.99778   2.56491 -11.93185
   8.54887   2.81930 -12.47055
   7.93536   2.78937 -12.84464
   7.53134   2.95397 -13.33845
   6.96271   2.95397 -13.66765
   6.48387   3.23828 -13.98189
   5.85539   3.52259 -14.28116
   5.49626   3.65727 -14.37095
   5.04735   3.59741 -14.43080
   4.32909   3.61238 -14.49066
   3.94003   3.79194 -14.52058
   3.43127   3.86676 -14.71511
   2.81775   3.79194 -14.73008
   2.42869   3.83683 -14.58044
   1.56080   3.73209 -14.58044
   0.73779   3.68720 -14.58044
   0.18413   3.67223 -14.29613
  -0.62391   3.62734 -14.31109
  -1.17757   3.44778 -14.28116
  -2.21007   3.31310 -14.10160
  -3.03308   3.11857 -13.90707
  -3.96083   2.87915 -13.71254
  -4.58931   2.69959 -13.54794
  -5.59188   2.56491 -13.17385
  -6.45978   2.20578 -12.91946
  -7.26782   1.99629 -12.66508
  -8.28536   1.71198 -12.32091
  -9.03355   1.41270 -11.85704
  -9.90144   1.02365 -11.48294
 -10.76934   0.82912 -11.15374
 -11.53249   0.88897 -11.04899
 -12.32557   0.52984 -10.73475
 -13.14858  -0.05374 -10.43548
 -13.73217  -0.20338 -10.30080
 -14.36065  -0.50266  -9.92671
 -15.04898  -0.33806  -9.83693
 -15.75228  -0.86179  -9.49276
 -16.57528  -1.16106  -9.52269
 -17.05412  -1.08624  -9.25334
 -17.99684  -1.13114  -9.13363
 -18.55050  -1.43041  -8.93910
 -19.35854  -1.40048  -8.62486
 -20.15162  -1.37056  -8.32559
 -20.79506  -1.25085  -7.99638
 -21.46843  -1.28077  -7.47265
 -22.09691  -1.40048  -7.26316
 -22.83013  -1.35559  -6.99381
 -23.33890  -1.29574  -6.52994
 -23.87760  -1.20595  -5.99124
 -24.49111  -1.08624  -5.57226
 -24.92506  -0.87675  -4.94378
 -25.35901  -0.78697  -4.49486
 -25.68821  -0.80193  -3.86639
 -26.00245  -0.56251  -3.11820
 -26.10720  -0.11360  -2.48972
 -26.25683  -0.08367  -1.66671
 -26.24187   0.14078  -1.06816
 -26.34662   0.36524  -0.30501
 -26.18202   0.46999   0.56289
 -26.19698   0.58970   1.31107
 -26.09223   0.78423   2.25379
 -25.67325   0.79919   2.83738
 -25.53857   0.96379   3.46586
 -25.32908   0.94883   4.39361
 -24.89513   0.85904   4.67792
 -24.47615   0.82912   5.27647
 -23.90752   0.75430   5.91991
 -23.41372   0.54481   6.32393
 -22.93488   0.38020   6.86263
 -22.36626   0.09589   7.23672
 -21.67792  -0.09864   7.71556
 -21.19908  -0.23331   8.25426
 -20.42097  -0.45777   8.71814
 -19.98702  -0.62237   9.04734
 -19.34358  -0.80193   9.48129
 -18.70014  -0.78697   9.84042
 -18.14648  -1.10121  10.33422
 -17.39829  -1.22092  10.55868
 -16.23112  -1.25085  10.87292
 -15.75228  -1.37056  11.18716
 -14.97416  -1.38552  11.50139
 -14.15115  -1.68479  11.87549
 -13.40296  -1.71472  12.05505
 -12.17594  -1.66983  12.47404
 -11.38286  -1.59501  12.60871
 -10.52992  -1.60998  12.95288
  -9.57224  -1.53516  13.29705
  -8.53974  -1.17603  13.46165
  -7.80652  -1.40048  13.64121
  -6.75906  -1.43041  14.06020
  -5.95101  -1.11617  14.07516
  -4.99333  -1.47530  14.44926
  -4.05061  -1.53516  14.67371
  -2.88344  -1.59501  14.88320
  -2.01554  -1.66983  15.06277
  -1.05786  -1.83443  15.21241
  -0.29471  -1.86436  15.37701
   0.61808  -1.86436  15.55657
   1.39619  -1.83443  15.61643
   2.30898  -2.17860  15.49672
   3.19185  -2.25342  15.64636
   3.85025  -2.35816  15.70621
   4.52362  -2.62751  15.57154
   5.06232  -2.71729  15.33212
   5.70576  -3.01657  15.16752
   6.19956  -2.97168  14.91313
   6.81308  -3.12132  14.70364
   7.24702  -3.34577  14.12005
   7.53134  -3.52534  13.73100
   7.86054  -3.66001  13.11748
   8.24960  -3.79468  12.68353
   8.56384  -3.88447  12.11491
   8.98282  -4.19871  11.59118
   9.31202  -4.30345  10.96270
   9.58137  -4.66258  10.42400
   9.83576  -4.55784   9.88531
   9.94050  -4.73740   9.30172
  10.23978  -4.63266   8.91266
  10.53905  -4.70747   8.26922
  10.86825  -4.82718   7.70060
  10.86825  -4.81222   7.08709
  10.89818  -4.55784   6.47357
  10.91315  -4.43813   5.86006
  10.94307  -4.54287   5.26151
  10.95804  -4.36331   4.55821
  10.92811  -4.19871   4.10930
  11.07775  -4.07900   3.46586
  11.06278  -3.79468   2.89723
  11.01789  -3.77972   2.17897
  10.89818  -3.64505   1.34100
  10.97300  -3.33081   0.75741
  11.00293  -3.00161   0.21872
  11.21242  -2.71729  -0.45465
  11.13760  -2.67240  -1.09809
  11.34709  -2.22349  -1.72657
  11.40695  -2.04392  -2.10066
  11.78104  -1.69976  -2.75907
  11.96061  -1.53516  -3.23791
  11.97557  -1.50523  -3.80653
  12.24492  -1.14610  -4.28537
  12.45441  -1.08624  -4.62954
  12.72376  -0.83186  -4.95874
  12.97814  -0.84682  -5.39269
  12.99311  -0.81690  -5.67700
  13.06793  -0.53258  -6.02117
  13.12778  -0.69719  -6.20073
  13.36720  -0.65230  -6.52994
  13.33728  -0.21835  -6.82921
  13.69641  -0.72711  -7.17338
  13.57670  -0.72711  -7.45769
  13.77122  -0.72711  -7.87667
  13.98072  -0.66726  -8.11609
  13.92086  -0.44280  -8.47523
  14.22014  -0.59244  -8.72961
  14.08546  -0.59244  -9.11867
  14.30992  -0.47273  -9.40298
  14.59423  -0.45777  -9.67233
  14.50445  -0.39791  -9.92671
  14.36977  -0.53258 -10.21102
  14.41467  -0.35302 -10.43548
  14.19021  -0.51762 -10.49533
  14.10043  -0.54755 -10.55519
  13.86101  -0.50266 -10.58512
  13.72633  -0.53258 -10.76468
  13.20260  -0.59244 -10.64497
  13.02304  -0.50266 -10.68986
  12.75369  -0.32309 -10.46541
  12.08032  -0.39791 -10.39059
  11.61644  -0.45777 -10.21102
  11.19746  -0.27820 -10.19606
  10.50912  -0.60740  -9.91175
   9.89561  -0.42784  -9.71722
   9.17735  -0.42784  -9.50772
   8.53391  -0.36798  -9.38801
   8.07003  -0.47273  -9.05881
   7.18717  -0.32309  -8.80443
   6.49884  -0.42784  -8.84932
   5.72072  -0.50266  -8.62486
   5.04735  -0.27820  -8.46026
   4.32909  -0.39791  -8.37048
   3.47616  -0.21835  -8.41537
   2.63819  -0.44280  -8.35552
   1.97978  -0.42784  -8.23581
   1.26152  -0.30813  -8.01135
   0.52830  -0.21835  -8.20588
   0.06442   0.12582  -8.05624
  -0.74362   0.12582  -7.86171
  -1.37210   0.24553  -7.56244
  -1.65641   0.55977  -7.57740
  -2.34475   0.91890  -7.36791
  -2.97322   1.05357  -7.06863
  -3.40717   1.44263  -6.57483
  -3.91594   1.68205  -6.32044
  -4.45464   1.92147  -6.11095
  -5.11304   2.29557  -5.90146
  -5.38239   2.46017  -5.45255
  -5.72656   2.60980  -4.89889
  -6.10065   2.60980  -4.67443
  -6.47474   2.87915  -4.16566
  -6.78898   2.93901  -3.77660
  -7.01344   2.87915  -3.50726
