********************************************************************************
              CENTRO DE INSTRUMENTACION Y REGISTRO SISMICO  A.C.

    Anaxagoras 814, Col. Narvarte, Benito Juarez, C.P. 03020 Mexico, D.F.
           Tels. 5687 45 42/ 5687 45  82             Fax. 5669 25 12
********************************************************************************
ARCHIVO ESTANDAR DE ACELERACION:
VERSION DEL FORMATO                    : 2.0
NOMBRE DEL ARCHIVO                     : GR2720200623152903
FECHA Y HORA DE CREACION               : 18/AGO/21, 13:43
REF. CATALOGO ACELEROGRAMAS, SMIS 1996 : REGISTRO No.     /PAG.


================================================================================
DATOS DE LA ESTACION:
NOMBRE DE LA ESTACION                  : GRANJAS
CLAVE DE LA ESTACION                   : GR27
LOCALIZACION DE LA ESTACION            : Del. Azcapotzalco, Col. Sindicato      
                                       : Mexicano de Electricistas, calle       
                                       : Norte 87 esq. calle Aspiros.           
                                       :                                        
                                       : 
COORDENADAS DE LA ESTACION             : 19.4747 LAT. N
                                       : 99.1797 LONG. W
ALTITUD (msnm)                         : 2238
TIPO DE SUELO                          : Terreno estratificado               
                                       : (arcillas, limos, arenas) 
                                       : 
INSTITUCION RESPONSABLE                : CIRES, A. C.
                                       : 

================================================================================
DATOS DEL ACELEROGRAFO:
MODELO DEL ACELEROGRAFO                : RAD_IO14
NUMERO DE SERIE DEL ACELEROGRAFO       : 
NUMERO DE CANALES                      : 3
ORIENTACION C1-C6 (rumbo;orientacion)  : /S00E/+V/N90W
ORIENTACION C7-C12 (rumbo;orientacion) : 
VEL. DE MUESTREO, C1-C6 (muestras/s)   : /100/100/100
VEL. DE MUESTREO, C7-C12 (muestras/s)  : 
ESC. COMPLETA DE SENSORES, C1-C6, (g)  : /2.0/2.0/2.0
ESC. COMPLETA DE SENSORES, C7-C12, (g) : 
FREC. NAT. DE SENSORES, C1-C6, (Hz)    : /53.52/54.77/55.09
FREC. NAT. DE SENSORES, C7-C12, (Hz)   : 
AMORTIGUAMIENTO DE SENSORES, C1-C6     : /0.5966/0.4954/0.5266
AMORTIGUAMIENTO DE SENSORES, C7-C12    : 
INTERVALO DE MUESTREO, C1-C6, (s)      : /0.01/0.01/0.01
INTERVALO DE MUESTREO, C7-C12, (s)     : 
UMBRAL DE DISPARO, C1-C6, (Gal)        : / / /
UMBRAL DE DISPARO, C7-C12, (Gal)       :
MEMORIA DE PREEVENTO (s)               : 60
TIEMPO DE POSEVENTO (s)                : 90


================================================================================
DATOS DEL SISMO:
FECHA DEL SISMO (GMT)                  : 23/JUN/20
HORA EPICENTRO (GMT)                   : 15:29:03.0
MAGNITUD(ES)                           : /Mc=7.4
COORDENADAS DEL EPICENTRO              : 15.80 LAT. N
                                       : 96.13 LONG. W
PROFUNDIDAD FOCAL (km)                 : 22
FUENTE DE LOS DATOS EPICENTRALES       : SSN
                                       : INSTITUTO DE GEOFISICA, UNAM

================================================================================
DATOS DE ESTE REGISTRO:
HORA DE LA PRIMERA MUESTRA (GMT)       : 10:27:25.00
EXACTITUD DEL TIEMPO (s)               : 
DURACION DEL REGISTRO (s), C1-C6       : /539.8/539.8/539.8
DURACION DEL REGISTRO (s), C7-C12      : 
NUM. TOTAL DE MUESTRAS, C1-C6          : /53980/53980/53980
NUM. TOTAL DE MUESTRAS, C7-C12         : 
ACEL. MAX. (Gal), C1-C6                : /21.97163/3.21856/16.4061
ACEL. MAX., C1-C6, EN LA MUESTRA       : /19195/19557/21601
ACEL. MAX. (Gal), C7-C12               : 
ACEL. MAX., C7-C12, EN LA MUESTRA      : 
UNIDADES DE LOS DATOS                  : Gal (cm/s/s)
FACTOR DE DECIMACION                   : 1
FORMATO DATOS (FORTRAN,10 campos/dato) : 3F10.5


================================================================================
CALIDAD DEL ACELEROGRAMA:
REGISTRO DIGITAL COMPLETO CON TIEMPO ABSOLUTO CORRECTO.


================================================================================
COMENTARIOS:














================================================================================
DATOS DE ACELERACION:
---------+---------+---------+---------+---------+---------+---------+---------+
   CANAL-1   CANAL-2   CANAL-3   CANAL-4   CANAL-5   CANAL-6   CANAL-7   CANAL-8
      S00E        +V      N90W
---------+---------+---------+---------+---------+---------+---------+---------+
[...]
   5.14267  -0.82436   1.61030
   5.26237  -1.00396   1.61030
   5.26237  -1.12366   1.61030
   5.44197  -1.30326   1.55040
   5.62157  -1.36306   1.43070
   5.68137  -1.42296   1.43070
   5.62157  -1.30326   1.49060
   5.74127  -1.30326   1.37090
   5.80107  -1.48276   1.25120
   5.68137  -1.48276   1.31100
   5.74127  -1.60246   1.31100
   5.80107  -1.72216   1.01170
   5.74127  -1.60246   0.95190
   5.86097  -1.60246   0.83220
   5.74127  -1.54266   0.71250
   5.80107  -1.30326   0.59280
   5.86097  -1.18346   0.41320
   5.92077  -0.88426   0.35330
   5.86097  -0.76456   0.23360
   5.86097  -0.76456   0.11390
   5.86097  -0.64486   0.23360
   5.80107  -0.64486   0.05410
   5.74127  -0.52506   0.11390
   5.74127  -0.46526   0.11390
   5.56167  -0.64486  -0.00580
   5.38217  -0.64486   0.11390
   5.20257  -0.64486   0.05410
   5.14267  -0.70466   0.11390
   4.84347  -0.70466   0.17380
   4.60397  -0.70466   0.17380
   4.42447  -0.76456   0.11390
   4.24487  -0.76456   0.17380
   4.00547  -0.70466   0.17380
   3.88577  -0.64486   0.05410
   3.70617  -0.70466  -0.00580
   3.52657  -0.70466  -0.00580
   3.34707  -0.70466  -0.12550
   3.16747  -0.52506  -0.24520
   3.04777  -0.52506  -0.36490
   2.92807  -0.52506  -0.48460
   2.68867  -0.46526  -0.54450
   2.56897  -0.34556  -0.60440
   2.38937  -0.22586  -0.66420
   2.20977  -0.16596  -0.60440
   2.14997  -0.04626  -0.48460
   1.85067  -0.10616  -0.36490
   1.61127   0.01364  -0.24520
   1.49157   0.31284  -0.18540
   1.55137   0.19314   0.11390
   1.31197   0.13334   0.29350
   1.19227   0.19314   0.41320
   1.19227   0.13334   0.53290
   0.89297   0.01364   0.65260
   0.89297   0.01364   0.65260
   0.95287  -0.22586   0.77230
   0.83317  -0.40536   0.89200
   0.89297  -0.40536   1.01170
   0.89297  -0.52506   0.89200
   0.95287  -0.58496   0.83220
   1.07257  -0.64486   0.53290
   1.13237  -0.64486   0.53290
   1.31197  -0.52506   0.47300
   1.49157  -0.58496   0.29350
   1.55137  -0.58496   0.23360
   1.73097  -0.46526   0.11390
   1.97037  -0.40536  -0.18540
   2.14997  -0.40536  -0.30510
   2.44927  -0.16596  -0.36490
   2.68867   0.01364  -0.54450
   2.86817   0.19314  -0.54450
   3.04777   0.37274  -0.78390
   3.22737   0.49244  -0.90360
   3.52657   0.55234  -0.90360
   3.88577   0.67204  -1.02330
   3.94557   0.85154  -1.26280
   3.94557   1.09094  -1.50220
   4.30477   1.33044  -1.74160
   4.42447   1.39024  -2.10070
   4.54417   1.39024  -2.28030
   4.84347   1.56984  -2.51970
   5.08287   1.68954  -2.81900
   5.32227   1.68954  -3.17810
   5.56167   1.68954  -3.41750
   5.74127   1.68954  -3.71680
   6.04057   1.68954  -4.13580
   6.22007   1.68954  -4.31540
   6.45947   1.68954  -4.55480
   6.63907   1.56984  -4.85410
   6.75877   1.45014  -4.97380
   6.93837   1.45014  -5.15330
   7.05807   1.39024  -5.51250
   7.11787   1.27054  -5.33290
   7.11787   1.27054  -5.21320
   7.11787   1.27054  -4.97380
   7.11787   1.33044  -4.97380
   6.93837   1.45014  -4.79420
   6.69897   1.56984  -4.49490
   6.51937   1.50994  -4.31540
   6.27997   1.62964  -3.89640
   6.10037   1.80924  -3.59710
   5.92077   1.86914  -3.35770
   5.44197   1.92894  -2.75910
   5.02297   2.10854  -2.40000
   4.48427   2.16834  -2.22040
   3.94557   2.28804  -1.86130
   3.40687   2.22824  -1.50220
   2.86817   2.22824  -1.02330
   2.20977   2.16834  -0.66420
   1.61127   2.04864  -0.18540
   0.89297   1.80924   0.23360
   0.05507   1.68954   0.53290
  -0.54353   1.68954   1.07160
  -1.26183   1.50994   1.43070
  -2.15963   1.45014   1.90960
  -2.81803   1.39024   2.26870
  -3.59613   1.33044   2.62780
  -4.55383   1.27054   3.04680
  -5.33193   1.15084   3.64540
  -6.05023   1.33044   4.12420
  -6.82833   1.21074   4.78260
  -7.54653   1.27054   5.26140
  -8.38453   1.39024   5.68040
  -8.98313   1.33044   6.09940
  -9.64153   1.21074   6.51840
 -10.35973   1.27054   6.99720
 -11.01813   1.21074   7.11690
 -11.67653   1.27054   7.35640
 -12.15543   1.15084   7.59580
 -12.81383   0.97124   7.65560
 -13.29263   1.03114   7.71550
 -13.83133   1.09094   7.71550
 -14.37003   1.03114   7.65560
 -14.78903   1.03114   7.41620
 -15.38753   1.03114   7.17680
 -15.74673   1.15084   7.23670
 -16.10583   1.15084   7.05710
 -16.52483   1.03114   6.93740
 -16.82413   1.09094   6.69800
 -17.12333   1.33044   6.57830
 -17.18323   1.27054   6.33880
 -17.42263   1.15084   6.27900
 -17.48253   1.15084   6.03960
 -17.42263   1.21074   5.80010
 -17.30293   1.09094   5.50090
 -17.18323   0.79174   5.32130
 -17.00363   0.73184   5.14170
 -16.82413   0.67204   4.72270
 -16.64453   0.49244   4.42350
 -16.28543   0.49244   3.82490
 -16.04603   0.55234   3.34610
 -15.50733   0.55234   2.62780
 -15.02843   0.49244   2.14900
 -14.54963   0.55234   1.73000
 -13.95103   0.73184   1.01170
 -13.41233   0.79174   0.35330
 -12.75393   0.79174  -0.06570
 -12.09553   0.91144  -0.42480
 -11.31743   1.09094  -0.90360
 -10.41963   0.97124  -1.32260
  -9.58163   0.91144  -1.62190
  -8.56413   0.97124  -1.80150
  -7.78603   1.03114  -2.16060
  -6.70863   1.03114  -2.28030
  -5.57133   0.97124  -2.57960
  -4.61363   0.97124  -2.81900
  -3.77573   0.91144  -3.05840
  -2.69833   0.91144  -3.29780
  -1.80053   0.85154  -3.77670
  -1.02233   0.73184  -4.01610
  -0.12453   0.73184  -4.25550
   0.71347   0.85154  -4.67450
   1.55137   0.73184  -4.97380
   2.32947   0.73184  -5.21320
   3.04777   0.67204  -5.33290
   3.76607   0.61214  -5.63220
   4.42447   0.37274  -5.75190
   5.08287   0.37274  -5.75190
   5.62157   0.37274  -5.75190
   6.16027   0.31284  -5.81170
   6.75877   0.31284  -5.81170
   7.17777   0.37274  -5.81170
   7.59677   0.43254  -5.69200
   8.01577   0.43254  -5.51250
   8.31507   0.49244  -5.27300
   8.43477   0.61214  -5.15330
   8.73397   0.73184  -5.09350
   8.97347   0.55234  -4.91390
   9.09317   0.55234  -4.61460
   9.33257   0.67204  -4.37520
   9.45227   0.67204  -4.25550
   9.57197   0.61214  -3.83650
   9.63187   0.49244  -3.29780
   9.51217   0.55234  -2.87880
   9.45227   0.31284  -2.45990
   9.51217   0.07344  -1.92120
   9.39237  -0.04626  -1.32260
   9.21287  -0.16596  -0.84380
   8.85367  -0.34556  -0.42480
   8.79387  -0.64486   0.17380
   8.67417  -0.70466   0.59280
   8.37487  -0.82436   1.01170
   8.07557  -0.88426   1.43070
   7.71647  -1.00396   1.78990
   7.41717  -1.12366   2.20880
   7.23767  -1.18346   2.56800
   6.81867  -1.18346   2.68770
   6.57927  -1.36306   2.98700
   6.16027  -1.48276   3.46580
   5.74127  -1.54266   3.76510
   5.44197  -1.48276   4.12420
   5.14267  -1.42296   4.54320
   4.66387  -1.24336   4.84250
   4.30477  -1.06376   5.08190
   4.00547  -0.94406   5.32130
   3.64637  -0.76456   5.50090
   3.34707  -0.82436   5.74030
   3.04777  -0.64486   5.91980
   2.68867  -0.58496   6.03960
   2.32947  -0.52506   6.21910
   2.03027  -0.64486   6.15930
   1.91057  -0.76456   6.15930
   1.61127  -0.70466   6.09940
   1.43167  -0.76456   5.91980
   1.13237  -0.94406   5.80010
   0.95287  -1.06376   5.62060
   0.77327  -1.12366   5.14170
   0.65357  -1.18346   4.84250
   0.59377  -1.18346   4.54320
   0.59377  -1.18346   4.24390
   0.59377  -1.12366   3.94460
   0.53387  -1.24336   3.58550
   0.35427  -1.24336   3.22640
   0.23457  -1.24336   2.98700
   0.29447  -1.24336   3.04680
   0.29447  -1.12366   2.68770
   0.35427  -1.24336   2.62780
   0.41417  -1.30326   2.38840
   0.41417  -1.24336   2.20880
   0.47397  -1.18346   1.90960
   0.59377  -1.18346   1.49060
   0.59377  -1.36306   1.25120
   0.65357  -1.30326   1.07160
   0.95287  -1.30326   0.65260
   1.13237  -1.42296   0.47300
   1.19227  -1.48276   0.17380
   1.49157  -1.48276  -0.12550
   1.91057  -1.48276  -0.42480
   2.20977  -1.54266  -0.84380
   2.68867  -1.60246  -1.14300
   3.16747  -1.72216  -1.50220
   3.46677  -1.66236  -1.92120
   3.82587  -1.84196  -2.34010
   4.30477  -2.02146  -2.81900
   4.66387  -1.84196  -3.05840
   5.20257  -1.78206  -3.41750
   5.68137  -1.66236  -3.59710
   6.10037  -1.54266  -3.71680
   6.63907  -1.54266  -3.95620
   7.29747  -1.42296  -4.01610
   7.77637  -1.42296  -4.01610
   8.25517  -1.30326  -4.07590
   8.79387  -1.30326  -4.07590
   9.15297  -1.24336  -3.89640
   9.63187  -1.24336  -3.77670
  10.23037  -1.24336  -3.83650
  10.58947  -1.18346  -3.83650
  10.88877  -1.12366  -3.83650
  11.30777  -1.00396  -3.77670
  11.60707  -0.82436  -3.83650
  11.90637  -0.76456  -3.95620
  12.08587  -0.64486  -4.19570
  12.38517  -0.52506  -4.37520
  12.50487  -0.40536  -4.37520
  12.50487  -0.16596  -4.55480
  12.74427   0.01364  -4.79420
  12.86397   0.01364  -4.85410
  12.98367   0.13334  -4.91390
  13.10347   0.13334  -4.97380
  13.22317   0.19314  -5.03360
  13.10347   0.13334  -5.03360
  13.04357   0.13334  -5.09350
  12.98367   0.01364  -4.97380
  12.86397  -0.04626  -4.85410
  12.68447  -0.10616  -4.79420
  12.50487  -0.16596  -4.67450
  12.38517  -0.28566  -4.43510
  12.20557  -0.28566  -4.43510
  11.72677  -0.28566  -4.31540
  11.24787  -0.34556  -4.07590
  10.76907  -0.28566  -3.89640
  10.23037  -0.16596  -3.53720
   9.33257  -0.04626  -3.35770
   8.67417  -0.04626  -3.29780
   8.25517   0.13334  -3.05840
   7.65657   0.43254  -2.99860
   6.99817   0.49244  -2.81900
   6.22007   0.49244  -2.57960
   5.44197   0.67204  -2.57960
   4.66387   0.85154  -2.51970
   3.94557   1.03114  -2.45990
   2.86817   1.33044  -2.22040
   2.14997   1.45014  -1.98100
   1.01267   1.62964  -1.98100
  -0.06473   1.68954  -1.74160
  -1.02233   1.68954  -1.38250
  -2.27933   1.80924  -1.14300
  -3.35673   1.68954  -0.78390
  -4.61363   1.62964  -0.42480
  -5.75093   1.62964   0.05410
  -6.82833   1.68954   0.47300
  -8.08523   1.68954   1.01170
  -9.16263   1.50994   1.37090
 -10.29993   1.45014   1.84970
 -11.37733   1.39024   2.26870
 -12.45463   1.27054   2.74750
 -13.29263   1.21074   3.22640
 -14.37003   1.09094   3.64540
 -15.38753   1.03114   4.18410
 -16.16573   0.91144   4.48330
 -16.88393   0.79174   4.90230
 -17.48253   0.79174   5.08190
 -18.32043   0.91144   5.38120
 -18.79933   0.85154   5.68040
 -19.33803   0.91144   5.86000
 -19.87673   0.85154   6.15930
 -20.29573   0.61214   6.51840
 -20.71463   0.55234   6.93740
 -21.07383   0.49244   7.17680
 -21.13363   0.55234   7.41620
 -21.61253   0.43254   7.83520
 -21.73223   0.43254   8.07460
 -21.67233   0.37274   8.25420
 -21.79203   0.01364   8.55350
 -21.91173  -0.10616   8.61330
 -21.97163  -0.16596   8.97250
 -21.79203  -0.28566   9.21190
 -21.79203  -0.22586   9.21190
 -21.79203  -0.34556   9.09220
 -21.67233  -0.46526   8.97250
 -21.55263  -0.46526   8.91260
 -21.31323  -0.58496   8.79290
 -21.07383  -0.70466   8.49360
 -20.77453  -0.82436   8.19430
 -20.47523  -1.00396   8.13450
 -20.05623  -1.06376   7.89510
 -19.81683  -1.06376   7.53590
 -19.45773  -0.94406   7.23670
 -18.91903  -1.00396   6.87750
 -18.26063  -1.06376   6.39870
 -17.72193  -1.12366   6.03960
 -17.00363  -0.94406   5.62060
 -16.28543  -0.94406   5.26140
 -15.62703  -1.00396   4.72270
 -14.84893  -1.00396   4.30380
 -13.95103  -1.00396   3.64540
 -12.99333  -1.00396   3.16650
 -12.09553  -1.12366   2.50810
 -11.13783  -1.12366   1.96940
 -10.06043  -1.06376   1.43070
  -9.10283  -0.94406   0.77230
  -8.02543  -0.94406   0.17380
  -7.00783  -0.88426  -0.42480
  -5.87063  -0.94406  -0.96350
  -4.79323  -0.76456  -1.44230
  -3.71583  -0.76456  -1.74160
  -2.51873  -0.76456  -2.28030
  -1.44133  -0.52506  -2.75910
  -0.42383  -0.52506  -2.99860
   0.65357  -0.52506  -3.47740
   1.73097  -0.46526  -3.83650
   2.68867  -0.40536  -4.07590
   3.58647  -0.28566  -4.61460
   4.48427  -0.10616  -5.03360
   5.50187  -0.04626  -5.27300
   6.27997   0.01364  -5.63220
   7.05807   0.31284  -5.81170
   7.89607   0.43254  -6.05120
   8.61427   0.49244  -6.35040
   9.27267   0.55234  -6.53000
   9.75157   0.61214  -6.70960
  10.29027   0.55234  -6.94900
  10.94867   0.67204  -7.00880
  11.36767   0.73184  -7.18840
  11.72677   0.85154  -7.18840
  12.20557   0.91144  -7.06870
  12.62457   0.85154  -7.00880
  12.68447   0.97124  -7.00880
  12.86397   0.91144  -6.76940
  12.80417   0.73184  -6.47010
  12.80417   0.79174  -6.35040
  12.74427   0.97124  -6.23070
  12.50487   0.79174  -5.99130
  12.08587   0.67204  -5.75190
  11.66687   0.67204  -5.51250
  11.24787   0.55234  -5.33290
  10.88877   0.49244  -5.03360
  10.46977   0.43254  -4.85410
   9.93107   0.31284  -4.61460
   9.51217   0.25304  -4.43510
   9.03327   0.25304  -4.31540
   8.43477   0.25304  -4.07590
   7.95587   0.25304  -4.01610
   7.53687   0.25304  -4.07590
   7.11787   0.25304  -3.83650
   6.57927   0.25304  -3.65700
   5.86097   0.37274  -3.65700
   5.08287   0.55234  -3.47740
   4.54417   0.61214  -3.41750
   3.94557   0.79174  -3.41750
   3.46677   0.85154  -3.23800
   3.04777   0.79174  -3.05840
   2.50907   0.61214  -2.99860
   2.03027   0.61214  -3.05840
   1.49157   0.49244  -3.17810
   1.01267   0.49244  -3.17810
   0.59377   0.43254  -3.11830
   0.05507   0.49244  -3.17810
  -0.42383   0.37274  -3.23800
  -0.78293   0.43254  -3.29780
  -1.20193   0.37274  -3.53720
  -1.62093   0.25304  -3.71680
  -1.86033   0.19314  -3.77670
  -1.98003   0.19314  -3.89640
  -2.21943   0.13334  -3.95620
  -2.33913   0.07344  -4.01610
  -2.69833   0.13334  -4.25550
  -2.69833   0.07344  -4.25550
  -2.63843   0.13334  -4.07590
  -2.75813   0.19314  -3.95620
  -2.81803   0.19314  -3.95620
  -2.81803   0.31284  -3.77670
  -2.75813   0.37274  -3.77670
  -2.69833   0.31284  -3.59710
  -2.75813   0.25304  -3.41750
  -2.75813   0.13334  -3.23800
  -2.69833  -0.04626  -3.29780
  -2.63843  -0.16596  -3.29780
  -2.57863  -0.28566  -3.35770
  -2.27933  -0.28566  -3.41750
  -2.15963  -0.34556  -3.47740
  -2.09973  -0.70466  -3.53720
  -1.80053  -0.76456  -3.71680
  -1.74063  -0.76456  -3.83650
  -1.62093  -0.88426  -3.95620
  -1.44133  -0.88426  -3.89640
  -1.20193  -1.00396  -3.83650
  -1.20193  -1.06376  -3.65700
  -1.08223  -1.00396  -3.53720
  -0.96253  -1.12366  -3.17810
  -0.90263  -1.24336  -2.87880
  -0.96253  -1.24336  -2.57960
  -0.90263  -1.30326  -2.45990
  -0.78293  -1.06376  -1.86130
  -0.66323  -1.00396  -1.38250
  -0.54353  -1.00396  -1.02330
  -0.48363  -0.88426  -0.60440
  -0.30413  -0.64486  -0.24520
  -0.12453  -0.58496   0.35330
   0.11487  -0.70466   0.71250
   0.23457  -0.64486   1.13140
   0.29447  -0.58496   1.49060
   0.41417  -0.34556   1.90960
   0.47397  -0.22586   2.32850
   0.77327  -0.10616   2.68770
   0.83317  -0.04626   3.10670
   0.83317   0.07344   3.46580
   0.95287   0.01364   3.94460
   0.95287   0.19314   4.36360
   1.31197   0.07344   4.90230
   1.61127  -0.04626   5.14170
   1.79087   0.07344   5.32130
   2.03027   0.07344   5.62060
   2.26967   0.01364   5.86000
   2.56897  -0.16596   6.27900
   2.86817  -0.16596   6.39870
   3.10767  -0.46526   6.63810
   3.28717  -0.58496   6.69800
   3.34707  -0.76456   6.75780
