********************************************************************************
              CENTRO DE INSTRUMENTACION Y REGISTRO SISMICO  A.C.

    Anaxagoras 814, Col. Narvarte, Benito Juarez, C.P. 03020 Mexico, D.F.
           Tels. 5687 45 42/ 5687 45  82             Fax. 5669 25 12
********************************************************************************
ARCHIVO ESTANDAR DE ACELERACION:
VERSION DEL FORMATO                    : 2.0
NOMBRE DEL ARCHIVO                     : HJ7220200623152903
FECHA Y HORA DE CREACION               : 18/AGO/21, 13:43
REF. CATALOGO ACELEROGRAMAS, SMIS 1996 : REGISTRO No.     /PAG.


================================================================================
DATOS DE LA ESTACION:
NOMBRE DE LA ESTACION                  : HOSPITAL JUÁREZ
CLAVE DE LA ESTACION                   : HJ72
LOCALIZACION DE LA ESTACION            : Del. Cuahtemoc. Col. Centro, Hospital  
                                       : Juárez entre Fray Servando             
                                       : y San Pablo.                           
                                       :                                        
                                       : 
COORDENADAS DE LA ESTACION             : 19.4251 LAT. N
                                       : 99.1301 LONG. W
ALTITUD (msnm)                         : 2232
TIPO DE SUELO                          : Alto riesgo sísmico                 
                                       :                           
                                       : 
INSTITUCION RESPONSABLE                : CIRES
                                       : 

================================================================================
DATOS DEL ACELEROGRAFO:
MODELO DEL ACELEROGRAFO                : RADESD
NUMERO DE SERIE DEL ACELEROGRAFO       : 250
NUMERO DE CANALES                      : 3
ORIENTACION C1-C6 (rumbo;orientacion)  : /N00E/+V/N90W
ORIENTACION C7-C12 (rumbo;orientacion) : 
VEL. DE MUESTREO, C1-C6 (muestras/s)   : /100/100/100
VEL. DE MUESTREO, C7-C12 (muestras/s)  : 
ESC. COMPLETA DE SENSORES, C1-C6, (g)  : /0.5/0.5/0.5
ESC. COMPLETA DE SENSORES, C7-C12, (g) : 
FREC. NAT. DE SENSORES, C1-C6, (Hz)    : /32/30/30
FREC. NAT. DE SENSORES, C7-C12, (Hz)   : 
AMORTIGUAMIENTO DE SENSORES, C1-C6     : /0.750/0.766/0.700
AMORTIGUAMIENTO DE SENSORES, C7-C12    : 
INTERVALO DE MUESTREO, C1-C6, (s)      : /0.01/0.01/0.01
INTERVALO DE MUESTREO, C7-C12, (s)     : 
UMBRAL DE DISPARO, C1-C6, (Gal)        : /1.2/3.14/1.2
UMBRAL DE DISPARO, C7-C12, (Gal)       :
MEMORIA DE PREEVENTO (s)               : 44.0
TIEMPO DE POSEVENTO (s)                : 64.0


================================================================================
DATOS DEL SISMO:
FECHA DEL SISMO (GMT)                  : 23/JUN/20
HORA EPICENTRO (GMT)                   : 15:29:03.0
MAGNITUD(ES)                           : /Mc=7.4
COORDENADAS DEL EPICENTRO              : 15.80 LAT. N
                                       : 96.13 LONG. W
PROFUNDIDAD FOCAL (km)                 : 22
FUENTE DE LOS DATOS EPICENTRALES       : SSN
                                       : INSTITUTO DE GEOFISICA, UNAM

================================================================================
DATOS DE ESTE REGISTRO:
HORA DE LA PRIMERA MUESTRA (GMT)       : 15:28:34.00
EXACTITUD DEL TIEMPO (s)               : 0.01
DURACION DEL REGISTRO (s), C1-C6       : /487.2/487.2/487.2
DURACION DEL REGISTRO (s), C7-C12      : 
NUM. TOTAL DE MUESTRAS, C1-C6          : /48720/48720/48720
NUM. TOTAL DE MUESTRAS, C7-C12         : 
ACEL. MAX. (Gal), C1-C6                : /32.03024/6.81927/23.64699
ACEL. MAX., C1-C6, EN LA MUESTRA       : /17902/19559/19990
ACEL. MAX. (Gal), C7-C12               : 
ACEL. MAX., C7-C12, EN LA MUESTRA      : 
UNIDADES DE LOS DATOS                  : Gal (cm/s/s)
FACTOR DE DECIMACION                   : 1
FORMATO DATOS (FORTRAN,10 campos/dato) : 3F10.5


================================================================================
CALIDAD DEL ACELEROGRAMA:
REGISTRO DIGITAL COMPLETO CON TIEMPO ABSOLUTO CORRECTO.


================================================================================
COMENTARIOS:














================================================================================
DATOS DE ACELERACION:
---------+---------+---------+---------+---------+---------+---------+---------+
   CANAL-1   CANAL-2   CANAL-3   CANAL-4   CANAL-5   CANAL-6   CANAL-7   CANAL-8
      N00E        +V      N90W
---------+---------+---------+---------+---------+---------+---------+---------+
[...]
  -9.04528  -2.04583 -10.79958
  -8.97046  -1.89619 -10.87440
  -8.91060  -1.89619 -10.97915
  -8.73104  -2.01590 -10.90433
  -8.55147  -1.76152 -11.06893
  -8.25220  -1.95604 -10.82951
  -8.04271  -2.06079 -10.67987
  -7.98285  -2.16554 -10.73973
  -7.69854  -2.21043 -10.60505
  -7.54890  -2.38999 -10.51527
  -7.35437  -2.40496 -10.35067
  -7.08503  -2.44985 -10.15614
  -7.12992  -2.64438  -9.96161
  -6.66604  -2.52467  -9.63241
  -6.54633  -2.43489  -9.30321
  -6.26202  -2.50970  -8.98897
  -6.02260  -2.56956  -8.46523
  -5.81311  -2.49474  -8.30063
  -5.58865  -2.56956  -7.85172
  -5.43901  -2.70423  -7.58237
  -5.16966  -2.65934  -7.31303
  -4.91528  -2.65934  -6.95390
  -4.60104  -2.50970  -6.51995
  -4.33169  -2.46481  -6.31045
  -4.07731  -2.56956  -6.10096
  -3.82293  -2.56956  -5.74183
  -3.32912  -2.56956  -5.42759
  -3.13459  -2.58452  -5.26299
  -2.83532  -2.59949  -5.05350
  -2.32655  -2.37503  -4.69437
  -2.08713  -2.43489  -4.48487
  -1.66814  -2.21043  -4.24545
  -1.27909  -2.01590  -4.14071
  -0.94988  -1.92612  -3.85640
  -0.17177  -1.59691  -3.55712
  -0.02213  -1.74655  -3.31770
   0.56146  -1.41735  -3.12317
   1.04030  -1.22282  -2.92864
   1.36950  -1.29764  -2.79397
   2.11769  -0.77391  -2.33009
   2.55164  -0.68413  -2.04578
   3.18011  -0.56442  -1.67169
   3.64399  -0.59434  -1.31256
   4.07794  -0.35492  -1.08810
   4.63160  -0.28010  -0.84868
   5.08051  -0.11550  -0.39977
   5.70899   0.03414  -0.16035
   6.27761   0.25859   0.39331
   6.78638   0.19874   0.72251
   7.56450   0.51298   1.17143
   8.05830   0.55787   1.68019
   8.46232   0.72247   1.84480
   9.12073   0.70750   2.51817
   9.52475   0.94692   2.75759
  10.03352   0.88707   3.25139
  10.69192   1.14145   3.80505
  11.18573   1.21627   4.13425
  11.52989   1.11153   4.50835
  12.03866   1.24620   4.98719
  12.48757   1.08160   5.39121
  12.83174   1.24620   5.55581
  13.44525   1.29109   6.04961
  13.99891   1.50058   6.33392
  14.40293   1.24620   6.73795
  14.97156   1.47066   7.03722
  15.31572   1.42577   7.39635
  15.74967   1.35095   7.87519
  16.12377   1.53051   8.15950
  16.27340   1.36591   8.44381
  16.87195   1.66519   8.83287
  17.09641   1.59037   9.13215
  17.30590   1.45569   9.43142
  17.54532   1.66519   9.86537
  17.79971   1.60533  10.19457
  17.84460   1.56044  10.25443
  18.14387   1.63526  10.59860
  18.29351   1.56044  10.89787
  18.41322   1.54548  11.06247
  18.32344   1.39584  11.25700
  18.57782   1.42577  11.67599
  18.50300   1.30605  11.82562
  18.62271   1.57540  12.03512
  18.38329   1.41080  12.30446
  18.44315   1.47066  12.61870
  18.30848   1.39584  12.69352
  18.23366   1.48562  12.78330
  17.87453   1.39584  12.78330
  17.76978   1.57540  12.99280
  17.62014   1.66519  12.84316
  17.20116   1.51555  12.84316
  17.02159   1.60533  12.78330
  16.67743   1.65022  12.85812
  16.45297   1.72504  12.82820
  16.15369   1.81482  12.85812
  15.65989   1.74000  12.70849
  15.22594   1.75497  12.69352
  14.88177   1.91957  12.60374
  14.52264   1.88964  12.55885
  14.20841   2.12906  12.40921
  13.84928   2.12906  12.39425
  13.49014   2.29366  12.21468
  13.11605   2.32359  11.84059
  12.92152   2.44330  11.72088
  12.81678   2.74258  11.31686
  12.56239   2.57797  11.19715
  12.36786   2.77250  10.86794
  12.33794   2.78747  10.58363
  12.11348   2.83236  10.20954
  11.97880   2.77250   9.98508
  11.93391   3.01192   9.50624
  11.88902   3.01192   9.19200
  11.90399   3.04185   8.74309
  12.00873   3.19149   8.48871
  11.90399   3.07178   8.08468
  12.05362   3.40098   7.62081
  11.87406   3.17652   7.12700
  11.94888   3.31120   6.75291
  11.87406   3.44587   6.33392
  11.76931   3.38602   5.89998
  11.78428   3.17652   5.61566
  11.52989   3.16156   5.07697
  11.66457   3.29624   4.95726
  11.35033   2.98200   4.56820
  11.21565   3.08674   4.17914
  11.00616   3.02689   4.04447
  10.72185   2.90718   3.70030
  10.57221   2.83236   3.50577
  10.22805   2.71265   3.22146
  10.06344   2.66776   2.98204
   9.64446   2.45826   2.66780
   9.47986   2.66776   2.45831
   9.09080   2.33855   2.17400
   8.86634   2.24877   2.02436
   8.53714   2.32359   1.78494
   8.23786   2.14403   1.59041
   7.95355   2.18892   1.32106
   7.53457   2.08417   1.06668
   7.22033   1.94950   0.94697
   6.98091   1.88964   0.67762
   6.65171   1.79986   0.45317
   6.44221   1.91957   0.22871
   6.24768   1.99439  -0.10049
   5.81374   1.72504  -0.53444
   5.64913   1.85971  -0.65415
   5.37979   1.78490  -0.89357
   5.11044   1.56044  -1.10306
   4.76627   1.56044  -1.49212
   4.60167   1.57540  -1.49212
   4.30240   1.56044  -1.76147
   3.88341   1.27613  -1.97096
   3.52428   1.20131  -2.07571
   3.19508   1.23124  -2.18046
   2.85091   1.09656  -2.31513
   2.43193   0.97685  -2.53959
   1.99798   0.79729  -2.62937
   1.62388   0.73743  -2.59944
   1.10015   0.60276  -2.73411
   0.57642   0.45312  -2.68922
   0.14247   0.45312  -2.56951
  -0.41119   0.25859  -2.34506
  -1.03967  -0.01076  -2.33009
  -1.63822   0.01917  -2.13556
  -2.44626  -0.41478  -1.82133
  -3.13459  -0.42974  -1.55198
  -3.80796  -0.39981  -1.23774
  -4.66090  -0.50456  -1.11803
  -5.37916  -0.53449  -0.60926
  -6.30691  -0.60931  -0.47459
  -7.07006  -0.68413  -0.01071
  -8.02774  -0.74398   0.27360
  -8.76097  -0.78887   0.73748
  -9.61390  -0.69909   1.14150
 -10.42194  -0.74398   1.54552
 -11.42452  -0.78887   1.75501
 -12.41212  -1.01333   2.27875
 -13.23513  -1.16297   2.69773
 -14.26763  -1.13304   2.84737
 -15.07567  -1.31260   3.38606
 -16.00343  -1.34253   3.58059
 -16.85636  -1.58195   3.98461
 -17.79908  -1.46224   4.02951
 -18.48741  -1.56699   4.44849
 -19.29545  -1.47720   4.65798
 -20.08853  -1.61188   4.92733
 -20.89658  -1.65677   5.03208
 -21.51009  -1.46224   5.22661
 -22.12360  -1.50713   5.55581
 -22.88676  -1.35749   5.46603
 -23.56013  -1.53706   5.81019
 -24.09882  -1.49217   5.94487
 -24.68241  -1.52210   6.03465
 -25.25103  -1.64181   6.13940
 -25.81965  -1.76152   6.16932
 -26.31346  -1.94108   6.16932
 -26.53791  -1.82137   6.28903
 -26.89704  -1.80641   6.10947
 -27.16639  -1.92612   6.07954
 -27.36092  -2.00094   5.97479
 -27.55545  -2.12065   5.79523
 -27.58538  -2.09072   5.66055
 -27.69012  -1.97101   5.40617
 -27.79487  -1.97101   5.03208
 -27.80983  -2.01590   4.79266
 -27.61530  -1.91115   4.55324
 -27.63027  -1.86626   3.99958
 -27.45070  -1.94108   3.83498
 -27.28610  -1.85130   3.14664
 -27.01675  -1.73159   2.65284
 -26.82223  -1.65677   1.91961
 -26.40324  -1.59691   1.59041
 -26.14886  -1.52210   0.99186
 -25.68498  -1.34253   0.54295
 -25.35578  -1.31260  -0.07057
 -24.96672  -1.28268  -0.62422
 -24.57766  -1.32757  -0.99832
 -23.97911  -1.14800  -1.47716
 -23.50027  -1.37246  -1.89614
 -23.11121  -1.35749  -2.49469
 -22.48274  -1.50713  -2.83886
 -21.79440  -1.28268  -3.37756
 -21.33053  -1.46224  -3.75165
 -20.56737  -1.32757  -4.11078
 -19.93890  -1.34253  -4.49984
 -19.22064  -1.31260  -4.91882
 -18.47245  -1.38742  -5.27795
 -17.81404  -1.34253  -5.56227
 -17.08082  -1.31260  -5.81665
 -16.34759  -1.25275  -6.16082
 -15.71912  -1.26771  -6.51995
 -14.98589  -1.17793  -6.62469
 -14.47712  -1.26771  -7.01375
 -13.90850  -1.26771  -7.17835
 -13.29499  -1.34253  -7.41777
 -12.81615  -1.49217  -7.58237
 -12.09789  -1.43231  -7.74697
 -11.73876  -1.65677  -7.95647
 -11.31977  -1.70166  -8.18092
 -10.51173  -1.59691  -8.24078
 -10.18252  -1.65677  -8.46523
  -9.76354  -1.58195  -8.51013
  -9.31463  -1.37246  -8.73458
  -9.16499  -1.49217  -8.92911
  -8.88068  -1.29764  -8.79444
  -8.68615  -1.11807  -8.82437
  -8.62629  -1.11807  -9.01889
  -8.37191  -0.78887  -8.83933
  -8.35695  -0.86369  -8.88422
  -8.25220  -0.86369  -8.74955
  -8.04271  -0.54945  -8.70465
  -8.08760  -0.74398  -8.73458
  -7.78832  -0.33996  -8.42034
  -7.69854  -0.48960  -8.37545
  -7.48905  -0.39981  -8.09114
  -7.33941  -0.38485  -7.92654
  -7.20474  -0.39981  -7.65719
  -6.98028  -0.59434  -7.26813
  -6.62115  -0.53449  -7.05864
  -6.45655  -0.66916  -6.84915
  -6.08245  -0.68413  -6.56484
  -5.70836  -0.63923  -6.28053
  -5.27441  -0.75894  -6.13089
  -4.93024  -0.86369  -5.93636
  -4.31673  -0.86369  -5.74183
  -3.70322  -0.80384  -5.72687
  -3.25430  -0.83376  -5.71190
  -2.62583  -0.84873  -5.65205
  -2.10209  -1.10311  -5.66701
  -1.38383  -0.98340  -5.56227
  -0.72543  -0.90858  -5.59219
  -0.05206  -0.99836  -5.45752
   0.59138  -0.83376  -5.71190
   1.48921  -0.65420  -5.56227
   1.99798  -0.66916  -5.80169
   2.73120  -0.45967  -5.89147
   3.67392  -0.35492  -5.71190
   4.30240  -0.17536  -6.02614
   5.24511   0.06406  -5.86154
   5.99330   0.13888  -5.93636
   6.74149   0.48305  -6.04111
   7.60939   0.49801  -5.78672
   8.40247   0.81225  -5.83161
   9.33022   1.02174  -5.66701
  10.13826   1.15642  -5.47248
  10.85652   1.33598  -5.54730
  11.63464   1.63526  -5.44256
  12.26312   1.62029  -5.39766
  12.95145   1.62029  -5.41263
  13.62482   1.79986  -5.38270
  14.26826   1.81482  -5.50241
  14.92667   1.76993  -5.44256
  15.54018   1.85971  -5.53234
  16.09384   1.90461  -5.62212
  16.60261   1.96446  -5.65205
  17.15627   1.88964  -5.62212
  17.51540   1.78490  -5.66701
  17.88949   1.81482  -5.78672
  18.17380   1.68015  -5.77176
  18.38329   1.63526  -5.98125
  18.86213   1.57540  -5.95132
  19.07163   1.53051  -6.17578
  19.46069   1.42577  -6.17578
  19.80485   1.65022  -6.34038
  19.98442   1.50058  -6.44513
  20.34355   1.62029  -6.78929
  20.62786   1.50058  -6.83418
  20.97202   1.60533  -7.19332
  21.39101   1.59037  -7.35792
  21.76510   1.69511  -7.61230
  22.04942   1.69511  -8.03129
  22.52826   1.68015  -8.16596
  23.09688   1.72504  -8.33056
  23.45601   1.75497  -8.79444
  23.96478   1.81482  -9.07875
  24.62318   2.00935  -9.28824
  25.04217   1.93453  -9.63241
  25.49108   2.05424 -10.05139
  26.05970   2.09913 -10.26089
  26.52358   2.00935 -10.50031
  27.00242   2.09913 -10.66491
  27.54112   2.02432 -10.79958
  28.16959   2.15899 -10.91929
  28.51376   2.12906 -11.06893
  28.96267   2.17395 -10.97915
  29.51633   2.32359 -10.90433
  29.95028   2.47323 -10.81455
  30.17474   2.41337 -10.73973
  30.59372   2.35352 -10.56016
  30.83314   2.21884 -10.30578
  31.20724   2.08417 -10.18607
  31.38680   1.97942  -9.90176
  31.70104   1.96446  -9.69226
  31.76090   1.79986  -9.40795
  31.82075   1.65022  -9.06379
  32.03024   1.57540  -8.59991
  31.83572   1.38087  -8.25574
  31.76090   1.36591  -7.77690
  31.59629   1.17138  -7.31303
  31.35687   1.14145  -6.56484
  30.92293   0.88707  -6.16082
  30.59372   0.88707  -5.50241
  30.02510   0.67758  -5.05350
  29.65101   0.67758  -4.20056
  28.93275   0.45312  -3.76661
  28.34916   0.48305  -2.95857
  27.48126   0.25859  -2.49469
  26.95753   0.46808  -1.61183
  26.05970   0.31845  -0.98335
  25.04217  -0.02572  -0.36984
  24.20420  -0.10054   0.37835
  23.24652  -0.23521   1.05172
  22.33373  -0.28010   1.82983
  21.31619  -0.38485   2.77255
  20.13405  -0.69909   3.47585
  19.14645  -0.62427   4.34374
  17.94935  -0.59434   4.80762
  16.88692  -0.60931   5.79523
  15.58507  -0.71405   6.39378
  14.62739  -0.68413   7.17189
  13.34051  -0.92355   7.92008
  12.02370  -1.02829   8.50367
  10.84156  -1.19289   9.46135
   9.56964  -1.13304  10.07486
   8.31268  -1.19289  10.80809
   6.95098  -1.31260  11.49642
   5.61921  -1.38742  12.06504
   4.48196  -1.37246  12.75338
   3.09033  -1.43231  13.39682
   1.78848  -1.58195  13.84573
   0.71109  -1.56699  14.32457
  -0.51593  -1.70166  14.74356
  -1.63822  -1.86626  15.04283
  -2.64079  -1.94108  15.38700
  -3.62840  -2.25532  15.52167
  -4.49630  -2.28525  15.80598
  -5.13974  -2.31518  15.98555
  -5.99267  -2.46481  15.97059
  -6.54633  -2.62941  16.10526
  -7.17481  -2.62941  16.07533
  -7.78832  -2.73416  16.04540
  -8.25220  -2.65934  15.82095
  -8.76097  -2.70423  15.68627
  -9.13506  -2.53963  15.44685
  -9.55405  -2.49474  15.23736
  -9.88325  -2.36007  15.10269
 -10.37705  -2.46481  14.65377
 -10.72122  -2.33014  14.42932
 -11.12524  -2.43489  14.17493
 -11.55919  -2.25532  13.95048
 -11.96321  -2.28525  13.56142
 -12.35227  -2.13561  13.41178
 -12.60665  -1.94108  13.03769
 -12.89096  -1.76152  12.96287
 -13.47455  -1.80641  12.58878
 -13.72894  -1.71662  12.49899
 -14.19281  -1.55202  12.19972
 -14.65669  -1.61188  11.82562
 -15.15049  -1.58195  11.66102
 -15.73408  -1.35749  11.30189
 -16.03335  -1.29764  11.16722
 -16.51219  -1.22282  10.82305
 -16.93118  -1.08815  10.71831
 -17.43995  -1.05822  10.32925
 -17.96368  -1.07318  10.11976
 -18.44252  -1.10311   9.77559
 -18.93632  -1.01333   9.34164
 -19.54984  -1.07318   9.07229
 -19.87904  -1.01333   8.89273
 -20.70205  -1.23778   8.21936
 -21.00132  -1.17793   8.14454
 -21.67469  -1.23778   7.69563
 -22.19842  -1.40239   7.48613
 -22.79697  -1.44728   7.12700
 -23.29078  -1.62684   7.02226
 -23.73969  -1.71662   6.66313
 -24.32328  -1.80641   6.61824
 -24.87694  -1.97101   6.66313
 -25.19118  -2.07575   6.60327
 -25.75980  -2.27028   6.67809
 -26.37331  -2.36007   6.52845
 -26.58281  -2.38999   6.79780
 -27.04668  -2.64438   6.91751
 -27.25617  -2.67431   7.20182
 -27.40581  -2.50970   7.41131
 -27.67516  -2.62941   7.65074
 -27.97444  -2.76409   7.90512
 -28.00436  -2.71920   8.39892
 -28.36349  -2.77905   8.54856
 -28.24378  -2.50970   9.01244
 -28.36349  -2.49474   9.49128
 -28.37846  -2.38999   9.83544
 -28.39342  -2.25532  10.34421
 -28.51313  -2.46481  10.65845
 -28.27371  -2.06079  11.07744
 -28.16896  -2.21043  11.45153
 -27.94451  -1.80641  11.72088
 -27.79487  -1.71662  12.08001
 -27.61530  -1.53706  12.49899
 -27.28610  -1.19289  12.73841
 -27.24121  -1.01333  12.76834
 -26.88208  -0.83376  13.02273
 -26.58281  -0.42974  13.17236
 -26.43317  -0.33996  13.03769
 -26.13389  -0.25018  13.09754
 -25.83462  -0.17536  13.03769
 -25.44556   0.22866  12.94791
 -25.26599   0.30348  12.57381
 -24.86197   0.40823  12.45410
 -24.54773   0.63269  12.05008
 -24.21853   0.57283  11.66102
 -23.82947   0.66261  11.36175
 -23.38056   0.82721  11.15226
 -22.99150   0.82721  10.64349
 -22.67726   0.81225  10.08983
 -22.22835   0.81225   9.64092
 -21.76447   0.76736   9.08726
 -21.46520   0.58779   8.57849
 -21.07614   0.34837   8.03979
 -20.67212   0.49801   7.41131
 -20.19328   0.36334   6.76787
 -19.44509   0.28852   6.12443
 -18.96625   0.33341   5.49595
 -18.39763   0.10895   4.79266
 -17.69433   0.31845   4.02951
 -17.20053   0.10895   3.11672
 -16.19796   0.28852   2.45831
 -15.44977   0.10895   1.69516
 -14.58187   0.09399   0.72251
 -13.71397  -0.05565  -0.17531
 -12.68147   0.34837  -1.16292
 -11.67890   0.12392  -2.01585
 -10.48180   0.37830  -3.15310
  -9.20988   0.48305  -3.96114
  -8.17738   0.52794  -4.94875
  -6.90546   0.76736  -5.90643
  -5.75325   0.85714  -6.99879
  -4.51126   0.97685  -7.53748
  -3.32912   1.30605  -8.49516
