********************************************************************************
              CENTRO DE INSTRUMENTACION Y REGISTRO SISMICO  A.C.

    Anaxagoras 814, Col. Narvarte, Benito Juarez, C.P. 03020 Mexico, D.F.
           Tels. 5687 45 42/ 5687 45  82             Fax. 5669 25 12
********************************************************************************
ARCHIVO ESTANDAR DE ACELERACION:
VERSION DEL FORMATO                    : 2.0
NOMBRE DEL ARCHIVO                     : IB2220200623152903
FECHA Y HORA DE CREACION               : 18/AGO/21, 13:43
REF. CATALOGO ACELEROGRAMAS, SMIS 1996 : REGISTRO No.     /PAG.


================================================================================
DATOS DE LA ESTACION:
NOMBRE DE LA ESTACION                  : ESC. SEC. TÉC. NO. 95
CLAVE DE LA ESTACION                   : IB22
LOCALIZACION DE LA ESTACION            : Del. Coyoacán, Col. Campestre          
                                       : Churubusco entre Cerro del Crestón     
                                       : y Cerro Mezontepec.                    
                                       :                                        
                                       : 
COORDENADAS DE LA ESTACION             : 19.3450 LAT. N
                                       : 99.1297 LONG. W
ALTITUD (msnm)                         : 2234
TIPO DE SUELO                          : Alto riesgo sísmico                 
                                       :                           
                                       : 
INSTITUCION RESPONSABLE                : CIRES, A. C.
                                       : 

================================================================================
DATOS DEL ACELEROGRAFO:
MODELO DEL ACELEROGRAFO                : RAD_IO14
NUMERO DE SERIE DEL ACELEROGRAFO       : 
NUMERO DE CANALES                      : 3
ORIENTACION C1-C6 (rumbo;orientacion)  : /N00E/+V/N90W
ORIENTACION C7-C12 (rumbo;orientacion) : 
VEL. DE MUESTREO, C1-C6 (muestras/s)   : /100/100/100
VEL. DE MUESTREO, C7-C12 (muestras/s)  : 
ESC. COMPLETA DE SENSORES, C1-C6, (g)  : /2.0/2.0/2.0
ESC. COMPLETA DE SENSORES, C7-C12, (g) : 
FREC. NAT. DE SENSORES, C1-C6, (Hz)    : /30/30/30
FREC. NAT. DE SENSORES, C7-C12, (Hz)   : 
AMORTIGUAMIENTO DE SENSORES, C1-C6     : /0.700/0.700/0.695
AMORTIGUAMIENTO DE SENSORES, C7-C12    : 
INTERVALO DE MUESTREO, C1-C6, (s)      : /0.01/0.01/0.01
INTERVALO DE MUESTREO, C7-C12, (s)     : 
UMBRAL DE DISPARO, C1-C6, (Gal)        : / / /
UMBRAL DE DISPARO, C7-C12, (Gal)       :
MEMORIA DE PREEVENTO (s)               : 60
TIEMPO DE POSEVENTO (s)                : 90


================================================================================
DATOS DEL SISMO:
FECHA DEL SISMO (GMT)                  : 23/JUN/20
HORA EPICENTRO (GMT)                   : 15:29:03.0
MAGNITUD(ES)                           : /Mc=7.4
COORDENADAS DEL EPICENTRO              : 15.80 LAT. N
                                       : 96.13 LONG. W
PROFUNDIDAD FOCAL (km)                 : 22
FUENTE DE LOS DATOS EPICENTRALES       : SSN
                                       : INSTITUTO DE GEOFISICA, UNAM

================================================================================
DATOS DE ESTE REGISTRO:
HORA DE LA PRIMERA MUESTRA (GMT)       : 10:27:25.00
EXACTITUD DEL TIEMPO (s)               : 
DURACION DEL REGISTRO (s), C1-C6       : /539.77/539.77/539.77
DURACION DEL REGISTRO (s), C7-C12      : 
NUM. TOTAL DE MUESTRAS, C1-C6          : /53977/53977/53977
NUM. TOTAL DE MUESTRAS, C7-C12         : 
ACEL. MAX. (Gal), C1-C6                : /16.19915/2.14658/20.61651
ACEL. MAX., C1-C6, EN LA MUESTRA       : /18791/19827/19272
ACEL. MAX. (Gal), C7-C12               : 
ACEL. MAX., C7-C12, EN LA MUESTRA      : 
UNIDADES DE LOS DATOS                  : Gal (cm/s/s)
FACTOR DE DECIMACION                   : 1
FORMATO DATOS (FORTRAN,10 campos/dato) : 3F10.5


================================================================================
CALIDAD DEL ACELEROGRAMA:
REGISTRO DIGITAL COMPLETO CON TIEMPO ABSOLUTO CORRECTO.


================================================================================
COMENTARIOS:














================================================================================
DATOS DE ACELERACION:
---------+---------+---------+---------+---------+---------+---------+---------+
   CANAL-1   CANAL-2   CANAL-3   CANAL-4   CANAL-5   CANAL-6   CANAL-7   CANAL-8
      N00E        +V      N90W
---------+---------+---------+---------+---------+---------+---------+---------+
[...]
  -0.56825  -0.55718   3.31581
  -0.73375  -0.56648   3.90031
  -0.84105  -0.67638   4.55031
  -0.88175  -0.67828   5.23591
  -1.01875  -0.65178   5.75091
  -1.14105  -0.72288   6.32941
  -1.23525  -0.69878   6.92681
  -1.24345  -0.83418   7.49371
  -1.40295  -0.85618   8.13551
  -1.36415  -0.80168   8.62751
  -1.61735  -0.89968   9.28051
  -1.58975  -0.88748   9.78971
  -1.65265  -0.95388  10.30901
  -1.73375  -1.02938  10.75191
  -1.73705  -1.04718  11.10611
  -1.64185  -1.14188  11.40231
  -1.65355  -1.20988  11.65111
  -1.54115  -1.14628  11.94901
  -1.68985  -1.17528  11.95041
  -1.62155  -1.13278  12.12621
  -1.54225  -1.16438  12.23681
  -1.55585  -1.05658  12.14351
  -1.45135  -0.89448  12.14651
  -1.44595  -0.90248  12.19421
  -1.50535  -0.77198  12.09111
  -1.43495  -0.68808  12.07711
  -1.38775  -0.59948  11.83531
  -1.31905  -0.50338  11.88561
  -1.39475  -0.33568  11.92141
  -1.34895  -0.31328  11.69481
  -1.35295  -0.12828  11.69041
  -1.24765  -0.01588  11.40791
  -1.25045   0.15202  11.40301
  -1.23575   0.24652  11.06561
  -1.07305   0.31142  10.91391
  -1.03095   0.44522  10.46921
  -0.99235   0.56932  10.17371
  -0.96825   0.70782  10.01331
  -0.81235   0.75922   9.72291
  -0.79995   0.88122   9.30391
  -0.75065   0.94882   9.08131
  -0.75785   0.95722   8.85471
  -0.70665   1.03512   8.65931
  -0.63165   1.02852   8.49821
  -0.66365   1.19432   8.15591
  -0.66925   1.27332   8.01071
  -0.59185   1.37932   7.75751
  -0.60495   1.36242   7.56741
  -0.61595   1.45242   7.34131
  -0.59415   1.53382   6.99201
  -0.55585   1.50602   6.62801
  -0.51215   1.58032   6.21551
  -0.48965   1.50152   5.96091
  -0.41885   1.41432   5.54991
  -0.46185   1.39452   5.27791
  -0.40555   1.30722   4.71981
  -0.19995   1.23502   4.55921
  -0.07675   1.26542   4.28001
  -0.04565   1.04162   4.12621
   0.15395   1.01082   3.83141
   0.23185   0.87032   3.51921
   0.51035   0.86042   3.27791
   0.61505   0.74802   3.05891
   0.79325   0.79872   2.76661
   1.07825   0.68742   2.31091
   1.21965   0.60352   1.85311
   1.40295   0.52352   1.27351
   1.64775   0.50112   0.82761
   1.72355   0.55742   0.16501
   2.06495   0.59902  -0.69309
   2.05085   0.60892  -1.19599
   2.12895   0.63252  -1.80439
   2.26435   0.64002  -2.44379
   2.26295   0.68792  -3.01199
   2.29565   0.68582  -3.48379
   2.16105   0.79452  -3.99959
   2.22245   0.83142  -4.41059
   2.20805   0.98722  -4.89459
   2.12965   1.09892  -5.10179
   2.11845   1.14642  -5.62809
   2.05695   1.14292  -5.93529
   2.14975   1.33692  -6.26849
   2.10185   1.47282  -6.67599
   2.02795   1.56192  -6.81069
   1.98215   1.69352  -7.00609
   1.97745   1.68532  -7.32199
   2.02705   1.70852  -7.55629
   1.80235   1.69332  -7.75879
   1.82365   1.70822  -7.94559
   1.74365   1.69282  -8.06129
   1.60875   1.62412  -8.19599
   1.45515   1.58642  -8.31939
   1.44255   1.48772  -8.46529
   1.44575   1.50672  -8.62809
   1.44185   1.38532  -8.66129
   1.43455   1.37572  -8.79799
   1.34505   1.32082  -8.79989
   1.46895   1.23872  -8.76909
   1.55385   1.09422  -8.72019
   1.55685   1.11932  -8.63319
   1.65105   1.02432  -8.49079
   1.75065   0.86962  -8.58219
   1.76635   0.90512  -8.34959
   1.85195   0.80132  -8.30559
   1.99175   0.73672  -8.37489
   2.12685   0.56282  -8.55769
   2.18905   0.54952  -8.44849
   2.29035   0.49992  -8.55889
   2.47315   0.36942  -8.70869
   2.56945   0.27752  -8.87779
   2.75975   0.40032  -8.92949
   2.95265   0.34072  -9.00239
   2.86825   0.39372  -9.32509
   3.09785   0.36222  -9.11529
   3.11795   0.33582  -9.30379
   3.20025   0.38792  -9.27099
   3.22415   0.32992  -9.18569
   3.20945   0.46132  -9.37039
   3.23765   0.49052  -9.30779
   3.13245   0.58782  -9.28739
   2.98775   0.51182  -9.24389
   2.84165   0.55132  -9.04519
   2.65065   0.59862  -9.13799
   2.51055   0.61982  -9.04639
   2.30035   0.60112  -8.94489
   2.28495   0.53962  -8.81179
   2.15915   0.46932  -8.72419
   2.00385   0.40752  -8.61399
   1.88605   0.32082  -8.49879
   1.86125   0.21962  -8.30559
   1.75375   0.14122  -8.21749
   1.68125   0.07442  -7.92429
   1.42055   0.12282  -7.59719
   1.11865   0.03272  -7.30749
   0.98195  -0.17088  -6.91679
   0.95105  -0.09348  -6.53499
   0.64145  -0.12648  -6.25399
   0.30785  -0.12458  -5.76809
  -0.07985  -0.23958  -5.38629
  -0.31475  -0.23258  -4.85629
  -0.86705  -0.23888  -4.49969
  -1.16075  -0.26278  -4.18379
  -1.53995  -0.17698  -3.83849
  -1.91565  -0.19968  -3.40239
  -2.27975  -0.35768  -2.94369
  -2.72255  -0.30318  -2.67059
  -3.12825  -0.39838  -2.38509
  -3.48405  -0.39768  -2.20509
  -3.72655  -0.24948  -1.66709
  -4.08945  -0.26698  -1.33559
  -4.39215  -0.34318  -1.14029
  -4.56825  -0.33318  -0.84129
  -4.62525  -0.28828  -0.52959
  -4.87215  -0.27028  -0.20489
  -4.96295  -0.23638   0.16501
  -5.27765  -0.27238   0.55551
  -5.28765  -0.20528   0.87491
  -5.38585  -0.37238   1.15891
  -5.38845  -0.38548   1.55501
  -5.33115  -0.41848   2.04791
  -5.35035  -0.45778   2.42571
  -5.47725  -0.50618   2.82551
  -5.51685  -0.61718   3.39441
  -5.41695  -0.67778   3.81761
  -5.29935  -0.73158   4.32941
  -5.28725  -0.80218   4.66211
  -5.19045  -0.82508   5.03381
  -5.23295  -0.77438   5.56181
  -5.22945  -0.84918   5.87371
  -5.08875  -0.82488   6.31251
  -5.13005  -0.76338   6.61981
  -4.92975  -0.61278   6.79331
  -4.88575  -0.59918   7.25951
  -4.78385  -0.43108   7.58591
  -4.66485  -0.47018   7.84471
  -4.62855  -0.34648   8.17601
  -4.39825  -0.26488   8.54351
  -4.21705  -0.14558   8.86781
  -4.10575  -0.08628   9.07901
  -4.04265  -0.05068   9.34271
  -3.81165   0.11722   9.53331
  -4.04175   0.06642   9.59191
  -3.83475   0.01972   9.70251
  -3.55985   0.24572   9.77881
  -3.73725   0.17052   9.73691
  -3.45115   0.23762   9.68521
  -3.35405   0.37882   9.73551
  -3.05945   0.30892   9.83281
  -2.89555   0.28482   9.73741
  -2.50585   0.26702   9.67891
  -2.19715   0.30352   9.60341
  -1.75625   0.25252   9.70811
  -1.42655   0.16932   9.75161
  -0.95165   0.18172   9.73461
  -0.47495   0.22352   9.63751
  -0.15935   0.01802   9.55061
   0.39315   0.07302   9.36941
   0.86965  -0.03478   9.24011
   1.41725   0.00122   9.27401
   1.78245  -0.03598   9.10351
   2.37305  -0.16968   8.93891
   3.00315  -0.08088   8.95831
   3.39905  -0.19868   8.68101
   3.95575  -0.21298   8.61111
   4.48905  -0.20478   8.51761
   4.99245  -0.07058   8.59921
   5.56785   0.03112   8.54641
   6.10235   0.06082   8.61251
   6.68145   0.11112   8.64381
   7.28535   0.16842   8.76801
   7.79835   0.22912   8.66561
   8.33305   0.33392   8.59431
   8.90265   0.46692   8.73111
   9.26065   0.47512   8.81291
   9.69785   0.60602   8.74531
  10.14205   0.64652   8.64431
  10.54495   0.78092   8.69721
  10.99005   0.86042   8.72151
  11.43995   0.94742   8.54781
  11.87625   0.92192   8.46191
  12.27325   1.01832   8.32491
  12.60505   1.02392   8.09951
  12.98475   1.11582   8.01561
  13.29875   1.02272   7.84101
  13.48535   0.95822   7.52161
  13.73265   0.94532   7.25851
  13.83185   0.87612   6.97401
  13.95895   0.83352   6.63451
  14.05745   0.83122   6.32331
  14.21575   0.97012   6.00581
  14.00485   0.99162   5.64881
  13.82335   0.76922   5.46901
  13.75275   0.71872   5.03151
  13.57185   0.65822   4.58541
  13.47665   0.65472   4.24921
  13.43945   0.69842   3.67521
  13.14465   0.67392   3.09651
  13.02215   0.54952   2.40281
  12.87035   0.56702   1.76921
  12.71885   0.45012   0.89611
  12.63165   0.35702   0.03591
  12.30195   0.33372  -0.73659
  12.19395   0.27822  -1.66479
  11.81145   0.14902  -2.75689
  11.63965  -0.05538  -3.67159
  11.47265  -0.10848  -4.60209
  11.22415  -0.17138  -5.56679
  10.90075  -0.10988  -6.70639
  10.57435  -0.24518  -7.55069
  10.15965  -0.44608  -8.56399
   9.87925  -0.39398  -9.44479
   9.52085  -0.46708 -10.46039
   9.17365  -0.42618 -11.26609
   8.75865  -0.60438 -11.94929
   8.34545  -0.62288 -12.68979
   7.81545  -0.70418 -13.41369
   7.31835  -0.71448 -14.03209
   6.80095  -0.69808 -14.63489
   6.37145  -0.69138 -15.36549
   5.94495  -0.62238 -16.12769
   5.20545  -0.71028 -16.75409
   4.83605  -0.55548 -17.32669
   4.28605  -0.64878 -17.95029
   3.77945  -0.54638 -18.38539
   3.22605  -0.65138 -18.87749
   2.70205  -0.61928 -19.31029
   2.07425  -0.63238 -19.63559
   1.56155  -0.67198 -19.72389
   0.99125  -0.59428 -19.88359
   0.36535  -0.62938 -19.98209
  -0.32835  -0.65928 -19.89229
  -0.95545  -0.64718 -19.78329
  -1.61825  -0.69948 -19.54059
  -2.30705  -0.71308 -19.46299
  -2.95825  -0.68738 -19.03119
  -3.49835  -0.71498 -18.82349
  -4.21945  -0.68108 -18.44029
  -4.91595  -0.86598 -18.12229
  -5.36925  -0.77618 -17.83099
  -6.12125  -0.81148 -17.26819
  -6.73655  -0.84658 -17.06619
  -7.28585  -0.85318 -16.64349
  -7.60375  -0.83348 -16.39569
  -8.13735  -0.88048 -16.06879
  -8.90395  -0.91998 -15.72719
  -9.33745  -1.03438 -15.37319
  -9.87285  -1.02218 -15.00799
 -10.27645  -1.20318 -14.69519
 -10.68355  -1.14558 -14.27619
 -11.14665  -1.14488 -13.69699
 -11.55045  -1.28548 -13.13009
 -12.01105  -1.34108 -12.54999
 -12.40035  -1.36918 -11.95889
 -12.69075  -1.35438 -11.26079
 -13.08445  -1.35328 -10.59459
 -13.34515  -1.36498  -9.77789
 -13.72465  -1.33458  -9.15649
 -13.99005  -1.25338  -8.50319
 -14.18835  -1.29178  -7.66549
 -14.34405  -1.22398  -6.97619
 -14.60145  -1.14868  -6.18619
 -14.80435  -1.00818  -5.57939
 -14.95375  -1.04718  -4.61119
 -15.02485  -0.94528  -3.54059
 -15.15795  -0.95018  -2.75829
 -15.17335  -0.90058  -1.72629
 -15.27855  -0.81388  -0.72349
 -15.28555  -0.66558   0.40891
 -15.34495  -0.65298   1.40651
 -15.24165  -0.48908   2.66421
 -15.19225  -0.39558   3.70951
 -15.21355  -0.26818   4.80401
 -15.20355  -0.24598   5.92401
 -15.09755  -0.05308   7.21041
 -14.94165   0.01472   8.15661
 -14.90445   0.11832   9.19101
 -14.88485   0.24342  10.18891
 -14.77935   0.51862  11.40511
 -14.65545   0.51182  12.52651
 -14.63395   0.59162  13.43341
 -14.47915   0.69682  14.37611
 -14.34705   0.76252  15.23821
 -14.12405   0.82772  16.24891
 -14.00495   0.81112  16.96881
 -13.96055   0.85302  17.79281
 -13.82235   0.75572  18.32871
 -13.42955   0.72012  18.90481
 -13.05265   0.74982  19.41281
 -12.77355   0.75992  19.82181
 -12.35805   0.81442  20.13161
 -11.90215   0.83682  20.35001
 -11.70875   0.69372  20.37451
 -11.17875   0.40612  20.54961
 -10.70545   0.25352  20.61651
 -10.19675   0.28902  20.47691
  -9.75225   0.29202  20.24781
  -9.27415   0.14312  20.09161
  -8.82335  -0.01678  20.03521
  -8.42235  -0.01778  19.88371
  -7.92405  -0.07358  19.64501
  -7.27365  -0.11688  19.35771
  -6.63585  -0.13508  19.16311
  -6.22105  -0.23498  18.90361
  -5.68675  -0.29528  18.58821
  -5.01765  -0.23168  18.11221
  -4.30075  -0.22298  17.74091
  -3.79365  -0.24428  17.19751
  -3.18905  -0.24518  16.61141
  -2.46025  -0.13678  16.05581
  -1.64865  -0.10868  15.40471
  -0.97815  -0.15778  14.74041
  -0.40485  -0.13858  14.14981
   0.31925   0.08682  13.37311
   0.98585   0.11882  12.67031
   1.55005   0.20832  11.95461
   2.01725   0.24742  11.25691
   2.55615   0.38112  10.51361
   3.15795   0.37932   9.98011
   3.61205   0.51422   9.24781
   4.31855   0.63602   8.56301
   4.70015   0.68342   7.96461
   5.33025   0.85252   7.34291
   5.80305   0.87522   6.65621
   6.32165   1.01852   6.00701
   6.77475   1.07372   5.38291
   7.23115   1.11182   4.68971
   7.77145   1.10872   4.28711
   8.11265   0.99092   3.69551
   8.52835   1.02082   3.08721
   9.00065   0.94062   2.46291
   9.24005   0.72372   1.90761
   9.61435   0.56652   1.27581
   9.90915   0.46652   0.77691
  10.18205   0.23642  -0.00569
  10.29405   0.07372  -0.66029
  10.58445  -0.10048  -1.20629
  10.74575  -0.16508  -2.14289
  10.76165  -0.30278  -2.88149
  10.86175  -0.43558  -3.54319
  10.88655  -0.48858  -4.27829
  11.03335  -0.67938  -5.00259
  10.92605  -0.65608  -5.61119
  10.96695  -0.73998  -6.27849
  10.92225  -0.71218  -6.90419
  10.73715  -0.71308  -7.49759
  10.61625  -0.80218  -7.95309
  10.48625  -0.92888  -8.49079
  10.31135  -0.69018  -9.15129
  10.08525  -0.75568  -9.61429
  10.02535  -0.69698 -10.04989
   9.79725  -0.73618 -10.43489
   9.49905  -0.78318 -10.93999
   9.27515  -0.63448 -11.48499
   9.11635  -0.60878 -11.76109
   8.65735  -0.62138 -12.21189
   8.54355  -0.72828 -12.46699
   8.31485  -0.58728 -12.87749
   8.19355  -0.48438 -13.00119
   7.73665  -0.40958 -13.28669
   7.52665  -0.47878 -13.68209
   7.20665  -0.47248 -13.76669
   7.00665  -0.47388 -13.95139
   6.75445  -0.43948 -14.19689
   6.49165  -0.53728 -14.37059
   6.37305  -0.43578 -14.45459
   6.14045  -0.45798 -14.32859
   5.91415  -0.48678 -14.45269
   5.75185  -0.54588 -14.30819
   5.40835  -0.51948 -14.31659
   5.22365  -0.42198 -14.24719
   5.05535  -0.42358 -14.19199
   4.95645  -0.33498 -14.14059
   4.68915  -0.30508 -13.95469
   4.37755  -0.21978 -13.92729
   4.20635  -0.11918 -13.66919
   3.90055  -0.05938 -13.48919
   3.74715  -0.02378 -13.06929
   3.42145   0.14192 -12.69799
   3.22695   0.20272 -12.24389
   2.86245   0.32432 -11.80299
   2.55665   0.22962 -11.41579
   2.27205   0.35872 -10.88339
   2.09505   0.31382 -10.30779
   1.82295   0.34752  -9.68349
   1.36305   0.39522  -9.16719
   1.16895   0.45552  -8.66739
   0.88695   0.40732  -8.19179
   0.50335   0.42112  -7.78469
   0.24425   0.36922  -7.30169
   0.00505   0.34842  -6.84759
  -0.28865   0.29392  -6.46349
  -0.64655   0.16022  -5.97829
  -0.94635   0.07602  -5.66879
  -1.33235  -0.13788  -5.40989
  -1.57855  -0.31398  -5.24389
  -2.01645  -0.27848  -5.07579
  -2.21865  -0.32848  -4.87609
  -2.64445  -0.39928  -4.57569
  -3.02155  -0.43488  -4.24529
  -3.32785  -0.43068  -3.92009
  -3.62415  -0.40398  -3.62409
  -3.95025  -0.37878  -3.09079
  -4.40875  -0.38318  -2.69119
  -4.66455  -0.33848  -2.02909
  -5.04965  -0.17598  -1.46559
  -5.33985  -0.08998  -0.98599
  -5.68095  -0.05978  -0.33159
  -5.88085  -0.00558   0.41451
  -6.12685   0.00592   1.18701
  -6.37675   0.18942   1.89151
  -6.54865   0.26452   2.65041
  -6.84435   0.38722   3.30601
  -7.08875   0.53102   4.05681
  -7.07745   0.52562   4.93401
  -7.28605   0.73252   5.73431
  -7.37555   0.71242   6.57841
  -7.63865   0.75832   7.51461
  -7.70225   0.92942   8.30881
  -7.73095   1.02922   9.27631
  -7.94165   1.03952  10.11501
  -7.83785   1.15742  11.19351
  -7.84465   1.15572  11.97091
  -7.71435   1.30702  12.77741
  -7.71535   1.36902  13.67471
  -7.65595   1.36032  14.38971
  -7.50625   1.33112  15.15991
  -7.48315   1.18052  15.92161
  -7.30355   1.18522  16.54991
  -7.04005   1.18662  17.11801
  -6.84175   1.04262  17.74021
  -6.54865   1.01082  18.20291
  -6.45605   0.93202  18.63871
  -6.12005   0.83682  18.92631
  -5.90185   0.76672  19.26321
  -5.71415   0.72462  19.37611
  -5.64915   0.66852  19.50031
  -5.34635   0.60862  19.61631
