********************************************************************************
              CENTRO DE INSTRUMENTACION Y REGISTRO SISMICO  A.C.

    Anaxagoras 814, Col. Narvarte, Benito Juarez, C.P. 03020 Mexico, D.F.
           Tels. 5687 45 42/ 5687 45  82             Fax. 5669 25 12
********************************************************************************
ARCHIVO ESTANDAR DE ACELERACION:
VERSION DEL FORMATO                    : 2.0
NOMBRE DEL ARCHIVO                     : LI5820200623152903
FECHA Y HORA DE CREACION               : 18/AGO/21, 13:43
REF. CATALOGO ACELEROGRAMAS, SMIS 1996 : REGISTRO No.     /PAG.


================================================================================
DATOS DE LA ESTACION:
NOMBRE DE LA ESTACION                  : ESC. SEC. DNA. NO. 23
CLAVE DE LA ESTACION                   : LI58
LOCALIZACION DE LA ESTACION            : Del. Cuauhtémoc, Col. Juárez,          
                                       : Calle Liverpool entre Génova           
                                       : y Amberes.                             
                                       :                                        
                                       : 
COORDENADAS DE LA ESTACION             : 19.4263 LAT. N
                                       : 99.1569 LONG. W
ALTITUD (msnm)                         : 2233
TIPO DE SUELO                          : Alto riesgo sísmico                 
                                       :                           
                                       : 
INSTITUCION RESPONSABLE                : CIRES
                                       : 

================================================================================
DATOS DEL ACELEROGRAFO:
MODELO DEL ACELEROGRAFO                : RADESD
NUMERO DE SERIE DEL ACELEROGRAFO       : 218
NUMERO DE CANALES                      : 3
ORIENTACION C1-C6 (rumbo;orientacion)  : /N00E/+V/N90W
ORIENTACION C7-C12 (rumbo;orientacion) : 
VEL. DE MUESTREO, C1-C6 (muestras/s)   : /100/100/100
VEL. DE MUESTREO, C7-C12 (muestras/s)  : 
ESC. COMPLETA DE SENSORES, C1-C6, (g)  : /0.5/0.5/0.5
ESC. COMPLETA DE SENSORES, C7-C12, (g) : 
FREC. NAT. DE SENSORES, C1-C6, (Hz)    : /30/32/32
FREC. NAT. DE SENSORES, C7-C12, (Hz)   : 
AMORTIGUAMIENTO DE SENSORES, C1-C6     : /0.741/0.795/0.745
AMORTIGUAMIENTO DE SENSORES, C7-C12    : 
INTERVALO DE MUESTREO, C1-C6, (s)      : /0.01/0.01/0.01
INTERVALO DE MUESTREO, C7-C12, (s)     : 
UMBRAL DE DISPARO, C1-C6, (Gal)        : /1.35/3.29/1.35
UMBRAL DE DISPARO, C7-C12, (Gal)       :
MEMORIA DE PREEVENTO (s)               : 44.0
TIEMPO DE POSEVENTO (s)                : 73.0


================================================================================
DATOS DEL SISMO:
FECHA DEL SISMO (GMT)                  : 23/JUN/20
HORA EPICENTRO (GMT)                   : 15:29:03.0
MAGNITUD(ES)                           : /Mc=7.4
COORDENADAS DEL EPICENTRO              : 15.80 LAT. N
                                       : 96.13 LONG. W
PROFUNDIDAD FOCAL (km)                 : 22
FUENTE DE LOS DATOS EPICENTRALES       : SSN
                                       : INSTITUTO DE GEOFISICA, UNAM

================================================================================
DATOS DE ESTE REGISTRO:
HORA DE LA PRIMERA MUESTRA (GMT)       : 15:28:34.00
EXACTITUD DEL TIEMPO (s)               : 0.01
DURACION DEL REGISTRO (s), C1-C6       : /457.6/457.6/457.6
DURACION DEL REGISTRO (s), C7-C12      : 
NUM. TOTAL DE MUESTRAS, C1-C6          : /45760/45760/45760
NUM. TOTAL DE MUESTRAS, C7-C12         : 
ACEL. MAX. (Gal), C1-C6                : /39.67851/6.95812/19.28161
ACEL. MAX., C1-C6, EN LA MUESTRA       : /18040/19211/19668
ACEL. MAX. (Gal), C7-C12               : 
ACEL. MAX., C7-C12, EN LA MUESTRA      : 
UNIDADES DE LOS DATOS                  : Gal (cm/s/s)
FACTOR DE DECIMACION                   : 1
FORMATO DATOS (FORTRAN,10 campos/dato) : 3F10.5


================================================================================
CALIDAD DEL ACELEROGRAMA:
REGISTRO DIGITAL COMPLETO CON TIEMPO ABSOLUTO CORRECTO.


================================================================================
COMENTARIOS:














================================================================================
DATOS DE ACELERACION:
---------+---------+---------+---------+---------+---------+---------+---------+
   CANAL-1   CANAL-2   CANAL-3   CANAL-4   CANAL-5   CANAL-6   CANAL-7   CANAL-8
      N00E        +V      N90W
---------+---------+---------+---------+---------+---------+---------+---------+
[...]
  13.62241   1.16715   8.88180
  13.38299   1.34671   8.80698
  13.05379   1.36168   8.77705
  12.55998   1.19708   8.53763
  12.32056   1.19708   8.52267
  11.94647   1.27189   8.26828
  11.36288   0.97262   8.10368
  10.92893   0.88284   7.98397
  10.40520   0.92773   7.74455
  10.21067   0.94269   7.86426
   9.53730   0.79305   7.56498
   9.02853   0.79305   7.52009
   8.31027   0.58356   7.35549
   7.89129   0.59853   7.20585
   7.26281   0.56860   7.02629
   6.93361   0.65838   7.13104
   6.33506   0.34414   7.01133
   5.78140   0.52371   6.63723
   5.31752   0.47882   6.69709
   4.77883   0.43392   6.38285
   4.32991   0.43392   6.05365
   3.91093   0.49378   5.84415
   3.46202   0.47882   5.52991
   2.90836   0.35911   5.03611
   2.69886   0.56860   4.85654
   2.32477   0.38903   4.48245
   1.98060   0.50874   4.15325
   1.59155   0.31421   3.55470
   1.44191   0.52371   3.13571
   1.15760   0.31421   2.62694
   0.97803   0.32918   2.23789
   0.73861   0.17954   1.75905
   0.79847   0.31421   1.23531
   0.51415   0.25436   0.65173
   0.25977  -0.10477   0.21778
   0.34955   0.04487  -0.02164
   0.03531  -0.08981  -0.72494
   0.03531  -0.07484  -1.17385
  -0.06943  -0.11973  -1.50305
   0.18495  -0.05988  -1.81729
   0.00539  -0.10477  -2.38592
   0.09517   0.13465  -2.80490
   0.19992   0.26932  -3.07425
   0.31963   0.43392  -3.56805
   0.54408   0.86787  -3.97207
   0.60394   1.04744  -4.55566
   0.79847   1.27189  -4.95968
   0.97803   1.73577  -5.34874
   1.14263   1.75074  -5.66298
   1.38205   2.03505  -5.75276
   1.51673   2.25950  -6.27649
   1.69629   2.27447  -6.59073
   1.93571   2.36425  -6.84512
   2.13024   2.43907  -7.20425
   2.38462   2.55878  -7.32396
   2.62404   2.76827  -7.45863
   2.77368   2.69345  -7.48856
   2.75872   2.60367  -7.74294
   2.81857   2.54381  -7.92251
   2.90836   2.51389  -7.77287
   2.96821   2.51389  -7.81776
   2.93828   2.36425  -7.57834
   2.81857   2.33432  -7.65316
   2.80361   2.51389  -7.45863
   2.60908   2.39418  -7.21921
   2.48937   2.43907  -7.14439
   2.11528   2.37921  -7.06957
   1.89082   2.36425  -6.87504
   1.75615   2.52885  -6.57577
   1.41198   2.25950  -6.27649
   1.12767   2.13979  -6.05204
   0.61890   1.99016  -5.91736
   0.36452   1.90037  -5.79765
  -0.21907   1.67592  -5.48341
  -0.68295   1.42153  -5.28889
  -1.31142   1.19708  -4.88486
  -1.77530   1.27189  -4.85494
  -2.49356   0.89780  -4.70530
  -3.09211   0.61349  -4.40602
  -4.09468   0.19450  -4.45091
  -4.75309  -0.20952  -4.12171
  -5.50128  -0.47887  -3.86733
  -6.36918  -0.61354  -3.80747
  -7.43160  -0.79310  -3.61294
  -8.29950  -0.86792  -3.37352
  -9.16740  -0.91281  -3.05928
 -10.30464  -1.12231  -2.80490
 -11.29225  -1.09238  -2.52059
 -12.29482  -1.07742  -2.22131
 -13.34229  -1.15223  -2.01182
 -14.32990  -0.91281  -1.81729
 -15.46714  -0.97267  -1.59284
 -16.42482  -0.85296  -1.32349
 -17.69674  -0.97267  -1.27860
 -18.38508  -0.73325  -0.99429
 -19.65699  -0.73325  -1.17385
 -20.42015  -0.61354  -0.76983
 -21.37783  -0.28434  -0.68005
 -22.32054  -0.23945  -0.63516
 -23.29319  -0.10477  -0.48552
 -23.98152   0.02990  -0.39574
 -24.98409   0.07479  -0.53041
 -25.79214   0.05983  -0.26106
 -26.57025   0.14961  -0.18624
 -27.34837   0.17954  -0.11142
 -27.87210   0.65838  -0.05157
 -28.59036   0.68831  -0.17128
 -29.35351   0.80802  -0.26106
 -29.89221   0.74816  -0.20121
 -30.32616   0.94269  -0.05157
 -30.70025   1.07737   0.17289
 -31.01449   1.36168  -0.09646
 -31.26887   1.52628  -0.09646
 -31.46340   1.58613  -0.23113
 -31.68786   1.69088  -0.48552
 -31.47837   1.99016  -0.33588
 -31.61304   1.91534  -0.68005
 -31.31376   2.19965  -0.69501
 -31.19405   2.05001  -0.82968
 -31.10427   2.09490  -1.09903
 -30.58054   2.21461  -1.32349
 -30.07177   2.21461  -1.42824
 -29.74257   2.09490  -1.60780
 -29.24877   2.00512  -1.71255
 -28.65021   2.07994  -1.90708
 -28.06663   1.96023  -2.07168
 -27.60275   1.66095  -2.35599
 -27.04909   1.57117  -2.58044
 -26.28594   1.49635  -2.70015
 -25.55272   1.07737  -2.89468
 -24.72971   0.61349  -3.01439
 -23.83188   0.38903  -3.34360
 -23.09866   0.10472  -3.73265
 -22.15594  -0.22448  -3.82244
 -21.25812  -0.34419  -4.31624
 -20.18073  -0.35916  -4.60055
 -19.17815  -0.50879  -4.92975
 -18.20551  -0.61354  -5.31881
 -17.23287  -0.77814  -5.40860
 -16.35000  -0.89785  -5.70787
 -15.36240  -0.68836  -6.08196
 -14.49450  -0.68836  -6.29146
 -13.67149  -1.06245  -6.50095
 -12.75870  -1.12231  -6.56080
 -11.93569  -1.00260  -6.68051
 -11.03787  -1.09238  -6.57577
 -10.24479  -1.22705  -6.60570
  -9.31704  -1.24202  -6.57577
  -8.44914  -1.42158  -6.53088
  -7.43160  -1.24202  -6.30642
  -6.53378  -1.51136  -6.09693
  -5.78559  -1.37669  -6.20167
  -4.82791  -1.51136  -5.81262
  -3.96001  -1.28691  -5.69291
  -3.03226  -1.28691  -5.27392
  -2.14940  -1.16720  -5.01954
  -1.19171  -1.03252  -4.81004
  -0.47345  -1.01756  -4.43595
   0.39444  -1.03252  -3.91222
   1.12767  -0.97267  -3.52316
   1.95068  -0.91281  -3.13410
   3.11785  -0.65843  -2.46073
   3.91093  -0.62850  -2.28117
   4.79379  -0.64347  -1.78737
   5.76643  -0.71829  -1.42824
   6.90368  -0.64347  -0.91947
   7.74165  -0.44894  -0.72494
   8.72926  -0.40405  -0.17128
   9.46248  -0.53872  -0.06653
  10.58477  -0.34419   0.42727
  11.49755  -0.59858   0.99589
  12.21581  -0.61354   1.20539
  13.09868  -0.43397   1.56452
  13.87679  -0.31426   2.13314
  14.59505  -0.53872   2.76162
  15.32828  -0.43397   2.94118
  16.09143  -0.34419   3.62952
  16.77976  -0.49383   4.18318
  17.42320  -0.22448   4.63209
  18.08161  -0.02995   5.32042
  18.90462   0.37407   5.73941
  19.11411   0.20947   6.27810
  19.90719   0.50874   6.75694
  20.26632   0.64342   7.31060
  20.99954   1.01751   7.93908
  21.28385   1.12226   8.11864
  21.44846   1.06240   8.37303
  21.97219   1.15218   8.97158
  22.51088   1.49635   9.22596
  22.75030   1.48139   9.45042
  23.06454   1.45146   9.65991
  23.42367   1.58613   9.82451
  23.70798   1.42153   9.83948
  23.90251   1.18211  10.00408
  24.15690   1.06240  10.03401
  24.23171   0.82298  10.00408
  24.53099   0.46385  10.15372
  24.69559   0.25436   9.98911
  24.65070  -0.14966   9.85444
  24.89012  -0.26937   9.82451
  24.86019  -0.70332   9.74969
  24.89012  -0.85296   9.57013
  24.86019  -0.88289   9.31574
  24.93501  -1.12231   9.43546
  24.80034  -1.40662   9.36064
  24.59084  -1.69093   9.13618
  24.62077  -1.60115   9.22596
  24.54595  -1.81064   9.21100
  24.32150  -2.05006   9.04640
  24.12697  -2.13984   8.85187
  24.09704  -2.34934   9.01647
  23.90251  -2.51394   8.77705
  23.60324  -2.58876   8.53763
  23.49849  -2.63365   8.34310
  23.21418  -2.81321   8.22339
  23.33389  -2.79825   8.13361
  23.06454  -2.97781   7.95404
  22.98972  -3.08256   7.77448
  22.69045  -3.14241   7.16096
  22.63059  -3.20227   7.01133
  22.61563  -3.35191   6.65220
  22.39117  -3.36687   6.30803
  22.39117  -3.30702   5.97883
  22.28643  -3.51651   5.51495
  22.33132  -3.41176   5.12589
  22.31635  -3.47162   4.75180
  22.24153  -3.51651   4.36274
  22.19664  -3.59133   3.85397
  22.15175  -3.41176   3.28535
  22.21161  -3.24716   2.85140
  22.19664  -3.17234   2.49227
  22.12182  -3.02270   2.11818
  21.89737  -2.88803   1.32510
  21.94226  -2.69350   0.77144
  21.77766  -2.49897   0.17289
  21.58313  -2.40919  -0.48552
  21.73277  -2.19970  -0.84465
  21.37364  -2.21466  -1.78737
  21.20903  -2.12488  -2.29613
  21.41853  -1.63107  -2.78994
  21.37364  -1.67597  -3.16403
  21.22400  -1.73582  -3.65784
  21.37364  -1.36173  -4.07682
  21.44846  -1.19713  -4.42099
  21.29882  -0.85296  -5.01954
  21.35867  -0.62850  -5.13925
  21.07436  -0.40405  -5.55823
  21.07436  -0.19455  -5.66298
  20.99954   0.16458  -5.91736
  20.79005   0.37407  -5.87247
  20.38603   0.64342  -6.20167
  19.92215   0.77809  -6.45606
  19.63784   0.85291  -6.54584
  19.30864   0.95766  -6.69548
  18.69512   1.04744  -6.81519
  18.00679   0.85291  -6.91994
  17.60277   0.80802  -6.96483
  17.00422   0.70327  -6.94986
  16.49545   0.91276  -6.81519
  15.61259   0.71824  -6.89001
  14.98411   0.71824  -6.63562
  14.23592   0.80802  -6.47102
  13.53263   0.98758  -6.27649
  12.53005   0.74816  -5.94729
  11.75194   0.86787  -5.64802
  10.83915   0.83795  -5.15421
   9.62708   0.62845  -4.88486
   8.77415   0.76313  -4.15164
   7.95114   0.70327  -3.58302
   6.61937   0.43392  -3.26878
   5.87118   0.79305  -2.81986
   4.65912   0.40400  -2.28117
   3.64158   0.38903  -1.93700
   2.69886   0.34414  -1.54795
   1.86089   0.58356  -1.21874
   0.79847   0.40400  -0.72494
  -0.26396   0.34414  -0.47055
  -1.35632   0.38903  -0.27603
  -2.55342   0.10472  -0.05157
  -3.70563  -0.01499   0.06814
  -4.90273   0.01494   0.03821
  -6.01005   0.14961   0.33749
  -7.25204   0.02990   0.68166
  -8.52396   0.05983   0.63676
  -9.54149   0.29925   0.96597
 -10.43932   0.35911   0.96597
 -11.63642   0.25436   1.13057
 -12.54921   0.38903   1.14553
 -13.70142   0.41896   0.86122
 -14.47953   0.23940   0.95100
 -15.60182   0.25436   0.72655
 -16.40986   0.61349   0.68166
 -17.41243   0.44889   0.62180
 -18.35515   0.49378   0.66669
 -19.49239   0.49378   0.56195
 -20.45007   0.52371   0.69662
 -21.18330   0.61349   0.65173
 -22.29062   0.26932   0.62180
 -23.08370   0.58356   0.50209
 -24.05634   0.52371   0.39734
 -24.74467   0.55363   0.56195
 -25.67243   0.44889   0.24771
 -26.22609   0.68831   0.30756
 -27.07902   0.35911  -0.02164
 -27.58779   0.50874  -0.20121
 -28.42576   0.31421  -0.72494
 -28.90460   0.22443  -0.91947
 -29.54804  -0.13470  -1.57787
 -30.04184  -0.23945  -1.78737
 -30.68529  -0.34419  -2.23628
 -31.55318  -0.65843  -2.83483
 -32.27144  -0.79310  -3.11914
 -32.97474  -1.06245  -3.67280
 -33.39373  -1.19713  -3.91222
 -34.38133  -1.45151  -4.07682
 -35.14449  -1.78071  -4.33120
 -35.75800  -2.05006  -4.46588
 -36.14706  -2.09495  -4.78012
 -36.40144  -2.03510  -5.03450
 -36.76057  -2.10992  -5.18414
 -37.40401  -2.02013  -5.54327
 -37.71825  -1.52633  -5.49838
 -38.07738  -1.36173  -5.39363
 -38.45148  -1.10734  -5.13925
 -38.69090  -0.95771  -5.12428
 -38.96025  -0.88289  -4.91479
 -39.13981  -0.43397  -4.67537
 -39.36427  -0.13470  -4.55566
 -39.31938   0.32918  -4.31624
 -39.48398   0.41896  -4.16660
 -39.48398   0.56860  -3.65784
 -39.54383   0.86787  -3.16403
 -39.51390   0.89780  -2.64030
 -39.67851   0.76313  -2.37095
 -39.61865   0.85291  -1.98189
 -39.58872   0.71824  -1.68262
 -39.55880   0.71824  -1.44320
 -39.36427   0.34414  -0.96436
 -39.33434   0.04487  -0.93443
 -39.15477  -0.23945  -0.68005
 -39.05003  -0.56865  -1.00925
 -38.60112  -0.74821  -0.73990
 -38.28688  -1.10734  -0.85961
 -38.10731  -1.46647  -1.05414
 -37.41898  -1.72086  -0.93443
 -37.01496  -2.05006  -1.09903
 -36.44633  -2.10992  -1.21874
 -35.84778  -2.18473  -1.18881
 -35.20434  -2.13984  -1.26363
 -34.38133  -1.73582  -1.39831
 -33.70797  -1.28691  -1.69758
 -32.79518  -1.01756  -2.11657
 -31.70282  -0.46390  -2.26621
 -30.84989  -0.17959  -2.28117
 -29.90717   0.22443  -2.40088
 -29.06920   0.49378  -2.65526
 -28.12648   0.50874  -2.96950
 -27.13887   0.46385  -3.16403
 -26.04652   0.52371  -3.62791
 -25.11877   0.20947  -3.85236
 -23.92167   0.20947  -4.00200
 -22.96399  -0.38908  -3.98704
 -21.55739  -0.35916  -3.98704
 -20.53986  -0.94274  -4.18157
 -19.23801  -1.21209  -4.37610
 -17.89127  -1.39165  -4.42099
 -16.55950  -1.40662  -4.39106
 -15.16787  -1.28691  -4.34617
 -13.70142  -1.01756  -4.25639
 -11.96562  -0.50879  -4.15164
 -10.42435   0.11969  -4.15164
  -8.71849   0.68831  -3.97207
  -7.08744   1.16715  -3.58302
  -5.12718   2.13979  -3.44834
  -3.58592   2.48396  -3.47827
  -1.82019   2.96280  -3.43338
  -0.18914   2.97776  -3.31367
   1.63644   3.03762  -3.23885
   3.37223   2.96280  -3.08921
   5.16788   2.97776  -2.68519
   6.93361   2.82813  -2.37095
   8.17560   2.30439  -2.38592
   9.76176   2.02008  -1.99686
  11.24317   1.64599  -1.62276
  12.61984   1.09233  -1.29356
  14.11621   0.64342  -0.85961
  15.35820   0.28429  -0.75487
  16.57027  -0.11973  -0.51545
  17.69255  -0.43397  -0.30595
  18.66520  -0.47887  -0.03661
  19.89222  -0.37412   0.17289
  21.17911   0.05983   0.47216
  22.15175   0.25436   0.75647
  23.34885   0.76313   0.86122
  24.45617   1.37664   1.16050
  25.50363   1.78066   1.45977
  26.64088   2.13979   2.02839
  27.31425   2.45403   2.17803
  28.24200   2.75331   2.50723
  28.90041   2.90294   2.62694
  29.69349   2.81316   3.03097
  30.27707   2.94784   3.25542
  30.80081   2.78323   3.77915
  31.30957   2.60367   4.15325
  31.72856   2.40914   4.40763
  32.20740   2.24454   4.99122
  32.44682   2.06497   5.33538
  32.58149   1.75074   5.70948
  32.86580   1.66095   6.27810
  32.86580   1.67592   6.42774
  32.89573   1.79563   6.93651
  32.92566   2.19965   7.10111
  33.01544   2.57374   7.23578
  33.00048   2.55878   7.59491
  32.74609   2.70842   7.52009
  32.74609   2.70842   7.84930
  32.38696   2.27447   7.81937
  32.44682   2.37921   8.02886
  32.10265   1.82555   8.08872
  31.96798   1.78066   8.35806
  31.95301   1.91534   8.76209
  31.65374   2.06497   8.92669
  31.38439   2.33432   8.97158
  31.10008   2.67849   8.85187
  30.92052   2.51389   8.91172
  30.62124   2.66352   8.80698
  30.21722   2.37921   8.83690
  29.90298   2.22958   8.76209
  29.73838   1.90037   8.56756
  29.42414   1.81059   8.26828
  28.96026   1.52628   8.11864
  28.72084   1.48139   7.96901
  28.49639   1.43650   7.80441
  28.28689   0.97262   7.65477
  28.00258   0.82298   7.41535
  27.65842   0.43392   7.07118
  27.58360   0.07479   7.02629
  27.26936  -0.32923   6.66716
  27.31425  -0.49383   6.44270
  27.00001  -0.68836   5.96386
  26.92519  -0.64347   5.66459
  26.68577  -0.94274   5.54488
  26.52117  -1.21209   5.36531
  26.67081  -1.16720   5.44013
  26.32664  -1.57122   5.29049
  26.23686  -1.46647   5.26057
  25.99744  -1.51136   5.29049
  25.83284  -1.22705   5.52991
  25.72809  -1.01756   5.76933
  25.27918  -0.79310   5.88904
  25.15947  -0.49383   6.03868
  24.72552  -0.32923   6.09854
  24.36639  -0.43397   6.11350
  24.15690  -0.50879   6.41278
  23.64813  -0.59858   6.36788
  23.45360  -0.73325   6.62227
  23.07950  -0.67339   6.66716
  22.52585  -1.01756   6.90658
  22.12182  -1.00260   6.69709
  21.62802  -1.12231   6.83176
  20.87983  -1.45151   6.83176
  20.37106  -1.61611   6.84672
  19.96704  -1.49640   6.80183
  19.21885  -1.63107   6.75694
  18.51556  -1.52633   6.38285
  17.96190  -1.25698   6.29307
  17.31846  -1.12231   6.12846
  16.57027  -0.85296   5.85912
  16.01661  -0.65843   5.63466
  15.10382  -0.55368   5.44013
  14.46038   0.01494   4.97625
  13.62241   0.07479   4.61712
  12.61984   0.35911   4.09339
  12.11107   1.07737   3.91383
  11.09353   1.30182   3.42002
  10.39024   1.70584   3.04593
   9.58219   2.31936   2.70176
