********************************************************************************
              CENTRO DE INSTRUMENTACION Y REGISTRO SISMICO  A.C.

    Anaxagoras 814, Col. Narvarte, Benito Juarez, C.P. 03020 Mexico, D.F.
           Tels. 5687 45 42/ 5687 45  82             Fax. 5669 25 12
********************************************************************************
ARCHIVO ESTANDAR DE ACELERACION:
VERSION DEL FORMATO                    : 2.0
NOMBRE DEL ARCHIVO                     : MT5020200623152903
FECHA Y HORA DE CREACION               : 18/AGO/21, 13:43
REF. CATALOGO ACELEROGRAMAS, SMIS 1996 : REGISTRO No.     /PAG.


================================================================================
DATOS DE LA ESTACION:
NOMBRE DE LA ESTACION                  : MARISCAL TITO
CLAVE DE LA ESTACION                   : MT50
LOCALIZACION DE LA ESTACION            : Del. Miguel Hidalgo, Col. Bosque       
                                       : de Chapultepec, Av. Paseo de la        
                                       : Reforma, entre Rubén Darío             
                                       : y Gandhi.                              
                                       : 
COORDENADAS DE LA ESTACION             : 19.4253 LAT. N
                                       : 99.1900 LONG. W
ALTITUD (msnm)                         : 2234
TIPO DE SUELO                          : Arenoso, limoso, compacto           
                                       :                           
                                       : 
INSTITUCION RESPONSABLE                : CIRES
                                       : 

================================================================================
DATOS DEL ACELEROGRAFO:
MODELO DEL ACELEROGRAFO                : RADESD
NUMERO DE SERIE DEL ACELEROGRAFO       : 226
NUMERO DE CANALES                      : 3
ORIENTACION C1-C6 (rumbo;orientacion)  : /N00E/+V/N90W
ORIENTACION C7-C12 (rumbo;orientacion) : 
VEL. DE MUESTREO, C1-C6 (muestras/s)   : /100/100/100
VEL. DE MUESTREO, C7-C12 (muestras/s)  : 
ESC. COMPLETA DE SENSORES, C1-C6, (g)  : /0.5/0.5/0.5
ESC. COMPLETA DE SENSORES, C7-C12, (g) : 
FREC. NAT. DE SENSORES, C1-C6, (Hz)    : /30/30/30
FREC. NAT. DE SENSORES, C7-C12, (Hz)   : 
AMORTIGUAMIENTO DE SENSORES, C1-C6     : /0.790/0.667/0.733
AMORTIGUAMIENTO DE SENSORES, C7-C12    : 
INTERVALO DE MUESTREO, C1-C6, (s)      : /0.01/0.01/0.01
INTERVALO DE MUESTREO, C7-C12, (s)     : 
UMBRAL DE DISPARO, C1-C6, (Gal)        : /2.24/4.49/2.24
UMBRAL DE DISPARO, C7-C12, (Gal)       :
MEMORIA DE PREEVENTO (s)               : 44.0
TIEMPO DE POSEVENTO (s)                : 334.0


================================================================================
DATOS DEL SISMO:
FECHA DEL SISMO (GMT)                  : 23/JUN/20
HORA EPICENTRO (GMT)                   : 15:29:03.0
MAGNITUD(ES)                           : /Mc=7.4
COORDENADAS DEL EPICENTRO              : 15.80 LAT. N
                                       : 96.13 LONG. W
PROFUNDIDAD FOCAL (km)                 : 22
FUENTE DE LOS DATOS EPICENTRALES       : SSN
                                       : INSTITUTO DE GEOFISICA, UNAM

================================================================================
DATOS DE ESTE REGISTRO:
HORA DE LA PRIMERA MUESTRA (GMT)       : 15:30:44.00
EXACTITUD DEL TIEMPO (s)               : 0.01
DURACION DEL REGISTRO (s), C1-C6       : /196.6/196.6/196.6
DURACION DEL REGISTRO (s), C7-C12      : 
NUM. TOTAL DE MUESTRAS, C1-C6          : /19660/19660/19660
NUM. TOTAL DE MUESTRAS, C7-C12         : 
ACEL. MAX. (Gal), C1-C6                : /13.31891/3.77948/11.34855
ACEL. MAX., C1-C6, EN LA MUESTRA       : /4709/7702/5282
ACEL. MAX. (Gal), C7-C12               : 
ACEL. MAX., C7-C12, EN LA MUESTRA      : 
UNIDADES DE LOS DATOS                  : Gal (cm/s/s)
FACTOR DE DECIMACION                   : 1
FORMATO DATOS (FORTRAN,10 campos/dato) : 3F10.5


================================================================================
CALIDAD DEL ACELEROGRAMA:
REGISTRO DIGITAL COMPLETO CON TIEMPO ABSOLUTO CORRECTO.


================================================================================
COMENTARIOS:














================================================================================
DATOS DE ACELERACION:
---------+---------+---------+---------+---------+---------+---------+---------+
   CANAL-1   CANAL-2   CANAL-3   CANAL-4   CANAL-5   CANAL-6   CANAL-7   CANAL-8
      N00E        +V      N90W
---------+---------+---------+---------+---------+---------+---------+---------+
[...]
   1.12112   0.95133   1.83160
   1.00141   0.96630   1.98124
   0.82184   0.81666   2.02613
   0.74703   0.86155   2.29547
   0.52257   0.80169   2.41518
   0.26818   0.75680   2.51993
   0.01380   0.59220   2.72942
  -0.28547   0.51738   2.74439
  -0.46504   0.53235   2.89402
  -0.85410   0.45753   2.96884
  -1.07855   0.53235   3.10352
  -1.28805   0.47249   3.16337
  -1.51250   0.42760   3.19330
  -1.69207   0.56227   3.20826
  -1.91652   0.41264   3.19330
  -2.06616   0.39767   3.10352
  -2.14098   0.45753   3.08855
  -2.20084   0.39767   2.92395
  -2.24573   0.36775   2.98381
  -2.23076   0.47249   2.87906
  -2.20084   0.42760   2.80424
  -2.02127   0.41264   2.93892
  -1.90156   0.36775   2.81921
  -1.75192   0.42760   2.80424
  -1.66214   0.39767   2.77431
  -1.64718   0.17322   2.56482
  -1.48258   0.08343   2.54986
  -1.37783   0.18818   2.47504
  -1.21323   0.17322   2.40022
  -1.19826   0.06847   2.28051
  -0.95884  -0.00635   2.34037
  -0.85410   0.05351   2.16080
  -0.82417   0.00862   2.16080
  -0.79424  -0.06620   1.93634
  -0.71942  -0.17095   1.92138
  -0.59971  -0.03628   1.75678
  -0.59971  -0.14102   1.63707
  -0.40518  -0.06620   1.69692
  -0.42015  -0.06620   1.57721
  -0.40518  -0.08117   1.45750
  -0.40518  -0.02131   1.26297
  -0.39022  -0.05124   1.29290
  -0.36029   0.05351   1.20312
  -0.48000   0.09840   1.09837
  -0.46504   0.15825   1.06845
  -0.50993   0.17322   1.05348
  -0.55482   0.21811   0.96370
  -0.62964   0.27796   0.85895
  -0.77928   0.26300   0.78413
  -0.89899   0.30789   0.75421
  -1.03366   0.17322   0.61953
  -1.22819   0.21811   0.67939
  -1.46761   0.30789   0.48486
  -1.70703   0.24804   0.43997
  -1.82674   0.29293   0.39508
  -1.93149   0.27796   0.38011
  -2.06616   0.38271   0.33522
  -2.26069   0.30789   0.24544
  -2.41033   0.33782   0.21551
  -2.42529   0.41264   0.18558
  -2.54500   0.30789   0.18558
  -2.53004   0.45753   0.11077
  -2.57493   0.32285   0.17062
  -2.60486   0.32285  -0.02391
  -2.58989   0.32285  -0.11369
  -2.36544   0.35278  -0.20347
  -2.38040   0.35278  -0.29326
  -2.24573   0.26300  -0.41297
  -2.00631   0.35278  -0.48779
  -1.91652   0.27796  -0.71224
  -1.76689   0.18818  -0.75713
  -1.60229   0.12833  -0.98159
  -1.49754   0.03854  -1.26590
  -1.27308   0.03854  -1.40057
  -0.98877  -0.03628  -1.56518
  -0.76431   0.06847  -1.81956
  -0.39022   0.06847  -1.92431
  -0.25555  -0.09613  -2.19365
   0.11855  -0.05124  -2.31336
   0.35797  -0.06620  -2.44804
   0.53753  -0.05124  -2.53782
   0.82184  -0.15599  -2.53782
   1.01637  -0.03628  -2.70242
   1.21090  -0.11109  -2.76228
   1.34558  -0.14102  -2.83710
   1.40543  -0.08117  -2.86702
   1.61492  -0.12606  -2.77724
   1.51018  -0.23080  -2.76228
   1.43536  -0.27570  -2.67249
   1.45032  -0.29066  -2.61264
   1.34558  -0.32059  -2.59768
   1.12112  -0.44030  -2.43307
   0.85177  -0.50015  -2.43307
   0.61235  -0.50015  -2.31336
   0.37293  -0.61986  -2.20862
  -0.06102  -0.58994  -2.19365
  -0.27051  -0.61986  -1.87941
  -0.73439  -0.67972  -1.86445
  -1.10848  -0.88921  -1.78963
  -1.45265  -0.78446  -1.65496
  -1.88660  -0.88921  -1.55021
  -2.30558  -0.90417  -1.43050
  -2.69464  -0.88921  -1.44547
  -2.97895  -0.93410  -1.31079
  -3.32312  -1.02388  -1.16115
  -3.51765  -0.90417  -1.07137
  -3.86181  -0.93410  -1.23597
  -4.01145  -0.87425  -1.05641
  -4.16109  -0.91914  -1.10130
  -4.28080  -1.00892  -1.11626
  -4.34065  -0.93410  -1.10130
  -4.40051  -0.93410  -1.26590
  -4.31073  -0.73957  -1.16115
  -4.38554  -0.88921  -1.31079
  -4.35562  -0.82936  -1.47539
  -4.29576  -0.96403  -1.50532
  -4.35562  -1.00892  -1.66992
  -4.10123  -1.00892  -1.80460
  -4.17605  -1.14359  -1.96920
  -3.84685  -1.17352  -2.19365
  -3.78699  -1.30820  -2.47797
  -3.65232  -1.30820  -2.76228
  -3.41290  -1.29323  -3.04659
  -3.27823  -1.32316  -3.25608
  -3.05377  -1.33812  -3.71996
  -2.93406  -1.21841  -3.98931
  -2.67968  -1.32316  -4.19880
  -2.54500  -1.33812  -4.48311
  -2.41033  -1.35309  -4.81231
  -2.27565  -1.39798  -5.05173
  -2.09609  -1.35309  -5.35101
  -1.99134  -1.42791  -5.57546
  -1.85667  -1.44287  -5.74006
  -1.82674  -1.63740  -6.05430
  -1.55739  -1.54762  -6.14409
  -1.39279  -1.56258  -6.27876
  -1.18330  -1.54762  -6.27876
  -1.09352  -1.63740  -6.32365
  -0.88402  -1.56258  -6.29372
  -0.77928  -1.54762  -6.32365
  -0.43511  -1.53265  -6.12912
  -0.27051  -1.47280  -6.08423
  -0.00116  -1.44287  -5.88970
   0.29811  -1.48776  -5.65028
   0.53753  -1.48776  -5.45575
   0.82184  -1.30820  -5.11159
   1.01637  -1.23338  -4.84224
   1.33061  -1.14359  -4.45318
   1.51018  -1.17352  -4.04916
   1.71967  -1.03885  -3.69003
   1.91420  -1.05381  -3.22615
   2.03391  -0.94907  -2.80717
   2.15362  -0.85928  -2.47797
   2.18355  -0.84432  -2.08891
   2.27333  -0.75454  -1.63999
   2.18355  -0.76950  -1.37065
   2.22844  -0.72461  -1.05641
   2.15362  -0.69468  -0.66735
   2.13865  -0.76950  -0.33815
   1.94413  -0.73957  -0.12865
   1.67478  -0.73957   0.12573
   1.52514  -0.78446   0.24544
   1.36054  -0.76950   0.39508
   1.07623  -0.88921   0.48486
   0.83681  -0.81439   0.38011
   0.55250  -0.82936   0.45493
   0.35797  -0.78446   0.33522
   0.08862  -0.78446   0.26040
  -0.15080  -0.78446   0.18558
  -0.43511  -0.75454   0.06587
  -0.64460  -0.69468  -0.21844
  -0.79424  -0.67972  -0.27829
  -0.98877  -0.60490  -0.38304
  -1.07855  -0.73957  -0.39800
  -1.10848  -0.57497  -0.48779
  -1.28805  -0.63483  -0.53268
  -1.27308  -0.73957  -0.75713
  -1.33294  -0.69468  -0.77210
  -1.31797  -0.84432  -0.75713
  -1.12345  -0.85928  -0.78706
  -1.16834  -0.91914  -0.89181
  -1.03366  -1.08374  -0.84692
  -0.79424  -1.02388  -0.75713
  -0.61468  -1.17352  -0.59253
  -0.45008  -1.20345  -0.53268
  -0.25555  -1.23338  -0.41297
   0.05869  -1.30820  -0.23340
   0.28315  -1.23338  -0.11369
   0.68717  -1.21841   0.06587
   0.89666  -1.12863   0.17062
   1.28572  -0.97899   0.35019
   1.51018  -1.03885   0.52975
   1.85434  -0.81439   0.66442
   2.07880  -0.73957   0.73924
   2.42297  -0.58994   0.75421
   2.61750  -0.54504   0.70932
   2.85692  -0.47023   0.64946
   3.03648  -0.48519   0.52975
   3.39561  -0.51512   0.49982
   3.62007  -0.53008   0.24544
   3.78467  -0.61986  -0.02391
   4.02409  -0.64979  -0.24836
   4.29344  -0.66475  -0.53268
   4.44307  -0.82936  -0.83195
   4.78724  -0.93410  -1.13123
   4.98177  -1.12863  -1.32576
   5.16133  -1.14359  -1.72978
   5.35586  -1.24834  -1.90934
   5.62521  -1.21841  -2.14876
   5.86463  -1.23338  -2.35826
   6.10405  -1.30820  -2.52286
   6.20880  -1.21841  -2.79220
   6.40333  -1.18849  -2.94184
   6.52304  -1.18849  -3.12141
   6.67267  -1.14359  -3.12141
   6.77742  -0.94907  -3.19623
   6.85224  -0.81439  -3.22615
   6.86720  -0.58994  -3.25608
   6.92706  -0.47023  -3.27104
   6.89713  -0.35052  -3.01666
   6.80735   0.02358  -2.83710
   6.67267   0.11336  -2.67249
   6.35844   0.17322  -2.41811
   6.05916   0.38271  -2.16373
   5.93945   0.56227  -1.69985
   5.52046   0.50242  -1.29583
   5.14637   0.60717  -1.01152
   4.83213   0.69695  -0.60750
   4.42811   0.69695  -0.03887
   4.02409   0.63709   0.49982
   3.70985   0.71191   1.02355
   3.29086   0.60717   1.50240
   3.00655   0.57724   2.10095
   2.63246   0.50242   2.47504
   2.34815   0.38271   2.95388
   2.07880   0.50242   3.29805
   1.80945   0.45753   3.62725
   1.71967   0.36775   4.03127
   1.54010   0.35278   4.31558
   1.42039   0.12833   4.48018
   1.36054   0.26300   4.64478
   1.42039   0.27796   4.86924
   1.37550   0.33782   4.86924
   1.54010   0.32285   4.88420
   1.62989   0.47249   4.82435
   1.80945   0.39767   4.68968
   1.97405   0.63709   4.70464
   2.24340   0.69695   4.40536
   2.40800   0.65206   4.22580
   2.78210   0.74184   3.91156
   3.17115   0.75680   3.55243
   3.60510   0.75680   3.13344
   4.08394   0.75680   2.77431
   4.29344   0.60717   2.23562
   4.75731   0.68198   1.77174
   5.14637   0.62213   1.38268
   5.43068   0.53235   0.85895
   5.67010   0.48746   0.30529
   6.07412   0.47249  -0.08376
   6.26865   0.45753  -0.53268
   6.35844   0.33782  -1.04144
   6.49311   0.27796  -1.43050
   6.58289   0.21811  -1.78963
   6.65771   0.14329  -2.19365
   6.73253   0.02358  -2.47797
   6.86720   0.03854  -2.68746
   6.77742  -0.06620  -3.12141
   6.70260  -0.05124  -3.37579
   6.79238   0.14329  -3.64514
   6.73253   0.18818  -3.63017
   6.68764   0.33782  -3.82470
   6.65771   0.45753  -3.85463
   6.61282   0.83162  -3.88456
   6.56793   1.10097  -3.82470
   6.38836   1.23564  -3.76485
   6.25369   1.66959  -3.63017
   6.07412   1.74441  -3.43565
   5.89456   2.07361  -3.28601
   5.86463   2.34296  -2.92688
   5.64017   2.49260  -2.73235
   5.50550   2.52253  -2.37322
   5.35586   2.74698  -2.20862
   5.23615   2.70209  -1.89438
   4.99673   2.79187  -1.59510
   4.92191   2.82180  -1.34072
   4.75731   2.68713  -1.13123
   4.56278   2.67216  -0.89181
   4.30840   2.64224  -0.81699
   4.14380   2.55245  -0.62246
   3.84452   2.44771  -0.36808
   3.57518   2.28311  -0.23340
   3.35072   2.13347  -0.17355
   2.93173   2.13347  -0.05384
   2.61750   1.98383   0.00602
   2.22844   1.95390   0.09580
   1.74960   1.86412   0.09580
   1.27076   1.96887   0.14069
   0.86674   1.92398   0.21551
   0.38789   1.98383   0.18558
  -0.16576   1.90901   0.21551
  -0.58475   1.92398   0.18558
  -1.15337   1.90901   0.24544
  -1.63221   1.86412   0.27537
  -2.09609   1.84916   0.38011
  -2.72457   1.72945   0.39508
  -3.18844   1.72945   0.61953
  -3.69721   1.59477   0.67939
  -4.26583   1.41521   0.94874
  -4.75964   1.43017   1.17319
  -5.29833   1.11593   1.47247
  -5.79214   1.16082   1.90642
  -6.25601   1.07104   2.23562
  -6.79471   0.87651   2.66957
  -7.16880   0.81666   3.05863
  -7.78232   0.59220   3.52250
  -8.20130   0.56227   4.01631
  -8.59036   0.41264   4.43529
  -9.11409   0.08343   4.83931
  -9.48819   0.17322   5.19844
  -9.87724   0.17322   5.42290
 -10.32616   0.05351   5.78203
 -10.70025   0.18818   6.00649
 -11.07435  -0.00635   6.35065
 -11.41851   0.00862   6.51525
 -11.74771  -0.11109   6.66489
 -12.03203  -0.06620   6.82949
 -12.40612  -0.05124   6.85942
 -12.70540   0.00862   6.99410
 -12.78021   0.15825   6.96417
 -13.00467   0.18818   6.81453
 -13.03460   0.23307   6.84446
 -13.27402   0.09840   6.76964
 -13.24409   0.12833   6.63496
 -13.31891   0.14329   6.41051
 -13.22913   0.05351   6.18605
 -12.97474   0.15825   5.91670
 -12.75029   0.15825   5.64736
 -12.43605   0.21811   5.40794
 -12.15174   0.24804   5.07873
 -11.74771   0.38271   4.74953
 -11.29880   0.53235   4.37544
 -10.73018   0.60717   4.04623
 -10.14659   0.78673   3.70207
  -9.63782   0.92140   3.32797
  -9.03927   1.02615   2.90899
  -8.36591   1.26557   2.71446
  -7.76735   1.38528   2.29547
  -7.15384   1.40024   2.01116
  -6.39069   1.49003   1.51736
  -5.79214   1.50499   1.30787
  -5.19359   1.51995   0.85895
  -4.59504   1.41521   0.45493
  -4.08627   1.29550   0.08084
  -3.33808   1.11593  -0.21844
  -2.88917   0.90644  -0.69728
  -2.33551   0.80169  -1.02648
  -1.66214   0.71191  -1.34072
  -1.24316   0.62213  -1.75970
  -0.80921   0.45753  -2.08891
  -0.30044   0.29293  -2.50789
   0.20833   0.23307  -2.82213
   0.58242   0.29293  -3.07652
   0.98645   0.33782  -3.34586
   1.36054   0.32285  -3.64514
   1.61492   0.27796  -3.76485
   1.92916   0.20314  -3.89952
   2.12369   0.14329  -4.06412
   2.45289   0.06847  -4.18383
   2.60253   0.06847  -4.34844
   2.90181   0.03854  -4.31851
   2.99159   0.12833  -4.42325
   3.14123   0.06847  -4.34844
   3.15619   0.06847  -4.36340
   3.29086  -0.02131  -4.18383
   3.38065  -0.00635  -3.97434
   3.26094  -0.06620  -3.95938
   3.27590  -0.06620  -3.71996
   3.24597  -0.15599  -3.57032
   3.18612  -0.27570  -3.18126
   3.15619  -0.30562  -2.98673
   3.12626  -0.42533  -2.68746
   3.00655  -0.48519  -2.46300
   2.94670  -0.42533  -2.14876
   2.82699  -0.58994  -1.90934
   2.79706  -0.38044  -1.68489
   2.61750  -0.54504  -1.49036
   2.39304  -0.51512  -1.31079
   2.36311  -0.54504  -1.11626
   2.10873  -0.66475  -1.11626
   2.06384  -0.72461  -1.05641
   1.88427  -0.88921  -0.99655
   1.64485  -1.00892  -0.98159
   1.61492  -1.12863  -0.99655
   1.52514  -1.30820  -0.96663
   1.37550  -1.36805  -0.95166
   1.13608  -1.51769  -1.07137
   1.13608  -1.48776  -1.02648
   0.91163  -1.51769  -1.16115
   0.71710  -1.56258  -1.17612
   0.52257  -1.45783  -1.20605
   0.38789  -1.50272  -1.26590
   0.20833  -1.57754  -1.32576
  -0.00116  -1.56258  -1.35568
  -0.09095  -1.62243  -1.34072
  -0.10591  -1.57754  -1.38561
  -0.09095  -1.51769  -1.25094
   0.01380  -1.44287  -1.16115
   0.14847  -1.45783  -1.05641
   0.22329  -1.38301  -1.01152
   0.41782  -1.45783  -0.74217
   0.71710  -1.41294  -0.60750
   1.04630  -1.50272  -0.44289
   1.40543  -1.54762  -0.35311
   1.74960  -1.51769  -0.14362
   2.12369  -1.45783  -0.08376
   2.54268  -1.42791  -0.09873
   2.96166  -1.32316  -0.05384
   3.39561  -1.32316  -0.09873
   3.90438  -1.32316  -0.17355
   4.30840  -1.38301  -0.33815
   4.69746  -1.36805  -0.50275
   5.20623  -1.35309  -0.60750
   5.58032  -1.29323  -0.86188
   5.96938  -1.29323  -1.01152
   6.26865  -1.39798  -1.28086
   6.71757  -1.45783  -1.52028
   7.01684  -1.35309  -1.71481
   7.24130  -1.41294  -2.07394
   7.51064  -1.48776  -2.25351
   7.69021  -1.50272  -2.47797
   7.86977  -1.54762  -2.68746
   8.00445  -1.45783  -2.82213
   8.15409  -1.45783  -2.91191
   8.24387  -1.42791  -3.12141
   8.28876  -1.33812  -3.18126
   8.31869  -1.27827  -3.28601
   8.22891  -1.26330  -3.31594
   8.19898  -1.09870  -3.30097
   8.06430  -1.20345  -3.30097
   7.95956  -1.18849  -3.24112
   7.86977  -0.94907  -3.07652
   7.66028  -0.79943  -2.95681
   7.48072  -0.67972  -2.79220
   7.30115  -0.58994  -2.55278
   7.00188  -0.47023  -2.35826
   6.80735  -0.44030  -2.05898
   6.55296  -0.35052  -1.86445
   6.19383  -0.27570  -1.65496
   6.05916  -0.27570  -1.32576
   5.87959  -0.09613  -1.14619
   5.68507  -0.06620  -0.99655
   5.61025  -0.05124  -0.74217
   5.52046  -0.02131  -0.63742
   5.38579  -0.12606  -0.45786
   5.31097  -0.09613  -0.29326
   5.37083  -0.11109  -0.14362
   5.38579   0.15825  -0.17355
   5.35586   0.14329  -0.18851
   5.55039   0.29293  -0.00894
   5.49054   0.18818  -0.00894
   5.70003   0.47249   0.00602
   5.74492   0.51738   0.11077
   5.92449   0.62213   0.24544
   6.05916   0.65206   0.14069
   6.10405   0.65206   0.30529
   6.17887   0.53235   0.24544
   6.26865   0.54731   0.26040
   6.40333   0.42760   0.29033
   6.40333   0.45753   0.12573
   6.28362   0.45753   0.11077
   6.23873   0.29293   0.08084
   6.01427   0.23307  -0.11369
   5.78981   0.23307  -0.26333
   5.47557   0.11336  -0.44289
   5.08652   0.09840  -0.66735
   4.77228   0.05351  -0.93670
   4.36826   0.14329  -1.01152
