********************************************************************************
              CENTRO DE INSTRUMENTACION Y REGISTRO SISMICO  A.C.

    Anaxagoras 814, Col. Narvarte, Benito Juarez, C.P. 03020 Mexico, D.F.
           Tels. 5687 45 42/ 5687 45  82             Fax. 5669 25 12
********************************************************************************
ARCHIVO ESTANDAR DE ACELERACION:
VERSION DEL FORMATO                    : 2.0
NOMBRE DEL ARCHIVO                     : PA3420200623152903
FECHA Y HORA DE CREACION               : 18/AGO/21, 13:43
REF. CATALOGO ACELEROGRAMAS, SMIS 1996 : REGISTRO No.     /PAG.


================================================================================
DATOS DE LA ESTACION:
NOMBRE DE LA ESTACION                  : ESC. PRIM. "ÁLVARO OBREGÓN"
CLAVE DE LA ESTACION                   : PA34
LOCALIZACION DE LA ESTACION            : Del. Milpa Alta, Pueblo de San Pedro   
                                       : Actopan, calle Cuauhtémoc entre        
                                       : Melchor Ocampo y Xicotencalt.          
                                       :                                        
                                       : 
COORDENADAS DE LA ESTACION             : 19.2016 LAT. N
                                       : 99.0491 LONG. W
ALTITUD (msnm)                         : 2240
TIPO DE SUELO                          : Arenoso, limoso, compacto           
                                       :                           
                                       : 
INSTITUCION RESPONSABLE                : CIRES, A. C.
                                       : 

================================================================================
DATOS DEL ACELEROGRAFO:
MODELO DEL ACELEROGRAFO                : RAD_IO14
NUMERO DE SERIE DEL ACELEROGRAFO       : 
NUMERO DE CANALES                      : 3
ORIENTACION C1-C6 (rumbo;orientacion)  : /N00E/+V/N90W
ORIENTACION C7-C12 (rumbo;orientacion) : 
VEL. DE MUESTREO, C1-C6 (muestras/s)   : /100/100/100
VEL. DE MUESTREO, C7-C12 (muestras/s)  : 
ESC. COMPLETA DE SENSORES, C1-C6, (g)  : /2.0/2.0/2.0
ESC. COMPLETA DE SENSORES, C7-C12, (g) : 
FREC. NAT. DE SENSORES, C1-C6, (Hz)    : /30/30/30
FREC. NAT. DE SENSORES, C7-C12, (Hz)   : 
AMORTIGUAMIENTO DE SENSORES, C1-C6     : /0.790/0.733/0.785
AMORTIGUAMIENTO DE SENSORES, C7-C12    : 
INTERVALO DE MUESTREO, C1-C6, (s)      : /0.01/0.01/0.01
INTERVALO DE MUESTREO, C7-C12, (s)     : 
UMBRAL DE DISPARO, C1-C6, (Gal)        : / / /
UMBRAL DE DISPARO, C7-C12, (Gal)       :
MEMORIA DE PREEVENTO (s)               : 60
TIEMPO DE POSEVENTO (s)                : 90


================================================================================
DATOS DEL SISMO:
FECHA DEL SISMO (GMT)                  : 23/JUN/20
HORA EPICENTRO (GMT)                   : 15:29:03.0
MAGNITUD(ES)                           : /Mc=7.4
COORDENADAS DEL EPICENTRO              : 15.80 LAT. N
                                       : 96.13 LONG. W
PROFUNDIDAD FOCAL (km)                 : 22
FUENTE DE LOS DATOS EPICENTRALES       : SSN
                                       : INSTITUTO DE GEOFISICA, UNAM

================================================================================
DATOS DE ESTE REGISTRO:
HORA DE LA PRIMERA MUESTRA (GMT)       : 10:27:25.00
EXACTITUD DEL TIEMPO (s)               : 
DURACION DEL REGISTRO (s), C1-C6       : /539.78/539.78/539.78
DURACION DEL REGISTRO (s), C7-C12      : 
NUM. TOTAL DE MUESTRAS, C1-C6          : /53978/53978/53978
NUM. TOTAL DE MUESTRAS, C7-C12         : 
ACEL. MAX. (Gal), C1-C6                : /6.91865/4.77529/7.26141
ACEL. MAX., C1-C6, EN LA MUESTRA       : /18794/18521/19287
ACEL. MAX. (Gal), C7-C12               : 
ACEL. MAX., C7-C12, EN LA MUESTRA      : 
UNIDADES DE LOS DATOS                  : Gal (cm/s/s)
FACTOR DE DECIMACION                   : 1
FORMATO DATOS (FORTRAN,10 campos/dato) : 3F10.5


================================================================================
CALIDAD DEL ACELEROGRAMA:
REGISTRO DIGITAL COMPLETO CON TIEMPO ABSOLUTO CORRECTO.


================================================================================
COMENTARIOS:














================================================================================
DATOS DE ACELERACION:
---------+---------+---------+---------+---------+---------+---------+---------+
   CANAL-1   CANAL-2   CANAL-3   CANAL-4   CANAL-5   CANAL-6   CANAL-7   CANAL-8
      N00E        +V      N90W
---------+---------+---------+---------+---------+---------+---------+---------+
[...]
   2.68974   1.60459  -1.72131
   2.58484   1.52999  -1.61521
   2.51164   1.69299  -1.62341
   2.55744   1.56739  -1.52941
   2.33554   1.61769  -1.51141
   2.38604   1.64809  -1.36201
   2.39234   1.62519  -1.10081
   2.38654   1.72829  -0.91331
   2.35144   1.46879  -0.72741
   2.16204   1.64929  -0.67641
   2.01994   1.53519  -0.44081
   2.03164   1.51719  -0.37861
   1.95754   1.37709  -0.15641
   1.63694   1.61559   0.08299
   1.41714   1.39509   0.21839
   1.16774   1.55129   0.30209
   0.89534   1.31539   0.58359
   0.61734   1.67409   0.91249
   0.25514   1.65329   0.94739
  -0.00836   1.55789   1.23209
  -0.24736   1.54379   1.51599
  -0.47926   1.51179   1.70869
  -0.80706   1.48789   1.73249
  -1.05416   1.44139   1.96189
  -1.53796   1.50289   2.14659
  -1.79726   1.29149   2.12689
  -2.01536   1.34859   2.31539
  -2.43436   1.37409   2.36069
  -2.72056   1.16719   2.35189
  -2.90756   1.10659   2.32589
  -3.20106   1.19799   2.23939
  -3.56836   0.99089   2.05519
  -3.81876   0.91389   2.02709
  -3.88326   0.90409   1.81339
  -4.24336   0.86269   1.79489
  -4.49516   0.82719   1.71919
  -4.41076   0.63669   1.71379
  -4.54236   0.64039   1.71149
  -4.61816   0.49849   1.55809
  -4.61346   0.40029   1.51339
  -4.64966   0.32289   1.39579
  -4.68216   0.46409   1.41379
  -4.41236   0.34999   1.24169
  -4.45166   0.25439   1.17349
  -4.49326   0.45499   1.17209
  -4.43716   0.17909   1.00509
  -4.50546   0.33549   0.94689
  -4.45006   0.32449   0.74489
  -4.44486   0.29459   0.87509
  -4.41546   0.27519   0.83929
  -4.57796   0.32639   0.75729
  -4.44346   0.27489   0.87399
  -4.44346   0.08699   0.86389
  -4.38246   0.00559   0.59289
  -4.53116   0.04229   0.68849
  -4.41236  -0.10291   0.54709
  -4.30226  -0.29391   0.64549
  -4.42386  -0.23101   0.51999
  -4.33916  -0.30071   0.56629
  -4.26696  -0.45831   0.75119
  -4.12876  -0.47161   0.52319
  -3.96376  -0.50081   0.71399
  -3.86806  -0.55531   0.81039
  -3.58376  -0.67151   0.80449
  -3.38546  -0.77791   1.00999
  -3.22656  -0.81671   1.04859
  -3.15406  -0.91541   1.29779
  -2.68856  -1.17681   1.36989
  -2.56906  -1.23381   1.56699
  -2.26506  -1.21091   1.89029
  -2.02616  -1.25071   2.00229
  -1.80706  -1.36551   2.24969
  -1.64806  -1.41291   2.40589
  -1.52646  -1.45991   2.60179
  -1.02656  -1.41171   2.80149
  -0.75116  -1.51911   2.88419
  -0.60366  -1.41461   2.99129
  -0.20776  -1.34421   3.09719
  -0.08926  -1.13751   3.12409
   0.19624  -1.16201   3.17179
   0.58104  -1.17891   3.06659
   0.69304  -1.07511   2.96049
   1.00404  -0.99351   2.86199
   1.56004  -1.01171   2.70869
   1.65684  -1.08631   2.50619
   2.04754  -1.06851   2.25969
   2.34394  -0.90931   1.86949
   2.52494  -1.09401   1.47859
   2.79104  -1.02811   1.15899
   2.92784  -0.98391   0.70189
   3.17494  -0.97381   0.36259
   3.34234  -0.92261  -0.03721
   3.46884  -0.89711  -0.45341
   3.52984  -0.90161  -0.97521
   3.68484  -0.93901  -1.22471
   3.71294  -0.87841  -1.74681
   3.79664  -0.79031  -2.06461
   3.63224  -0.77441  -2.47071
   3.68324  -0.64531  -2.75921
   3.83944  -0.64721  -2.97011
   3.47894  -0.39681  -3.23591
   3.39774  -0.33511  -3.36901
   3.33134  -0.32271  -3.39961
   3.06734  -0.16981  -3.40051
   3.08984  -0.19011  -3.49171
   2.85364  -0.06081  -3.30771
   2.79434  -0.19831  -3.29441
   2.59834  -0.18921  -3.05891
   2.53104  -0.31241  -3.01121
   2.53174  -0.28361  -2.93361
   2.30264  -0.15251  -2.73841
   2.08394  -0.14221  -2.67251
   2.07414  -0.29391  -2.47161
   2.03414  -0.22871  -2.13661
   1.98904  -0.23271  -2.11971
   1.94114  -0.16251  -1.75831
   1.90774  -0.14521  -1.57241
   1.88734  -0.15271  -1.41921
   1.78164  -0.23081  -1.35451
   1.78564  -0.04751  -1.11161
   1.60864  -0.04511  -0.89341
   1.57384   0.20739  -0.86441
   1.35264   0.19329  -0.74981
   1.29834   0.02029  -0.65871
   1.10294   0.25859  -0.64491
   1.08234   0.22279  -0.65801
   0.88574   0.37549  -0.77931
   0.91494   0.38969  -0.92591
   0.66124   0.40939  -0.87331
   0.50714   0.60109  -1.06031
   0.27244   0.55269  -1.22541
   0.03604   0.59389  -1.56791
  -0.04386   0.81149  -1.63291
  -0.22226   0.77529  -1.86911
  -0.34056   0.77229  -1.99931
  -0.43836   0.77249  -2.26841
  -0.57376   0.81289  -2.47651
  -0.75816   1.02149  -2.51161
  -0.74016   1.07129  -2.73421
  -0.94876   1.09799  -2.80991
  -0.99476   1.07459  -3.12231
  -1.06846   1.18419  -3.08371
  -1.12596   1.20549  -3.30141
  -1.29506   1.28799  -3.41671
  -1.56666   1.31139  -3.71691
  -1.63826   1.32709  -4.08331
  -1.72876   1.11409  -4.14331
  -1.80846   1.29529  -4.23411
  -1.84886   1.16479  -4.45951
  -1.95296   1.18729  -4.60001
  -1.78996   0.95039  -4.59741
  -1.95556   0.94859  -4.61541
  -1.89726   0.88709  -4.66331
  -1.78676   0.85389  -4.51861
  -1.84606   0.73019  -4.34001
  -1.71186   0.72479  -4.12371
  -1.74156   0.64899  -4.16041
  -1.53396   0.49499  -3.96681
  -1.50026   0.49889  -3.64791
  -1.34526   0.27519  -3.43071
  -1.34926   0.32099  -3.17491
  -1.34766   0.28709  -2.95961
  -1.18276   0.15059  -2.62621
  -1.20286   0.13579  -2.43001
  -1.10936   0.06619  -2.27621
  -1.19966  -0.10971  -2.09311
  -1.38756  -0.20301  -1.97971
  -1.47856  -0.35961  -1.68251
  -1.45896  -0.38791  -1.31191
  -1.67266  -0.52191  -1.29281
  -1.68666  -0.55041  -1.06571
  -1.88066  -0.58971  -1.04981
  -2.14276  -0.63411  -1.00771
  -2.30856  -0.59371  -0.99211
  -2.61436  -0.55901  -0.93571
  -2.76196  -0.58781  -1.07511
  -2.73406  -0.44591  -1.16561
  -3.10326  -0.47841  -1.12351
  -3.17456  -0.37691  -1.14261
  -3.24636  -0.27191  -1.14971
  -3.24756  -0.29911  -1.15221
  -3.40606  -0.27241  -1.30841
  -3.62466   0.07809  -1.42351
  -3.77086   0.13209  -1.41621
  -3.91556   0.24289  -1.36921
  -4.08576   0.33809  -1.31291
  -4.25266   0.41829  -1.31921
  -4.36636   0.75289  -1.38561
  -4.43666   0.76849  -1.34511
  -4.41126   0.65209  -1.25561
  -4.68966   0.79419  -1.24481
  -4.67126   0.81549  -1.11161
  -4.75426   0.72829  -1.06951
  -4.79656   0.63919  -0.83591
  -4.74046   0.63219  -0.68181
  -4.82366   0.71499  -0.62661
  -4.81736   0.46009  -0.40591
  -4.75076   0.60739  -0.44941
  -4.76376   0.51039  -0.20931
  -4.74926   0.60929  -0.17561
  -4.69206   0.64369  -0.13771
  -4.64856   0.71009   0.12369
  -4.62886   0.59669   0.06289
  -4.49606   0.70909   0.19379
  -4.34016   0.69249   0.37479
  -4.35046   0.46219   0.54589
  -4.32566   0.35259   0.72059
  -4.27566   0.39299   0.88589
  -4.22276   0.15779   1.09699
  -4.01066   0.00509   1.33219
  -3.85986  -0.26661   1.45379
  -3.97096  -0.28361   1.70019
  -3.79416  -0.46481   1.84029
  -3.62376  -0.59971   1.88919
  -3.63596  -0.77161   2.21999
  -3.57626  -0.99371   2.55389
  -3.54706  -1.04651   2.60829
  -3.50356  -1.28921   2.83439
  -3.26416  -1.32481   2.99039
  -3.03406  -1.41011   3.18259
  -2.99666  -1.57851   3.42739
  -2.88726  -1.46831   3.65739
  -2.86806  -1.62101   3.64899
  -2.70086  -1.47391   3.87749
  -2.41546  -1.52651   4.04249
  -2.36816  -1.49221   4.15619
  -2.20006  -1.29911   4.27559
  -1.97816  -1.21701   4.35139
  -1.89426  -1.12511   4.49609
  -1.73906  -1.08141   4.63129
  -1.41936  -1.08371   4.63059
  -1.25156  -1.02271   4.84709
  -1.12546  -0.85151   4.84469
  -0.83276  -0.89291   4.98359
  -0.57696  -0.87891   5.01539
  -0.26086  -0.72791   5.07339
  -0.11806  -0.62451   5.27519
   0.13144  -0.76671   5.31769
   0.27084  -0.72131   5.15519
   0.60814  -0.70141   5.23499
   0.82824  -0.59291   5.24129
   1.10314  -0.58061   5.21129
   1.39404  -0.50621   5.37129
   1.66404  -0.54921   5.14559
   1.84414  -0.42321   5.00019
   2.16114  -0.34931   4.92889
   2.67504  -0.39051   4.94549
   2.61704  -0.23221   4.63589
   2.82824  -0.26351   4.66329
   3.22684  -0.34091   4.48559
   3.39824  -0.22821   4.22889
   3.54204  -0.23971   3.98739
   3.82024  -0.29721   3.77179
   3.81814  -0.22451   3.57559
   3.97224  -0.19801   3.47619
   4.05614  -0.10591   3.26229
   4.21934  -0.07621   2.92519
   4.27194   0.18909   2.79069
   4.34654  -0.02061   2.38879
   4.47894   0.20409   2.15799
   4.32594   0.27939   1.87159
   4.36734   0.27329   1.66609
   4.38424   0.51299   1.38949
   4.25284   0.54379   1.16689
   4.15484   0.64089   0.86529
   3.95044   0.62919   0.67119
   3.77864   0.57889   0.29809
   3.43354   0.73019   0.01349
   3.17214   0.86909  -0.23781
   2.81374   0.84469  -0.47181
   2.54224   0.93589  -0.69141
   2.24154   0.92449  -0.92401
   1.89364   1.13069  -0.97031
   1.68624   1.12059  -1.22891
   1.37344   1.05749  -1.50361
   1.10854   1.29579  -1.56821
   0.93244   1.25479  -1.66991
   0.63674   1.19329  -1.89831
   0.56794   1.21719  -1.85481
   0.29394   1.13979  -1.90931
   0.29584   1.07429  -1.84901
   0.27644   1.10869  -1.87891
   0.07374   1.20739  -1.81441
   0.02574   1.18449  -1.73841
   0.03484   1.24849  -1.69231
  -0.18136   1.20619  -1.65021
  -0.24896   1.22349  -1.62921
  -0.13856   1.28079  -1.50901
  -0.22396   1.39119  -1.34141
  -0.08836   1.36219  -1.09401
  -0.07666   1.39579  -0.90391
   0.06694   1.37879  -0.78211
   0.06904   1.27939  -0.43301
   0.23014   1.39649  -0.30891
   0.53194   1.44469  -0.03041
   0.70004   1.52019   0.33079
   0.88824   1.63989   0.57559
   1.11134   1.55549   0.82839
   1.32944   1.68479   0.90739
   1.43374   1.72249   1.20919
   1.72624   1.65179   1.45149
   2.07694   1.73059   1.60479
   2.38324   1.64789   1.86059
   2.38144   1.78789   1.84119
   2.56284   1.66139   1.83839
   2.83474   1.64969   1.99089
   3.02044   1.51319   1.76639
   3.10154   1.45499   1.56249
   3.06834   1.43529   1.46269
   3.16374   1.41619   1.33689
   3.15344   1.43019   0.96469
   3.12074   1.46599   0.75399
   3.04404   1.26119   0.24059
   2.82404   1.46809  -0.02691
   2.69894   1.33179  -0.48101
   2.48774   1.43419  -0.98411
   2.31334   1.32689  -1.45271
   2.07864   1.30699  -2.01571
   1.61314   1.20739  -2.36991
   1.59834   1.11249  -2.94231
   1.45504   1.02409  -3.53591
   1.07484   0.82389  -3.93291
   0.96844   0.58899  -4.49101
   0.77494   0.31419  -4.71991
   0.58574   0.04679  -5.23131
   0.26514  -0.27591  -5.70611
   0.22804  -0.48771  -6.01011
   0.14224  -0.87701  -6.25981
  -0.23846  -1.22261  -6.55461
  -0.24596  -1.46081  -6.72391
  -0.41496  -1.79081  -6.86021
  -0.40956  -2.11291  -7.05781
  -0.61786  -2.41621  -7.12791
  -0.68056  -2.75501  -7.26141
  -0.80726  -2.94601  -7.18851
  -0.69176  -3.21231  -6.98111
  -0.92256  -3.44241  -6.93831
  -0.98036  -3.49691  -6.78731
  -1.04276  -3.64161  -6.49381
  -1.13906  -3.88081  -6.23201
  -1.01206  -3.90301  -5.89461
  -1.02866  -3.90601  -5.65191
  -1.08456  -3.96841  -5.22641
  -0.80706  -4.15811  -4.75381
  -0.89616  -4.19081  -4.48421
  -0.73696  -4.35071  -4.03491
  -0.59916  -4.36361  -3.74911
  -0.65276  -4.42231  -3.39731
  -0.40676  -4.56211  -2.89601
  -0.32796  -4.48401  -2.58951
  -0.08156  -4.53731  -2.12141
  -0.01516  -4.57351  -1.74911
   0.16844  -4.58101  -1.59251
   0.40174  -4.77091  -1.28431
   0.62264  -4.58761  -1.01641
   0.77134  -4.56141  -0.64651
   0.78124  -4.61681  -0.71311
   1.24834  -4.60791  -0.40261
   1.18314  -4.64881  -0.29281
   1.26004  -4.57821  -0.22421
   1.63534  -4.45941  -0.10921
   1.60284  -4.53641  -0.07671
   1.90724  -4.36221  -0.02601
   1.93084  -4.21611   0.04279
   2.00734  -3.98361   0.21999
   2.30864  -3.92961   0.16599
   2.43164  -3.82681   0.26559
   2.55444  -3.50531   0.38109
   2.74984  -3.33741   0.30089
   2.93084  -3.12741   0.36819
   3.10504  -3.07231   0.39979
   3.01964  -2.70681   0.30509
   3.34654  -2.63991   0.31609
   3.53244  -2.50761   0.35699
   3.59464  -2.31401   0.32609
   3.68794  -2.11011   0.32819
   3.72884  -2.01891   0.37339
   3.88974  -1.75641   0.44139
   3.85764  -1.47041   0.29759
   3.99234  -1.26751   0.41689
   3.88384  -1.18071   0.31939
   3.99074  -1.09521   0.37659
   3.89224  -0.80671   0.31469
   3.95514  -0.71481   0.45589
   3.84154  -0.54171   0.42639
   3.76814  -0.58621   0.52349
   3.57564  -0.46251   0.59149
   3.58484  -0.26071   0.92679
   3.68934  -0.33161   0.97989
   3.58624  -0.29621   1.10139
   3.48564  -0.19921   1.23429
   3.38254  -0.08071   1.20569
   3.48354  -0.13701   1.36749
   3.34024   0.05839   1.47319
   3.36834  -0.06271   1.69739
   3.15224   0.16689   1.72809
   3.12184   0.23079   1.92419
   3.09844   0.18519   2.11589
   3.21324   0.34979   2.29009
   3.13824   0.35719   2.36399
   3.08324   0.48559   2.66839
   3.26804   0.52579   2.87109
   3.24884   0.67479   2.92399
   3.20114   0.70019   3.02829
   3.20884   0.81459   3.12579
   3.12024   0.95139   3.26209
   3.15694   0.97819   3.26909
   3.19204   1.09259   3.28519
   3.05474   1.14399   3.18379
   2.95984   1.26189   3.18329
   2.94534   1.48139   3.27099
   2.96264   1.36609   3.18419
   2.54994   1.43669   3.12269
   2.63294   1.64689   2.98409
   2.41104   1.74419   2.69439
   2.19344   1.64929   2.57729
   1.99164   1.88049   2.45889
   1.73984   1.86629   2.23519
   1.52894   2.03339   2.02589
   1.25284   2.13959   1.69859
   0.92474   2.04279   1.56529
   0.76414   2.14329   1.19659
   0.59534   2.21579   1.08649
   0.37714   2.10169   0.91299
   0.16794   2.15569   0.71639
  -0.13976   2.18679   0.64479
  -0.38456   2.13069   0.70909
  -0.60016   1.89099   0.50099
  -0.75846   1.67499   0.43599
  -0.92696   1.58449   0.44909
  -0.96656   1.48719   0.44749
  -1.25526   1.57379   0.29899
  -1.46176   1.27709   0.19659
  -1.56416   1.33039   0.14749
  -1.73876   1.38179   0.10259
  -2.06916   1.26299  -0.00911
  -2.16196   1.31939  -0.06221
  -2.31236   1.39579  -0.12821
  -2.59336   1.33669  -0.25091
  -2.59686   1.32989  -0.24741
  -2.78506   1.36219  -0.25391
  -2.87766   1.31139  -0.29091
  -3.06936   1.39489  -0.18851
  -3.04176   1.36329  -0.24691
  -3.05446   1.23709  -0.26611
  -3.06986   1.36729  -0.24221
  -3.29386   1.35719  -0.24511
  -3.30346   1.22539  -0.18221
  -3.14746   1.23399  -0.26911
  -3.19706   1.04109  -0.18731
  -3.07456   0.93049  -0.27081
  -2.97426   0.81339  -0.33511
  -2.87156   0.64199  -0.32741
  -2.92606   0.63809  -0.46581
  -2.71006   0.40049  -0.43371
  -2.57326   0.23119  -0.47301
  -2.62656   0.18819  -0.46721
  -2.27416   0.14729  -0.63971
  -2.05306   0.08949  -0.60001
  -1.84006  -0.00561  -0.70571
  -1.58896   0.02899  -0.88621
  -1.40986  -0.01291  -0.81671
  -1.37916  -0.11011  -0.98411
  -1.17106   0.02759  -0.91541
  -1.02776  -0.04001  -1.22521
  -0.75096  -0.00891  -1.22681
  -0.50376   0.11689  -1.24861
  -0.21106   0.00469  -1.34141
  -0.13226   0.10239  -1.39121
   0.20374   0.17249  -1.52451
   0.18664   0.13839  -1.64651
   0.26194   0.17459  -1.68911
   0.44054   0.18979  -1.88011
   0.61424   0.15269  -1.95961
   0.75124   0.06659  -2.20761
   0.84904   0.06779  -2.45151
   1.14454   0.11319  -2.53901
