********************************************************************************
              CENTRO DE INSTRUMENTACION Y REGISTRO SISMICO  A.C.

    Anaxagoras 814, Col. Narvarte, Benito Juarez, C.P. 03020 Mexico, D.F.
           Tels. 5687 45 42/ 5687 45  82             Fax. 5669 25 12
********************************************************************************
ARCHIVO ESTANDAR DE ACELERACION:
VERSION DEL FORMATO                    : 2.0
NOMBRE DEL ARCHIVO                     : PD4220200623152903
FECHA Y HORA DE CREACION               : 18/AGO/21, 13:43
REF. CATALOGO ACELEROGRAMAS, SMIS 1996 : REGISTRO No.     /PAG.


================================================================================
DATOS DE LA ESTACION:
NOMBRE DE LA ESTACION                  : PALACIO DE LOS DEPORTES
CLAVE DE LA ESTACION                   : PD42
LOCALIZACION DE LA ESTACION            : Del.  Iztacalco, Col. Granjas México,  
                                       : Río Churubusco y Añil.                 
                                       :                                        
                                       :                                        
                                       : 
COORDENADAS DE LA ESTACION             : 19.4055 LAT. N
                                       : 99.0997 LONG. W
ALTITUD (msnm)                         : 2234
TIPO DE SUELO                          : Arcilloso, zona lago                
                                       :                           
                                       : 
INSTITUCION RESPONSABLE                : CIRES
                                       : 

================================================================================
DATOS DEL ACELEROGRAFO:
MODELO DEL ACELEROGRAFO                : RADESD
NUMERO DE SERIE DEL ACELEROGRAFO       : 248
NUMERO DE CANALES                      : 3
ORIENTACION C1-C6 (rumbo;orientacion)  : /N00E/+V/N90W
ORIENTACION C7-C12 (rumbo;orientacion) : 
VEL. DE MUESTREO, C1-C6 (muestras/s)   : /100/100/100
VEL. DE MUESTREO, C7-C12 (muestras/s)  : 
ESC. COMPLETA DE SENSORES, C1-C6, (g)  : /0.5/0.5/0.5
ESC. COMPLETA DE SENSORES, C7-C12, (g) : 
FREC. NAT. DE SENSORES, C1-C6, (Hz)    : /30/30/30
FREC. NAT. DE SENSORES, C7-C12, (Hz)   : 
AMORTIGUAMIENTO DE SENSORES, C1-C6     : /0.700/0.700/0.700
AMORTIGUAMIENTO DE SENSORES, C7-C12    : 
INTERVALO DE MUESTREO, C1-C6, (s)      : /0.01/0.01/0.01
INTERVALO DE MUESTREO, C7-C12, (s)     : 
UMBRAL DE DISPARO, C1-C6, (Gal)        : /5.69/25.15/25.15
UMBRAL DE DISPARO, C7-C12, (Gal)       :
MEMORIA DE PREEVENTO (s)               : 44.0
TIEMPO DE POSEVENTO (s)                : 140.0


================================================================================
DATOS DEL SISMO:
FECHA DEL SISMO (GMT)                  : 23/JUN/20
HORA EPICENTRO (GMT)                   : 15:29:03.0
MAGNITUD(ES)                           : /Mc=7.4
COORDENADAS DEL EPICENTRO              : 15.80 LAT. N
                                       : 96.13 LONG. W
PROFUNDIDAD FOCAL (km)                 : 22
FUENTE DE LOS DATOS EPICENTRALES       : SSN
                                       : INSTITUTO DE GEOFISICA, UNAM

================================================================================
DATOS DE ESTE REGISTRO:
HORA DE LA PRIMERA MUESTRA (GMT)       : 15:30:47.00
EXACTITUD DEL TIEMPO (s)               : 0.01
DURACION DEL REGISTRO (s), C1-C6       : /391.2/391.2/391.2
DURACION DEL REGISTRO (s), C7-C12      : 
NUM. TOTAL DE MUESTRAS, C1-C6          : /39120/39120/39120
NUM. TOTAL DE MUESTRAS, C7-C12         : 
ACEL. MAX. (Gal), C1-C6                : /26.83635/9.43036/23.23035
ACEL. MAX., C1-C6, EN LA MUESTRA       : /5622/8083/5280
ACEL. MAX. (Gal), C7-C12               : 
ACEL. MAX., C7-C12, EN LA MUESTRA      : 
UNIDADES DE LOS DATOS                  : Gal (cm/s/s)
FACTOR DE DECIMACION                   : 1
FORMATO DATOS (FORTRAN,10 campos/dato) : 3F10.5


================================================================================
CALIDAD DEL ACELEROGRAMA:
REGISTRO DIGITAL COMPLETO CON TIEMPO ABSOLUTO CORRECTO.


================================================================================
COMENTARIOS:














================================================================================
DATOS DE ACELERACION:
---------+---------+---------+---------+---------+---------+---------+---------+
   CANAL-1   CANAL-2   CANAL-3   CANAL-4   CANAL-5   CANAL-6   CANAL-7   CANAL-8
      N00E        +V      N90W
---------+---------+---------+---------+---------+---------+---------+---------+
[...]
  -5.08136   5.83268 -22.01829
  -4.76712   5.66807 -21.71901
  -4.57259   5.62318 -21.40477
  -4.33317   5.41369 -20.95586
  -4.24339   5.45858 -20.49199
  -4.12367   5.36880 -20.01314
  -3.95907   5.42865 -19.45949
  -3.91418   5.44362 -18.93575
  -3.86929   5.50347 -18.32224
  -3.82440   5.53340 -17.72369
  -4.01893   5.56333 -17.14010
  -4.06382   5.54836 -16.51162
  -4.21346   5.51844 -15.85322
  -4.51273   5.35384 -15.07510
  -4.70726   5.39873 -14.14735
  -5.05143   5.36880 -13.24953
  -5.20107   5.48851 -12.44148
  -5.56020   5.44362 -11.46884
  -5.94925   5.59326 -10.61590
  -6.18867   5.56333  -9.68815
  -6.53284   5.60822  -8.70054
  -6.80219   5.63815  -7.83264
  -7.05657   5.65311  -7.05453
  -7.25110   5.66807  -6.23152
  -7.37081   5.59326  -5.61801
  -7.50548   5.56333  -4.86982
  -7.64016   5.48851  -4.27127
  -7.58030   5.44362  -3.62783
  -7.46059   5.44362  -3.16395
  -7.35585   5.17427  -2.58036
  -7.11643   5.06952  -2.07160
  -6.84708   4.83010  -1.57779
  -6.44306   4.68047  -1.08399
  -6.06896   4.53083  -0.75479
  -5.62005   4.32134  -0.36573
  -4.99157   4.12681   0.09815
  -4.30324   3.93228   0.57699
  -3.58498   3.75271   1.04087
  -2.86672   3.54322   1.41496
  -2.05868   3.19905   1.74416
  -1.16085   2.83992   2.08833
  -0.29295   2.63043   2.53724
   0.55998   2.13663   2.86644
   1.44284   1.76253   3.37521
   2.23592   1.34355   3.52485
   3.20857   0.86471   3.98873
   3.98668   0.41579   4.30297
   4.85458  -0.10794   4.51246
   5.48306  -0.57181   4.82670
   6.14146  -0.93094   5.06612
   6.66520  -1.46964   5.38036
   7.05425  -1.82877   5.73949
   7.41338  -2.35250   5.96394
   7.54806  -2.68170   6.27818
   7.69770  -2.93609   6.56249
   7.69770  -3.35507   6.63731
   7.69770  -3.75909   6.80191
   7.74259  -4.17808   6.95155
   7.71266  -4.56714   7.13112
   7.78748  -4.85145   7.37054
   7.80244  -5.21058   7.56507
   7.92215  -5.47993   7.83441
   8.05683  -5.73431   8.10376
   8.08675  -5.98870   8.38807
   8.25135  -6.15330   8.74720
   8.34114  -6.30293   9.04648
   8.43092  -6.39272   9.42057
   8.46085  -6.46754   9.82459
   8.34114  -6.61717  10.12387
   8.19150  -6.73688  10.45307
   8.02690  -6.82667  10.81220
   7.81741  -6.84163  11.08155
   7.62288  -6.87156  11.33593
   7.32360  -6.90148  11.59032
   7.11411  -6.88652  11.76988
   6.84476  -6.81170  11.75492
   6.62030  -6.78177  11.79981
   6.33599  -6.61717  11.76988
   6.12650  -6.52739  11.63521
   5.78233  -6.34783  11.65017
   5.43817  -6.12337  11.50053
   5.07904  -5.83906  11.38082
   4.86954  -5.71935  11.24615
   4.58523  -5.50985  11.18630
   4.28596  -5.31533  11.05162
   4.01661  -5.13576  10.97680
   3.88194  -4.91130  10.94688
   3.71734  -4.73174  10.93191
   3.61259  -4.58210  10.85709
   3.44799  -4.29779  10.67753
   3.38813  -4.07333  10.69249
   3.26842  -3.99851  10.58775
   3.37317  -3.84888  10.73738
   3.35821  -3.62442  10.75235
   3.46295  -3.39996  10.91695
   3.53777  -3.28025  11.17133
   3.61259  -3.11565  11.41075
   3.74726  -2.86127  11.60528
   4.01661  -2.63681  12.00930
   4.22610  -2.38243  12.36843
   4.34581  -2.20286  12.75749
   4.58523  -1.93352  13.19144
   4.80969  -1.66417  13.65532
   5.01918  -1.32000  14.08927
   5.37831  -1.20029  14.61300
   5.46810  -0.81123  15.01702
   5.70752  -0.46707  15.64550
   5.81226  -0.16779  16.01959
   5.93197   0.11652  16.43858
   5.94694   0.43076  16.75281
   6.06665   0.58040  17.11194
   6.23125   0.86471  17.54589
   6.33599   1.01434  17.91999
   6.66520   1.32858  18.26415
   6.78491   1.53808  18.60832
   6.82980   1.73261  19.05723
   6.85973   1.92713  19.37147
   6.94951   2.16655  19.79046
   7.06922   2.36108  20.01491
   7.20389   2.46583  20.10470
   7.26375   2.45087  20.05981
   7.24878   2.51072  20.10470
   7.23382   2.51072  20.32915
   6.94951   2.60050  20.67332
   6.76994   2.86985  21.00252
   6.62030   2.95963  21.15216
   6.71009   3.19905  21.18209
   6.65023   3.27387  20.88281
   6.71009   3.19905  20.67332
   6.69512   3.13920  20.67332
   6.57541   3.03445  20.80799
   6.44074   2.95963  21.12223
   6.18636   2.88481  21.31676
   6.15643   2.82496  21.36165
   6.20132   2.57058  21.10727
   6.02175   2.36108  20.77807
   5.90204   2.03188  20.77807
   5.85715   1.89721  20.79303
   5.76737   1.68771  20.88281
   5.75241   1.61290  20.94267
   5.82723   1.58297  20.91274
   5.96190   1.44829  20.77807
   5.99183   1.32858  20.62843
   5.97686   1.38844  20.56857
   5.96190   1.46326  20.67332
   5.93197   1.55304  20.68828
   5.99183   1.79246  20.70325
   5.99183   1.88224  20.49375
   6.02175   1.91217  20.08973
   6.06665   1.65779  20.04484
   5.97686   1.50815  20.08973
   5.60277   1.35851  20.40397
   5.37831   1.32858  20.68828
   5.04911   1.40340  21.04741
   4.66005   1.49319  21.18209
   4.12136   1.53808  21.30180
   3.55273   1.50815  21.39158
   3.28339   1.67275  21.33173
   2.93922   1.67275  21.24194
   2.26585   1.71764  21.10727
   1.65234   1.62786  21.04741
   0.94904   1.68771  21.03245
   0.14100   1.64282  20.89778
  -0.71194   1.52311  20.74814
  -1.46013   1.49319  20.53865
  -2.34299   1.32858  20.40397
  -2.98643   1.29866  20.17952
  -3.48023   1.10413  19.68571
  -3.98900   1.07420  19.25176
  -4.55762   0.86471  18.89263
  -5.02150   0.77492  18.62328
  -5.57516   0.50558  18.32401
  -6.14378   0.44572  18.12948
  -6.66751   0.28112  17.90502
  -7.26606   0.40083  17.60575
  -7.78980   0.35594  17.41122
  -8.10404   0.38587  16.88749
  -8.23871   0.19134  16.37872
  -8.38835   0.25119  15.79513
  -8.52302   0.17637  15.25644
  -8.56791   0.13148  14.59803
  -8.53798   0.05666  14.13416
  -8.83726  -0.10794  13.53561
  -8.97193  -0.12290  12.90713
  -9.19639  -0.33239  12.15894
  -9.45077  -0.54189  11.42572
  -9.77998  -0.79627  10.72242
 -10.04932  -1.17036  10.04905
 -10.33364  -1.40978   9.28590
 -10.69277  -1.73899   8.65742
 -10.97708  -1.97841   7.89427
 -11.41103  -2.18790   6.98148
 -11.74023  -2.36747   6.23329
 -12.12929  -2.45725   5.35043
 -12.60813  -2.53207   4.21318
 -13.11689  -2.62185   3.28543
 -13.56581  -2.75652   2.14818
 -14.08954  -2.86127   0.92116
 -14.59831  -3.01091  -0.24602
 -14.92751  -3.08573  -1.35334
 -15.31657  -3.16054  -2.35591
 -15.63081  -3.13062  -3.40337
 -15.84030  -3.23536  -4.49573
 -16.00490  -3.23536  -5.61801
 -16.30418  -3.16054  -6.72533
 -16.43885  -3.04083  -7.86257
 -16.52863  -2.90616  -8.98485
 -16.48374  -2.77149  -9.94253
 -16.54360  -2.74156 -10.91518
 -16.48374  -2.63681 -11.64840
 -16.43885  -2.68170 -12.09732
 -16.42389  -2.54703 -12.51630
 -16.39396  -2.35250 -12.75572
 -16.31914  -2.18790 -12.93529
 -16.24432  -1.91855 -13.08492
 -16.04979  -1.69410 -13.24953
 -15.90015  -1.52949 -13.29442
 -15.90015  -1.34993 -13.18967
 -15.82534  -1.20029 -12.99514
 -15.75052  -1.09555 -12.74076
 -15.76548  -0.87109 -12.45645
 -15.85526  -0.75138 -12.09732
 -15.88519  -0.66160 -11.84293
 -15.97497  -0.55685 -11.46884
 -16.12461  -0.39225 -11.13963
 -16.36403  -0.33239 -10.54108
 -16.49870  -0.09297  -9.95750
 -16.64834   0.13148  -9.61333
 -16.60345   0.38587  -9.59837
 -16.61841   0.53550  -9.53851
 -16.72316   0.65521  -9.50858
 -16.66331   0.84974  -9.32902
 -16.67827   1.04427  -9.05967
 -16.85784   1.31362  -8.79032
 -16.84287   1.65779  -8.65565
 -16.81294   1.89721  -8.61076
 -16.75309   2.04684  -8.71551
 -16.66331   2.16655  -8.79032
 -16.66331   2.30123  -8.62572
 -16.48374   2.42094  -8.56587
 -16.34907   2.57058  -8.47609
 -16.33410   2.63043  -8.35638
 -16.28921   2.72021  -8.28156
 -16.22936   2.76510  -8.25163
 -16.10965   2.92971  -8.26659
 -16.00490   2.92971  -8.32645
 -15.91512   2.97460  -8.49105
 -15.85526   2.97460  -8.58083
 -15.66073   2.98956  -8.74543
 -15.36146   2.94467  -8.91003
 -15.01729   2.83992  -9.28413
 -14.65816   2.72021  -9.64326
 -14.22421   2.58554  -9.86772
 -13.74537   2.51072 -10.15203
 -13.17675   2.45087 -10.25677
 -12.69791   2.52568 -10.55605
 -12.09936   2.52568 -10.79547
 -11.51577   2.55561 -10.97503
 -10.97708   2.60050 -11.21445
 -10.25882   2.60050 -11.46884
  -9.55552   2.67532 -11.66337
  -8.82230   2.60050 -11.81300
  -8.05914   2.66036 -12.00753
  -7.29599   2.70525 -11.87286
  -6.47299   2.72021 -11.84293
  -5.81458   2.61547 -11.81300
  -4.85690   2.61547 -11.76811
  -4.04886   2.64539 -11.64840
  -3.27074   2.63043 -11.55862
  -2.56744   2.55561 -11.51373
  -1.84918   2.51072 -11.51373
  -1.23567   2.48079 -11.42395
  -0.50244   2.37605 -11.40898
   0.06618   2.39101 -11.31920
   0.70962   2.27130 -11.13963
   1.29321   2.22641 -11.01992
   1.74212   2.01692 -10.97503
   2.28081   1.83735 -10.94511
   2.71476   1.61290 -10.93014
   3.08886   1.34355 -10.70569
   3.49288   1.13405 -10.52612
   3.73230   0.80485 -10.51116
   4.15128   0.62529 -10.39145
   4.57027   0.46069 -10.27174
   4.92940   0.22127 -10.31663
   5.49802   0.26616 -10.37648
   5.97686   0.13148 -10.48123
   6.48563   0.13148 -10.64583
   7.11411   0.11652 -10.75058
   7.63784  -0.15283 -10.91518
   8.23639  -0.22765 -11.13963
   8.76012  -0.51196 -11.24438
   9.35867  -0.70649 -11.58855
   9.76269  -0.97584 -11.70826
  10.19664  -1.34993 -11.85790
  10.58570  -1.49957 -12.09732
  10.81016  -1.54446 -12.44148
  11.07951  -1.76891 -12.74076
  11.34885  -1.82877 -13.20463
  11.58827  -1.76891 -13.72837
  11.70798  -1.94848 -14.23713
  11.97733  -1.85870 -14.88057
  12.18682  -1.93352 -15.37438
  12.39632  -2.09812 -16.00286
  12.63574  -2.12804 -16.63133
  12.97990  -2.20286 -17.02039
  13.17443  -2.20286 -17.45434
  13.51860  -2.14301 -17.78354
  13.80291  -2.06819 -18.06786
  14.11715  -2.00833 -18.42699
  14.58103  -1.78388 -18.60655
  15.05987  -1.58935 -18.69633
  15.58360  -1.26015 -18.84597
  16.33179  -1.05065 -18.89086
  17.06501  -0.67656 -18.90583
  17.69349  -0.36232 -18.89086
  18.42671  -0.06305 -18.74123
  19.17490   0.29608 -18.51677
  19.98294   0.65521 -18.30728
  20.79099   1.01434 -17.96311
  21.62896   1.34355 -17.57405
  22.48189   1.77750 -17.06528
  23.23008   2.12166 -16.52659
  23.94834   2.40597 -15.98789
  24.66660   2.66036 -15.44920
  25.29508   2.86985 -14.73094
  25.66917   3.09431 -14.11742
  26.08816   3.15416 -13.42909
  26.38743   3.28884 -12.80061
  26.58196   3.34869 -12.15717
  26.79145   3.37862 -11.54366
  26.82138   3.37862 -11.03489
  26.80642   3.24395 -10.49619
  26.83635   3.13920 -10.10714
  26.74656   2.98956  -9.77793
  26.53707   2.83992  -9.56844
  26.32758   2.69029  -9.37391
  26.22283   2.45087  -9.25420
  25.89363   2.33116  -9.25420
  25.78888   2.07677  -9.14945
  25.57939   1.83735  -9.07464
  25.47464   1.65779  -8.99982
  25.32501   1.47822  -8.83522
  25.26515   1.41837  -8.70054
  25.13048   1.49319  -8.61076
  24.98084   1.50815  -8.35638
  24.72646   1.53808  -8.16185
  24.41222   1.58297  -7.93739
  24.14287   1.67275  -7.72790
  23.91841   1.68771  -7.30891
  23.54432   1.71764  -7.02460
  23.14030   1.76253  -6.75525
  22.70635   1.73261  -6.42605
  22.28736   1.67275  -6.14174
  21.79356   1.64282  -5.90232
  21.28479   1.52311  -5.64793
  20.82091   1.53808  -5.51326
  20.52164   1.47822  -5.36362
  20.11762   1.22384  -5.45341
  19.65374   0.98442  -5.46837
  19.20483   0.70011  -5.63297
  18.59131   0.28112  -5.48333
  17.94787   0.19134  -5.28880
  17.43910  -0.03312  -5.03442
  16.96026  -0.18276  -5.00449
  16.61610  -0.42218  -5.07931
  16.15222  -0.70649  -5.25888
  15.76316  -1.11051  -5.31873
  15.20950  -1.42475  -5.25888
  14.65584  -1.79884  -5.13917
  14.22190  -2.12804  -4.95960
  13.78795  -2.38243  -4.85486
  13.27918  -2.77149  -4.91471
  12.87516  -3.17551  -4.80996
  12.33646  -3.47478  -4.64536
  11.73791  -3.84888  -4.54062
  11.28900  -4.11822  -4.15156
  10.85505  -4.19304  -3.76250
  10.49592  -4.28283  -3.43330
  10.19664  -4.47736  -3.44826
   9.98715  -4.91130  -3.50812
   9.82255  -5.19562  -3.64279
   9.55320  -5.52482  -3.32855
   9.07436  -5.77920  -2.81978
   8.83494  -5.67446  -2.43073
   8.53567  -5.61460  -2.28109
   8.22143  -5.55475  -2.17634
   7.77251  -5.71935  -2.23620
   7.30864  -5.76424  -2.13145
   6.91958  -5.86898  -1.93692
   6.48563  -6.13833  -1.89203
   6.09657  -6.31790  -1.71247
   5.66262  -6.49746  -1.65261
   5.24364  -6.73688  -1.51794
   4.85458  -6.93141  -1.47305
   4.36078  -7.20076  -1.50297
   3.91186  -7.32047  -1.41319
   3.32828  -7.42522  -1.26355
   2.72973  -7.44018  -0.85953
   1.99650  -7.52996  -0.54529
   1.41292  -7.47011  -0.32084
   0.69466  -7.52996  -0.21609
   0.09611  -7.50003  -0.02156
  -0.65208  -7.51500   0.21786
  -1.38531  -7.47011   0.47224
  -2.05868  -7.33543   0.66677
  -2.74701  -7.38032   0.99597
  -3.45031  -7.14090   1.41496
  -4.15360  -6.88652   1.80402
  -4.90179  -6.82667   2.16315
  -5.50034  -6.60221   2.61206
  -6.23357  -6.40768   2.80659
  -6.72737  -6.31790   3.07594
  -7.19125  -6.09344   3.36025
  -7.75987  -5.91388   3.68945
  -8.10404  -5.52482   4.12340
  -8.40331  -5.13576   4.69202
  -8.74748  -4.82152   5.11101
  -9.00186  -4.35765   5.57489
  -9.33106  -3.92370   5.99387
  -9.55552  -3.50471   6.24825
  -9.72012  -3.10069   6.62235
  -9.83983  -2.71163   6.99644
 -10.06429  -2.36747   7.25083
 -10.25882  -2.24775   7.32565
 -10.52816  -1.99337   7.32565
 -10.66284  -1.76891   7.34061
 -10.81248  -1.55942   7.44536
 -11.02197  -1.17036   7.59499
 -11.14168  -0.93094   7.74463
 -11.17161  -0.66160   7.90923
 -11.29132  -0.39225   7.98405
 -11.23146  -0.09297   8.10376
 -11.26139   0.04170   8.28333
 -11.08182   0.38587   8.43296
 -10.88729   0.64025   8.50778
 -10.69277   0.71507   8.56764
 -10.48327   0.95449   8.64246
 -10.27378   1.16398   8.73224
 -10.15407   1.29866   8.82202
  -9.91465   1.44829   8.98662
  -9.70516   1.70268   9.06144
  -9.57048   1.83735   9.31583
  -9.45077   1.94210   9.58517
  -9.36099   2.09174   9.77970
  -9.16646   2.27130  10.03409
  -9.01682   2.37605  10.31840
  -8.98690   2.46583  10.55782
  -8.88215   2.69029  10.73738
  -8.92704   2.75014  11.06659
  -9.00186   3.00452  11.26111
  -9.09164   3.21402  11.38082
  -9.15150   3.51329  11.53046
  -9.30114   3.55818  11.57535
  -9.57048   3.84250  11.75492
  -9.76501   4.09688  11.91952
  -9.91465   4.24652  12.03923
 -10.25882   4.33630  12.18887
 -10.43838   4.62061  12.33851
 -10.61795   4.75528  12.38340
 -10.75262   5.05456  12.47318
 -10.91722   5.20420  12.41332
 -11.09679   5.50347  12.41332
 -11.15664   5.74289  12.36843
 -11.29132   6.01224  12.33851
 -11.42599   6.37137  12.45822
 -11.54570   6.49108  12.60785
 -11.50081   6.73050  12.89216
 -11.62052   6.86518  12.98195
 -11.72527   7.19438  13.05677
 -11.75519   7.38891  13.32611
 -11.91979   7.56847  13.47575
 -12.03950   7.68818  13.61042
 -12.11432   7.98746  13.96956
 -12.32382   8.10717  14.14912
 -12.60813   8.04731  14.34365
 -12.71287   8.04731  14.74767
