********************************************************************************
              CENTRO DE INSTRUMENTACION Y REGISTRO SISMICO  A.C.

    Anaxagoras 814, Col. Narvarte, Benito Juarez, C.P. 03020 Mexico, D.F.
           Tels. 5687 45 42/ 5687 45  82             Fax. 5669 25 12
********************************************************************************
ARCHIVO ESTANDAR DE ACELERACION:
VERSION DEL FORMATO                    : 2.0
NOMBRE DEL ARCHIVO                     : PE1020200623152903
FECHA Y HORA DE CREACION               : 18/AGO/21, 13:43
REF. CATALOGO ACELEROGRAMAS, SMIS 1996 : REGISTRO No.     /PAG.


================================================================================
DATOS DE LA ESTACION:
NOMBRE DE LA ESTACION                  : ESC. PRIM. "PLUTARCO ELÍAS CALLES"
CLAVE DE LA ESTACION                   : PE10
LOCALIZACION DE LA ESTACION            : Del. Iztacalco, Col. Barrio San Pedro, 
                                       : Av. Plutarco Elias Calles,             
                                       : Entre Av. Santiago y Playa Caletilla.  
                                       :                                        
                                       : 
COORDENADAS DE LA ESTACION             : 19.3809 LAT. N
                                       : 99.1318 LONG. W
ALTITUD (msnm)                         : 2232
TIPO DE SUELO                          : Arcilloso, zona lago                
                                       :                           
                                       : 
INSTITUCION RESPONSABLE                : CIRES
                                       : 

================================================================================
DATOS DEL ACELEROGRAFO:
MODELO DEL ACELEROGRAFO                : RADESD
NUMERO DE SERIE DEL ACELEROGRAFO       : 241
NUMERO DE CANALES                      : 3
ORIENTACION C1-C6 (rumbo;orientacion)  : /N00E/+V/N90W
ORIENTACION C7-C12 (rumbo;orientacion) : 
VEL. DE MUESTREO, C1-C6 (muestras/s)   : /100/100/100
VEL. DE MUESTREO, C7-C12 (muestras/s)  : 
ESC. COMPLETA DE SENSORES, C1-C6, (g)  : /0.5/0.5/0.5
ESC. COMPLETA DE SENSORES, C7-C12, (g) : 
FREC. NAT. DE SENSORES, C1-C6, (Hz)    : /30/31/30
FREC. NAT. DE SENSORES, C7-C12, (Hz)   : 
AMORTIGUAMIENTO DE SENSORES, C1-C6     : /0.732/0.733/0.666
AMORTIGUAMIENTO DE SENSORES, C7-C12    : 
INTERVALO DE MUESTREO, C1-C6, (s)      : /0.01/0.01/0.01
INTERVALO DE MUESTREO, C7-C12, (s)     : 
UMBRAL DE DISPARO, C1-C6, (Gal)        : /2.92/4.49/2.92
UMBRAL DE DISPARO, C7-C12, (Gal)       :
MEMORIA DE PREEVENTO (s)               : 44.0
TIEMPO DE POSEVENTO (s)                : 0.0


================================================================================
DATOS DEL SISMO:
FECHA DEL SISMO (GMT)                  : 23/JUN/20
HORA EPICENTRO (GMT)                   : 15:29:03.0
MAGNITUD(ES)                           : /Mc=7.4
COORDENADAS DEL EPICENTRO              : 15.80 LAT. N
                                       : 96.13 LONG. W
PROFUNDIDAD FOCAL (km)                 : 22
FUENTE DE LOS DATOS EPICENTRALES       : SSN
                                       : INSTITUTO DE GEOFISICA, UNAM

================================================================================
DATOS DE ESTE REGISTRO:
HORA DE LA PRIMERA MUESTRA (GMT)       : 15:30:34.00
EXACTITUD DEL TIEMPO (s)               : 0.01
DURACION DEL REGISTRO (s), C1-C6       : /282.6/282.6/282.6
DURACION DEL REGISTRO (s), C7-C12      : 
NUM. TOTAL DE MUESTRAS, C1-C6          : /28260/28260/28260
NUM. TOTAL DE MUESTRAS, C7-C12         : 
ACEL. MAX. (Gal), C1-C6                : /35.00316/5.90261/19.70693
ACEL. MAX., C1-C6, EN LA MUESTRA       : /7110/6508/8825
ACEL. MAX. (Gal), C7-C12               : 
ACEL. MAX., C7-C12, EN LA MUESTRA      : 
UNIDADES DE LOS DATOS                  : Gal (cm/s/s)
FACTOR DE DECIMACION                   : 1
FORMATO DATOS (FORTRAN,10 campos/dato) : 3F10.5


================================================================================
CALIDAD DEL ACELEROGRAMA:
REGISTRO DIGITAL COMPLETO CON TIEMPO ABSOLUTO CORRECTO.


================================================================================
COMENTARIOS:














================================================================================
DATOS DE ACELERACION:
---------+---------+---------+---------+---------+---------+---------+---------+
   CANAL-1   CANAL-2   CANAL-3   CANAL-4   CANAL-5   CANAL-6   CANAL-7   CANAL-8
      N00E        +V      N90W
---------+---------+---------+---------+---------+---------+---------+---------+
[...]
  18.83645  -0.65151   0.85327
  19.03098  -0.80115   1.13759
  19.27040  -0.80115   1.66132
  19.21054  -1.16028   1.99052
  19.27040  -1.36977   2.52921
  19.33025  -1.35481   2.82849
  19.13572  -1.68401   3.35222
  18.92623  -1.81869   3.63653
  18.82148  -1.90847   4.27997
  18.53717  -2.07307   4.77378
  18.20797  -2.16285   5.13291
  18.01344  -2.14789   5.67160
  17.53460  -2.37235   6.04570
  17.05576  -2.46213   6.47965
  16.59188  -2.55191   6.88367
  16.20282  -2.62673   7.45229
  15.64917  -2.74644   7.70668
  15.12543  -2.59680   8.09573
  14.63163  -2.59680   8.51472
  13.94330  -2.80630   8.75414
  13.41957  -2.64169   8.94867
  12.97065  -2.52198   9.33773
  12.26736  -2.50702   9.45744
  11.68377  -2.50702   9.68189
  11.18997  -2.37235   9.92131
  10.57645  -2.29753  10.02606
  10.08265  -2.14789  10.08591
   9.48410  -2.05811  10.14577
   9.05015  -1.95336  10.20562
   8.55634  -1.95336  10.02606
   8.15232  -1.71394  10.07095
   7.85305  -1.56430  10.02606
   7.34428  -1.51941   9.66693
   7.20960  -1.41467   9.59211
   7.04500  -1.22014   9.42751
   6.59609  -1.32488   9.12823
   6.55120  -1.16028   8.93370
   6.29682  -1.02561   8.60450
   6.19207  -1.16028   8.26034
   6.22200  -0.86101   8.15559
   6.08732  -0.81612   7.67675
   6.23696  -0.45699   7.40740
   6.04243  -0.39713   6.79389
   6.13221  -0.26246   6.58439
   6.17711  -0.18764   6.22526
   6.23696   0.05178   5.77635
   6.05740   0.00689   5.32744
   6.10229   0.18646   4.90845
   5.80301   0.03682   4.45954
   5.86287   0.39595   4.14530
   5.84790   0.53062   3.84603
   5.66834   0.60544   3.35222
   5.38403   0.66530   2.94820
   5.24935   0.82990   2.58907
   5.02490   1.00946   2.24490
   4.78548   1.11421   1.93066
   4.56102   1.03939   1.46679
   4.41138   1.17406   1.27226
   4.12707   1.09925   0.83831
   3.70808   1.03939   0.55400
   3.31903   0.84486   0.25472
   3.16939   0.96457   0.13501
   2.58580   0.85983  -0.46354
   2.46609   1.00946  -0.56828
   2.21171   0.87479  -0.68799
   2.01718   0.99450  -0.73288
   1.56827   0.88975  -1.07705
   1.44856   1.06932  -1.01720
   1.22410   1.00946  -1.00223
   1.08943   1.21896  -1.16683
   0.53577   0.99450  -1.34640
   0.23649   0.97954  -1.37633
  -0.01789   1.02443  -1.28654
  -0.27228   1.12917  -1.18180
  -0.58651   1.08428  -0.94238
  -1.17010   1.02443  -1.10698
  -1.58909   0.94961  -0.86756
  -2.03800   0.94961  -0.70296
  -2.71137   0.96457  -0.58325
  -3.26503   0.78501  -0.37375
  -3.83365   0.77004  -0.17923
  -4.55191   0.65033   0.06019
  -5.28514   0.56055   0.25472
  -6.10814   0.30617   0.52407
  -6.82640   0.29120   0.77845
  -7.81401   0.12660   0.70364
  -8.56220   0.02185   1.00291
  -9.31039  -0.08289   1.25730
 -10.11843  -0.20260   1.28722
 -10.85165  -0.24749   1.43686
 -11.70459  -0.44202   1.46679
 -12.46774  -0.53180   1.52664
 -13.29075  -0.74130   1.58650
 -13.93419  -0.89093   1.72117
 -14.89187  -0.92086   1.66132
 -15.77473  -1.23510   1.58650
 -16.10393  -1.05554   1.73614
 -16.97183  -1.17525   1.51168
 -17.52549  -1.16028   1.57153
 -18.16893  -1.13035   1.45182
 -18.97698  -1.32488   1.00291
 -19.53063  -1.36977   0.97298
 -20.09926  -1.39970   0.56896
 -20.59306  -1.29496   0.22480
 -21.20658  -1.50445  -0.14930
 -21.43103  -1.23510  -0.38872
 -21.87995  -1.19021  -0.98727
 -22.26900  -1.25006  -1.42122
 -22.59821  -1.25006  -2.09459
 -23.04712  -1.27999  -2.85774
 -23.19676  -1.23510  -3.32162
 -23.30150  -1.05554  -4.02491
 -23.46610  -1.08546  -4.77310
 -23.60078  -0.92086  -5.56618
 -23.54092  -0.90590  -6.23955
 -23.36136  -0.77122  -6.86803
 -23.34639  -0.89093  -7.79578
 -22.98726  -0.78619  -8.21477
 -22.59821  -0.54677  -8.99288
 -22.19418  -0.44202  -9.48668
 -21.55074  -0.21757  -9.98049
 -21.13176  -0.30735 -10.51918
 -20.81752  -0.47195 -11.11773
 -20.00948  -0.08289 -11.44694
 -19.29121  -0.14275 -11.61154
 -18.57295   0.03682 -11.79110
 -18.12404  -0.14275 -12.16520
 -17.42074   0.09667 -12.35973
 -16.74738   0.09667 -12.46447
 -15.92437   0.38098 -12.46447
 -15.53531   0.30617 -12.58418
 -14.92180   0.26127 -12.53929
 -14.26339   0.26127 -12.47944
 -13.75462   0.30617 -12.35973
 -13.17104   0.50070 -12.21009
 -12.73709   0.45580 -11.97067
 -12.51263   0.30617 -11.98563
 -11.89912   0.63537 -11.73125
 -11.45020   0.48573 -11.41701
 -11.18086   0.68026 -11.46190
 -10.88158   0.51566 -11.11773
 -10.46260   0.78501 -10.90824
 -10.14836   0.66530 -10.54911
 -10.04361   0.66530 -10.45933
 -10.01368   0.54559 -10.36955
  -9.81915   0.45580 -10.05531
  -9.60966   0.53062  -9.93560
  -9.28046   0.63537  -9.50165
  -9.07097   0.68026  -9.21734
  -8.98118   0.59048  -8.94799
  -9.14579   0.33609  -8.90310
  -8.87644   0.54559  -8.45419
  -8.69687   0.54559  -8.39433
  -8.71184   0.39595  -8.06513
  -8.69687   0.51566  -7.94542
  -8.50234   0.62041  -7.78082
  -8.50234   0.56055  -7.73592
  -8.63702   0.50070  -7.48154
  -8.42752   0.71019  -7.28701
  -8.44249   0.71019  -7.21219
  -8.30781   0.74012  -6.80817
  -8.15818   0.93464  -6.58372
  -8.23300   0.96457  -6.35926
  -8.20307   0.90472  -6.17969
  -8.17314   0.85983  -5.97020
  -7.99358   1.20399  -5.73078
  -8.03847   1.03939  -5.43151
  -8.02350   1.15910  -4.95267
  -7.84394   1.20399  -4.60850
  -7.67934   1.35363  -4.17455
  -7.38006   1.32370  -3.63585
  -7.26035   1.38356  -3.26176
  -6.93115   1.42845  -2.64825
  -6.55705   1.56312  -1.94495
  -6.16800   1.68283  -1.48107
  -5.82383   1.54816  -0.86756
  -5.38988   1.68283  -0.35879
  -4.73148   1.80254   0.25472
  -4.17782   1.77261   0.82335
  -3.39970   2.04196   1.39197
  -2.63655   2.01203   2.03541
  -2.06793   1.83247   2.43943
  -1.20003   1.84743   2.96316
  -0.24235   2.04196   3.44200
   0.52080   1.83247   3.74128
   1.52338   1.83247   4.08545
   2.51098   1.75765   4.39968
   3.33399   1.59305   4.45954
   4.44131   1.54816   4.68400
   5.36906   1.39852   4.66903
   6.61105   1.47334   4.65407
   7.53881   1.29377   4.47450
   8.54138   0.91968   4.53436
  10.00783   1.21896   4.39968
  11.02536   0.94961   4.22012
  12.08779   0.81493   3.98070
  13.15022   0.71019   3.42704
  14.54185   0.77004   3.30733
  15.63420   0.68026   2.97813
  16.66670   0.30617   2.51425
  17.83387   0.27624   2.08030
  19.10579   0.15653   2.03541
  20.10837  -0.02304   1.60146
  21.48503   0.05178   1.54161
  22.35293  -0.14275   1.15255
  23.32557  -0.33728   0.91313
  24.47778  -0.18764   0.97298
  25.28583  -0.39713   0.70364
  26.21358  -0.56173   0.59889
  26.87199  -0.69641   0.61385
  27.82967  -0.63655   0.70364
  28.42822  -0.86101   0.73356
  29.04173  -0.99568   0.79342
  29.44575  -1.02561   0.82335
  30.04430  -1.08546   1.22737
  30.41840  -1.05554   1.43686
  30.70271  -1.19021   1.82592
  30.92717  -1.01064   2.12519
  31.06184  -1.02561   2.48432
  31.25637  -1.05554   3.05295
  31.37608  -0.66648   3.38215
  31.30126  -0.86101   4.05552
  31.25637  -0.77122   4.48947
  31.18155  -0.59166   5.16284
  30.97206  -0.60662   5.71650
  30.80745  -0.50188   6.34497
  30.47825  -0.54677   6.91360
  30.19394  -0.50188   7.67675
  29.83481  -0.36720   8.40997
  29.37093  -0.36720   9.00852
  29.01180  -0.41209   9.89139
  28.33843  -0.50188  10.53483
  27.99427  -0.35224  11.28301
  27.30594  -0.39713  11.91149
  26.81213  -0.32231  12.58486
  26.07891  -0.75626  13.25823
  25.46539  -0.63655  13.67722
  24.92670  -0.77122  14.36555
  24.20844  -0.89093  14.61993
  23.69967  -0.93583  14.93417
  23.10112  -1.17525  15.32323
  22.56242  -1.22014  15.44294
  21.94891  -1.33985  15.48783
  21.29050  -1.42963  15.39805
  20.73684  -1.63912  15.42798
  20.34779  -1.66905  15.29330
  19.85398  -1.62416  15.18856
  19.43500  -1.59423  14.90424
  18.80652  -1.66905  14.44037
  18.44739  -1.68401  13.91664
  18.05833  -1.56430  13.43780
  17.66927  -1.57927  12.70457
  17.34007  -1.47452  11.95638
  17.05576  -1.35481  11.34287
  16.71159  -1.11539  10.59468
  16.47217  -0.96575   9.86146
  15.84369  -0.96575   8.78407
  15.60427  -0.93583   8.17055
  15.51449  -0.66648   7.43733
  15.18529  -0.66648   6.56943
  14.78127  -0.50188   5.80628
  14.49696  -0.35224   5.16284
  14.25754  -0.29238   4.48947
  13.89841  -0.12778   3.83106
  13.76373   0.03682   3.42704
  13.52431   0.17149   3.05295
  12.98562   0.06675   2.40950
  12.70130   0.20142   2.02045
  12.20750   0.32113   1.57153
  11.87830   0.36602   1.30219
  11.41442   0.44084   0.85327
  10.95054   0.54559   0.53903
  10.62134   0.75508   0.32954
  10.30710   0.75508   0.20983
   9.73848   0.90472  -0.02959
   9.13993   0.91968  -0.34383
   8.66109   0.78501  -0.59821
   8.27203   0.93464  -0.73288
   7.80816   0.87479  -0.97231
   7.10486   0.75508  -1.24165
   6.59609   0.74012  -1.45115
   6.07236   0.71019  -1.87013
   5.51870   0.84486  -2.00480
   4.74058   0.74012  -2.25919
   4.27671   0.81493  -2.24422
   3.37888   0.65033  -2.66321
   2.81026   0.85983  -2.75299
   2.15185   0.74012  -2.91759
   1.31388   0.71019  -3.05227
   0.59562   0.84486  -3.23183
  -0.21242   0.69522  -3.26176
  -1.03543   0.69522  -3.42636
  -2.02304   0.62041  -3.60593
  -2.87597   0.66530  -3.80046
  -3.65409   0.53062  -3.65082
  -4.76140   0.29120  -3.99498
  -5.83879  -0.00807  -4.15959
  -6.63187   0.05178  -4.23440
  -7.58955  -0.15771  -4.15959
  -8.53227  -0.09786  -4.20448
  -9.51988  -0.30735  -4.24937
 -10.74691  -0.65151  -4.33915
 -11.71955  -0.68144  -4.20448
 -12.84183  -1.02561  -4.33915
 -13.97908  -0.84604  -4.35411
 -15.07143  -1.04057  -4.15959
 -16.14883  -1.07050  -4.09973
 -17.43571  -1.01064  -3.93513
 -18.69266  -1.16028  -3.84535
 -19.62042  -0.89093  -3.72564
 -20.89234  -0.84604  -3.53111
 -22.02958  -0.74130  -3.30665
 -23.16683  -0.51684  -3.08220
 -24.31904  -0.33728  -2.61832
 -25.42636  -0.24749  -2.40883
 -26.48878  -0.20260  -1.94495
 -27.46143   0.11164  -1.54093
 -28.28443   0.44084  -1.13691
 -29.43664   0.45580  -0.61317
 -30.24469   0.60544  -0.01462
 -30.99288   0.78501   0.53903
 -31.60639   1.11421   1.30219
 -32.21990   1.32370   1.82592
 -32.66882   1.41348   2.58907
 -33.25240   1.56312   3.14273
 -33.56664   1.62298   3.74128
 -33.98563   1.65290   4.42961
 -34.44950   1.57809   4.68400
 -34.49440   1.60801   5.35737
 -34.68892   1.45838   5.61175
 -34.94331   1.30874   5.76139
 -34.92834   1.30874   6.00081
 -34.85353   1.29377   6.30008
 -35.00316   1.02443   6.06066
 -34.86849   0.82990   6.03073
 -34.65900   0.88975   5.82124
 -34.47943   0.68026   5.44715
 -34.38965   0.26127   5.02816
 -33.95570   0.30617   4.56429
 -33.64146  -0.05296   4.08545
 -33.29729  -0.36720   3.44200
 -32.89327  -0.62159   2.73871
 -32.27976  -0.77122   2.17008
 -31.83085  -1.01064   1.54161
 -31.41186  -1.36977   0.62882
 -30.67864  -1.45956  -0.05952
 -30.00527  -1.71394  -0.58325
 -29.40672  -1.96833  -1.16683
 -28.62860  -2.08804  -2.10955
 -27.86545  -2.26760  -2.66321
 -27.25194  -2.44717  -3.06723
 -26.42893  -2.61177  -3.77053
 -25.87527  -2.68659  -4.39901
 -24.93255  -2.71651  -4.75814
 -24.15444  -2.85119  -5.04245
 -23.42121  -2.88111  -5.52129
 -22.56828  -2.86615  -5.70085
 -21.87995  -2.82126  -6.08991
 -21.16168  -3.01579  -6.14977
 -20.27882  -2.82126  -6.13480
 -19.60545  -2.86615  -6.19466
 -19.02187  -2.89608  -6.43408
 -18.43828  -2.95593  -6.62861
 -17.77987  -2.86615  -6.49393
 -17.25614  -2.92601  -6.68846
 -16.49299  -2.74644  -6.52386
 -15.80466  -2.65666  -6.56875
 -15.25100  -2.55191  -6.53882
 -14.74223  -2.61177  -6.73335
 -14.00901  -2.55191  -6.59868
 -13.18600  -2.38731  -6.53882
 -12.58745  -2.43220  -6.59868
 -11.88415  -2.16285  -6.89795
 -11.01626  -2.08804  -6.55379
 -10.41770  -2.17782  -6.76328
  -9.59470  -1.81869  -6.91292
  -8.75673  -1.84862  -6.74832
  -7.96365  -1.74387  -6.76328
  -6.99100  -1.60920  -6.74832
  -6.22785  -1.63912  -6.80817
  -5.22528  -1.41467  -6.70343
  -4.23767  -1.08546  -6.82314
  -3.48948  -1.04057  -6.92788
  -2.78619  -1.13035  -6.95781
  -1.67887  -0.53180  -7.03263
  -1.00550  -0.65151  -6.98774
  -0.13760  -0.53180  -7.19723
   0.70037  -0.33728  -7.22716
   1.80769   0.15653  -7.18227
   2.60077   0.23135  -7.33190
   3.27414   0.21638  -7.51147
   4.24678   0.41091  -7.54140
   5.00993   0.48573  -7.96038
   5.72819   0.59048  -8.06513
   6.64098   0.68026  -8.08009
   7.22457   0.66530  -8.54397
   8.24210   0.94961  -8.51404
   8.91547   0.90472  -8.76842
   9.49906   0.97954  -9.18741
  10.33703   1.08428  -9.18741
  11.17500   1.06932  -9.38194
  11.53413   0.71019  -9.60639
  12.31225   0.88975  -9.68121
  12.94073   0.77004  -9.84581
  13.49438   0.62041  -9.83085
  13.95826   0.53062  -9.83085
  14.49696   0.53062  -9.72610
  14.97580   0.48573  -9.71114
  15.45464   0.41091  -9.63632
  15.85866   0.36602  -9.44179
  16.45721   0.50070  -9.18741
  16.86123   0.50070  -8.99288
  17.39993   0.62041  -8.69361
  17.78898   0.63537  -8.39433
  18.17804   0.75508  -7.99031
  18.50724   0.81493  -7.96038
  19.00105   0.82990  -7.55636
  19.50982   1.02443  -7.16730
  19.86895   1.06932  -6.77824
  20.34779   1.24888  -6.58372
  20.75181   1.26385  -6.31437
  21.08101   1.36859  -6.03006
  21.52992   1.42845  -5.76071
  21.81424   1.36859  -5.41654
  22.17337   1.63794  -5.26690
  22.45768   1.68283  -4.98259
  22.53250   1.59305  -4.87785
  22.60731   1.48830  -4.63843
  22.86170   1.53319  -4.24937
  23.05623   1.72772  -4.02491
  23.07119   1.80254  -3.69571
  22.99637   1.68283  -3.35154
  22.93652   1.69780  -3.02234
  22.84673   1.63794  -2.55846
  22.68213   1.41348  -2.36393
  22.51753   1.48830  -1.75042
  22.24818   1.45838  -1.39129
  21.91898   1.35363  -0.92741
  21.84416   1.59305  -0.31390
  21.50000   1.42845   0.10509
  21.24561   1.41348   0.74853
  20.73684   1.33867   1.15255
  20.39268   1.26385   1.52664
  20.15326   1.27881   2.24490
  19.91384   1.33867   2.75367
  19.37514   1.03939   3.06791
  19.00105   1.09925   3.56171
  18.82148   1.15910   4.07048
  18.52221   1.29377   4.54932
  18.10322   1.21896   4.95334
  17.65431   1.33867   5.37233
  17.48971   1.35363   5.98584
  16.80138   1.33867   6.16541
  16.45721   1.51823   6.52454
  16.09808   1.45838   6.89863
  15.46960   1.51823   7.27273
  15.12543   1.63794   7.55704
  14.63163   1.60801   7.87128
  14.42214   1.96714   8.20048
  13.77870   1.86240   8.29026
  13.34475   2.04196   8.58954
  12.76116   1.87736   8.43990
  12.46188   1.96714   8.76910
  12.07283   2.11678   8.85889
  11.54910   2.08685   8.78407
  11.14507   1.98211   8.78407
  10.78594   1.93722   8.55961
  10.60638   1.84743   8.61947
  10.27718   1.74269   8.32019
  10.15747   1.77261   8.08077
   9.85819   1.51823   7.73660
   9.57388   1.41348   7.37747
   9.51402   1.41348   7.10813
   9.43921   1.33867   6.71907
   9.25964   1.21896   6.06066
   9.08007   1.03939   5.65664
   9.12497   1.06932   5.32744
