********************************************************************************
              CENTRO DE INSTRUMENTACION Y REGISTRO SISMICO  A.C.

    Anaxagoras 814, Col. Narvarte, Benito Juarez, C.P. 03020 Mexico, D.F.
           Tels. 5687 45 42/ 5687 45  82             Fax. 5669 25 12
********************************************************************************
ARCHIVO ESTANDAR DE ACELERACION:
VERSION DEL FORMATO                    : 2.0
NOMBRE DEL ARCHIVO                     : S16020200623152903
FECHA Y HORA DE CREACION               : 24/JUN/20, 13:40
REF. CATALOGO ACELEROGRAMAS, SMIS 1996 : REGISTRO No.     /PAG.


================================================================================
DATOS DE LA ESTACION:
NOMBRE DE LA ESTACION                  : SCT (POZO 7 MTS)
CLAVE DE LA ESTACION                   : S160
LOCALIZACION DE LA ESTACION            : Del. Cuauhtémoc, Col. Narvarte,        
                                       : Calle Cumbres de Acultzingo entre      
                                       : Av. Universidad y Eje Central          
                                       : Lázaro Cardenas.                       
                                       : 
COORDENADAS DE LA ESTACION             : 19.3930 LAT. N
                                       : 99.1470 LONG. W
ALTITUD (msnm)                         : 2247
TIPO DE SUELO                          : Alto riesgo sísmico                 
                                       :                           
                                       : 
INSTITUCION RESPONSABLE                : CIRES, A. C.
                                       : 

================================================================================
DATOS DEL ACELEROGRAFO:
MODELO DEL ACELEROGRAFO                : 
NUMERO DE SERIE DEL ACELEROGRAFO       : 
NUMERO DE CANALES                      : 3
ORIENTACION C1-C6 (rumbo;orientacion)  : 
ORIENTACION C7-C12 (rumbo;orientacion) : 
VEL. DE MUESTREO, C1-C6 (muestras/s)   : /200/200/200
VEL. DE MUESTREO, C7-C12 (muestras/s)  : 
ESC. COMPLETA DE SENSORES, C1-C6, (g)  : /7.0/7.0/7.0
ESC. COMPLETA DE SENSORES, C7-C12, (g) : 
FREC. NAT. DE SENSORES, C1-C6, (Hz)    : /500/500/500
FREC. NAT. DE SENSORES, C7-C12, (Hz)   : 
AMORTIGUAMIENTO DE SENSORES, C1-C6     : /0.700/0.700/0.700
AMORTIGUAMIENTO DE SENSORES, C7-C12    : 
INTERVALO DE MUESTREO, C1-C6, (s)      : /0.005/0.005/0.005
INTERVALO DE MUESTREO, C7-C12, (s)     : 
UMBRAL DE DISPARO, C1-C6, (Gal)        : /1/1/1
UMBRAL DE DISPARO, C7-C12, (Gal)       : 
MEMORIA DE PREEVENTO (s)               : 60
TIEMPO DE POSEVENTO (s)                : 70


================================================================================
DATOS DEL SISMO:
FECHA DEL SISMO (GMT)                  : 23/JUN/20
HORA EPICENTRO (GMT)                   : 15:29:03.0
MAGNITUD(ES)                           : /Mc=7.4
COORDENADAS DEL EPICENTRO              : 15.80 LAT. N
                                       : 96.13 LONG. W
PROFUNDIDAD FOCAL (km)                 : 22
FUENTE DE LOS DATOS EPICENTRALES       : SSN
                                       : INSTITUTO DE GEOFISICA, UNAM

================================================================================
DATOS DE ESTE REGISTRO:
HORA DE LA PRIMERA MUESTRA (GMT)       : .00
EXACTITUD DEL TIEMPO (s)               : 
DURACION DEL REGISTRO (s), C1-C6       : /200.945/200.945/200.945
DURACION DEL REGISTRO (s), C7-C12      : 
NUM. TOTAL DE MUESTRAS, C1-C6          : /40189/40189/40189
NUM. TOTAL DE MUESTRAS, C7-C12         : 
ACEL. MAX. (Gal), C1-C6                : /29.24783/5.50605/30.18499
ACEL. MAX., C1-C6, EN LA MUESTRA       : /13705/7732/12479
ACEL. MAX. (Gal), C7-C12               : 
ACEL. MAX., C7-C12, EN LA MUESTRA      : 
UNIDADES DE LOS DATOS                  : Gal (cm/s/s)
FACTOR DE DECIMACION                   : 1
FORMATO DATOS (FORTRAN,10 campos/dato) : 3F10.5


================================================================================
CALIDAD DEL ACELEROGRAMA:
REGISTRO DIGITAL COMPLETO CON TIEMPO ABSOLUTO CORRECTO.


================================================================================
COMENTARIOS:














================================================================================
DATOS DE ACELERACION:
---------+---------+---------+---------+---------+---------+---------+---------+
   CANAL-1   CANAL-2   CANAL-3   CANAL-4   CANAL-5   CANAL-6   CANAL-7   CANAL-8
      N00E        +V      N90W
---------+---------+---------+---------+---------+---------+---------+---------+
[...]
   9.18155  -1.17153  -9.86584
   9.28466  -1.33520  -9.98613
   9.34194  -1.49886 -10.10316
   9.41314  -1.65434 -10.21608
   9.50152  -1.80164 -10.32329
   9.55962  -1.93258 -10.44358
   9.61445  -2.04714 -10.55569
   9.67091  -2.16171 -10.68744
   9.67418  -2.28446 -10.83474
   9.65536  -2.39084 -10.98777
   9.64063  -2.48904 -11.14489
   9.57026  -2.58724 -11.30283
   9.47042  -2.67726 -11.48613
   9.38449  -2.75091 -11.66208
   9.25684  -2.82456 -11.83720
   9.14882  -2.88184 -12.02296
   9.05634  -2.92276 -12.20627
   8.93278  -2.94731 -12.40185
   8.84440  -2.97186 -12.60316
   8.73392  -2.98822 -12.80365
   8.62263  -3.00459 -12.99514
   8.51706  -3.01277 -13.18826
   8.40577  -3.02096 -13.36257
   8.29939  -3.02096 -13.52132
   8.13163  -3.03732 -13.67026
   8.00970  -3.03732 -13.78155
   7.90413  -3.06187 -13.88139
   7.75111  -3.07824 -13.96895
   7.64963  -3.08642 -14.02132
   7.55553  -3.09461 -14.06142
   7.43523  -3.10279 -14.09825
   7.32885  -3.07006 -14.09170
   7.23965  -3.07006 -14.11298
   7.14227  -3.01277 -14.08924
   7.01215  -2.93094 -14.00250
   6.85913  -3.01277 -14.07370
   6.71428  -3.06187 -14.10397
   6.58089  -3.01277 -14.03114
   6.44669  -2.98004 -14.00659
   6.31166  -2.93094 -13.94276
   6.17500  -2.89002 -13.90103
   6.06944  -2.84092 -13.85929
   5.95569  -2.79182 -13.81428
   5.80266  -2.75909 -13.80774
   5.66273  -2.72636 -13.77828
   5.49988  -2.70181 -13.77255
   5.31330  -2.68544 -13.76273
   5.09726  -2.66089 -13.73654
   4.85094  -2.63634 -13.71036
   4.62263  -2.61998 -13.64735
   4.37958  -2.60361 -13.59497
   4.12590  -2.58724 -13.52296
   3.84849  -2.58724 -13.42885
   3.52852  -2.59543 -13.35356
   3.22738  -2.61179 -13.25373
   2.91559  -2.62816 -13.13998
   2.57680  -2.64453 -13.03442
   2.25520  -2.66089 -12.92149
   1.92296  -2.68544 -12.80528
   1.58089  -2.70999 -12.68826
   1.23310  -2.72636 -12.56224
   0.90495  -2.73454 -12.41248
   0.59153  -2.72636 -12.24718
   0.24947  -2.70999 -12.06551
  -0.07704  -2.67726 -11.84865
  -0.41092  -2.64453 -11.62771
  -0.73416  -2.61179 -11.41248
  -1.02631  -2.54633 -11.18417
  -1.33400  -2.47268 -10.94931
  -1.59832  -2.39903 -10.68499
  -1.85773  -2.30083 -10.40921
  -2.12451  -2.21081 -10.13262
  -2.36019  -2.09624  -9.84947
  -2.60159  -1.97349  -9.59988
  -2.83564  -1.83438  -9.34865
  -3.08768  -1.67889  -9.07942
  -3.31682  -1.51523  -8.83147
  -3.50749  -1.34338  -8.61707
  -3.71862  -1.17971  -8.42640
  -3.90601  -1.02423  -8.23081
  -4.09832  -0.83601  -8.01396
  -4.31027  -0.67235  -7.79137
  -4.48539  -0.48413  -7.58515
  -4.66542  -0.29592  -7.38712
  -4.84137  -0.11588  -7.18008
  -4.95593   0.06415  -6.95013
  -5.08114   0.23600  -6.68335
  -5.22680   0.40785  -6.42067
  -5.36510   0.57970  -6.15062
  -5.57295   0.73518  -5.84702
  -5.76608   0.89066  -5.54669
  -5.90847   1.03796  -5.23409
  -6.09096   1.17708  -4.91985
  -6.24726   1.31620  -4.62689
  -6.38555   1.46349  -4.31838
  -6.56395   1.61079  -3.99350
  -6.76362   1.74173  -3.66862
  -6.96166   1.88084  -3.33474
  -7.12614   2.01178  -2.97550
  -7.31845   2.11816  -2.60315
  -7.53531   2.23273  -2.25455
  -7.72434   2.32274  -1.90921
  -7.93711   2.40458  -1.54096
  -8.14087   2.49459  -1.16535
  -8.32827   2.56006  -0.75700
  -8.51812   2.62552  -0.35520
  -8.69652   2.67462   0.03351
  -8.86919   2.71554   0.47049
  -9.01567   2.77282   0.90339
  -9.17361   2.79737   1.36248
  -9.33318   2.82192   1.86984
  -9.49194   2.84647   2.36411
  -9.65233   2.85466   2.89685
  -9.79881   2.87102   3.44267
  -9.95020   2.87102   3.97213
 -10.08850   2.87102   4.53351
 -10.24889   2.88739   5.10061
 -10.37328   2.88739   5.65871
 -10.47066   2.88739   6.23563
 -10.61060   2.87921   6.81256
 -10.71371   2.87102   7.37393
 -10.81272   2.86284   7.97295
 -10.89210   2.83829   8.57361
 -10.97066   2.82192   9.15871
 -11.09832   2.78919   9.75282
 -11.16788   2.74827  10.22745
 -11.21207   2.68281  10.59406
 -11.24562   2.63371  10.86248
 -11.28081   2.66644  11.55315
 -11.36837   2.69099  12.72009
 -11.43466   2.63371  13.23400
 -11.53695   2.61734  13.65216
 -11.65970   2.59279  14.42140
 -11.74971   2.56006  14.80683
 -11.86182   2.56006  15.36166
 -11.95675   2.55187  15.97950
 -12.05086   2.54369  16.30928
 -12.15233   2.54369  16.88212
 -12.27099   2.52732  17.53269
 -12.39128   2.51914  18.01223
 -12.46739   2.49459  18.49423
 -12.57132   2.45367  19.01550
 -12.67361   2.41276  19.50241
 -12.74889   2.40458  19.97377
 -12.84628   2.38003  20.46149
 -12.96248   2.33911  20.98686
 -13.09014   2.32274  21.46968
 -13.20798   2.27364  21.82729
 -13.33073   2.23273  22.21190
 -13.45020   2.21636  22.66280
 -13.55331   2.17544  23.00323
 -13.68097   2.12634  23.29619
 -13.80045   2.11816  23.68899
 -13.89538   2.08543  24.02287
 -14.01976   2.01178  24.29537
 -14.15151   1.97086  24.62598
 -14.26772   1.92176  24.88866
 -14.39538   1.87266  25.13825
 -14.51321   1.84811  25.44922
 -14.65560   1.81538  25.71190
 -14.80454   1.79083  25.98441
 -14.90110   1.75809  26.27410
 -15.03531   1.71718  26.51714
 -15.17361   1.69263  26.79128
 -15.31109   1.66808  27.06051
 -15.46739   1.65171  27.28392
 -15.57704   1.62716  27.49423
 -15.73580   1.57806  27.66608
 -15.87737   1.56169  27.84202
 -15.97639   1.54533  27.99586
 -16.13678   1.50441  28.11452
 -16.23662   1.51259  28.24464
 -16.32664   1.51259  28.31338
 -16.45757   1.47986  28.35593
 -16.55249   1.50441  28.41239
 -16.63187   1.52896  28.41403
 -16.65560   1.53714  28.40994
 -16.65888   1.56988  28.42712
 -16.67197   1.59443  28.39766
 -16.65151   1.61079  28.31010
 -16.61960   1.65171  28.20699
 -16.57213   1.69263  28.07852
 -16.50503   1.73354  27.91812
 -16.42156   1.79083  27.74791
 -16.30700   1.83993  27.55969
 -16.17852   1.90539  27.37557
 -16.03040   1.97086  27.18490
 -15.86919   2.02814  26.96640
 -15.66542   2.10179  26.73809
 -15.40438   2.16726  26.49668
 -15.14169   2.23273  26.23073
 -14.84628   2.30638  25.94349
 -14.53858   2.35548  25.64071
 -14.20798   2.40458  25.31829
 -13.82009   2.45367  24.98768
 -13.42893   2.49459  24.63825
 -13.01731   2.54369  24.26346
 -12.57541   2.58461  23.88457
 -12.12533   2.62552  23.48359
 -11.67934   2.65826  23.08752
 -11.21698   2.68281  22.72582
 -10.78736   2.72372  22.34365
 -10.38228   2.74009  21.95822
  -9.91829   2.76464  21.59406
  -9.52549   2.77282  21.22582
  -9.15560   2.76464  20.86084
  -8.74398   2.78101  20.49014
  -8.38474   2.78101  20.14235
  -8.00012   2.76464  19.80437
  -7.62778   2.75646  19.42221
  -7.25871   2.74009  19.04087
  -6.87492   2.73191  18.65544
  -6.51894   2.69917  18.24136
  -6.09341   2.67462  17.82892
  -5.66297   2.64189  17.39521
  -5.22925   2.58461  16.95495
  -4.75135   2.53551  16.53924
  -4.28899   2.47822  16.09979
  -3.81763   2.41276  15.65871
  -3.31845   2.33911  15.24382
  -2.81600   2.25728  14.82892
  -2.37082   2.15908  14.43203
  -1.92156   2.06088  14.01632
  -1.45266   1.95449  13.59406
  -1.02222   1.83993  13.20208
  -0.58686   1.73354  12.79701
  -0.16952   1.61079  12.40421
   0.22737   1.47986  12.01469
   0.62263   1.34893  11.63252
   1.01543   1.19345  11.27164
   1.43359   1.04615  10.88866
   1.85176   0.88248  10.50978
   2.25602   0.71063  10.14234
   2.65454   0.54696   9.75364
   3.04898   0.36693   9.34775
   3.45487   0.19508   8.95577
   3.84685   0.02323   8.56624
   4.24865  -0.14043   8.14725
   4.67828  -0.28773   7.73563
   5.10872  -0.44322   7.30928
   5.53589  -0.58233   6.85184
   5.95242  -0.71326   6.42140
   6.39186  -0.83601   5.98195
   6.83048  -0.95876   5.53351
   7.25520  -1.07333   5.08752
   7.68155  -1.17971   4.60879
   8.08826  -1.31065   4.11616
   8.53179  -1.42521   3.62025
   8.96060  -1.54796   3.14153
   9.39841  -1.65434   2.67099
   9.86567  -1.76891   2.17590
  10.29202  -1.91621   1.68408
  10.74292  -2.02259   1.20781
  11.12672  -2.11261   0.72663
  11.47942  -2.24354   0.26428
  11.92377  -2.35811  -0.15880
  12.33294  -2.46449  -0.59824
  12.70528  -2.57088  -1.06142
  13.12427  -2.66089  -1.49923
  13.53507  -2.75091  -1.95340
  13.92623  -2.84911  -2.42230
  14.32885  -2.94731  -2.87648
  14.70037  -3.06187  -3.36502
  15.06616  -3.16007  -3.85684
  15.42705  -3.26646  -4.32247
  15.77729  -3.38921  -4.78973
  16.14718  -3.48741  -5.26846
  16.46469  -3.57742  -5.75291
  16.80512  -3.67562  -6.24391
  17.17582  -3.73290  -6.74063
  17.48269  -3.79837  -7.22754
  17.79857  -3.85565  -7.74309
  18.11854  -3.90475  -8.22590
  18.41641  -3.97022  -8.71199
  18.69955  -4.00295  -9.22509
  18.97533  -4.01932  -9.67762
  19.27975  -4.04387 -10.18253
  19.56371  -4.05205 -10.63098
  19.79121  -4.05205 -11.07779
  20.03179  -4.05205 -11.59170
  20.28466  -4.01932 -11.99595
  20.49170  -3.99477 -12.46895
  20.69301  -3.95385 -12.94522
  20.90086  -3.90475 -13.38302
  21.09890  -3.86384 -13.86993
  21.28793  -3.79837 -14.31756
  21.47533  -3.72472 -14.80692
  21.68155  -3.67562 -15.27582
  21.88777  -3.61016 -15.74227
  22.10463  -3.54469 -16.24555
  22.29612  -3.48741 -16.71936
  22.49170  -3.44649 -17.21281
  22.73474  -3.39739 -17.69317
  22.91723  -3.34829 -18.16371
  23.11363  -3.33192 -18.64980
  23.37222  -3.29101 -19.12525
  23.56617  -3.25009 -19.59415
  23.75602  -3.23372 -20.03851
  23.98924  -3.19281 -20.48204
  24.20037  -3.14371 -20.92476
  24.40250  -3.10279 -21.34620
  24.61117  -3.03732 -21.75618
  24.83130  -2.98004 -22.12771
  25.03016  -2.91457 -22.51314
  25.18073  -2.83274 -22.90839
  25.34031  -2.77546 -23.31265
  25.48106  -2.70999 -23.73736
  25.61117  -2.61998 -24.13262
  25.78057  -2.53814 -24.52296
  25.93114  -2.40721 -24.88057
  26.05307  -2.28446 -25.24882
  26.17255  -2.15353 -25.60152
  26.29202  -1.98168 -25.92231
  26.38613  -1.84256 -26.23982
  26.45324  -1.72799 -26.54915
  26.51461  -1.58888 -26.89285
  26.53425  -1.45795 -27.18581
  26.55307  -1.32701 -27.50496
  26.56044  -1.19608 -27.84047
  26.49661  -1.12243 -28.13998
  26.45815  -1.04878 -28.42885
  26.41968  -0.93421 -28.66862
  26.33703  -0.85238 -28.93704
  26.28302  -0.75418 -29.14080
  26.20855  -0.67235 -29.29465
  26.09972  -0.58233 -29.47059
  26.01216  -0.44322 -29.61543
  25.90250  -0.33683 -29.76928
  25.73801  -0.24682 -29.89121
  25.59235  -0.11588 -29.98123
  25.43360  -0.00950 -30.05897
  25.22001   0.08870 -30.10070
  25.03671   0.22782 -30.11789
  24.84849   0.35057 -30.14653
  24.62999   0.47331 -30.18499
  24.40086   0.60425 -30.17190
  24.13081   0.74336 -30.14080
  23.84522   0.89885 -30.06797
  23.53834   1.03796 -29.96404
  23.21592   1.16071 -29.85848
  22.89186   1.29165 -29.71690
  22.53180   1.41439 -29.57370
  22.13163   1.53714 -29.38875
  21.72328   1.62716 -29.19399
  21.30594   1.70081 -28.96077
  20.83540   1.80719 -28.64080
  20.34358   1.88903 -28.34293
  19.84685   1.96268 -28.01887
  19.32885   2.05269 -27.66699
  18.79857   2.14271 -27.31265
  18.24783   2.23273 -26.92231
  17.68319   2.30638 -26.55078
  17.08744   2.38003 -26.19399
  16.49497   2.47004 -25.83393
  15.93278   2.55187 -25.50577
  15.34522   2.60097 -25.20217
  14.74947   2.65826 -24.87730
  14.12181   2.70736 -24.55897
  13.45896   2.73191 -24.25209
  12.80921   2.78101 -23.90266
  12.14391   2.83011 -23.55487
  11.49415   2.87921 -23.19645
  10.88040   2.92012 -22.79546
  10.22410   2.96922 -22.40512
   9.52116   3.01832 -21.97795
   8.83703   3.02651 -21.52296
   8.13654   3.04287 -21.08270
   7.42787   3.06742 -20.63262
   6.79448   3.04287 -20.17762
   6.13163   3.02651 -19.64244
   5.44669   3.01014 -19.12443
   4.82803   2.98559 -18.67762
   4.17582   2.96104 -18.21199
   3.47697   2.89557 -17.78974
   2.80675   2.79737 -17.22836
   2.16027   2.69917 -16.61789
   1.55143   2.60916 -16.20136
   1.01215   2.55187 -15.81838
   0.50070   2.47004 -15.48777
  -0.00585   2.38821 -15.16617
  -0.50667   2.33911 -14.74964
  -0.97148   2.25728 -14.35438
  -1.46739   2.12634 -13.97877
  -2.03531   2.00359 -13.55569
  -2.53858   1.88903 -13.15062
  -2.96657   1.79083 -12.78728
  -3.34218   1.65989 -12.39694
  -3.75626   1.53714 -12.02541
  -4.22925   1.43894 -11.68744
  -4.64578   1.31620 -11.33311
  -5.06395   1.19345 -10.94931
  -5.46575   1.11161 -10.50577
  -5.86591   1.02160 -10.05815
  -6.26444   0.92340  -9.63425
  -6.61796   0.83338  -9.21199
  -7.00585   0.71063  -8.81756
  -7.38637   0.62061  -8.36911
  -7.77099   0.53878  -7.86420
  -8.17361   0.43240  -7.38548
  -8.53613   0.35057  -6.90103
  -8.95184   0.27692  -6.43785
  -9.39292   0.19508  -5.97713
  -9.80536   0.12962  -5.52378
 -10.22353   0.07233  -5.11625
 -10.65151   0.03142  -4.71690
 -11.10650  -0.00132  -4.29874
 -11.52222  -0.04223  -3.82820
 -11.95675  -0.07497  -3.38548
 -12.44775  -0.12407  -2.94440
 -12.92565  -0.16498  -2.49186
 -13.41092  -0.21408  -2.07697
 -13.85446  -0.26318  -1.62607
 -14.26117  -0.29592  -1.19072
 -14.59668  -0.32865  -0.77337
 -14.86592  -0.35320  -0.37075
 -15.18425  -0.38593  -0.00496
 -15.49358  -0.41048   0.39930
 -15.81600  -0.43503   0.79128
 -16.19898  -0.45140   1.18244
 -16.58932  -0.48413   1.61943
 -16.96739  -0.51687   2.02041
 -17.35200  -0.54960   2.45167
 -17.72025  -0.59052   2.89848
 -18.07704  -0.59870   3.26509
 -18.46084  -0.61507   3.67917
 -18.74398  -0.61507   4.05069
 -19.01322  -0.61507   4.36575
 -19.31518  -0.60688   4.55969
 -19.50094  -0.59870   4.20454
 -19.72598  -0.59870   4.37393
 -19.95675  -0.55778   5.94349
 -20.11223  -0.47595   6.88293
 -20.26526  -0.41867   6.36820
 -20.40356  -0.33683   6.33138
 -20.59341  -0.26318   7.04987
 -20.72925  -0.18135   7.33629
 -20.79227  -0.09133   7.27982
 -20.91420  -0.01768   7.42794
 -21.04431   0.08052   7.80847
 -21.17934   0.17053   8.04005
 -21.30618   0.23600   8.08997
 -21.42729   0.35057   8.41894
 -21.54349   0.44876   8.72500
 -21.62614   0.55515   8.74627
 -21.70634   0.68608   8.89194
 -21.77017   0.81701   9.16444
 -21.86182   0.94795   9.37884
 -21.95921   1.07888   9.48768
 -22.04759   1.22618   9.63334
 -22.16133   1.38166   9.94022
 -22.24889   1.52896  10.18899
 -22.34464   1.69263  10.44676
 -22.42811   1.84811  10.81910
 -22.51485   2.00359  11.15462
 -22.65479   2.16726  11.51796
 -22.77672   2.30638  11.92058
 -22.91338   2.44549  12.32729
 -23.02876   2.59279  12.75282
 -23.10078   2.73191  13.14071
 -23.21616   2.89557  13.53678
 -23.30536   3.05106  13.92467
 -23.38310   3.19836  14.22336
 -23.51076   3.35384  14.48032
 -23.58441   3.50114  14.70126
 -23.61060   3.64844  14.86820
 -23.65069   3.78755  15.00568
 -23.67361   3.91030  15.08752
 -23.67443   4.04124  15.13825
 -23.64742   4.13944  15.15789
 -23.61960   4.24582  15.11452
 -23.58850   4.35220  15.03596
 -23.51485   4.40949  14.89603
 -23.43629   4.46677  14.70945
 -23.36428   4.50768  14.50241
 -23.29308   4.53223  14.24627
 -23.24562   4.54042  13.98523
 -23.20143   4.51587  13.72090
 -23.18015   4.44222  13.45413
