********************************************************************************
              CENTRO DE INSTRUMENTACION Y REGISTRO SISMICO  A.C.

    Anaxagoras 814, Col. Narvarte, Benito Juarez, C.P. 03020 Mexico, D.F.
           Tels. 5687 45 42/ 5687 45  82             Fax. 5669 25 12
********************************************************************************
ARCHIVO ESTANDAR DE ACELERACION:
VERSION DEL FORMATO                    : 2.0
NOMBRE DEL ARCHIVO                     : TL0820200623152903
FECHA Y HORA DE CREACION               : 18/AGO/21, 13:44
REF. CATALOGO ACELEROGRAMAS, SMIS 1996 : REGISTRO No.     /PAG.


================================================================================
DATOS DE LA ESTACION:
NOMBRE DE LA ESTACION                  : DEPORTIVO "ANTONIO CASO T-II"
CLAVE DE LA ESTACION                   : TL08
LOCALIZACION DE LA ESTACION            : Del. Cuauhtémoc, Col. Morelos,         
                                       : Av. Paseo de la Reforma                
                                       : Esq. Eje 2 Norte.                      
                                       :                                        
                                       : 
COORDENADAS DE LA ESTACION             : 19.4500 LAT. N
                                       : 99.1336 LONG. W
ALTITUD (msnm)                         : 2232
TIPO DE SUELO                          : Arcilloso, zona lago                
                                       :                           
                                       : 
INSTITUCION RESPONSABLE                : CIRES
                                       : 

================================================================================
DATOS DEL ACELEROGRAFO:
MODELO DEL ACELEROGRAFO                : RADESD
NUMERO DE SERIE DEL ACELEROGRAFO       : 222
NUMERO DE CANALES                      : 3
ORIENTACION C1-C6 (rumbo;orientacion)  : /N00E/+V/N90W
ORIENTACION C7-C12 (rumbo;orientacion) : 
VEL. DE MUESTREO, C1-C6 (muestras/s)   : /100/100/100
VEL. DE MUESTREO, C7-C12 (muestras/s)  : 
ESC. COMPLETA DE SENSORES, C1-C6, (g)  : /0.5/0.5/0.5
ESC. COMPLETA DE SENSORES, C7-C12, (g) : 
FREC. NAT. DE SENSORES, C1-C6, (Hz)    : /33/30/30
FREC. NAT. DE SENSORES, C7-C12, (Hz)   : 
AMORTIGUAMIENTO DE SENSORES, C1-C6     : /0.785/0.790/0.792
AMORTIGUAMIENTO DE SENSORES, C7-C12    : 
INTERVALO DE MUESTREO, C1-C6, (s)      : /0.01/0.01/0.01
INTERVALO DE MUESTREO, C7-C12, (s)     : 
UMBRAL DE DISPARO, C1-C6, (Gal)        : /1.35/2.99/1.35
UMBRAL DE DISPARO, C7-C12, (Gal)       :
MEMORIA DE PREEVENTO (s)               : 44.0
TIEMPO DE POSEVENTO (s)                : 197.0


================================================================================
DATOS DEL SISMO:
FECHA DEL SISMO (GMT)                  : 23/JUN/20
HORA EPICENTRO (GMT)                   : 15:29:03.0
MAGNITUD(ES)                           : /Mc=7.4
COORDENADAS DEL EPICENTRO              : 15.80 LAT. N
                                       : 96.13 LONG. W
PROFUNDIDAD FOCAL (km)                 : 22
FUENTE DE LOS DATOS EPICENTRALES       : SSN
                                       : INSTITUTO DE GEOFISICA, UNAM

================================================================================
DATOS DE ESTE REGISTRO:
HORA DE LA PRIMERA MUESTRA (GMT)       : 15:30:41.00
EXACTITUD DEL TIEMPO (s)               : 0.01
DURACION DEL REGISTRO (s), C1-C6       : /333.8/333.8/333.8
DURACION DEL REGISTRO (s), C7-C12      : 
NUM. TOTAL DE MUESTRAS, C1-C6          : /33380/33380/33380
NUM. TOTAL DE MUESTRAS, C7-C12         : 
ACEL. MAX. (Gal), C1-C6                : /24.83998/5.35445/27.51475
ACEL. MAX., C1-C6, EN LA MUESTRA       : /5707/6887/6640
ACEL. MAX. (Gal), C7-C12               : 
ACEL. MAX., C7-C12, EN LA MUESTRA      : 
UNIDADES DE LOS DATOS                  : Gal (cm/s/s)
FACTOR DE DECIMACION                   : 1
FORMATO DATOS (FORTRAN,10 campos/dato) : 3F10.5


================================================================================
CALIDAD DEL ACELEROGRAMA:
REGISTRO DIGITAL COMPLETO CON TIEMPO ABSOLUTO CORRECTO.


================================================================================
COMENTARIOS:














================================================================================
DATOS DE ACELERACION:
---------+---------+---------+---------+---------+---------+---------+---------+
   CANAL-1   CANAL-2   CANAL-3   CANAL-4   CANAL-5   CANAL-6   CANAL-7   CANAL-8
      N00E        +V      N90W
---------+---------+---------+---------+---------+---------+---------+---------+
[...]
   9.26271   1.58358  -3.84209
   9.50213   1.16460  -4.15632
   9.65177   0.80547  -4.38078
   9.71162   0.61094  -4.70998
   9.75651   0.28174  -5.09904
   9.95104   0.05728  -5.30853
  10.11564  -0.36170  -5.59285
  10.20543  -0.55623  -5.74248
  10.37003  -0.88544  -6.02679
  10.44485  -1.02011  -6.28118
  10.68427  -1.40917  -6.61038
  10.68427  -1.61866  -6.76002
  10.80398  -1.94786  -6.77498
  10.92369  -2.02268  -6.95455
  11.02843  -2.18728  -7.04433
  11.05836  -2.17232  -7.29871
  11.10325  -2.32196  -7.43339
  11.11822  -2.33692  -7.47828
  11.01347  -2.33692  -7.47828
  11.05836  -2.09750  -7.55310
  10.96858  -2.15736  -7.52317
  10.71419  -1.93290  -7.41842
  10.53463  -1.78326  -7.38850
  10.45981  -1.72341  -7.35857
  10.10068  -1.46902  -7.32864
   9.86126  -1.34931  -7.08922
   9.60688  -1.24457  -7.01440
   9.11307  -1.05004  -6.76002
   8.85869  -0.96026  -6.62534
   8.49956  -0.82558  -6.41585
   8.05065  -0.61609  -6.17643
   7.72144  -0.42156  -5.89212
   7.22764  -0.51134  -5.72752
   6.74880  -0.34674  -5.50306
   6.43456  -0.55623  -5.21875
   5.89586  -0.48141  -4.97933
   5.56666  -0.51134  -4.60524
   5.28235  -0.42156  -4.29100
   4.89329  -0.52631  -4.02165
   4.63891  -0.52631  -3.64756
   4.39949  -0.63105  -3.42310
   4.19000  -0.79565  -3.15375
   4.04036  -0.90040  -2.70484
   3.87576  -1.02011  -2.27089
   3.75605  -1.22960  -2.01651
   3.71116  -1.45406  -1.53767
   3.51663  -1.67852  -1.08875
   3.47173  -1.90297  -0.72962
   3.36699  -2.21721  -0.34057
   3.36699  -2.62123  -0.04129
   3.36699  -2.74094   0.30288
   3.35202  -2.89058   0.49741
   3.29217  -3.14496   0.73683
   3.12757  -3.41431   0.91639
   3.17246  -3.56395   1.15581
   3.02282  -3.83330   1.26056
   2.93304  -3.90812   1.41019
   2.82829  -4.14754   1.66458
   2.63376  -4.29717   1.78429
   2.51405  -4.37199   1.84414
   2.34945  -4.56652   1.85911
   2.16989  -4.67127   2.02371
   1.90054  -4.70120   2.15838
   1.67608  -4.80594   2.21824
   1.42170  -4.70120   2.35291
   1.03264  -4.64134   2.51751
   0.79322  -4.49170   2.59233
   0.44906  -4.34207   2.72701
   1.4E-40  -4.31214   2.86168
  -0.31410  -4.08768   3.08614
  -0.83783  -3.71359   3.26570
  -1.22689  -3.53402   3.47519
  -1.69076  -3.24971   3.60987
  -2.09478  -3.01029   3.69965
  -2.60355  -2.83073   3.89418
  -3.05246  -2.62123   4.01389
  -3.53130  -2.33692   4.25331
  -3.95029  -1.99275   4.34309
  -4.48899  -1.90297   4.56755
  -4.93790  -1.55881   4.73215
  -5.43170  -1.27449   4.83690
  -5.88062  -1.18471   4.94164
  -6.25471  -0.91536   5.06135
  -6.79340  -0.69091   5.24092
  -7.16750  -0.51134   5.33070
  -7.42188  -0.46645   5.34566
  -7.79598  -0.34674   5.51026
  -7.93065  -0.28689   5.49530
  -8.24489  -0.24199   5.49530
  -8.34964  -0.09236   5.52523
  -8.54416  -0.07739   5.46537
  -8.61898  -0.19710   5.34566
  -8.70877  -0.21207   5.34566
  -8.64891  -0.12228   5.06135
  -8.64891  -0.27192   4.88179
  -8.36460  -0.18214   4.68726
  -8.21496  -0.13725   4.29820
  -7.97554  -0.10732   3.99893
  -7.67627  -0.15221   3.59490
  -7.34706  -0.13725   2.98139
  -7.07772  -0.07739   2.62226
  -6.55398  -0.15221   2.08356
  -6.31456  -0.25696   1.66458
  -5.82076  -0.16718   1.02114
  -5.49156  -0.36170   0.43755
  -5.10250  -0.39163  -0.17596
  -4.59373  -0.36170  -0.90919
  -4.24957  -0.54127  -1.46285
  -3.86051  -0.58616  -2.22600
  -3.38167  -0.66098  -2.91433
  -2.99261  -0.87047  -3.51288
  -2.64844  -0.97522  -4.11143
  -2.30428  -1.15478  -4.69502
  -1.97507  -1.25953  -5.18882
  -1.72069  -1.33435  -5.71256
  -1.40645  -1.36428  -6.22132
  -1.18199  -1.49895  -6.73009
  -0.83783  -1.55881  -7.28375
  -0.67323  -1.55881  -7.65784
  -0.34402  -1.61866  -8.03194
  -0.13453  -1.34931  -8.30129
   0.01511  -1.33435  -8.67538
   0.13482  -1.42413  -9.04947
   0.11985  -1.24457  -9.51335
   0.25453  -1.19968  -9.96226
   0.16474  -0.94529 -10.30643
   0.34431  -0.84055 -10.62067
   0.23956  -0.70587 -11.05462
   0.28445  -0.46645 -11.44368
   0.31438  -0.12228 -11.66813
   0.35927   0.11714 -11.98237
   0.28445   0.44634 -12.17690
   0.16474   0.71569 -12.56596
  -0.01482   1.19453 -12.76049
  -0.08964   1.65840 -13.04480
  -0.04475   1.97264 -13.08969
  -0.17942   2.36170 -13.22436
  -0.29913   2.70587 -13.38896
  -0.35899   2.94529 -13.46378
  -0.40388   3.28945 -13.38896
  -0.52359   3.40916 -13.32911
  -0.67323   3.58873 -13.17947
  -0.71812   3.78326 -12.92509
  -0.70315   4.08253 -12.74552
  -0.85279   4.21721 -12.34150
  -0.89768   4.41173 -11.93748
  -0.98747   4.44166 -11.66813
  -1.34660   4.50152 -11.30900
  -1.31667   4.54641 -10.90498
  -1.43638   4.38181 -10.57578
  -1.79551   4.44166 -10.00715
  -1.93018   4.50152  -9.69292
  -2.21449   4.54641  -9.25897
  -2.40902   4.53144  -9.07940
  -2.51377   4.44166  -8.75020
  -2.81304   4.50152  -8.39107
  -3.12728   4.35188  -8.19654
  -3.41159   4.29202  -7.91223
  -3.77073   4.33692  -7.65784
  -4.01015   4.20224  -7.49324
  -4.42913   4.21721  -7.22390
  -4.72841   3.94786  -6.98448
  -4.99775   4.06757  -6.64031
  -5.28206   3.99275  -6.37096
  -5.59630   3.87304  -6.04176
  -5.97040   3.81318  -5.74248
  -6.16493   3.64858  -5.48810
  -6.38938   3.49895  -5.11400
  -6.46420   3.33434  -4.84466
  -6.59888   3.31938  -4.60524
  -6.68866   3.15478  -4.23114
  -6.79340   3.12485  -4.00669
  -6.85326   2.87047  -3.76727
  -6.71859   2.78068  -3.54281
  -6.67369   2.54126  -3.19864
  -6.55398   2.15221  -2.92930
  -6.35946   2.07739  -2.61506
  -6.31456   1.86790  -2.30082
  -6.17989   1.70329  -1.95665
  -6.25471   1.50877  -1.70227
  -6.04522   1.47884  -1.32817
  -5.95543   1.37409  -1.01393
  -6.04522   1.20949  -0.60991
  -5.82076   1.13467  -0.23582
  -5.77587   1.07482   0.00360
  -5.64120   1.00000   0.55726
  -5.50652   1.00000   0.88646
  -5.38681   1.07482   1.21567
  -5.28206   1.14964   1.70947
  -5.13243   1.08978   2.05364
  -5.05761   1.35913   2.45766
  -4.92293   1.47884   2.75693
  -4.71344   1.56862   3.22081
  -4.65359   1.74819   3.63979
  -4.50395   1.88286   4.14856
  -4.39920   2.09235   4.49273
  -4.04007   2.18213   5.03142
  -3.81562   2.18213   5.58508
  -3.69591   2.22703   6.25845
  -3.50138   2.28688   6.70737
  -3.15721   2.25695   7.39570
  -2.79808   2.22703   7.79972
  -2.60355   2.15221   8.36834
  -2.36413   2.09235   9.07164
  -2.00500   1.98761   9.73005
  -1.76558   1.88286  10.16399
  -1.57105   1.80804  10.68773
  -1.19696   1.70329  11.16657
  -1.00243   1.49380  11.55562
  -0.79294   1.19453  11.95965
  -0.55352   1.10474  12.37863
  -0.28417   0.86532  12.78265
   0.04503   0.73065  13.12682
   0.25453   0.50619  13.50091
   0.46402   0.29670  13.78522
   0.73337   0.20692  14.12939
   1.07753   0.08721  14.41370
   1.40674  -0.28689  14.72794
   1.64616  -0.48141  15.01225
   2.02025  -0.78069  15.13196
   2.18485  -0.90040  15.50606
   2.49909  -1.27449  15.71555
   2.85822  -1.42413  15.92504
   3.08268  -1.70844  16.20935
   3.45677  -2.03765  16.35899
   3.72612  -2.38181  16.50863
   4.02539  -2.57634  16.73309
   4.36956  -2.78583  16.76301
   4.65387  -2.92051  17.06229
   4.96811  -3.10007  17.12214
   5.28235  -3.13000  17.27178
   5.58163  -3.21978  17.25682
   5.82105  -3.33949  17.36156
   5.91083  -3.38438  17.36156
   6.03054  -3.54899  17.36156
   6.28492  -3.56395  17.33164
   6.41960  -3.45920  17.09222
   6.64405  -3.32453  17.06229
   6.85354  -3.36942  17.07725
   6.83858  -3.21978  16.79294
   6.88347  -3.04022  16.53856
   7.04807  -2.90554  16.40388
   7.04807  -2.66612  16.23928
   7.24260  -2.41174  16.10461
   7.34735  -2.14239  15.92504
   7.39224  -1.88801  15.73051
   7.48202  -1.52888  15.67066
   7.78130  -1.30442  15.43124
   7.78130  -1.12486  15.38635
   7.84115  -0.91536  15.40131
   8.06561  -0.64602  15.29656
   8.31999  -0.28689  15.25167
   8.33496  -0.09236  15.32649
   8.49956   0.08721  15.29656
   8.61927   0.31166  15.38635
   8.79883   0.49123  15.35642
   8.79883   0.82043  15.22175
   9.02329   0.95511  15.13196
   9.14300   1.22445  15.10204
   9.27767   1.25438  15.22175
   9.45724   1.44891  15.07211
   9.65177   1.59855  15.04218
   9.77148   1.56862  14.92247
   9.83133   1.67337  14.74291
   9.98097   1.46387  14.41370
  10.02586   1.49380  14.15932
  10.13061   1.49380  13.69544
  10.26528   1.20949  13.29142
  10.26528   1.08978  12.87243
  10.53463   0.92518  12.43849
  10.62441   0.73065  11.98957
  10.74412   0.65583  11.49577
  10.92369   0.59598  10.91218
  10.98354   0.38648  10.14903
  11.08829   0.25181   9.59537
  11.23793  -0.12228   8.89207
  11.38756  -0.24199   8.17381
  11.41749  -0.57120   7.62016
  11.50727  -0.79565   6.66247
  11.47735  -1.09493   6.12378
  11.64195  -1.43910   5.27084
  11.58209  -1.55881   4.52266
  11.59706  -1.78326   3.56498
  11.56713  -1.96283   2.81679
  11.58209  -2.14239   2.12846
  11.55217  -2.38181   1.20070
  11.41749  -2.48656   0.34777
  11.16311  -2.71102  -0.50517
  10.99851  -2.78583  -1.46285
  10.65434  -2.84569  -2.40556
  10.28025  -2.96540  -3.31835
  10.08572  -3.07015  -4.33589
   9.62184  -3.18986  -5.23372
   9.14300  -3.18986  -6.17643
   8.64920  -3.27964  -7.17900
   7.97583  -3.23475  -8.10676
   7.57181  -3.30957  -9.03451
   6.95829  -3.13000  -9.87248
   6.29989  -3.17489 -10.60571
   5.77615  -3.02525 -11.48857
   5.11775  -2.87562 -12.19186
   4.47431  -2.69605 -12.82034
   3.89072  -2.59131 -13.41889
   3.18742  -2.45663 -14.10722
   2.54398  -2.15736 -14.54117
   1.90054  -1.97779 -15.06491
   1.31695  -1.84312 -15.67842
   0.59869  -1.52888 -16.23208
  -0.05971  -1.31939 -16.75581
  -0.62834  -1.07997 -17.07005
  -1.34660  -0.85551 -17.63867
  -1.87033  -0.64602 -18.29708
  -2.51377  -0.40660 -18.61132
  -2.94772  -0.21207 -19.13505
  -3.59116  -0.03250 -19.73360
  -4.11489   0.17699 -20.27229
  -4.69848   0.37152 -20.84092
  -5.22221   0.34159 -21.36465
  -5.68609   0.59598 -22.08291
  -6.12004   0.74561 -22.56175
  -6.58391   0.91021 -23.04059
  -7.16750   1.01496 -23.54936
  -7.58648   1.13467 -24.13294
  -8.00547   1.34416 -24.62675
  -8.45438   1.46387 -25.10559
  -8.85840   1.65840 -25.49465
  -9.14272   1.67337 -25.97349
  -9.51681   1.73322 -26.28773
  -9.77119   1.62848 -26.69175
 -10.02558   1.71826 -26.84139
 -10.26500   1.71826 -27.11073
 -10.53434   1.53869 -27.26037
 -10.62413   1.50877 -27.42497
 -10.78873   1.37409 -27.51475
 -10.89347   1.19453 -27.48483
 -11.01319   1.05985 -27.32023
 -11.10297   0.89525 -27.21548
 -11.10297   0.88029 -27.11073
 -11.38728   0.77554 -27.00599
 -11.43217   0.77554 -26.79649
 -11.56684   0.59598 -26.60196
 -11.83619   0.53612 -26.36254
 -11.88108   0.38648 -25.94356
 -11.97087   0.38648 -25.58443
 -12.09058   0.34159 -25.28515
 -12.18036   0.38648 -24.59682
 -12.40481   0.43137 -24.26762
 -12.58438   0.26677 -23.77381
 -12.61431   0.44634 -23.14534
 -12.76395   0.34159 -22.53182
 -12.76395   0.58101 -21.87342
 -12.95847   0.58101 -21.17012
 -13.06322   0.70072 -20.46682
 -13.03329   0.85036 -19.82338
 -13.15300   0.95511 -19.00037
 -13.22782   1.11971 -18.25219
 -13.07818   1.29927 -17.36932
 -13.18293   1.38906 -16.51639
 -13.13804   1.50877 -15.61856
 -13.13804   1.65840 -14.79556
 -13.19789   1.83797 -13.80795
 -13.09315   2.07739 -12.85027
 -13.18293   2.13724 -12.08712
 -13.13804   2.18213 -11.18929
 -13.07818   2.40659 -10.24657
 -13.07818   2.61608  -9.22904
 -12.95847   2.70587  -8.37610
 -12.91358   2.54126  -7.50821
 -12.76395   2.69090  -6.55053
 -12.65920   2.76572  -5.69759
 -12.50956   2.60112  -4.76984
 -12.27014   2.64601  -4.03661
 -12.04568   2.58616  -3.13879
 -11.91101   2.55623  -2.42053
 -11.56684   2.43652  -1.49277
 -11.17779   2.24199  -0.69970
 -10.87851   2.01753   0.06346
 -10.39967   1.89782   0.79668
 -10.08543   1.62848   1.57480
  -9.71134   1.47884   2.33795
  -9.23250   1.08978   3.11606
  -8.73869   0.95511   3.80440
  -8.36460   0.76058   4.62740
  -7.82590   0.43137   5.16610
  -7.46677  -0.03250   6.07889
  -7.00290  -0.16718   6.82708
  -6.55398  -0.28689   7.47052
  -6.20982  -0.51134   8.33842
  -5.77587  -0.88544   9.13149
  -5.53645  -1.25953   9.75997
  -5.25214  -1.45406  10.59794
  -5.07257  -1.49895  11.33117
  -4.84812  -1.78326  12.00454
  -4.71344  -1.79823  12.67791
  -4.47402  -1.87304  13.38120
  -4.33935  -1.84312  14.15932
  -4.32438  -1.88801  14.78780
  -4.07000  -1.82815  15.43124
  -4.04007  -1.73837  16.13453
  -3.90540  -1.73837  16.74805
  -3.77073  -1.70844  17.34660
  -3.72583  -1.61866  18.03493
  -3.56123  -1.43910  18.46888
  -3.33678  -1.33435  18.99261
  -3.27692  -1.19968  19.62109
  -3.08239  -1.09493  20.05504
  -2.87290  -1.06500  20.35432
  -2.70830  -0.85551  20.75834
  -2.55866  -0.67594  21.05761
  -2.33420  -0.55623  21.50652
  -2.01997  -0.37667  21.70105
  -1.76558  -0.19710  21.91055
  -1.48127  -0.06243  22.16493
  -1.24185   0.17699  22.34450
  -0.82286   0.32663  22.43428
  -0.41884   0.62590  22.49413
   0.04503   0.88029  22.55399
   0.41913   1.08978  22.50910
   0.82315   1.40402  22.47917
   1.28703   1.52373  22.44924
   1.87061   1.65840  22.28464
   2.21478   1.80804  22.16493
   2.79837   1.95768  21.98537
   3.30713   2.06242  21.59631
   3.80094   2.09235  21.43171
   4.35460   2.09235  21.08754
   4.84840   2.09235  20.75834
   5.44695   1.91279  20.42913
   5.88090   1.80804  20.01015
   6.32981   1.76315  19.53131
   6.83858   1.52373  19.21707
   7.28749   1.26935  18.79808
   7.54188   0.88029  18.51377
   7.91597   0.52116  18.07982
   8.15539   0.22188  17.57106
   8.49956  -0.09236  17.27178
   8.66416  -0.52631  16.88272
   8.84372  -0.78069  16.53856
   9.06818  -1.06500  16.19439
   9.18789  -1.40917  15.85022
   9.20286  -1.76830  15.46117
   9.24775  -2.02268  15.10204
   9.30760  -2.48656  14.81772
   9.24775  -2.65116  14.36881
   9.27767  -2.92051  14.06954
   9.17293  -3.15993  13.65055
   9.23278  -3.30957  13.17171
   9.15796  -3.56395  12.73776
   9.09811  -3.71359  12.25892
   8.99336  -3.83330  11.76512
   9.00833  -4.08768  11.33117
   8.99336  -3.99790  10.77751
   8.96344  -4.08768  10.22385
   9.02329  -4.16250   9.74501
   9.02329  -4.17746   9.22128
   9.12804  -4.01286   8.65265
   9.15796  -3.86322   7.85958
   9.15796  -3.69862   7.35081
   9.11307  -3.59388   6.61758
   9.30760  -3.17489   5.89932
   9.38242  -2.93547   5.31574
   9.33753  -2.72598   4.61244
   9.51709  -2.47159   3.68469
   9.63680  -2.14239   3.11606
   9.68170  -1.84312   2.39780
   9.80141  -1.54384   1.67954
   9.98097  -1.27449   0.99121
  10.05579  -0.97522   0.28791
  10.19046  -0.75076  -0.41538
  10.26528  -0.61609  -1.17854
  10.29521  -0.30185  -1.91176
  10.29521  -0.00257  -2.64498
  10.37003   0.04232  -3.45303
  10.28025   0.22188  -4.11143
  10.19046   0.32663  -4.81473
  10.20543   0.50619  -5.48810
  10.07075   0.52116  -6.28118
