********************************************************************************
              CENTRO DE INSTRUMENTACION Y REGISTRO SISMICO  A.C.

    Anaxagoras 814, Col. Narvarte, Benito Juarez, C.P. 03020 Mexico, D.F.
           Tels. 5687 45 42/ 5687 45  82             Fax. 5669 25 12
********************************************************************************
ARCHIVO ESTANDAR DE ACELERACION:
VERSION DEL FORMATO                    : 2.0
NOMBRE DEL ARCHIVO                     : TP1320200623152903
FECHA Y HORA DE CREACION               : 18/AGO/21, 13:44
REF. CATALOGO ACELEROGRAMAS, SMIS 1996 : REGISTRO No.     /PAG.


================================================================================
DATOS DE LA ESTACION:
NOMBRE DE LA ESTACION                  : TLALPAN
CLAVE DE LA ESTACION                   : TP13
LOCALIZACION DE LA ESTACION            : Del. Tlalpan, Col. Tlalpan,            
                                       : Las Fuentes, entre Av. San Fernando    
                                       : y calle Ignacio Allende.               
                                       :                                        
                                       : 
COORDENADAS DE LA ESTACION             : 19.2922 LAT. N
                                       : 99.1708 LONG. W
ALTITUD (msnm)                         : 2265
TIPO DE SUELO                          : Terreno firme, materiales compactos 
                                       : (limos, arenas, gravas)   
                                       : 
INSTITUCION RESPONSABLE                : CIRES, A. C.
                                       : 

================================================================================
DATOS DEL ACELEROGRAFO:
MODELO DEL ACELEROGRAFO                : RAD_IO14
NUMERO DE SERIE DEL ACELEROGRAFO       : 
NUMERO DE CANALES                      : 3
ORIENTACION C1-C6 (rumbo;orientacion)  : /S00E/+V/N90W
ORIENTACION C7-C12 (rumbo;orientacion) : 
VEL. DE MUESTREO, C1-C6 (muestras/s)   : /100/100/100
VEL. DE MUESTREO, C7-C12 (muestras/s)  : 
ESC. COMPLETA DE SENSORES, C1-C6, (g)  : /2.0/2.0/2.0
ESC. COMPLETA DE SENSORES, C7-C12, (g) : 
FREC. NAT. DE SENSORES, C1-C6, (Hz)    : /51.83/50.37/51.83
FREC. NAT. DE SENSORES, C7-C12, (Hz)   : 
AMORTIGUAMIENTO DE SENSORES, C1-C6     : /0.5881/0.5605/0.5912
AMORTIGUAMIENTO DE SENSORES, C7-C12    : 
INTERVALO DE MUESTREO, C1-C6, (s)      : /0.01/0.01/0.01
INTERVALO DE MUESTREO, C7-C12, (s)     : 
UMBRAL DE DISPARO, C1-C6, (Gal)        : / / /
UMBRAL DE DISPARO, C7-C12, (Gal)       :
MEMORIA DE PREEVENTO (s)               : 60
TIEMPO DE POSEVENTO (s)                : 90


================================================================================
DATOS DEL SISMO:
FECHA DEL SISMO (GMT)                  : 23/JUN/20
HORA EPICENTRO (GMT)                   : 15:29:03.0
MAGNITUD(ES)                           : /Mc=7.4
COORDENADAS DEL EPICENTRO              : 15.80 LAT. N
                                       : 96.13 LONG. W
PROFUNDIDAD FOCAL (km)                 : 22
FUENTE DE LOS DATOS EPICENTRALES       : SSN
                                       : INSTITUTO DE GEOFISICA, UNAM

================================================================================
DATOS DE ESTE REGISTRO:
HORA DE LA PRIMERA MUESTRA (GMT)       : 10:27:25.00
EXACTITUD DEL TIEMPO (s)               : 
DURACION DEL REGISTRO (s), C1-C6       : /539.91/539.91/539.91
DURACION DEL REGISTRO (s), C7-C12      : 
NUM. TOTAL DE MUESTRAS, C1-C6          : /53991/53991/53991
NUM. TOTAL DE MUESTRAS, C7-C12         : 
ACEL. MAX. (Gal), C1-C6                : /7.41557/3.41023/10.6781
ACEL. MAX., C1-C6, EN LA MUESTRA       : /19841/20631/18593
ACEL. MAX. (Gal), C7-C12               : 
ACEL. MAX., C7-C12, EN LA MUESTRA      : 
UNIDADES DE LOS DATOS                  : Gal (cm/s/s)
FACTOR DE DECIMACION                   : 1
FORMATO DATOS (FORTRAN,10 campos/dato) : 3F10.5


================================================================================
CALIDAD DEL ACELEROGRAMA:
REGISTRO DIGITAL COMPLETO CON TIEMPO ABSOLUTO CORRECTO.


================================================================================
COMENTARIOS:














================================================================================
DATOS DE ACELERACION:
---------+---------+---------+---------+---------+---------+---------+---------+
   CANAL-1   CANAL-2   CANAL-3   CANAL-4   CANAL-5   CANAL-6   CANAL-7   CANAL-8
      S00E        +V      N90W
---------+---------+---------+---------+---------+---------+---------+---------+
[...]
  -2.32787   0.65987  -0.56260
  -2.32787   0.71977  -0.62250
  -2.26807   0.65987  -0.68230
  -2.20817   0.54017  -0.62250
  -2.02867   0.48027  -0.62250
  -1.96877   0.48027  -0.62250
  -1.90897   0.36057  -0.56260
  -1.84907   0.30077  -0.44290
  -1.78927   0.24087  -0.38300
  -1.60967   0.12117  -0.44290
  -1.60967   0.06137  -0.44290
  -1.54977   0.00147  -0.38300
  -1.43007  -0.17813  -0.32320
  -1.37027  -0.23793  -0.26330
  -1.31037  -0.29783  -0.14360
  -1.19067  -0.35763  -0.14360
  -1.07097  -0.29783   0.03600
  -1.01107  -0.35763   0.03600
  -0.95127  -0.35763   0.09580
  -0.89137  -0.41753   0.15570
  -0.83157  -0.41753   0.21550
  -0.71187  -0.35763   0.09580
  -0.83157  -0.29783   0.03600
  -0.77167  -0.29783  -0.02390
  -0.71187  -0.23793  -0.08380
  -0.71187  -0.29783  -0.20350
  -0.65197  -0.23793  -0.26330
  -0.65197  -0.29783  -0.32320
  -0.47237  -0.23793  -0.44290
  -0.35267  -0.23793  -0.50270
  -0.41257  -0.17813  -0.62250
  -0.29287  -0.11823  -0.62250
  -0.17317  -0.05843  -0.62250
  -0.11327   0.00147  -0.74220
   0.06633   0.00147  -0.74220
   0.12613   0.06137  -0.80200
   0.18603   0.18107  -0.80200
   0.30573   0.12117  -0.68230
   0.42543   0.18107  -0.68230
   0.48523   0.12117  -0.80200
   0.66483   0.12117  -0.68230
   0.78453   0.18107  -0.62250
   0.96413   0.18107  -0.62250
   1.08383   0.12117  -0.50270
   1.20353   0.12117  -0.56260
   1.26343   0.12117  -0.56260
   1.38313   0.12117  -0.50270
   1.44293   0.18107  -0.50270
   1.56263   0.18107  -0.50270
   1.68233   0.12117  -0.62250
   1.74223   0.06137  -0.62250
   1.86193   0.06137  -0.68230
   1.92183   0.12117  -0.74220
   1.98163   0.12117  -0.80200
   1.98163   0.18107  -0.80200
   2.10133   0.30077  -0.80200
   2.10133   0.36057  -1.04140
   2.10133   0.36057  -1.04140
   2.04153   0.48027  -1.10130
   1.92183   0.60007  -1.16110
   1.98163   0.60007  -1.10130
   1.98163   0.71977  -1.04140
   2.04153   0.83947  -1.04140
   1.98163   1.01897  -0.98160
   2.10133   1.01897  -0.98160
   2.16123   1.01897  -0.98160
   2.22103   0.95917  -0.92170
   2.28093   1.01897  -0.92170
   2.52033   1.01897  -0.92170
   2.64003   1.01897  -0.80200
   2.69993   1.01897  -0.80200
   2.75973   0.95917  -0.92170
   2.81963   0.89927  -0.98160
   2.87943   0.83947  -0.92170
   2.81963   0.95917  -0.98160
   2.81963   0.83947  -1.10130
   2.93933   0.77957  -1.10130
   2.87943   0.83947  -1.10130
   2.87943   0.77957  -1.10130
   2.93933   0.71977  -1.10130
   3.05903   0.65987  -1.16110
   3.17873   0.54017  -1.22100
   3.17873   0.54017  -1.28090
   3.29843   0.54017  -1.10130
   3.35833   0.36057  -1.04140
   3.41813   0.18107  -1.16110
   3.47803   0.12117  -1.16110
   3.47803   0.18107  -1.28090
   3.41813   0.12117  -1.40060
   3.47803   0.06137  -1.40060
   3.47803   0.00147  -1.58010
   3.47803  -0.05843  -1.75970
   3.59773  -0.05843  -1.81960
   3.59773  -0.11823  -1.87940
   3.59773  -0.23793  -2.05900
   3.59773  -0.17813  -2.17870
   3.59773  -0.23793  -2.23850
   3.59773  -0.29783  -2.41810
   3.65763  -0.29783  -2.59770
   3.53783  -0.35763  -2.71740
   3.47803  -0.41753  -2.89690
   3.47803  -0.35763  -2.95680
   3.47803  -0.35763  -3.13640
   3.41813  -0.41753  -3.19620
   3.35833  -0.41753  -3.31590
   3.29843  -0.53723  -3.37580
   3.23863  -0.59713  -3.43560
   3.17873  -0.59713  -3.55530
   3.17873  -0.53723  -3.61520
   3.11893  -0.47733  -3.61520
   2.93933  -0.53723  -3.61520
   2.81963  -0.53723  -3.67510
   2.75973  -0.53723  -3.73490
   2.64003  -0.59713  -3.61520
   2.52033  -0.59713  -3.73490
   2.40063  -0.59713  -3.79480
   2.22103  -0.71683  -3.73490
   2.22103  -0.83653  -3.73490
   2.16123  -0.95623  -3.79480
   2.10133  -1.01603  -3.79480
   2.04153  -1.13573  -3.79480
   1.98163  -1.25553  -3.73490
   1.98163  -1.31533  -3.67510
   1.92183  -1.37523  -3.67510
   1.92183  -1.43503  -3.73490
   1.86193  -1.49493  -3.61520
   1.86193  -1.55473  -3.55530
   1.86193  -1.61463  -3.49550
   1.86193  -1.61463  -3.37580
   1.86193  -1.55473  -3.37580
   1.80213  -1.55473  -3.31590
   1.98163  -1.49493  -3.07650
   1.98163  -1.37523  -3.07650
   2.10133  -1.37523  -2.95680
   2.10133  -1.31533  -2.83710
   2.16123  -1.37523  -2.71740
   2.16123  -1.31533  -2.47800
   2.22103  -1.31533  -2.29840
   2.28093  -1.25553  -2.05900
   2.34073  -1.13573  -1.87940
   2.40063  -1.13573  -1.69980
   2.46053  -1.07593  -1.40060
   2.46053  -1.07593  -1.10130
   2.52033  -1.13573  -0.92170
   2.58023  -1.01603  -0.68230
   2.58023  -1.07593  -0.44290
   2.52033  -1.07593  -0.26330
   2.46053  -1.07593  -0.14360
   2.52033  -1.13573   0.09580
   2.34073  -1.13573   0.27540
   2.16123  -1.13573   0.39510
   1.98163  -1.07593   0.63450
   1.80213  -1.13573   0.81410
   1.56263  -1.07593   1.11330
   1.38313  -1.01603   1.23310
   1.14363  -0.95623   1.35280
   0.84443  -0.95623   1.59220
   0.72473  -0.83653   1.83160
   0.54513  -0.89633   2.07100
   0.30573  -0.89633   2.19070
   0.12613  -0.95623   2.31040
  -0.05347  -0.95623   2.37030
  -0.23297  -0.95623   2.43020
  -0.29287  -0.89633   2.60970
  -0.41257  -0.95623   2.72940
  -0.47237  -0.95623   2.90900
  -0.47237  -0.83653   3.08860
  -0.47237  -0.83653   3.08860
  -0.47237  -0.77663   3.14840
  -0.53227  -0.65693   3.26810
  -0.59217  -0.59713   3.38780
  -0.65197  -0.59713   3.44770
  -0.65197  -0.59713   3.50750
  -0.65197  -0.59713   3.56740
  -0.71187  -0.59713   3.56740
  -0.71187  -0.65693   3.50750
  -0.71187  -0.65693   3.56740
  -0.77167  -0.71683   3.56740
  -0.71187  -0.59713   3.62730
  -0.71187  -0.65693   3.62730
  -0.83157  -0.65693   3.68710
  -0.89137  -0.65693   3.74700
  -1.01107  -0.65693   3.86670
  -1.07097  -0.59713   3.86670
  -1.13077  -0.47733   4.04620
  -1.19067  -0.41753   4.22580
  -1.37027  -0.41753   4.28570
  -1.48997  -0.29783   4.28570
  -1.43007  -0.29783   4.34550
  -1.43007  -0.29783   4.46520
  -1.48997  -0.17813   4.52510
  -1.66947  -0.17813   4.58490
  -1.72937  -0.11823   4.58490
  -1.78927  -0.05843   4.64480
  -1.78927  -0.05843   4.70460
  -1.84907   0.00147   4.70460
  -1.84907  -0.05843   4.70460
  -1.78927  -0.11823   4.58490
  -1.84907  -0.05843   4.46520
  -1.84907  -0.11823   4.28570
  -1.84907  -0.23793   4.28570
  -1.78927  -0.11823   4.16600
  -1.72937  -0.11823   4.04620
  -1.66947  -0.05843   4.10610
  -1.60967   0.00147   4.10610
  -1.60967   0.00147   4.16600
  -1.60967   0.00147   4.16600
  -1.60967   0.12117   4.22580
  -1.60967   0.12117   4.34550
  -1.54977   0.18107   4.40540
  -1.54977   0.30077   4.52510
  -1.54977   0.36057   4.58490
  -1.48997   0.36057   4.52510
  -1.48997   0.42047   4.52510
  -1.43007   0.30077   4.52510
  -1.37027   0.24087   4.46520
  -1.37027   0.24087   4.40540
  -1.37027   0.24087   4.46520
  -1.43007   0.18107   4.28570
  -1.31037   0.00147   4.28570
  -1.31037  -0.11823   4.22580
  -1.43007  -0.17813   4.10610
  -1.37027  -0.23793   4.16600
  -1.37027  -0.17813   4.10610
  -1.37027  -0.29783   3.98640
  -1.43007  -0.23793   4.04620
  -1.37027  -0.17813   4.04620
  -1.31037  -0.05843   3.98640
  -1.19067  -0.05843   4.04620
  -1.07097  -0.11823   3.98640
  -0.95127   0.00147   4.04620
  -0.77167   0.12117   4.10610
  -0.59217   0.06137   4.10610
  -0.35267   0.06137   4.10610
  -0.05347   0.06137   4.28570
   0.24583   0.06137   4.40540
   0.48523   0.12117   4.40540
   0.84443   0.00147   4.58490
   1.08383  -0.11823   4.70460
   1.38313  -0.17813   4.82440
   1.68233  -0.29783   4.82440
   1.86193  -0.35763   4.94410
   1.98163  -0.41753   5.00390
   2.22103  -0.59713   5.06380
   2.46053  -0.71683   5.24330
   2.58023  -0.83653   5.30320
   2.58023  -0.89633   5.42290
   2.64003  -0.89633   5.54260
   2.58023  -0.95623   5.66230
   2.58023  -1.07593   5.78200
   2.52033  -1.01603   5.96160
   2.40063  -1.01603   6.02150
   2.34073  -1.13573   6.08130
   2.28093  -1.07593   6.08130
   2.16123  -1.01603   6.08130
   2.16123  -1.01603   6.02150
   2.22103  -1.01603   5.96160
   2.22103  -0.89633   5.90170
   2.10133  -0.89633   5.78200
   2.10133  -0.89633   5.66230
   2.04153  -0.83653   5.42290
   1.98163  -0.89633   5.36310
   1.92183  -0.83653   5.24330
   1.80213  -0.89633   5.12360
   1.80213  -0.89633   5.12360
   1.74223  -0.95623   5.12360
   1.68233  -0.95623   5.12360
   1.62253  -0.89633   5.12360
   1.50283  -1.01603   5.18350
   1.44293  -1.01603   5.12360
   1.38313  -0.95623   5.18350
   1.32323  -0.89633   5.18350
   1.14363  -0.95623   5.12360
   0.90423  -0.89633   5.12360
   0.78453  -0.95623   5.12360
   0.66483  -0.95623   5.00390
   0.48523  -0.95623   4.88420
   0.24583  -1.01603   4.70460
   0.06633  -1.01603   4.52510
  -0.17317  -1.01603   4.40540
  -0.41257  -1.01603   4.34550
  -0.65197  -1.07593   4.28570
  -0.89137  -1.19563   4.16600
  -1.13077  -1.13573   4.04620
  -1.31037  -1.13573   3.98640
  -1.60967  -1.19563   3.92650
  -1.78927  -1.25553   3.86670
  -2.02867  -1.25553   3.74700
  -2.20817  -1.19563   3.56740
  -2.26807  -1.13573   3.32800
  -2.44767  -0.95623   3.02870
  -2.62717  -0.89633   2.66960
  -2.80677  -0.89633   2.37030
  -2.86657  -0.77663   2.01120
  -2.98637  -0.59713   1.53230
  -3.10607  -0.47733   1.11330
  -3.28557  -0.35763   0.81410
  -3.40527  -0.29783   0.39510
  -3.52497  -0.23793  -0.08380
  -3.58487  -0.11823  -0.44290
  -3.64477   0.06137  -0.86190
  -3.82427   0.12117  -1.22100
  -3.88417   0.36057  -1.69980
  -4.06367   0.54017  -2.05900
  -4.12357   0.65987  -2.47800
  -4.24327   0.77957  -2.83710
  -4.42287   0.95917  -3.25610
  -4.54257   1.13867  -3.55530
  -4.72207   1.19857  -3.85460
  -4.84187   1.25847  -4.27360
  -5.02137   1.37817  -4.51300
  -5.26077   1.43797  -4.87220
  -5.32067   1.43797  -5.29110
  -5.50027   1.43797  -5.71010
  -5.61997   1.43797  -6.18900
  -5.61997   1.37817  -6.54810
  -5.79947   1.31827  -6.84740
  -5.91917   1.37817  -7.32620
  -5.79947   1.37817  -7.68530
  -5.73967   1.31827  -8.10430
  -5.56007   1.25847  -8.34380
  -5.50027   1.31827  -8.70290
  -5.38057   1.43797  -8.88240
  -5.26077   1.55767  -9.12190
  -5.14107   1.55767  -9.30140
  -4.96157   1.55767  -9.42110
  -4.72207   1.61757  -9.72040
  -4.42287   1.73727  -9.90000
  -4.12357   1.85697 -10.13940
  -3.88417   1.97667 -10.25910
  -3.64477   2.03657 -10.37880
  -3.28557   2.09637 -10.55840
  -3.04617   2.15627 -10.61820
  -2.68707   2.09637 -10.61820
  -2.44767   2.09637 -10.67810
  -2.26807   2.09637 -10.61820
  -2.02867   2.15627 -10.49850
  -1.90897   2.03657 -10.25910
  -1.72937   1.85697 -10.13940
  -1.66947   1.73727 -10.01970
  -1.66947   1.67737  -9.72040
  -1.54977   1.55767  -9.48100
  -1.54977   1.43797  -9.18170
  -1.43007   1.37817  -9.06200
  -1.37027   1.25847  -8.88240
  -1.13077   1.07887  -8.58320
  -0.89137   0.83947  -8.16420
  -0.83157   0.77957  -7.80510
  -0.53227   0.65987  -7.44590
  -0.41257   0.60007  -6.96710
  -0.11327   0.36057  -6.60800
   0.18603   0.24087  -6.12910
   0.30573   0.12117  -5.77000
   0.60503   0.00147  -5.47070
   0.90423  -0.05843  -5.17140
   1.14363  -0.11823  -4.87220
   1.38313  -0.17813  -4.75240
   1.62253  -0.17813  -4.57290
   1.80213  -0.23793  -4.39330
   1.92183  -0.23793  -4.27360
   2.04153  -0.23793  -4.09400
   2.16123  -0.29783  -3.79480
   2.34073  -0.23793  -3.55530
   2.40063  -0.17813  -3.31590
   2.34073  -0.17813  -3.13640
   2.46053  -0.23793  -2.83710
   2.52033  -0.29783  -2.65750
   2.46053  -0.23793  -2.53780
   2.52033  -0.35763  -2.29840
   2.40063  -0.35763  -2.05900
   2.34073  -0.29783  -1.93930
   2.28093  -0.29783  -1.75970
   2.28093  -0.29783  -1.69980
   2.28093  -0.29783  -1.58010
   2.22103  -0.23793  -1.40060
   2.28093  -0.23793  -1.22100
   2.34073  -0.17813  -1.10130
   2.34073  -0.17813  -0.98160
   2.40063   0.00147  -0.86190
   2.52033   0.06137  -0.74220
   2.58023   0.12117  -0.68230
   2.64003   0.12117  -0.62250
   2.81963   0.18107  -0.56260
   2.87943   0.24087  -0.50270
   2.87943   0.24087  -0.44290
   2.99923   0.30077  -0.44290
   3.17873   0.30077  -0.26330
   3.23863   0.30077  -0.20350
   3.29843   0.36057  -0.14360
   3.35833   0.42047  -0.14360
   3.41813   0.42047  -0.20350
   3.47803   0.42047  -0.08380
   3.47803   0.60007  -0.20350
   3.47803   0.83947  -0.20350
   3.41813   1.01897  -0.26330
   3.35833   1.19857  -0.32320
   3.41813   1.31827  -0.38300
   3.41813   1.43797  -0.44290
   3.35833   1.49787  -0.44290
   3.41813   1.61757  -0.32320
   3.47803   1.73727  -0.32320
   3.47803   1.73727  -0.20350
   3.47803   1.85697  -0.08380
   3.59773   1.97667  -0.02390
   3.59773   2.15627   0.21550
   3.59773   2.21607   0.27540
   3.47803   2.27597   0.45490
   3.47803   2.33577   0.75420
   3.53783   2.45557   0.93380
   3.59773   2.39567   1.05350
   3.59773   2.39567   1.17320
   3.59773   2.45557   1.35280
   3.59773   2.27597   1.47250
   3.53783   2.27597   1.65200
   3.47803   2.21607   1.71190
   3.47803   2.21607   1.77180
   3.47803   2.09637   1.89150
   3.35833   2.09637   1.95130
   3.41813   2.09637   2.01120
   3.29843   1.97667   2.01120
   3.11893   2.03657   2.13090
   2.93933   1.91687   2.13090
   2.87943   1.91687   2.19070
   2.87943   1.91687   2.13090
   2.87943   1.91687   2.01120
   2.87943   1.91687   2.01120
   2.87943   1.91687   1.89150
   2.81963   1.91687   1.83160
   2.75973   2.03657   1.77180
   2.81963   2.09637   1.71190
   2.81963   2.15627   1.77180
   2.81963   2.21607   1.83160
   2.75973   2.21607   1.89150
   2.69993   2.27597   2.01120
   2.64003   2.27597   2.19070
   2.64003   2.21607   2.43020
   2.64003   2.27597   2.60970
   2.58023   2.27597   2.72940
   2.58023   2.21607   2.78930
   2.64003   2.09637   3.02870
   2.69993   2.09637   3.14840
   2.69993   2.03657   3.26810
   2.75973   1.91687   3.44770
   2.87943   1.67737   3.56740
   2.93933   1.49787   3.56740
   2.99923   1.43797   3.62730
   3.17873   1.37817   3.68710
   3.23863   1.19857   3.74700
   3.29843   1.19857   3.80680
   3.47803   1.01897   3.86670
   3.59773   0.71977   3.86670
   3.71743   0.60007   3.86670
   3.77733   0.48027   3.92650
   3.89703   0.24087   3.98640
   3.89703   0.12117   3.98640
   3.83713   0.00147   3.92650
   3.83713  -0.17813   3.92650
   3.77733  -0.29783   3.86670
   3.71743  -0.47733   3.80680
   3.71743  -0.59713   3.74700
   3.53783  -0.77663   3.62730
   3.35833  -0.77663   3.74700
   3.35833  -0.83653   3.68710
   3.29843  -0.83653   3.62730
   3.29843  -0.89633   3.56740
   3.11893  -1.01603   3.50750
   3.05903  -1.07593   3.44770
   2.93933  -1.25553   3.44770
   2.75973  -1.31533   3.38780
   2.69993  -1.49493   3.38780
   2.46053  -1.61463   3.32800
   2.28093  -1.73433   3.08860
   2.04153  -1.91393   2.96890
   1.74223  -1.97373   2.84910
   1.50283  -2.09343   2.66960
   1.26343  -2.15333   2.43020
   1.14363  -2.15333   2.19070
   1.02393  -2.21313   2.01120
