********************************************************************************
              CENTRO DE INSTRUMENTACION Y REGISTRO SISMICO  A.C.

    Anaxagoras 814, Col. Narvarte, Benito Juarez, C.P. 03020 Mexico, D.F.
           Tels. 5687 45 42/ 5687 45  82             Fax. 5669 25 12
********************************************************************************
ARCHIVO ESTANDAR DE ACELERACION:
VERSION DEL FORMATO                    : 2.0
NOMBRE DEL ARCHIVO                     : UC4420200623152903
FECHA Y HORA DE CREACION               : 18/AGO/21, 13:44
REF. CATALOGO ACELEROGRAMAS, SMIS 1996 : REGISTRO No.     /PAG.


================================================================================
DATOS DE LA ESTACION:
NOMBRE DE LA ESTACION                  : UNIDAD COLONIA IMSS
CLAVE DE LA ESTACION                   : UC44
LOCALIZACION DE LA ESTACION            : Del. Cuauhtémoc, Col. San Rafael,      
                                       : Calle Villalongin y Río Neva.          
                                       :                                        
                                       :                                        
                                       : 
COORDENADAS DE LA ESTACION             : 19.4337 LAT. N
                                       : 99.1654 LONG. W
ALTITUD (msnm)                         : 2234
TIPO DE SUELO                          : Alto riesgo sísmico                 
                                       :                           
                                       : 
INSTITUCION RESPONSABLE                : CIRES
                                       : 

================================================================================
DATOS DEL ACELEROGRAFO:
MODELO DEL ACELEROGRAFO                : RADESD
NUMERO DE SERIE DEL ACELEROGRAFO       : 252
NUMERO DE CANALES                      : 3
ORIENTACION C1-C6 (rumbo;orientacion)  : /N00E/+V/N90W
ORIENTACION C7-C12 (rumbo;orientacion) : 
VEL. DE MUESTREO, C1-C6 (muestras/s)   : /100/100/100
VEL. DE MUESTREO, C7-C12 (muestras/s)  : 
ESC. COMPLETA DE SENSORES, C1-C6, (g)  : /0.5/0.5/0.5
ESC. COMPLETA DE SENSORES, C7-C12, (g) : 
FREC. NAT. DE SENSORES, C1-C6, (Hz)    : /30/30/32
FREC. NAT. DE SENSORES, C7-C12, (Hz)   : 
AMORTIGUAMIENTO DE SENSORES, C1-C6     : /0.747/0.777/0.759
AMORTIGUAMIENTO DE SENSORES, C7-C12    : 
INTERVALO DE MUESTREO, C1-C6, (s)      : /0.01/0.01/0.01
INTERVALO DE MUESTREO, C7-C12, (s)     : 
UMBRAL DE DISPARO, C1-C6, (Gal)        : /2.24/3.89/2.24
UMBRAL DE DISPARO, C7-C12, (Gal)       :
MEMORIA DE PREEVENTO (s)               : 44.0
TIEMPO DE POSEVENTO (s)                : 294.0


================================================================================
DATOS DEL SISMO:
FECHA DEL SISMO (GMT)                  : 23/JUN/20
HORA EPICENTRO (GMT)                   : 15:29:03.0
MAGNITUD(ES)                           : /Mc=7.4
COORDENADAS DEL EPICENTRO              : 15.80 LAT. N
                                       : 96.13 LONG. W
PROFUNDIDAD FOCAL (km)                 : 22
FUENTE DE LOS DATOS EPICENTRALES       : SSN
                                       : INSTITUTO DE GEOFISICA, UNAM

================================================================================
DATOS DE ESTE REGISTRO:
HORA DE LA PRIMERA MUESTRA (GMT)       : 15:30:38.00
EXACTITUD DEL TIEMPO (s)               : 0.01
DURACION DEL REGISTRO (s), C1-C6       : /237.0/237.0/237.0
DURACION DEL REGISTRO (s), C7-C12      : 
NUM. TOTAL DE MUESTRAS, C1-C6          : /23700/23700/23700
NUM. TOTAL DE MUESTRAS, C7-C12         : 
ACEL. MAX. (Gal), C1-C6                : /26.70177/6.9339/17.88053
ACEL. MAX., C1-C6, EN LA MUESTRA       : /5601/6162/6209
ACEL. MAX. (Gal), C7-C12               : 
ACEL. MAX., C7-C12, EN LA MUESTRA      : 
UNIDADES DE LOS DATOS                  : Gal (cm/s/s)
FACTOR DE DECIMACION                   : 1
FORMATO DATOS (FORTRAN,10 campos/dato) : 3F10.5


================================================================================
CALIDAD DEL ACELEROGRAMA:
REGISTRO DIGITAL COMPLETO CON TIEMPO ABSOLUTO CORRECTO.


================================================================================
COMENTARIOS:














================================================================================
DATOS DE ACELERACION:
---------+---------+---------+---------+---------+---------+---------+---------+
   CANAL-1   CANAL-2   CANAL-3   CANAL-4   CANAL-5   CANAL-6   CANAL-7   CANAL-8
      N00E        +V      N90W
---------+---------+---------+---------+---------+---------+---------+---------+
[...]
  -4.18131   0.54798   0.00117
  -4.19628   0.65272  -0.01380
  -4.54044   0.36841  -0.34300
  -4.60030   0.45820  -0.56746
  -4.73497   0.20381  -0.61235
  -4.79483   0.14396  -0.73206
  -4.89958   0.02425  -0.71709
  -4.83972  -0.08050  -0.91162
  -4.92950  -0.31992  -1.10615
  -4.89958  -0.40970  -1.31564
  -4.97439  -0.64912  -1.43535
  -4.82476  -0.73891  -1.67477
  -4.76490  -0.97833  -1.85434
  -4.67512  -1.14293  -2.27332
  -4.54044  -1.11300  -2.40800
  -4.28606  -1.26264  -2.64742
  -4.19628  -1.41227  -2.99159
  -3.82218  -1.41227  -3.05144
  -3.62766  -1.48709  -3.24597
  -3.46305  -1.59184  -3.48539
  -3.32838  -1.51702  -3.62006
  -3.13385  -1.41227  -3.88941
  -2.93932  -1.30753  -3.97919
  -2.71487  -1.14293  -4.05401
  -2.72983  -1.11300  -4.33832
  -2.49041  -0.91847  -4.24854
  -2.46048  -0.73891  -4.41314
  -2.38566  -0.78380  -4.54782
  -2.43055  -0.72394  -4.65256
  -2.37070  -0.69401  -4.80220
  -2.23603  -0.58927  -4.77227
  -2.19113  -0.48452  -4.93687
  -2.08639  -0.46956  -5.04162
  -2.01157  -0.54438  -5.05658
  -1.87690  -0.54438  -5.16133
  -1.90682  -0.60423  -5.37082
  -1.62251  -0.54438  -5.41571
  -1.54769  -0.49949  -5.53542
  -1.29331  -0.24510  -5.65513
  -1.08382  -0.42467  -5.65513
  -0.84440  -0.36481  -5.78981
  -0.73965  -0.40970  -5.81974
  -0.66483  -0.39474  -5.84966
  -0.36556  -0.14036  -6.02923
  -0.20095  -0.28999  -5.93945
   0.02350  -0.02064  -5.86463
   0.29285   0.09907  -5.78981
   0.44249   0.02425  -5.70003
   0.69687  -0.05057  -5.61024
   0.90636   0.09907  -5.43068
   1.13082   0.05417  -5.20622
   1.35528  -0.00568  -5.04162
   1.37024  -0.00568  -4.89198
   1.65455  -0.14036  -4.59271
   1.72937  -0.21517  -4.35329
   1.90894  -0.26007  -4.09890
   2.01368  -0.17028  -3.97919
   2.17828  -0.27503  -3.76970
   2.32792  -0.36481  -3.59014
   2.44763  -0.40970  -3.41057
   2.46259  -0.42467  -3.35072
   2.68705  -0.31992  -3.23101
   2.79180  -0.27503  -3.18611
   2.83669  -0.21517  -3.12626
   2.82173  -0.15532  -3.00655
   2.95640   0.00928  -2.93173
   3.03122   0.05417  -2.76713
   2.94144   0.15892  -2.63246
   3.01625   0.26367  -2.43793
   2.98633   0.44323  -2.30325
   2.98633   0.44323  -2.09376
   2.97136   0.57791  -1.76456
   2.95640   0.62280  -1.49521
   2.77683   0.62280  -1.31564
   2.92647   0.65272  -0.92659
   2.77683   0.54798  -0.73206
   2.53741   0.38338  -0.47767
   2.38778   0.30856  -0.22329
   2.37281   0.38338   0.13584
   2.11843   0.18885   0.39022
   1.95383   0.14396   0.76432
   1.72937   0.03921   1.13841
   1.46002  -0.03561   1.45265
   1.16075  -0.11043   1.84171
   0.72680  -0.18525   2.08113
   0.29285  -0.15532   2.29062
  -0.14110  -0.12539   2.58990
  -0.61994  -0.18525   2.84428
  -1.06885  -0.33488   2.96399
  -1.56266  -0.24510   3.06874
  -1.98164  -0.40970   3.27823
  -2.56523  -0.31992   3.29319
  -3.04407  -0.40970   3.33809
  -3.55284  -0.46956   3.35305
  -4.06160  -0.48452   3.21838
  -4.60030  -0.52941   3.17348
  -5.06418  -0.42467   2.97896
  -5.49813  -0.48452   2.93406
  -6.15653  -0.64912   2.76946
  -6.59048  -0.60423   2.60486
  -7.18903  -0.66409   2.33551
  -7.81751  -0.69401   2.05120
  -8.25146  -0.75387   1.79682
  -8.61059  -0.67905   1.58733
  -9.08943  -0.78380   1.34791
  -9.31388  -0.67905   1.22820
  -9.59820  -0.76883   0.98877
  -9.86754  -0.70898   0.62964
 -10.03215  -0.69401   0.31541
 -10.04711  -0.57430   0.13584
 -10.18178  -0.51445  -0.32804
 -10.15186  -0.51445  -0.40285
 -10.18178  -0.37978  -0.92659
  -9.98725  -0.28999  -1.16601
  -9.95733  -0.18525  -1.61492
  -9.77776  -0.08050  -1.91419
  -9.71791   0.05417  -2.25836
  -9.56827   0.05417  -2.48282
  -9.49345   0.09907  -2.90180
  -9.34381   0.09907  -3.18611
  -9.08943   0.20381  -3.36568
  -8.89490   0.11403  -3.56021
  -8.65548   0.06914  -3.82956
  -8.25146   0.14396  -3.93430
  -7.95218   0.02425  -4.24854
  -7.77262  -0.06554  -4.36825
  -7.33867  -0.12539  -4.42811
  -6.91968  -0.23014  -4.48796
  -6.62041  -0.52941  -4.62264
  -6.30617  -0.66409  -4.48796
  -5.90215  -0.84365  -4.39818
  -5.51309  -1.02322  -4.24854
  -5.15396  -1.23271  -4.00912
  -4.76490  -1.44220  -3.87445
  -4.31599  -1.51702  -3.64999
  -3.94189  -1.68162  -3.51532
  -3.46305  -1.87615  -3.38064
  -2.98421  -2.01083  -3.03648
  -2.68494  -2.19039  -2.91677
  -1.99661  -2.19039  -2.69231
  -1.71229  -2.38492  -2.72224
  -1.11374  -2.31010  -2.66238
  -0.50023  -2.34003  -2.55764
   0.09832  -2.28017  -2.48282
   0.74176  -2.32506  -2.39303
   1.35528  -2.39988  -2.45289
   1.95383  -2.36996  -2.57260
   2.55238  -2.38492  -2.58756
   3.19582  -2.26521  -2.75217
   3.88415  -2.29514  -2.82698
   4.39292  -2.36996  -2.97662
   5.06629  -2.11557  -3.02151
   5.67980  -2.29514  -3.09633
   6.21850  -2.22032  -3.26093
   6.72727  -2.22032  -3.38064
   7.28093  -2.17543  -3.42553
   7.86451  -2.16046  -3.36568
   8.28350  -2.20535  -3.47043
   8.86708  -2.11557  -3.44050
   9.37585  -2.10061  -3.51532
   9.82476  -2.01083  -3.44050
  10.22879  -2.04075  -3.48539
  10.63281  -1.86119  -3.42553
  10.94705  -1.90608  -3.32079
  11.27625  -1.87615  -3.18611
  11.57552  -1.92104  -3.09633
  11.79998  -1.81630  -3.12626
  12.11422  -1.80133  -2.88684
  12.42846  -1.63673  -2.73720
  12.77263  -1.57688  -2.39303
  13.10183  -1.44220  -2.01894
  13.50585  -1.33746  -1.65981
  13.65549  -1.33746  -1.48025
  13.98469  -1.03818  -1.22586
  14.20915  -1.15789  -0.97148
  14.49346  -0.90351  -0.52256
  14.77777  -0.90351  -0.23825
  14.97230  -0.91847   0.06102
  15.09201  -0.87358   0.37526
  15.31647  -0.76883   0.67454
  15.31647  -0.75387   0.82417
  15.28654  -0.84365   1.00374
  15.34639  -0.69401   1.15338
  15.36136  -0.69401   1.48258
  15.28654  -0.78380   1.72200
  15.18179  -0.63416   1.87164
  14.91244  -0.58927   1.97638
  14.65806  -0.67905   2.12602
  14.25404  -0.64912   2.14098
  13.92484  -0.61920   2.15595
  13.59563  -0.43963   2.32055
  13.22154  -0.40970   2.24573
  12.62299  -0.40970   2.11106
  12.26386  -0.17028   2.23077
  11.77005   0.15892   2.05120
  11.29121   0.15892   2.08113
  10.76748   0.27863   1.78185
  10.22879   0.59287   1.78185
   9.58534   0.63776   1.64718
   8.94190   0.62280   1.51251
   8.43314   0.96696   1.64718
   7.72984   0.99689   1.60229
   7.22107   0.98193   1.70704
   6.69734   1.14653   1.93149
   5.97908   1.02682   2.12602
   5.33564   1.05675   2.18588
   4.72212   0.92207   2.42530
   4.18343   0.86222   2.61982
   3.71955   0.81733   2.88917
   3.16589   0.71258   3.03881
   2.56734   0.72754   3.12859
   2.13339   0.57791   3.56254
   1.57973   0.53301   3.83189
   0.96622   0.54798   3.90671
   0.51731   0.56294   4.23591
   0.06839   0.63776   4.55015
  -0.51519   0.65272   4.77461
  -1.06885   0.66769   5.05892
  -1.45791   1.02682   5.37316
  -1.87690   1.02682   5.68740
  -2.23603   1.17646   5.79214
  -2.52034   1.05675   6.07645
  -2.89443   1.05675   6.30091
  -3.32838   1.16149   6.28595
  -3.55284   1.19142   6.46551
  -3.92693   1.17646   6.37573
  -4.21124   1.17646   6.34580
  -4.61526   0.99689   6.16624
  -4.86965   1.02682   6.25602
  -5.33352   0.84725   5.91185
  -5.60287   0.84725   5.86696
  -5.93207   0.81733   5.74725
  -6.33610   0.69762   5.70236
  -6.62041   0.57791   5.49287
  -6.85983   0.48812   5.44798
  -7.17407   0.33849   5.26841
  -7.32370   0.24870   4.93921
  -7.44341   0.36841   4.80453
  -7.50327   0.27863   4.52022
  -7.63794   0.30856   4.02642
  -7.57809   0.29359   3.72714
  -7.53320   0.36841   3.29319
  -7.35363   0.36841   2.76946
  -7.03939   0.35345   2.21580
  -6.82990   0.45820   1.73696
  -6.62041   0.42827   0.97381
  -6.24631   0.56294   0.25555
  -5.82733   0.53301  -0.40285
  -5.40834   0.56294  -1.06126
  -5.01929   0.65272  -1.83938
  -4.58534   0.66769  -2.58756
  -4.27110   0.78740  -3.38064
  -3.59773   0.77243  -4.17372
  -3.02911   0.95200  -5.02666
  -2.47545   0.92207  -5.74492
  -1.93675   1.07171  -6.61282
  -1.36813   1.08667  -7.55553
  -0.75461   1.16149  -8.33365
  -0.15606   1.20638  -9.11176
   0.53227   1.23631  -9.85995
   1.07097   1.23631 -10.59318
   1.66952   1.28120 -11.28151
   2.28303   1.29617 -11.86510
   2.91151   1.46077 -12.34394
   3.46517   1.53559 -12.88263
   4.07868   1.56551 -13.21183
   4.70716   1.58048 -13.58593
   5.26082   1.74508 -13.72060
   5.94915   1.81990 -13.82535
   6.44296   1.81990 -13.85528
   7.13129   1.87975 -13.63082
   7.68495   1.95457 -13.43629
   8.26853   1.93961 -13.09212
   8.68752   1.98450 -12.58336
   9.09154   1.96954 -12.17933
   9.57038   2.19399 -11.47604
   9.89958   2.28377 -10.86252
  10.10908   2.23888 -10.06944
  10.43828   2.23888  -9.32126
  10.63281   2.20896  -8.39350
  10.72259   2.11917  -7.60042
  10.70763   2.16406  -6.89713
  10.72259   2.05932  -5.89455
  10.76748   1.96954  -5.02666
  10.69266   1.90968  -4.24854
  10.54303   1.71515  -3.44050
  10.39339   1.58048  -2.72224
  10.15397   1.43084  -1.97405
   9.85469   1.29617  -1.28572
   9.49556   1.19142  -0.58242
   9.03169   0.95200  -0.08862
   8.52292   0.90711   0.61468
   7.98422   0.84725   1.13841
   7.23603   0.63776   1.63222
   6.56267   0.77243   2.03624
   5.64988   0.60783   2.32055
   4.88672   0.68265   2.82932
   3.89912   0.45820   3.21838
   2.95640   0.42827   3.51765
   1.83412   0.57791   3.75707
   0.77169   0.60783   4.19102
  -0.44037   0.54798   4.47533
  -1.60755   0.66769   4.93921
  -2.75976   0.78740   5.44798
  -4.07657   0.86222   5.89689
  -5.28863   0.90711   6.31587
  -6.54559   1.01185   6.73486
  -7.83247   1.10164   7.19874
  -8.93979   1.31113   7.76736
 -10.22667   1.26624   8.30605
 -11.43874   1.31113   8.93453
 -12.69569   1.29617   9.38344
 -13.86287   1.22135   9.98199
 -14.88040   1.37098  10.68529
 -15.92787   1.43084  11.31377
 -16.90051   1.43084  12.07692
 -17.97790   1.41588  12.73533
 -18.81587   1.43084  13.52841
 -19.86334   1.67026  14.15688
 -20.80605   1.77501  14.78536
 -21.52431   2.16406  15.42880
 -22.36228   2.38852  15.84779
 -23.09551   2.53816  16.19196
 -23.75391   2.62794  16.43138
 -24.30757   2.76261  16.58101
 -24.86123   2.88232  16.53612
 -25.31014   3.03196  16.20692
 -25.66927   2.88232  15.96750
 -26.13315   2.82247  15.26420
 -26.32768   2.86736  14.68062
 -26.49228   2.76261  14.08207
 -26.58206   2.32867  13.09446
 -26.61199   2.04435  12.31634
 -26.70177   1.61040  11.31377
 -26.58206   1.31113  10.35609
 -26.37257   1.05675   9.39841
 -26.17804   0.69762   8.42576
 -25.60942   0.56294   7.51297
 -25.19043   0.23374   6.66004
 -24.57692   0.12899   5.62754
 -24.03822  -0.06554   4.74468
 -22.97580  -0.17028   3.83189
 -21.97323  -0.39474   2.91910
 -20.91080  -0.43963   2.11106
 -19.83341  -0.60423   1.27309
 -18.71113  -0.75387   0.52490
 -17.42424  -0.76883  -0.32804
 -16.13736  -0.85862  -0.98644
 -14.86544  -0.94840  -1.55506
 -13.53366  -1.06811  -2.09376
 -12.26175  -1.21775  -2.52771
 -11.04968  -1.20278  -2.99159
  -9.65805  -1.30753  -3.39561
  -8.58066  -1.30753  -3.78466
  -7.29378  -1.33746  -4.14379
  -6.02186  -1.35242  -4.42811
  -4.86965  -1.47213  -4.87702
  -3.55284  -1.45717  -5.19126
  -2.29588  -1.48709  -5.40075
  -1.00900  -1.45717  -5.78981
   0.24796  -1.11300  -6.04419
   1.54981  -1.00825  -6.32850
   2.80676  -0.69401  -6.74749
   3.98890  -0.36481  -7.24129
   5.09622  -0.05057  -7.72013
   6.17361   0.17388  -8.27379
   7.10136   0.36841  -8.75263
   8.05904   0.26367  -9.39607
   9.04665   0.35345  -9.80010
  10.01929   0.32352 -10.35376
  10.84230   0.09907 -10.68296
  11.77005  -0.15532 -11.13187
  12.74270  -0.48452 -11.37129
  13.52081  -0.82869 -11.58078
  14.49346  -1.33746 -11.64064
  15.30150  -1.89111 -11.74539
  16.15444  -2.54952 -11.62568
  17.06723  -2.95354 -11.61071
  17.83038  -3.40245 -11.35633
  18.69827  -3.67180 -11.05705
  19.40157  -3.88130 -10.77274
  20.23954  -4.10575 -10.33879
  21.12240  -4.10575  -9.91981
  21.75088  -4.12072  -9.54571
  22.46914  -4.09079  -9.11176
  23.14251  -3.97108  -8.66285
  23.65128  -3.68677  -8.06430
  24.24983  -3.20793  -7.57050
  24.71371  -2.65427  -6.97195
  25.10276  -2.13054  -6.52303
  25.59657  -1.20278  -6.22376
  25.68635  -0.69401  -6.08908
  25.89584  -0.12539  -5.90952
  25.98563   0.36841  -5.78981
  25.95570   0.63776  -5.77484
  26.10534   0.81733  -5.68506
  26.09037   0.90711  -5.59528
  26.00059   0.96696  -5.59528
  25.79110   0.90711  -5.52046
  25.59657   0.81733  -5.47557
  25.35715   0.71258  -5.31097
  24.98305   0.48812  -5.19126
  24.54911   0.41330  -4.89198
  23.83084   0.17388  -4.71242
  23.47171   0.26367  -4.32336
  22.75345   0.23374  -3.88941
  22.18483   0.32352  -3.50035
  21.49650   0.24870  -3.06640
  20.70342   0.44323  -2.73720
  19.68588   0.42827  -2.39303
  18.81798   0.60783  -1.86930
  17.90520   0.78740  -1.37550
  16.72306   0.63776  -1.03133
  15.67560   0.60783  -0.52256
  14.52339   0.33849  -0.11854
  13.46096   0.09907   0.58475
  12.27882   0.02425   1.28805
  11.24632  -0.06554   1.94646
  10.19886  -0.26007   2.72457
   8.91198  -0.36481   3.50269
   7.77473  -0.52941   4.29577
   6.62252  -0.46956   5.26841
   5.53017  -0.51445   6.09142
   4.49767  -0.26007   6.89946
   3.49509  -0.15532   7.70750
   2.56734   0.20381   8.53051
   1.53484   0.35345   9.17395
   0.59212   0.63776   9.71265
  -0.35059   0.80236  10.25134
  -1.32324   1.07171  10.84989
  -2.29588   1.17646  11.32873
  -3.23860   1.31113  11.55319
  -4.15139   1.19142  11.86743
  -4.94447   1.32609  12.12181
  -5.87222   1.19142  11.94225
  -6.69523   1.13156  11.98714
  -7.41349   0.95200  11.85247
  -8.13175   0.92207  11.56815
  -8.83504   0.54798  11.17910
  -9.26899   0.15892  10.84989
  -9.59820  -0.21517  10.22142
  -9.82265  -0.45459   9.50315
  -9.98725  -0.72394   8.81482
 -10.00222  -0.93343   8.02174
 -10.06207  -1.17285   7.28852
 -10.00222  -1.30753   6.51040
 -10.00222  -1.62177   5.62754
  -9.89747  -1.81630   4.84943
  -9.65805  -2.07068   4.20598
  -9.53834  -2.17543   3.57751
  -9.40367  -2.42981   2.82932
  -9.17921  -2.54952   2.21580
  -8.83504  -2.74405   1.69207
  -8.49088  -2.90865   1.18330
  -7.93722  -2.86376   0.77928
  -7.57809  -3.07325   0.37526
  -6.93465  -2.98347   0.13584
  -6.41092  -2.99843  -0.08862
  -5.85726  -2.92361  -0.28314
  -5.22878  -2.62434  -0.46271
  -4.67512  -2.63930  -0.61235
  -4.13642  -2.56448  -0.97148
  -3.55284  -2.41485  -1.10615
  -3.04407  -2.34003  -1.33061
  -2.47545  -2.34003  -1.59996
  -2.02653  -2.19039  -1.98901
  -1.41302  -1.98090  -2.25836
  -1.00900  -1.74148  -2.79706
  -0.63490  -1.44220  -3.35072
  -0.18599  -1.05314  -4.05401
   0.24796  -0.84365  -4.84709
   0.48738  -0.63416  -5.61024
   0.84651  -0.31992  -6.28361
   1.07097  -0.20021  -7.03180
   1.31039  -0.17028  -7.64531
   1.37024  -0.08050  -8.36358
   1.65455   0.06914  -8.69278
