********************************************************************************
              CENTRO DE INSTRUMENTACION Y REGISTRO SISMICO  A.C.

    Anaxagoras 814, Col. Narvarte, Benito Juarez, C.P. 03020 Mexico, D.F.
           Tels. 5687 45 42/ 5687 45  82             Fax. 5669 25 12
********************************************************************************
ARCHIVO ESTANDAR DE ACELERACION:
VERSION DEL FORMATO                    : 2.0
NOMBRE DEL ARCHIVO                     : UI2120200623152903
FECHA Y HORA DE CREACION               : 18/AGO/21, 13:44
REF. CATALOGO ACELEROGRAMAS, SMIS 1996 : REGISTRO No.     /PAG.


================================================================================
DATOS DE LA ESTACION:
NOMBRE DE LA ESTACION                  : U. IBEROAMERICANA
CLAVE DE LA ESTACION                   : UI21
LOCALIZACION DE LA ESTACION            : Del Alvaro Obregón, Col. Centro,       
                                       : Comercial Lomas de Sta. Fe,            
                                       : Aut. México-Toluca Km 9.5              
                                       : Esq. Joaquín Gallo.                    
                                       : 
COORDENADAS DE LA ESTACION             : 19.3700 LAT. N
                                       : 99.2642 LONG. W
ALTITUD (msnm)                         : 2540
TIPO DE SUELO                          : Terreno firme, materiales compactos 
                                       : (limos, arenas, gravas)   
                                       : 
INSTITUCION RESPONSABLE                : CIRES, A. C.
                                       : 

================================================================================
DATOS DEL ACELEROGRAFO:
MODELO DEL ACELEROGRAFO                : RAD_IO14
NUMERO DE SERIE DEL ACELEROGRAFO       : 
NUMERO DE CANALES                      : 3
ORIENTACION C1-C6 (rumbo;orientacion)  : /S00E/+V/N90W
ORIENTACION C7-C12 (rumbo;orientacion) : 
VEL. DE MUESTREO, C1-C6 (muestras/s)   : /100/100/100
VEL. DE MUESTREO, C7-C12 (muestras/s)  : 
ESC. COMPLETA DE SENSORES, C1-C6, (g)  : /2.0/2.0/2.0
ESC. COMPLETA DE SENSORES, C7-C12, (g) : 
FREC. NAT. DE SENSORES, C1-C6, (Hz)    : /54.11/51.56/54.11
FREC. NAT. DE SENSORES, C7-C12, (Hz)   : 
AMORTIGUAMIENTO DE SENSORES, C1-C6     : /0.5715/0.6038/0.5715
AMORTIGUAMIENTO DE SENSORES, C7-C12    : 
INTERVALO DE MUESTREO, C1-C6, (s)      : /0.01/0.01/0.01
INTERVALO DE MUESTREO, C7-C12, (s)     : 
UMBRAL DE DISPARO, C1-C6, (Gal)        : / / /
UMBRAL DE DISPARO, C7-C12, (Gal)       :
MEMORIA DE PREEVENTO (s)               : 60
TIEMPO DE POSEVENTO (s)                : 90


================================================================================
DATOS DEL SISMO:
FECHA DEL SISMO (GMT)                  : 23/JUN/20
HORA EPICENTRO (GMT)                   : 15:29:03.0
MAGNITUD(ES)                           : /Mc=7.4
COORDENADAS DEL EPICENTRO              : 15.80 LAT. N
                                       : 96.13 LONG. W
PROFUNDIDAD FOCAL (km)                 : 22
FUENTE DE LOS DATOS EPICENTRALES       : SSN
                                       : INSTITUTO DE GEOFISICA, UNAM

================================================================================
DATOS DE ESTE REGISTRO:
HORA DE LA PRIMERA MUESTRA (GMT)       : 10:27:25.00
EXACTITUD DEL TIEMPO (s)               : 
DURACION DEL REGISTRO (s), C1-C6       : /539.97/539.97/539.97
DURACION DEL REGISTRO (s), C7-C12      : 
NUM. TOTAL DE MUESTRAS, C1-C6          : /53997/53997/53997
NUM. TOTAL DE MUESTRAS, C7-C12         : 
ACEL. MAX. (Gal), C1-C6                : /9.27778/4.81083/11.68071
ACEL. MAX., C1-C6, EN LA MUESTRA       : /18935/19208/19433
ACEL. MAX. (Gal), C7-C12               : 
ACEL. MAX., C7-C12, EN LA MUESTRA      : 
UNIDADES DE LOS DATOS                  : Gal (cm/s/s)
FACTOR DE DECIMACION                   : 1
FORMATO DATOS (FORTRAN,10 campos/dato) : 3F10.5


================================================================================
CALIDAD DEL ACELEROGRAMA:
REGISTRO DIGITAL COMPLETO CON TIEMPO ABSOLUTO CORRECTO.


================================================================================
COMENTARIOS:














================================================================================
DATOS DE ACELERACION:
---------+---------+---------+---------+---------+---------+---------+---------+
   CANAL-1   CANAL-2   CANAL-3   CANAL-4   CANAL-5   CANAL-6   CANAL-7   CANAL-8
      S00E        +V      N90W
---------+---------+---------+---------+---------+---------+---------+---------+
[...]
  -6.52444   2.85067   3.12151
  -7.00324   2.79077   3.36091
  -7.48214   2.73097   3.54041
  -7.84124   2.61127   3.77991
  -8.20034   2.55137   4.13901
  -8.37994   2.49157   4.37841
  -8.61934   2.31197   4.61781
  -8.79894   2.13237   4.97701
  -8.79894   1.95287   5.21641
  -8.79894   1.83317   5.51571
  -8.73904   1.53387   5.81491
  -8.55954   1.29447   6.11421
  -8.37994   1.11487   6.47331
  -8.20034   0.81557   6.83251
  -7.90114   0.63607   7.19161
  -7.54194   0.45647   7.49091
  -7.12294   0.39657   7.85001
  -6.76384   0.15717   8.14931
  -6.40474  -0.08223   8.38871
  -6.04564  -0.26183   8.50841
  -5.80614  -0.44133   8.68801
  -5.56674  -0.56113   8.92741
  -5.26744  -0.68083   8.98731
  -5.14774  -0.74063   9.10701
  -5.08794  -0.92023   9.16681
  -4.90834  -0.98003   9.22671
  -4.78864  -1.03993   9.22671
  -4.66894  -1.09973   9.10701
  -4.48934  -1.21953   8.86751
  -4.30984  -1.27933   8.56831
  -4.24994  -1.27933   8.26901
  -4.07034  -1.33923   8.14931
  -3.77114  -1.39903   7.90991
  -3.53164  -1.45893   7.67041
  -3.17254  -1.39903   7.37121
  -2.99304  -1.45893   7.13171
  -2.75354  -1.63843   7.01201
  -2.51414  -1.75823   6.83251
  -2.27474  -1.93773   6.65291
  -2.09514  -2.23703   6.59311
  -1.85574  -2.41663   6.53321
  -1.55644  -2.59613   6.41351
  -1.31704  -2.77573   6.53321
  -1.01774  -2.89543   6.41351
  -0.77834  -3.19473   6.17411
  -0.59884  -3.25453   5.99451
  -0.23964  -3.31443   5.87481
   0.11946  -3.37423   5.69521
   0.41876  -3.43413   5.39601
   0.65816  -3.37423   5.03681
   1.01726  -3.19473   4.73751
   1.43626  -2.89543   4.43831
   1.67566  -2.65603   3.95941
   1.91516  -2.41663   3.30101
   2.27426  -2.11733   2.82221
   2.63336  -1.81803   2.28351
   2.81296  -1.57863   1.80471
   3.17206  -1.33923   1.20611
   3.59106  -1.03993   0.78711
   3.89036  -0.74063   0.30831
   4.24946  -0.62093  -0.17059
   4.60856  -0.56113  -0.64939
   4.90786  -0.38153  -1.00849
   5.08746  -0.26183  -1.36769
   5.26696  -0.32163  -1.72679
   5.44656  -0.26183  -2.20559
   5.50646  -0.26183  -2.68449
   5.62616  -0.26183  -2.98379
   5.74586  -0.08223  -3.34289
   5.86556   0.03747  -3.70199
   5.86556   0.15717  -4.00129
   5.92536   0.27687  -4.42029
   6.04516   0.51627  -4.83929
   6.10496   0.57617  -5.07869
   6.16486   0.63607  -5.37799
   6.28456   0.51627  -5.61739
   6.34436   0.51627  -5.73709
   6.34436   0.45647  -5.85679
   6.40426   0.33677  -5.91659
   6.46406   0.39657  -5.85679
   6.46406   0.39657  -5.85679
   6.46406   0.39657  -5.73709
   6.52396   0.33677  -5.61739
   6.40426   0.15717  -5.61739
   6.46406   0.03747  -5.31809
   6.34436  -0.20193  -5.13849
   6.34436  -0.44133  -4.89909
   6.34436  -0.68083  -4.53999
   6.22466  -0.92023  -4.24069
   6.28456  -1.21953  -3.94139
   6.28456  -1.39903  -3.40269
   6.16486  -1.69833  -2.86399
   6.10496  -2.05743  -2.44509
   6.04516  -2.29683  -1.96619
   5.92536  -2.53633  -1.42749
   5.80566  -2.77573  -0.94869
   5.74586  -2.83553  -0.35009
   5.74586  -2.95533   0.18861
   5.68596  -3.19473   0.66741
   5.50646  -3.37423   1.26601
   5.38676  -3.55383   1.68491
   5.14726  -3.67353   2.22361
   4.78816  -3.73343   2.82221
   4.42906  -3.91293   3.30101
   4.01006  -4.21223   3.66021
   3.65096  -4.39183   4.13901
   3.17206  -4.51153   4.37841
   2.75306  -4.63123   4.55801
   2.33406  -4.81083   4.67771
   1.97496  -4.69103   4.67771
   1.43626  -4.69103   4.55801
   0.95746  -4.69103   4.37841
   0.53846  -4.57133   4.13901
   0.05966  -4.33193   3.83971
  -0.41924  -4.03263   3.42071
  -0.95794  -3.79323   2.88201
  -1.25724  -3.55383   2.34331
  -1.49664  -3.31443   1.74481
  -1.73604  -2.95533   1.08641
  -1.85574  -2.65603   0.48781
  -1.91564  -2.29683  -0.05089
  -1.91564  -2.11733  -0.52969
  -1.73604  -2.05743  -1.06839
  -1.61634  -1.87793  -1.54719
  -1.25724  -1.69833  -1.90639
  -0.95794  -1.57863  -2.14579
  -0.53894  -1.69833  -2.38519
  -0.11994  -1.75823  -2.50489
   0.29906  -1.81803  -2.62459
   0.71806  -1.93773  -2.62459
   1.19686  -1.99763  -2.62459
   1.61586  -1.99763  -2.62459
   1.97496  -2.11733  -2.56479
   2.33406  -2.23703  -2.62459
   2.57356  -2.29683  -2.62459
   2.81296  -2.35673  -2.62459
   2.87276  -2.29683  -2.62459
   3.05236  -2.11733  -2.62459
   3.11226  -2.05743  -2.50489
   3.23196  -1.87793  -2.44509
   3.17206  -1.75823  -2.44509
   3.05236  -1.69833  -2.50489
   2.99256  -1.45893  -2.44509
   2.93266  -1.09973  -2.50489
   2.81296  -0.86033  -2.56479
   2.81296  -0.62093  -2.50489
   2.75306  -0.38153  -2.50489
   2.81296  -0.20193  -2.50489
   2.69326   0.09737  -2.62459
   2.57356   0.39657  -2.74429
   2.63336   0.63607  -2.74429
   2.63336   0.75577  -2.80419
   2.45386   0.93527  -2.86399
   2.39396   0.99517  -2.98379
   2.27426   1.11487  -2.98379
   2.15456   1.23457  -2.98379
   1.97496   1.29447  -2.92389
   1.61586   1.35427  -2.92389
   1.13696   1.47397  -2.98379
   0.71806   1.65357  -2.98379
   0.17936   1.89297  -2.92389
  -0.35934   2.13237  -2.80419
  -1.01774   2.31197  -2.68449
  -1.61634   2.49157  -2.50489
  -2.09514   2.79077  -2.44509
  -2.69374   2.91047  -2.38519
  -3.29224   2.91047  -2.26549
  -3.83094   2.91047  -2.08589
  -4.30984   2.85067  -1.90639
  -4.78864   2.91047  -1.66689
  -5.26744   2.91047  -1.60709
  -5.68644   2.91047  -1.48739
  -6.04564   2.91047  -1.30779
  -6.40474   2.79077  -1.06839
  -6.70404   2.85067  -0.82899
  -6.88354   2.73097  -0.64939
  -7.00324   2.67107  -0.58959
  -7.06314   2.61127  -0.58959
  -7.12294   2.37177  -0.46979
  -7.06314   2.25207  -0.40999
  -7.00324   2.13237  -0.40999
  -6.82374   1.95287  -0.52969
  -6.70404   1.77327  -0.52969
  -6.52444   1.59367  -0.46979
  -6.22514   1.47397  -0.52969
  -5.98574   1.35427  -0.58959
  -5.68644   1.29447  -0.70929
  -5.20764   1.17467  -0.94869
  -4.96824   1.23457  -1.24799
  -4.66894   1.29447  -1.48739
  -4.30984   1.47397  -1.72679
  -4.07034   1.65357  -2.02609
  -3.83094   2.01267  -2.32529
  -3.53164   2.31197  -2.62459
  -3.35214   2.43167  -3.04359
  -3.23244   2.67107  -3.28299
  -3.23244   2.85067  -3.46259
  -3.11274   2.85067  -3.70199
  -2.99304   2.85067  -3.82169
  -3.05284   2.79077  -3.94139
  -3.05284   2.61127  -4.00129
  -3.11274   2.43167  -4.06109
  -3.11274   2.07257  -4.12099
  -3.17254   1.89297  -4.18089
  -3.23244   1.83317  -4.36039
  -3.23244   1.65357  -4.48009
  -3.35214   1.47397  -4.65969
  -3.41194   1.41417  -4.71949
  -3.53164   1.35427  -4.71949
  -3.59154   1.41417  -4.83929
  -3.59154   1.35427  -4.89909
  -3.71124   1.23457  -4.83929
  -3.77114   1.29447  -4.83929
  -3.77114   1.35427  -4.77939
  -3.89084   1.23457  -4.65969
  -3.95064   1.17467  -4.53999
  -3.89084   1.23457  -4.36039
  -3.65144   1.23457  -4.00129
  -3.53164   1.17467  -3.70199
  -3.29224   1.11487  -3.40269
  -3.11274   0.99517  -2.98379
  -2.93314   0.93527  -2.62459
  -2.51414   0.87547  -2.14579
  -2.33454   0.75577  -1.66689
  -2.03534   0.57617  -1.06839
  -1.61634   0.51627  -0.52969
  -1.25724   0.33677   0.06891
  -1.07764   0.15717   0.60761
  -0.77834  -0.02243   1.08641
  -0.47904  -0.20193   1.44551
  -0.29954  -0.26183   1.80471
  -0.06014  -0.32163   2.10391
   0.05966  -0.32163   2.40321
   0.23916  -0.20193   2.64261
   0.41876  -0.20193   2.82221
   0.41876  -0.32163   2.94191
   0.35886  -0.44133   2.94191
   0.41876  -0.32163   2.88201
   0.41876  -0.38153   2.94191
   0.35886  -0.38153   3.00181
   0.29906  -0.32163   3.00181
   0.17936  -0.32163   2.88201
   0.17936  -0.20193   2.76231
   0.17936  -0.02243   2.64261
   0.11946  -0.02243   2.70251
   0.23916  -0.14213   2.70251
   0.23916  -0.08223   2.64261
   0.35886   0.09737   2.52291
   0.41876   0.15717   2.40321
   0.65816   0.21707   2.40321
   0.71806   0.03747   2.46311
   0.77786  -0.08223   2.52291
   0.83776  -0.26183   2.46311
   1.07716  -0.32163   2.40321
   1.19686  -0.08223   2.46311
   1.31656   0.03747   2.58281
   1.49616   0.09737   2.70251
   1.55596   0.15717   2.70251
   1.73556   0.21707   2.76231
   1.79546   0.27687   2.82221
   1.97496   0.33677   2.82221
   2.03486   0.15717   2.88201
   2.03486   0.03747   2.82221
   2.03486   0.03747   2.64261
   2.03486   0.09737   2.64261
   1.97496   0.09737   2.76231
   1.79546   0.15717   2.64261
   1.61586   0.15717   2.64261
   1.43626   0.09737   2.58281
   1.31656  -0.02243   2.40321
   1.01726  -0.02243   2.34331
   0.89756  -0.02243   2.34331
   0.65816  -0.14213   2.22361
   0.47856  -0.38153   2.22361
   0.41876  -0.56113   2.04411
   0.41876  -0.62093   2.04411
   0.47856  -0.80053   2.10391
   0.47856  -0.86033   1.98421
   0.53846  -0.92023   1.98421
   0.65816  -1.09973   1.80471
   0.59836  -1.27933   1.80471
   0.59836  -1.39903   1.74481
   0.71806  -1.39903   1.56521
   0.71806  -1.27933   1.26601
   0.71806  -1.15963   1.02651
   0.71806  -1.03993   0.84701
   0.71806  -0.86033   0.42801
   0.77786  -0.74063   0.00901
   0.89756  -0.56113  -0.35009
   0.95746  -0.44133  -0.88879
   0.95746  -0.26183  -1.36769
   1.13696  -0.20193  -1.90639
   1.19686  -0.14213  -2.38519
   1.25676  -0.08223  -2.98379
   1.19686   0.03747  -3.52239
   1.19686   0.15717  -3.88159
   1.01726   0.27687  -4.42029
   0.89756   0.39657  -4.83929
   0.59836   0.45647  -5.31809
   0.23916   0.57617  -5.67719
  -2.4E-40   0.87547  -6.03639
  -0.11994   0.99517  -6.33559
  -0.29954   1.23457  -6.57509
  -0.47904   1.35427  -6.75459
  -0.71854   1.41417  -6.93419
  -0.83824   1.47397  -6.99399
  -1.01774   1.53387  -6.87429
  -1.07764   1.47397  -6.81449
  -1.25724   1.53387  -6.45529
  -1.37694   1.41417  -6.09619
  -1.31704   1.35427  -5.55749
  -1.19734   1.29447  -4.95899
  -1.01774   1.17467  -4.24069
  -0.89804   0.99517  -3.46259
  -0.77834   0.69587  -2.62459
  -0.65864   0.45647  -1.78669
  -0.41924   0.33677  -0.82899
  -0.29954   0.03747   0.30831
  -0.06014  -0.26183   1.38571
   0.17936  -0.62093   2.46311
   0.17936  -0.98003   3.60031
   0.29906  -1.21953   4.67771
   0.47856  -1.39903   5.69521
   0.47856  -1.57863   6.65291
   0.41876  -1.75823   7.61061
   0.35886  -1.93773   8.44861
   0.23916  -1.99763   9.22671
   0.05966  -2.05743   9.88511
  -0.11994  -2.05743  10.48361
  -0.23964  -1.93773  10.90261
  -0.47904  -1.87793  11.26171
  -0.65864  -1.75823  11.50121
  -0.89804  -1.63843  11.62091
  -1.13744  -1.51873  11.68071
  -1.37694  -1.21953  11.68071
  -1.43674  -0.98003  11.50121
  -1.61634  -0.74063  11.26171
  -1.67614  -0.56113  10.84281
  -1.79594  -0.32163  10.42381
  -1.79594  -0.02243   9.88511
  -1.79594   0.21707   9.34641
  -1.91564   0.45647   8.80771
  -1.91564   0.69587   8.08941
  -1.91564   0.81557   7.43101
  -1.97544   0.99517   6.89231
  -1.85574   1.17467   6.29381
  -1.79594   1.35427   5.63541
  -1.79594   1.59367   5.15651
  -1.73604   1.71337   4.61781
  -1.61634   1.83317   4.01931
  -1.55644   1.89297   3.60031
  -1.55644   1.95287   3.06161
  -1.43674   2.07257   2.64261
  -1.31704   2.13237   2.16381
  -1.19734   2.01267   1.86451
  -1.07764   2.01267   1.44551
  -0.89804   1.95287   1.02651
  -0.71854   1.89297   0.60761
  -0.53894   1.77327   0.30831
  -0.23964   1.59367  -0.17059
  -2.4E-40   1.41417  -0.58959
   0.35886   1.23457  -1.06839
   0.65816   1.05497  -1.54719
   0.95746   0.93527  -2.02609
   1.37646   0.81557  -2.50489
   1.85526   0.75577  -3.10349
   2.27426   0.63607  -3.52239
   2.69326   0.69587  -3.94139
   3.11226   0.69587  -4.42029
   3.53116   0.75577  -4.95899
   3.89036   0.69587  -5.49769
   4.24946   0.69587  -5.85679
   4.54876   0.81557  -6.09619
   4.96776   0.93527  -6.45529
   5.38676   1.11487  -6.69479
   5.68596   1.17467  -6.81449
   5.86556   1.29447  -6.93419
   5.92536   1.29447  -6.99399
   5.98526   1.29447  -6.87429
   6.10496   1.47397  -6.81449
   6.04516   1.53387  -6.69479
   5.80566   1.53387  -6.51519
   5.50646   1.59367  -6.39549
   5.20716   1.65357  -6.33559
   4.84806   1.59367  -5.97649
   4.30936   1.59367  -5.67719
   3.77066   1.47397  -5.31809
   3.17206   1.47397  -4.89909
   2.51366   1.41417  -4.53999
   1.91516   1.35427  -4.06109
   1.25676   1.29447  -3.64219
   0.59836   1.11487  -2.98379
  -0.17984   1.11487  -2.38519
  -0.83824   1.05497  -1.66689
  -1.43674   0.93527  -1.00849
  -2.15504   0.87547  -0.40999
  -2.81344   0.75577   0.18861
  -3.53164   0.69587   0.72731
  -4.13024   0.57617   1.26601
  -4.54924   0.39657   1.80471
  -4.96824   0.33677   2.28351
  -5.32734   0.21707   2.76231
  -5.56674  -0.02243   3.18131
  -5.50694  -0.14213   3.60031
  -5.38724  -0.26183   4.07911
  -5.20764  -0.38153   4.49811
  -5.02804  -0.50123   4.79741
  -4.60904  -0.62093   5.03681
  -4.01054  -0.74063   5.15651
  -3.41194  -0.92023   5.33611
  -2.75354  -0.92023   5.33611
  -1.97544  -1.03993   5.21641
  -1.31704  -1.15963   5.15651
  -0.65864  -1.27933   4.91711
   0.17936  -1.33923   4.73751
   0.89756  -1.27933   4.43831
   1.55596  -1.39903   4.07911
   2.15456  -1.45893   3.72001
   2.81296  -1.39903   3.36091
   3.35166  -1.51873   2.94191
   3.83046  -1.63843   2.40321
   4.24946  -1.69833   1.86451
   4.60856  -1.63843   1.32581
   4.84806  -1.63843   0.66741
   5.02756  -1.63843   0.06891
   5.14726  -1.63843  -0.64939
   5.32686  -1.63843  -1.30779
   5.50646  -1.51873  -1.90639
   5.44656  -1.39903  -2.56479
   5.50646  -1.39903  -3.22319
   5.50646  -1.39903  -3.88159
   5.50646  -1.27933  -4.48009
   5.68596  -1.33923  -5.01879
   5.74586  -1.27933  -5.43779
   5.62616  -1.15963  -5.73709
   5.56626  -1.15963  -6.09619
   5.38676  -1.21953  -6.33559
   5.26696  -1.15963  -6.51519
   4.96776  -1.27933  -6.63489
   4.78816  -1.27933  -6.63489
   4.60856  -1.15963  -6.57509
   4.30936  -1.15963  -6.51519
   4.06986  -1.15963  -6.45529
   3.83046  -1.09973  -6.27579
   3.47136  -1.03993  -6.15609
   3.17206  -0.98003  -5.97649
   2.87276  -0.92023  -5.79689
   2.63336  -0.92023  -5.49769
   2.39396  -0.80053  -5.31809
   2.21436  -0.68083  -5.07869
   2.09466  -0.50123  -4.77939
   1.79546  -0.44133  -4.36039
   1.67566  -0.32163  -4.00129
   1.55596  -0.20193  -3.64219
   1.43626  -0.20193  -3.28299
   1.25676  -0.20193  -2.92389
   0.95746  -0.20193  -2.44509
   0.71806  -0.20193  -1.96619
   0.53846  -0.26183  -1.60709
   0.23916  -0.38153  -1.12819
  -2.4E-40  -0.56113  -0.70929
  -0.17984  -0.62093  -0.23039
  -0.41924  -0.68083   0.18861
  -0.59884  -0.74063   0.66741
  -0.77834  -0.92023   1.08641
  -0.83824  -0.98003   1.62511
  -0.89804  -1.15963   2.16381
  -0.95794  -1.27933   2.52291
  -1.01774  -1.33923   2.94191
  -1.07764  -1.33923   3.24121
  -1.13744  -1.33923   3.66021
  -1.25724  -1.39903   4.01931
  -1.49664  -1.51873   4.31861
  -1.67614  -1.57863   4.43831
  -2.03534  -1.63843   4.61781
  -2.39444  -1.69833   4.73751
  -2.81344  -1.87793   4.79741
