********************************************************************************
              CENTRO DE INSTRUMENTACION Y REGISTRO SISMICO  A.C.

    Anaxagoras 814, Col. Narvarte, Benito Juarez, C.P. 03020 Mexico, D.F.
           Tels. 5687 45 42/ 5687 45  82             Fax. 5669 25 12
********************************************************************************
ARCHIVO ESTANDAR DE ACELERACION:
VERSION DEL FORMATO                    : 2.0
NOMBRE DEL ARCHIVO                     : VG0920200623152903
FECHA Y HORA DE CREACION               : 18/AGO/21, 13:44
REF. CATALOGO ACELEROGRAMAS, SMIS 1996 : REGISTRO No.     /PAG.


================================================================================
DATOS DE LA ESTACION:
NOMBRE DE LA ESTACION                  : VALLE GÓMEZ
CLAVE DE LA ESTACION                   : VG09
LOCALIZACION DE LA ESTACION            : Del. Venustiano Carranza,              
                                       : Col. Nicolas Bravo, Cananea            
                                       : Entre calles Platino y Cobre.          
                                       :                                        
                                       : 
COORDENADAS DE LA ESTACION             : 19.4539 LAT. N
                                       : 99.1225 LONG. W
ALTITUD (msnm)                         : 2233
TIPO DE SUELO                          : Terreno blando, material compresible
                                       : (arcillas)                
                                       : 
INSTITUCION RESPONSABLE                : CIRES, A. C.
                                       : 

================================================================================
DATOS DEL ACELEROGRAFO:
MODELO DEL ACELEROGRAFO                : RAD_IO14
NUMERO DE SERIE DEL ACELEROGRAFO       : 
NUMERO DE CANALES                      : 3
ORIENTACION C1-C6 (rumbo;orientacion)  : /S00E/+V/N90W
ORIENTACION C7-C12 (rumbo;orientacion) : 
VEL. DE MUESTREO, C1-C6 (muestras/s)   : /100/100/100
VEL. DE MUESTREO, C7-C12 (muestras/s)  : 
ESC. COMPLETA DE SENSORES, C1-C6, (g)  : /2.0/2.0/2.0
ESC. COMPLETA DE SENSORES, C7-C12, (g) : 
FREC. NAT. DE SENSORES, C1-C6, (Hz)    : /52.56/52.03/51.86
FREC. NAT. DE SENSORES, C7-C12, (Hz)   : 
AMORTIGUAMIENTO DE SENSORES, C1-C6     : /0.6053/0.5731/0.5912
AMORTIGUAMIENTO DE SENSORES, C7-C12    : 
INTERVALO DE MUESTREO, C1-C6, (s)      : /0.01/0.01/0.01
INTERVALO DE MUESTREO, C7-C12, (s)     : 
UMBRAL DE DISPARO, C1-C6, (Gal)        : / / /
UMBRAL DE DISPARO, C7-C12, (Gal)       :
MEMORIA DE PREEVENTO (s)               : 60
TIEMPO DE POSEVENTO (s)                : 90


================================================================================
DATOS DEL SISMO:
FECHA DEL SISMO (GMT)                  : 23/JUN/20
HORA EPICENTRO (GMT)                   : 15:29:03.0
MAGNITUD(ES)                           : /Mc=7.4
COORDENADAS DEL EPICENTRO              : 15.80 LAT. N
                                       : 96.13 LONG. W
PROFUNDIDAD FOCAL (km)                 : 22
FUENTE DE LOS DATOS EPICENTRALES       : SSN
                                       : INSTITUTO DE GEOFISICA, UNAM

================================================================================
DATOS DE ESTE REGISTRO:
HORA DE LA PRIMERA MUESTRA (GMT)       : 10:27:25.00
EXACTITUD DEL TIEMPO (s)               : 
DURACION DEL REGISTRO (s), C1-C6       : /539.95/539.95/539.95
DURACION DEL REGISTRO (s), C7-C12      : 
NUM. TOTAL DE MUESTRAS, C1-C6          : /53995/53995/53995
NUM. TOTAL DE MUESTRAS, C7-C12         : 
ACEL. MAX. (Gal), C1-C6                : /38.32411/5.10096/36.27385
ACEL. MAX., C1-C6, EN LA MUESTRA       : /19187/19850/20806
ACEL. MAX. (Gal), C7-C12               : 
ACEL. MAX., C7-C12, EN LA MUESTRA      : 
UNIDADES DE LOS DATOS                  : Gal (cm/s/s)
FACTOR DE DECIMACION                   : 1
FORMATO DATOS (FORTRAN,10 campos/dato) : 3F10.5


================================================================================
CALIDAD DEL ACELEROGRAMA:
REGISTRO DIGITAL COMPLETO CON TIEMPO ABSOLUTO CORRECTO.


================================================================================
COMENTARIOS:














================================================================================
DATOS DE ACELERACION:
---------+---------+---------+---------+---------+---------+---------+---------+
   CANAL-1   CANAL-2   CANAL-3   CANAL-4   CANAL-5   CANAL-6   CANAL-7   CANAL-8
      S00E        +V      N90W
---------+---------+---------+---------+---------+---------+---------+---------+
[...]
 -12.61249   0.40574  -2.03675
 -13.45049   0.04664  -1.55785
 -14.22859  -0.13296  -0.95935
 -15.06659  -0.31256  -0.48045
 -15.84469  -0.73156  -0.00165
 -16.50309  -0.91106   0.53705
 -17.22139  -1.03076   1.13555
 -17.93959  -1.21036   1.61445
 -18.53819  -1.33006   2.21295
 -19.19659  -1.44976   2.69185
 -19.73529  -1.56946   3.35025
 -20.21409  -1.50966   3.88895
 -20.75279  -1.44976   4.48745
 -21.29149  -1.56946   5.02615
 -21.71049  -1.56946   5.44515
 -22.24919  -1.50966   5.86415
 -22.84769  -1.50966   6.46265
 -23.44629  -1.38996   6.88165
 -23.92509  -1.27026   7.30065
 -24.46379  -1.21036   7.65975
 -25.00249  -1.27026   8.07875
 -25.48129  -1.09066   8.49775
 -26.01999  -1.15046   8.79705
 -26.55869  -1.09066   8.97665
 -26.97769  -0.97096   9.09635
 -27.33689  -1.03076   9.27585
 -27.87549  -1.09066   9.27585
 -28.53399  -1.15046   9.27585
 -28.83319  -1.09066   9.27585
 -28.95289  -1.03076   9.15615
 -29.31209  -1.09066   8.85685
 -29.67119  -1.15046   8.55765
 -29.91059  -1.15046   8.19845
 -30.09019  -1.09066   7.95905
 -30.09019  -1.03076   7.42035
 -29.97049  -1.03076   6.76195
 -29.91059  -0.97096   6.28315
 -29.79089  -0.91106   5.44515
 -29.43179  -0.97096   4.66705
 -29.13249  -0.85126   3.88895
 -28.83319  -0.73156   3.05095
 -28.29449  -0.79136   2.15315
 -27.75579  -0.85126   1.43485
 -27.09739  -0.73156   0.47715
 -26.31929  -0.73156  -0.36075
 -25.54119  -0.67166  -1.25865
 -24.70319  -0.55196  -2.15645
 -23.74559  -0.61186  -3.05425
 -22.72799  -0.61186  -3.77255
 -21.71049  -0.49206  -4.37105
 -20.69289  -0.37236  -5.02945
 -19.61559  -0.43226  -5.74775
 -18.59799  -0.43226  -6.40615
 -17.58049  -0.37236  -6.88495
 -16.62279  -0.37236  -7.42365
 -15.60529  -0.31256  -7.96235
 -14.58769  -0.13296  -8.32155
 -13.62999  -0.07316  -8.74045
 -12.79209  -0.19286  -9.15945
 -11.77449  -0.13296  -9.57845
 -10.69719  -0.13296  -9.87775
  -9.67959  -0.13296 -10.29675
  -8.66209  -0.07316 -10.59595
  -7.76429  -0.13296 -10.77555
  -6.80659  -0.13296 -11.07485
  -5.66929  -0.07316 -11.37415
  -4.65179  -0.13296 -11.67335
  -3.57439   0.04664 -12.03255
  -2.67659   0.04664 -12.27195
  -1.65899  -0.01326 -12.57125
  -0.70139   0.04664 -12.63105
   0.25631  -0.01326 -12.87045
   1.27391   0.04664 -13.16975
   2.17171   0.10644 -13.28945
   3.00971   0.04664 -13.40915
   3.90751   0.04664 -13.52885
   4.74541  -0.01326 -13.46905
   5.52361  -0.13296 -13.46905
   6.24181  -0.13296 -13.40915
   6.96011  -0.13296 -13.28945
   7.55861  -0.19286 -13.10995
   8.03751  -0.31256 -12.93035
   8.57621  -0.49206 -12.75075
   8.99521  -0.61186 -12.39165
   9.41411  -0.67166 -12.03255
   9.95281  -0.73156 -11.43395
  10.37181  -0.73156 -11.07485
  10.67111  -0.61186 -10.47625
  11.03021  -0.79136  -9.87775
  11.32951  -0.79136  -9.33905
  11.68861  -0.67166  -8.80035
  12.16751  -0.61186  -8.14195
  12.52661  -0.73156  -7.42365
  12.82591  -0.73156  -7.06455
  13.18501  -0.73156  -6.52585
  13.60401  -0.73156  -6.16675
  14.02301  -0.85126  -5.74775
  14.32231  -0.85126  -5.32875
  14.62151  -0.85126  -4.90975
  15.04051  -0.91106  -4.67035
  15.45951  -1.03076  -4.31125
  15.93831  -1.03076  -3.89225
  16.41721  -0.91106  -3.77255
  16.83621  -0.91106  -3.47325
  17.43471  -0.97096  -3.11415
  17.97341  -1.03076  -2.99445
  18.45231  -0.97096  -2.87465
  18.99091  -1.09066  -2.69515
  19.52961  -1.15046  -2.57545
  19.94861  -1.15046  -2.51555
  20.42751  -1.15046  -2.27615
  20.90631  -1.15046  -1.97685
  21.44501  -1.27026  -1.79735
  21.80411  -1.33006  -1.55785
  22.22311  -1.38996  -1.37835
  22.40271  -1.38996  -1.25865
  22.64211  -1.33006  -1.01915
  22.82171  -1.33006  -0.83965
  23.00121  -1.09066  -0.66005
  23.12091  -1.21036  -0.48045
  23.30051  -1.15046  -0.24105
  23.42021  -1.21036  -0.00165
  23.42021  -1.03076   0.23775
  23.36041  -0.91106   0.35745
  23.36041  -0.97096   0.53705
  23.30051  -0.79136   0.77645
  23.30051  -0.61186   1.07575
  23.24071  -0.37236   1.37505
  23.12091  -0.25266   1.67425
  23.00121  -0.19286   1.97355
  22.88151  -0.07316   2.33265
  22.76181  -0.01326   2.51225
  22.58231  -0.01326   2.81155
  22.58231   0.04664   3.05095
  22.52241   0.16634   3.17065
  22.34281   0.28604   3.29035
  22.34281   0.34584   3.35025
  22.34281   0.34584   3.35025
  22.40271   0.46554   3.35025
  22.46251   0.46554   3.23055
  22.46251   0.52544   3.05095
  22.46251   0.64514   2.99115
  22.58231   0.64514   2.63195
  22.70201   0.76484   2.33265
  22.70201   0.94444   1.97355
  22.76181   1.24374   1.55455
  22.64211   1.30354   1.25535
  22.58231   1.48314   0.77645
  22.52241   1.54294   0.29765
  22.34281   1.60284  -0.00165
  22.34281   1.72254  -0.36075
  22.16331   1.78244  -0.95935
  21.80411   1.78244  -1.37835
  21.44501   1.72254  -1.79735
  21.14571   1.72254  -2.27615
  20.66691   1.72254  -2.51555
  20.12821   1.66264  -2.87465
  19.52961   1.72254  -3.29365
  18.99091   1.60284  -3.65285
  18.45231   1.48314  -3.89225
  17.73401   1.48314  -4.25135
  17.13541   1.42324  -4.55065
  16.47701   1.36344  -4.73015
  15.93831   1.18384  -4.96965
  15.22011   1.00424  -5.02945
  14.68141   0.88454  -5.08935
  14.20251   0.70504  -5.26885
  13.78361   0.52544  -5.08935
  13.18501   0.52544  -5.02945
  12.46671   0.40574  -4.84995
  11.98791   0.28604  -4.67035
  11.44921   0.04664  -4.31125
  10.97041   0.04664  -3.95205
  10.55141  -0.13296  -3.53305
   9.89301  -0.25266  -2.93455
   9.23461  -0.25266  -2.27615
   8.63601  -0.31256  -1.67755
   7.97761  -0.37236  -1.01915
   7.43891  -0.31256  -0.30095
   6.78051  -0.31256   0.47715
   6.18201  -0.37236   1.19545
   5.64331  -0.25266   2.03345
   5.10461  -0.19286   2.81155
   4.62571  -0.13296   3.64955
   4.08701  -0.13296   4.48745
   3.36881  -0.13296   5.32545
   2.71041  -0.01326   6.16345
   2.23151  -0.07316   7.00135
   1.63301  -0.01326   7.89925
   0.97461  -0.13296   8.67735
   0.31621  -0.01326   9.33575
  -0.34219  -0.07316  10.11385
  -0.94079  -0.07316  10.95185
  -1.47949  -0.13296  11.37085
  -2.13789  -0.07316  11.72995
  -2.67659  -0.19286  12.20875
  -3.27509  -0.31256  12.68765
  -3.93349  -0.31256  13.04675
  -4.59189  -0.37236  13.34605
  -5.19049  -0.25266  13.70515
  -5.90869  -0.31256  14.00445
  -6.68689  -0.43226  14.36355
  -7.52479  -0.49206  14.72265
  -8.42269  -0.55196  14.96215
  -9.26059  -0.73156  15.14165
 -10.27819  -0.79136  15.26135
 -11.35559  -0.91106  15.62055
 -12.49279  -1.03076  15.85995
 -13.62999  -1.09066  16.03955
 -14.70739  -1.15046  16.39865
 -15.72499  -1.33006  16.51835
 -16.86219  -1.50966  16.63805
 -18.05929  -1.56946  16.81765
 -19.13669  -1.62936  16.87745
 -20.21409  -1.62936  16.99715
 -21.29149  -1.56946  17.11685
 -22.36889  -1.44976  17.41615
 -23.38639  -1.38996  17.35635
 -24.34409  -1.27026  17.23665
 -25.18209  -1.15046  17.17675
 -26.01999  -1.03076  16.93735
 -26.85799  -0.79136  16.69795
 -27.45659  -0.73156  16.45845
 -27.99529  -0.67166  16.09935
 -28.53399  -0.55196  15.62055
 -28.83319  -0.55196  15.14165
 -29.13249  -0.55196  14.54315
 -29.43179  -0.49206  14.00445
 -29.61129  -0.37236  13.34605
 -29.73109  -0.37236  12.56795
 -29.79089  -0.31256  11.78975
 -29.61129  -0.31256  11.07155
 -29.49159  -0.19286  10.23355
 -29.43179  -0.07316   9.57515
 -29.19239  -0.01326   8.85685
 -28.83319   0.04664   8.01895
 -28.59379   0.16634   7.42035
 -28.23469   0.10644   6.76195
 -27.93539   0.10644   6.10355
 -27.51639   0.16634   5.62475
 -27.45659   0.16634   5.14585
 -27.15729   0.28604   4.60715
 -26.79819   0.34584   4.12835
 -26.73829   0.34584   3.70935
 -26.67839   0.34584   3.29035
 -26.67839   0.46554   2.93125
 -26.79819   0.52544   2.69185
 -26.79819   0.52544   2.33265
 -26.91789   0.58534   1.97355
 -27.09739   0.52544   1.73415
 -27.33689   0.46554   1.55455
 -27.63609   0.46554   1.19545
 -27.87549   0.34584   1.01585
 -28.11499   0.34584   0.71665
 -28.41419   0.16634   0.47715
 -28.65369   0.04664   0.11805
 -28.71349  -0.07316  -0.24105
 -28.77339  -0.07316  -0.48045
 -28.65369  -0.19286  -0.77975
 -28.53399  -0.13296  -1.19875
 -28.23469  -0.07316  -1.67755
 -27.87549  -0.13296  -2.21625
 -27.45659  -0.31256  -2.75495
 -26.73829  -0.31256  -3.41335
 -25.96019  -0.31256  -4.01195
 -25.18209  -0.31256  -4.67035
 -24.28419  -0.31256  -5.32875
 -23.32659  -0.43226  -5.98715
 -22.30899  -0.43226  -6.52585
 -21.23159  -0.37236  -7.18425
 -20.09439  -0.37236  -7.78285
 -19.07689  -0.13296  -8.32155
 -18.11919   0.04664  -8.97995
 -17.04179  -0.01326  -9.39885
 -16.08409   0.16634  -9.87775
 -15.24609   0.40574 -10.23685
 -14.46799   0.58534 -10.41645
 -13.62999   0.70504 -10.59595
 -13.03149   0.76484 -10.71575
 -12.25339   0.88454 -10.65585
 -11.65479   1.06414 -10.59595
 -11.05629   1.06414 -10.23685
 -10.51759   1.12394  -9.99745
  -9.97889   1.12394  -9.57845
  -9.44019   1.30354  -8.86015
  -8.90149   1.36344  -8.32155
  -8.42269   1.36344  -7.84265
  -7.82409   1.42324  -7.30395
  -7.22559   1.36344  -6.76525
  -6.86639   1.36344  -6.16675
  -6.38759   1.30354  -5.62805
  -5.84889   1.30354  -5.20905
  -5.25029   1.36344  -4.79005
  -4.65179   1.24374  -4.49075
  -4.05319   1.18384  -4.25135
  -3.27509   1.12394  -4.07175
  -2.55689   1.06414  -4.07175
  -1.65899   0.94444  -4.07175
  -0.70139   0.82474  -4.07175
   0.31621   0.82474  -4.31125
   1.21401   0.82474  -4.49075
   2.23151   0.70504  -4.61045
   3.30891   0.70504  -4.79005
   4.56591   0.64514  -5.08935
   5.64331   0.58534  -5.44845
   6.84041   0.52544  -5.92725
   7.91781   0.52544  -6.40615
   9.05501   0.40574  -6.88495
  10.13241   0.40574  -7.48355
  11.44921   0.28604  -8.14195
  12.58651   0.16634  -8.68065
  13.84341   0.16634  -9.39885
  15.16021   0.16634  -9.99745
  16.41721   0.16634 -10.53615
  17.79381   0.34584 -11.19455
  19.40991   0.40574 -11.79305
  20.78661   0.40574 -12.33175
  22.40271   0.28604 -12.93035
  23.83921   0.28604 -13.52885
  25.27571   0.46554 -14.18725
  26.71221   0.40574 -14.96545
  28.26851   0.34584 -15.50415
  29.70501   0.28604 -16.04285
  30.90211   0.16634 -16.64135
  32.33861   0.04664 -17.12015
  33.47591  -0.01326 -17.71875
  34.61311   0.10644 -18.25745
  35.57081   0.10644 -18.61655
  36.46861  -0.01326 -18.85595
  37.12701   0.04664 -19.15525
  37.54601   0.04664 -19.27495
  37.96501   0.04664 -19.33485
  38.26431   0.04664 -19.21515
  38.32411  -0.01326 -19.21515
  38.14461  -0.01326 -18.97565
  37.84531  -0.01326 -18.55675
  37.42631   0.04664 -18.01805
  36.70801   0.04664 -17.47935
  35.81021   0.16634 -16.76105
  34.97221   0.34584 -16.10265
  33.77511   0.46554 -15.20485
  32.51821   0.52544 -14.30705
  31.14151   0.70504 -13.34935
  29.82471   0.88454 -12.39165
  28.32831   1.12394 -11.31425
  26.89181   1.24374 -10.41645
  25.39541   1.54294  -9.33905
  23.65961   1.60284  -8.38135
  21.92381   1.66264  -7.48355
  20.48731   1.72254  -6.52585
  18.93111   1.84224  -5.62805
  17.31501   1.84224  -4.90975
  15.75881   1.84224  -4.19155
  14.32231   1.78244  -3.41335
  12.88571   1.60284  -2.69515
  11.62881   1.48314  -2.09655
  10.49151   1.36344  -1.43815
   9.47401   1.24374  -0.77975
   8.33681   1.06414  -0.24105
   7.31921   0.88454   0.47715
   6.42141   0.76484   1.01585
   5.58341   0.58534   1.49475
   4.98491   0.58534   2.03345
   4.20681   0.52544   2.39255
   3.60821   0.34584   2.93125
   3.00971   0.28604   3.41005
   2.41111   0.34584   3.82905
   1.99211   0.22614   4.12835
   1.57311   0.16634   4.48745
   1.45341   0.22614   4.72685
   1.21401   0.22614   5.02615
   1.15411   0.22614   5.26555
   1.09431   0.34584   5.20575
   1.03441   0.28604   5.44515
   1.03441   0.22614   5.32545
   1.21401   0.28604   5.38535
   1.39361   0.22614   5.20575
   1.57311   0.22614   5.08605
   1.75271   0.22614   4.78675
   1.99211   0.16634   4.54735
   2.35121  -0.01326   4.36775
   2.53081  -0.07316   3.94875
   3.00971  -0.13296   3.64955
   3.30891  -0.31256   3.23055
   3.78781  -0.49206   2.81155
   4.26661  -0.49206   2.51225
   4.68561  -0.49206   2.09325
   5.04471  -0.49206   1.61445
   5.34401  -0.55196   1.25535
   5.76301  -0.67166   0.77645
   6.00241  -0.61186   0.53705
   6.18201  -0.61186   0.35745
   6.30171  -0.55196   0.11805
   6.42141  -0.43226   0.05825
   6.54111  -0.37236  -0.12135
   6.48121  -0.25266  -0.12135
   6.48121  -0.07316   0.05825
   6.42141  -0.07316   0.17795
   6.24181   0.04664   0.29765
   6.06231   0.22614   0.59695
   5.88271   0.40574   0.89615
   5.76301   0.70504   1.43485
   5.40391   0.76484   2.03345
   4.98491   0.82474   2.63195
   4.56591   0.94444   3.46995
   4.08701   0.88454   4.30795
   3.60821   0.88454   5.08605
   2.94981   0.88454   5.92395
   2.47101   0.94444   6.82185
   1.87241   1.00424   7.71965
   1.33371   1.00424   8.67735
   0.79501   0.88454   9.45545
   0.25631   0.88454  10.35325
  -0.10279   1.00424  10.89195
  -0.40209   0.94444  11.67005
  -0.76119   0.94444  12.32845
  -0.94079   1.00424  13.04675
  -1.18019   0.94444  13.70515
  -1.29989   1.00424  14.12415
  -1.29989   1.12394  14.48325
  -1.24009   1.06414  14.78255
  -1.06049   0.94444  14.84245
  -0.94079   0.88454  14.96215
  -0.70139   0.82474  14.96215
  -0.52179   0.82474  14.84245
  -0.34219   0.70504  14.60295
  -0.10279   0.52544  14.24385
   0.19651   0.34584  14.00445
   0.37601   0.16634  13.58545
   0.55561  -0.07316  13.10665
   0.79501  -0.37236  12.62775
   0.85491  -0.55196  12.14895
   0.85491  -0.67166  11.61025
   0.91471  -0.73156  11.19125
   0.97461  -0.91106  10.77225
   0.91471  -0.97096  10.29345
   0.79501  -1.09066   9.93425
   0.79501  -1.09066   9.69485
   0.55561  -1.09066   9.39555
   0.25631  -1.21036   9.15615
   0.07681  -1.21036   9.03645
  -0.10279  -1.21036   8.73715
  -0.64149  -1.03076   8.61745
  -1.06049  -1.21036   8.67735
  -1.41959  -1.03076   8.49775
  -1.83859  -1.09066   8.43795
  -2.19769  -1.15046   8.37805
  -2.79629  -1.09066   8.19845
  -3.39479  -1.09066   8.13865
  -3.87369  -1.15046   8.01895
  -4.47219  -1.15046   7.83935
  -4.83139  -1.15046   7.65975
  -5.31019  -1.09066   7.42035
  -5.84889  -0.97096   7.24085
  -6.20799  -1.03076   7.06125
  -6.62699  -1.09066   6.82185
  -6.92629  -1.03076   6.58245
  -7.16569  -0.97096   6.34295
  -7.46499  -0.91106   6.04375
  -7.64449  -0.73156   5.80425
  -7.88399  -0.79136   5.44515
  -8.06349  -0.79136   5.02615
  -8.42269  -0.73156   4.60715
  -8.78179  -0.67166   4.30795
  -9.02119  -0.61186   4.06845
  -9.26059  -0.55196   3.88895
  -9.67959  -0.55196   3.58965
 -10.03869  -0.55196   3.35025
 -10.27819  -0.43226   3.05095
 -10.51759  -0.43226   2.87135
 -10.93659  -0.43226   2.57215
 -11.23579  -0.37236   2.33265
 -11.41539  -0.37236   2.15315
 -11.71469  -0.37236   1.91375
 -12.01399  -0.31256   1.61445
 -12.25339  -0.37236   1.25535
 -12.43289  -0.43226   0.89615
