********************************************************************************
              CENTRO DE INSTRUMENTACION Y REGISTRO SISMICO  A.C.

    Anaxagoras 814, Col. Narvarte, Benito Juarez, C.P. 03020 Mexico, D.F.
           Tels. 5687 45 42/ 5687 45  82             Fax. 5669 25 12
********************************************************************************
ARCHIVO ESTANDAR DE ACELERACION:
VERSION DEL FORMATO                    : 2.0
NOMBRE DEL ARCHIVO                     : BL4520170919181440
FECHA Y HORA DE CREACION               : 25/SEP/17, 11:11
REF. CATALOGO ACELEROGRAMAS, SMIS 1996 : REGISTRO No.     /PAG.


================================================================================
DATOS DE LA ESTACION:
NOMBRE DE LA ESTACION                  : BALDERAS
CLAVE DE LA ESTACION                   : BL45
LOCALIZACION DE LA ESTACION            : Del. Cuauhtémoc, Col. Doctores,        
                                       : Av. Niños Héroes esq. con Av.          
                                       : Arcos de Belem.                        
                                       :                                        
                                       : 
COORDENADAS DE LA ESTACION             : 19.4253 LAT. N
                                       : 99.1481 LONG. W
ALTITUD (msnm)                         : 2232
TIPO DE SUELO                          : Terreno blando, material compresible
                                       : (arcillas)                
                                       : 
INSTITUCION RESPONSABLE                : CIRES
                                       : 

================================================================================
DATOS DEL ACELEROGRAFO:
MODELO DEL ACELEROGRAFO                : RADESD
NUMERO DE SERIE DEL ACELEROGRAFO       : 174
NUMERO DE CANALES                      : 3
ORIENTACION C1-C6 (rumbo;orientacion)  : /S00E/+V/N90W
ORIENTACION C7-C12 (rumbo;orientacion) : 
VEL. DE MUESTREO, C1-C6 (muestras/s)   : /100/100/100
VEL. DE MUESTREO, C7-C12 (muestras/s)  : 
ESC. COMPLETA DE SENSORES, C1-C6, (g)  : /0.5/0.5/0.5
ESC. COMPLETA DE SENSORES, C7-C12, (g) : 
FREC. NAT. DE SENSORES, C1-C6, (Hz)    : /51.94/53.47/51.65
FREC. NAT. DE SENSORES, C7-C12, (Hz)   : 
AMORTIGUAMIENTO DE SENSORES, C1-C6     : /0.5865/0.5715/0.5896
AMORTIGUAMIENTO DE SENSORES, C7-C12    : 
INTERVALO DE MUESTREO, C1-C6, (s)      : /0.01/0.01/0.01
INTERVALO DE MUESTREO, C7-C12, (s)     : 
UMBRAL DE DISPARO, C1-C6, (Gal)        : /1.0/2.99/0.9
UMBRAL DE DISPARO, C7-C12, (Gal)       : 
MEMORIA DE PREEVENTO (s)               : 44.0
TIEMPO DE POSEVENTO (s)                : 87.0


================================================================================
DATOS DEL SISMO:
FECHA DEL SISMO (GMT)                  : 19/SEP/17
HORA EPICENTRO (GMT)                   : 18:14:40.0
MAGNITUD(ES)                           : /Mc=7.1
COORDENADAS DEL EPICENTRO              : 18.40 LAT. N
                                       : 98.72 LONG. W
PROFUNDIDAD FOCAL (km)                 : 57
FUENTE DE LOS DATOS EPICENTRALES       : SSN
                                       : INSTITUTO DE GEOFISICA, UNAM

================================================================================
DATOS DE ESTE REGISTRO:
HORA DE LA PRIMERA MUESTRA (GMT)       : 18:15:00.00
EXACTITUD DEL TIEMPO (s)               : 0.01
DURACION DEL REGISTRO (s), C1-C6       : /466.0/466.0/466.0
DURACION DEL REGISTRO (s), C7-C12      : 
NUM. TOTAL DE MUESTRAS, C1-C6          : /46600/46600/46600
NUM. TOTAL DE MUESTRAS, C7-C12         : 
ACEL. MAX. (Gal), C1-C6                : /102.27312/39.70041/114.47396
ACEL. MAX., C1-C6, EN LA MUESTRA       : /7405/6691/6830
ACEL. MAX. (Gal), C7-C12               : 
ACEL. MAX., C7-C12, EN LA MUESTRA      : 
UNIDADES DE LOS DATOS                  : Gal (cm/s/s)
FACTOR DE DECIMACION                   : 1
FORMATO DATOS (FORTRAN,10 campos/dato) : 3F10.5


================================================================================
CALIDAD DEL ACELEROGRAMA:
REGISTRO DIGITAL COMPLETO CON TIEMPO ABSOLUTO CORRECTO.


================================================================================
COMENTARIOS:














================================================================================
DATOS DE ACELERACION:
---------+---------+---------+---------+---------+---------+---------+---------+
   CANAL-1   CANAL-2   CANAL-3   CANAL-4   CANAL-5   CANAL-6   CANAL-7   CANAL-8
      S00E        +V      N90W
---------+---------+---------+---------+---------+---------+---------+---------+
[...]
  85.29761   2.13826  25.09542
  84.25015   0.67181  24.04795
  82.46946  -1.18370  22.41690
  80.13512  -2.50051  20.06759
  77.74091  -2.68007  17.43397
  75.28686  -2.63518  15.09962
  72.48863  -2.65014  13.13937
  69.34624  -2.71000  11.86745
  65.54545  -3.05417  10.92473
  61.49027  -2.32094  10.16158
  57.16574   0.04333   9.45829
  52.84122   3.15580   9.51814
  48.98057   6.08869  10.01195
  45.83818   8.81210  10.93970
  43.62354  11.50557  12.46600
  42.11220  13.60050  14.71057
  41.22934  14.42351  17.56864
  41.09467  14.07934  20.66614
  41.73811  13.39101  23.67386
  43.01003  13.18151  26.57683
  44.56626  13.88481  29.33016
  46.66118  15.18666  31.78422
  49.13020  16.66807  34.20835
  51.94339  18.50861  36.60255
  54.80147  20.25937  38.95186
  56.79165  21.74079  40.92707
  57.71940  22.71343  42.36360
  57.46502  23.01271  43.23149
  55.81901  23.11745  43.68041
  52.73647  22.80321  43.63551
  47.82836  22.23459  43.02200
  40.85525  20.90282  41.89972
  32.83467  19.97506  39.90954
  24.81409  19.36155  36.93175
  17.76616  18.83782  33.41527
  10.86787  18.80789  30.06338
   3.73016  18.37394  27.25020
  -3.31778  16.78778  24.99067
 -10.00658  14.25891  22.74611
 -16.51581  10.77235  20.50154
 -22.72577   6.55257  18.57122
 -27.90323   2.03351  16.49125
 -32.28762  -2.21619  14.30654
 -35.65446  -5.40348  12.19665
 -38.03370  -7.51337  10.35611
 -39.53008  -9.05463   8.66521
 -40.42790 -10.52108   6.71992
 -40.41294 -11.38898   4.74470
 -39.70964 -11.82293   3.57753
 -38.73700 -12.03242   4.04141
 -37.80924 -11.92768   6.33086
 -36.82164 -10.96999   9.99698
 -35.74424  -9.36887  14.15691
 -34.27780  -6.92978  18.07741
 -32.88617  -4.25127  20.96542
 -31.83870  -2.09648  22.71618
 -30.97080  -1.10888  23.23991
 -30.41715  -1.15377  22.59647
 -30.17773  -1.52786  21.04024
 -30.49196  -0.98917  19.40919
 -31.22519   0.44735  18.24201
 -31.88359   1.89884  17.64346
 -32.18287   2.67696  16.95513
 -31.73396   3.02112  16.10220
 -30.68649   2.75177  14.26165
 -28.84595   2.85652  11.11926
 -26.60139   3.44011   6.57028
 -24.70099   3.57478   1.09354
 -23.21958   3.12587  -4.57772
 -22.09729   2.34775  -9.91978
 -21.54364   1.30029 -14.67826
 -21.25932  -0.34572 -18.71847
 -21.28925  -2.08152 -22.53423
 -21.79802  -3.59286 -26.45474
 -22.59110  -4.41587 -30.19568
 -24.16229  -4.53558 -33.95158
 -26.61635  -4.74507 -38.24618
 -30.13283  -5.10420 -42.70538
 -34.74167  -5.37355 -46.91020
 -40.02388  -6.06188 -50.08252
 -45.51558  -6.60058 -51.95299
 -50.52844  -5.83742 -52.80592
 -54.52376  -3.36840 -52.53657
 -57.62126   0.04333 -51.59386
 -59.67130   2.93134 -50.03762
 -60.50927   4.30800 -48.00255
 -60.38956   4.26311 -45.36893
 -59.26728   2.96127 -42.16669
 -57.60630   0.29772 -38.39582
 -56.07999  -3.75746 -34.08626
 -54.59858  -8.89003 -29.41756
 -53.01242 -14.47151 -24.41967
 -51.05217 -19.82854 -19.00279
 -48.62804 -23.86876 -13.01728
 -45.97946 -25.90383  -7.09163
 -43.85460 -26.24799  -1.54008
 -42.61261 -25.58959   4.28083
 -41.89435 -24.57205  10.20647
 -41.29580 -23.04575  15.39890
 -41.84946 -20.62162  17.46390
 -42.92685 -18.22742  16.47629
 -43.15131 -15.54891  14.39633
 -41.71478 -11.83789  13.06455
 -38.70707  -6.66043  13.91749
 -35.19059  -2.29101  16.58104
 -31.68907   0.22290  19.55882
 -28.89084   1.97366  22.01288
 -26.85577   3.20069  24.36219
 -25.62874   3.63464  26.93596
 -24.70099   3.85909  29.77907
 -23.83309   4.41275  32.60722
 -23.04001   5.77445  35.64487
 -22.48635   6.74710  38.84711
 -22.75570   6.74710  41.57052
 -24.10244   5.60985  42.81251
 -26.45175   4.53246  42.27381
 -29.42954   3.60471  40.55298
 -33.17048   2.97623  37.94929
 -37.46508   2.54228  35.55508
 -42.01406   2.01855  34.19338
 -46.44333   1.92877  33.41527
 -50.52844   2.49739  32.62219
 -54.28434   3.39522  31.21559
 -57.42673   4.03866  29.15059
 -59.97057   3.85909  26.41223
 -61.90090   3.26054  23.35962
 -63.08303   2.66199  20.35190
 -63.11296   2.06344  17.61354
 -61.94579   1.86891  15.39890
 -59.16253   1.83898  14.20180
 -54.56865   1.39007  14.24669
 -48.08935  -0.04645  14.94999
 -40.75710  -3.08409  15.51861
 -33.40990  -7.27395  15.57846
 -26.78095 -11.19445  15.30912
 -21.33414 -13.36420  15.02481
 -17.03954 -13.03499  15.26423
 -13.44824 -10.64079  16.17701
 -10.30585  -6.67540  17.35915
  -7.70216  -1.45304  17.89785
  -5.83169   4.26311  17.31426
  -4.49991   8.54275  15.35401
  -3.60209  10.83220  11.65796
  -2.62944  11.40083   6.22611
  -1.37249  11.62528  -0.44772
  -0.04071  11.75996  -7.55551
   1.35092  11.92456 -14.28920
   3.14657  12.40340 -20.14003
   5.28639  13.88481 -25.60180
   7.86015  15.81514 -30.61466
  10.44888  17.44619 -35.34321
  13.09747  18.64329 -39.81738
  15.91066  19.21191 -43.93241
  19.03808  19.27177 -47.83795
  22.15054  18.05970 -51.20480
  25.18819  15.45601 -54.34719
  28.01634  11.26615 -56.80124
  29.97659   5.62482 -58.70164
  30.70982  -1.45304 -60.07831
  30.23098  -8.54587 -61.09584
  29.19848 -13.45398 -61.64950
  28.33058 -15.87811 -62.29294
  28.24080 -15.36934 -63.17581
  29.15358 -12.75068 -64.91160
  31.03902  -9.02471 -67.59012
  33.41826  -6.39108 -70.44819
  36.05188  -5.95713 -72.16903
  38.47601  -7.82760 -72.43837
  41.10963 -10.25173 -70.95696
  44.47648 -11.68825 -68.14378
  49.04042 -11.83789 -64.25320
  54.60694 -10.65576 -59.56954
  61.29574  -8.96485 -54.34719
  68.74769  -6.66043 -48.72081
  76.25950  -4.08666 -42.76524
  83.05305  -2.39576 -36.12133
  88.32029  -1.97677 -29.41756
  92.22583  -2.51547 -22.57912
  94.51529  -2.81474 -16.02500
  95.45801  -2.82971 -10.00957
  95.20362  -2.09648  -5.13138
  93.58754  -0.61507  -1.51015
  90.75939   1.61453   0.79427
  86.56953   4.65217   1.93151
  81.00301   8.00405   2.24575
  73.94012  11.49061   1.96144
  65.53049  14.57314   1.85670
  56.19310  16.23412   2.11108
  46.61629  15.87499   3.27825
  37.24898  12.94209   5.46296
  28.52511   7.86938   8.39586
  20.47460   1.56964  11.19408
  13.12740  -4.35601  13.09448
   6.30392  -8.71047  13.43865
   0.10893 -11.20941  12.27147
  -5.74190 -12.82550  10.23640
 -11.45806 -15.48905   8.03673
 -16.78516 -19.28985   6.10640
 -21.36407 -23.58444   4.20601
 -25.29954 -27.13086   2.15597
 -28.35215 -29.95901  -0.17838
 -30.62664 -32.42803  -2.64740
 -32.27265 -34.43317  -5.02663
 -33.54457 -36.04926  -7.10660
 -34.77160 -37.33614  -8.99203
 -36.08841 -38.36864 -10.36870
 -37.43515 -39.29639 -11.34134
 -38.33297 -39.70041 -11.77529
 -38.55743 -39.59567 -11.68551
 -37.56982 -38.60806 -11.19170
 -35.25044 -36.43831 -10.84754
 -31.77885 -32.69737 -10.93732
 -27.60396 -27.53488 -11.93989
 -23.38418 -21.65412 -13.58590
 -19.40382 -15.30948 -15.36659
 -15.73770  -8.94989 -16.57866
 -11.84712  -3.38337 -17.13232
  -7.68719   1.22547 -16.75822
  -3.19807   5.11605 -16.03996
   1.73998   8.40808 -15.29177
   6.82765  10.42818 -15.20199
  11.79562  10.90702 -16.14471
  16.29971   9.39568 -18.62869
  19.95087   6.65732 -22.42949
  22.50967   3.73938 -27.26278
  24.17065   2.21308 -32.54499
  25.05351   2.70688 -37.67756
  25.15826   5.38540 -42.49589
  24.94877   9.33583 -46.58100
  24.49985  13.36108 -50.17230
  24.08087  16.66807 -53.92820
  24.18562  18.88271 -57.98338
  25.06848  20.36412 -61.94878
  26.19076  21.24698 -65.77950
  27.56743  22.12984 -69.52044
  28.74956  23.19227 -72.67779
  28.74956  24.35944 -75.29645
  27.73203  24.92807 -77.30160
  25.78674  25.25727 -78.37899
  23.51225  25.69122 -78.61841
  21.14797  25.93064 -77.64576
  19.03808  25.58647 -75.13185
  16.95812  24.50908 -70.94200
  14.93801  23.59629 -65.36052
  13.12740  23.49155 -58.85128
  10.61349  24.41930 -51.66867
   7.11197  25.36202 -44.32147
   2.54802  26.18502 -37.15383
  -3.04843  26.60401 -31.15336
  -9.18357  26.84343 -26.67920
 -15.70777  26.87336 -23.34228
 -21.91773  26.60401 -20.82836
 -27.37950  26.03539 -17.89547
 -31.65914  24.29959 -13.60087
 -34.35261  21.32180  -7.42084
 -35.75921  16.95238  -0.16341
 -36.23805  11.89463   7.19876
 -36.47747   7.22594  13.18426
 -36.86653   3.60471  17.67339
 -37.45011   1.47985  20.83074
 -37.86910   1.04591  23.29976
 -38.10852   2.25797  25.57426
 -38.06363   4.66714  27.98342
 -37.97384   6.91170  30.63201
 -38.18334   7.19601  33.22074
 -38.61729   5.17590  35.59998
 -39.14102   1.95869  37.32081
 -39.66475  -1.42312  37.90439
 -40.30819  -3.74250  37.56023
 -41.26587  -5.11916  36.51277
 -42.20859  -5.67282  34.55251
 -43.09145  -6.21152  31.42509
 -44.22870  -7.22905  27.29509
 -45.72507  -9.11449  22.74611
 -47.13167 -11.37402  18.31683
 -48.73279 -13.42405  14.54596
 -50.28902 -15.27956  12.24155
 -51.47116 -16.65622  11.13423
 -51.96496 -17.46427  10.89481
 -51.60583 -18.28727  11.52329
 -50.27406 -19.93329  12.39118
 -47.93971 -22.61180  13.43865
 -45.09659 -25.90383  14.32151
 -42.38815 -29.00133  15.09962
 -39.99395 -30.96158  15.75803
 -37.82421 -31.17107  16.74564
 -35.51979 -30.37799  18.31683
 -32.24272 -29.85426  20.54643
 -27.96309 -30.30317  23.09027
 -23.08490 -31.24589  25.34980
 -17.71291 -32.14372  27.20531
 -12.58034 -32.47292  28.70168
  -8.15107 -31.76962  30.25791
  -4.97875 -29.52506  32.09846
  -2.76412 -25.43995  34.28316
  -1.53709 -20.41213  36.64744
  -1.35752 -15.71351  39.08653
  -1.67176 -11.61344  40.82233
  -1.98600  -7.67797  41.80994
  -1.82140  -3.11402  41.40591
  -0.57941   1.62949  40.16392
   1.14143   6.82192  38.14381
   2.77247  12.17894  35.49523
   3.96958  16.42865  32.69701
   5.00208  19.73564  29.67433
   5.40610  21.90539  26.53194
   5.00208  22.95285  24.04795
   4.29878  23.41673  22.61143
   4.11921  24.06017  22.25230
   4.61302  24.64376  22.67129
   5.75026  24.98792  23.59904
   7.23168  24.83828  24.49687
   8.86273  24.58390  24.99067
  10.50874  24.09010  25.06549
  11.73577  23.07256  25.03556
  12.34928  21.30684  25.30491
  12.34928  19.37651  26.12792
  11.75073  18.01481  26.69654
  10.86787  17.61079  26.90603
  10.31421  17.11698  26.78632
  10.55363  14.87242  26.86114
  11.91533  10.87710  27.66918
  13.75588   6.04380  29.44987
  15.46174   1.73424  31.82911
  16.73366  -0.97420  34.37295
  17.36214  -1.90196  36.78211
  17.84098  -2.18627  39.26610
  18.40960  -2.36583  41.67526
  19.83116  -3.05417  44.50341
  22.03083  -4.67025  48.19946
  24.87395  -5.73268  52.70355
  28.65978  -4.83485  57.58174
  33.31351  -2.05159  62.80409
  38.38622   1.07583  68.13119
  42.65090   2.85652  73.59296
  46.06263   3.39522  78.74050
  48.57655   2.85652  83.73839
  50.16270   1.27036  88.36219
  50.79118  -0.94427  92.52212
  50.86600  -2.33590  96.48752
  51.10542  -2.41072 100.39306
  51.07549  -1.84210 103.80480
  50.01307  -1.52786 106.78258
  47.84332  -1.72239 109.43117
  44.68597  -2.32094 111.67573
  41.00488  -3.12898 113.50131
  37.20409  -3.78739 114.47396
  33.53797  -3.93703 114.21957
  29.91674  -3.72753 112.72320
  26.11594  -3.92206 110.32899
  21.82134  -4.76003 107.54574
  17.67638  -6.15166 104.58291
  14.11501  -8.06702 101.32081
  11.13722 -10.59590  97.60980
   8.63827 -13.36420  93.21045
   6.30392 -16.17738  88.46694
   3.83490 -18.60151  84.02270
   1.12646 -20.92090  80.11716
  -1.94111 -23.04575  76.58572
  -5.23314 -24.51220  72.82981
  -8.79451 -24.72169  68.43047
 -12.29603 -23.89868  63.28293
 -15.57310 -22.73151  57.52188
 -18.37132 -21.13039  51.77580
 -20.75056 -18.85590  46.58338
 -22.72577 -15.18977  41.72015
 -24.49150 -10.76050  37.03650
 -26.22729  -6.66043  32.06853
 -27.73863  -3.18884  26.54690
 -28.60653  -0.06141  20.21723
 -28.09776   2.97623  13.00470
 -26.22729   5.84927   5.14872
 -22.98016   8.42304  -3.03645
 -18.73045  10.57782 -11.07199
 -13.85226  12.50815 -18.70351
  -8.83940  14.36365 -25.69159
  -4.00611  16.00967 -31.39278
   0.57280  17.10202 -35.59760
   5.30135  17.76043 -38.45567
  10.49378  18.25423 -40.56556
  15.71613  19.00242 -42.72035
  20.66913  20.69332 -45.05469
  25.53235  22.99774 -47.29926
  29.60250  25.46676 -48.87045
  32.61021  27.56169 -48.99016
  34.97449  28.54930 -47.83795
  36.53072  28.19017 -46.19194
  37.24898  26.72372 -45.23426
  37.89242  24.47915 -46.37150
  38.37126  21.65100 -49.70842
  38.50593  18.94256 -54.70632
  38.61068  16.74289 -59.98853
  38.50593  14.75271 -64.31305
  38.01213  12.56800 -67.35070
  36.50079   9.87452 -69.38577
  34.06170   7.12119 -71.42084
  31.12880   4.90656 -73.57562
  27.76195   2.66199 -76.49355
  24.11080   0.23786 -79.09725
  20.01073  -2.81474 -81.19217
  15.77598  -5.79253 -82.09000
  11.54124  -8.27652 -81.76080
   7.39628  -9.08456 -80.36917
   3.25132  -8.72543 -78.85783
  -0.89365  -7.79768 -77.51109
  -5.33788  -7.16920 -76.32895
 -10.23103  -7.34876 -75.41616
 -15.31871  -7.49840 -74.63805
 -20.55603  -7.03453 -73.69533
 -25.73349  -5.67282 -72.04932
 -30.29744  -3.38337 -69.67008
 -33.84385  -0.77967 -66.81200
 -36.25301   1.31525 -64.19334
 -37.64464   2.64703 -61.88892
 -38.34794   2.85652 -59.92867
 -38.31801   1.65942 -58.08813
 -38.01874  -1.34830 -56.12788
 -37.13587  -5.85239 -53.91324
 -35.75921 -11.05978 -50.89056
 -33.93363 -15.32445 -46.82042
 -31.91352 -17.46427 -41.98712
 -30.10291 -16.97046 -37.88705
 -28.29229 -13.96275 -35.64249
 -26.52657  -9.47362 -35.86694
 -25.34443  -4.89471 -38.24618
 -24.64113  -1.15377 -42.01705
 -24.62617   2.03351 -46.56603
 -25.37436   4.56239 -51.35444
 -26.90066   6.98652 -55.55925
 -28.23244   9.51539 -58.32755
 -29.41457  11.65521 -60.06334
 -30.20765  13.09173 -61.11081
 -30.70146  13.83992 -61.79914
 -31.01570  13.98956 -62.78675
 -31.03066  13.60050 -64.05867
 -30.73138  12.61289 -65.71965
 -30.34233  10.78731 -67.23099
 -29.36968   8.06391 -68.41312
 -27.66381   4.87663 -68.50291
 -25.11997   1.01598 -67.36566
 -21.55860  -3.38337 -64.98642
 -17.03954  -8.33637 -61.87396
 -11.75734 -13.79815 -58.80639
  -6.17585 -18.76611 -56.48701
  -1.61191 -22.52202 -55.52933
   1.47063 -24.81147 -56.41219
   2.96700 -26.12828 -59.30019
   3.53563 -26.92136 -63.35537
   3.76008 -27.77430 -68.35327
   4.32871 -28.26810 -73.02196
   5.78019 -27.66955 -76.92750
   6.94736 -26.02354 -80.27938
   7.86015 -23.21035 -82.41920
   8.09957 -19.82854 -83.48163
   8.15943 -16.28213 -84.61888
   8.59338 -13.36420 -85.54663
   9.22186 -11.91271 -86.16014
   9.77551 -11.17949 -87.13279
   9.59595 -10.67072 -87.67148
   9.46128  -9.87764 -86.86344
  10.53867  -8.09695 -84.40938
  12.43906  -5.01442 -80.87794
  14.69859  -1.10888 -76.64319
  17.30229   2.85652 -71.15149
  19.33736   6.16351 -64.34298
  20.86366   9.06648 -58.35748
  21.65674  11.93952 -52.98549
  21.71660  14.45343 -47.31422
  21.02826  16.50347 -41.13419
  19.69649  18.14948 -34.56510
  18.06544  18.88271 -27.50220
  16.22490  18.68818 -20.33456
  13.93544  17.71553 -14.34906
  11.67591  16.69800 -10.26395
   9.43135  15.05198  -7.45076
   7.41124  13.21144  -4.44305
   5.69041  12.52311  -0.52254
   4.32871  12.89720   3.65235
   2.78744  14.07934   7.45314
   0.96186  15.05198  10.44589
  -1.64183  15.48593  12.46600
  -4.49991  15.77025  13.67807
  -7.26821  16.12938  15.14452
 -10.00658  15.35126  17.19455
 -12.64020  13.10670  19.54386
 -14.64534   9.93438  22.19245
 -16.24646   6.95659  25.46951
 -18.17679   5.35547  29.85389
 -20.24179   6.14855  35.40545
 -22.44146   8.93181  40.97197
 -24.92545  11.77492  46.16439
 -27.24483  13.31619  50.93783
 -28.87588  13.75014  55.48681
 -29.30983  13.42094  59.75148
 -28.65142  12.47822  63.95630
 -27.34957  11.17637  67.93666
