********************************************************************************
              CENTRO DE INSTRUMENTACION Y REGISTRO SISMICO  A.C.

    Anaxagoras 814, Col. Narvarte, Benito Juarez, C.P. 03020 Mexico, D.F.
           Tels. 5687 45 42/ 5687 45  82             Fax. 5669 25 12
********************************************************************************
ARCHIVO ESTANDAR DE ACELERACION:
VERSION DEL FORMATO                    : 2.0
NOMBRE DEL ARCHIVO                     : BO3920170919181440
FECHA Y HORA DE CREACION               : 25/SEP/17, 11:11
REF. CATALOGO ACELEROGRAMAS, SMIS 1996 : REGISTRO No.     /PAG.


================================================================================
DATOS DE LA ESTACION:
NOMBRE DE LA ESTACION                  : BONDOJITO
CLAVE DE LA ESTACION                   : BO39
LOCALIZACION DE LA ESTACION            : Del. Gustavo A. Madero, Col. Faja de   
                                       : Oro, Av. Henry Ford entre calles       
                                       : Norte 72A y Norte 74A.                 
                                       :                                        
                                       : 
COORDENADAS DE LA ESTACION             : 19.4653 LAT. N
                                       : 99.1047 LONG. W
ALTITUD (msnm)                         : 2232
TIPO DE SUELO                          : Terreno blando, material compresible
                                       : (arcillas)                
                                       : 
INSTITUCION RESPONSABLE                : CIRES, A. C.
                                       : 

================================================================================
DATOS DEL ACELEROGRAFO:
MODELO DEL ACELEROGRAFO                : RAD_IO14
NUMERO DE SERIE DEL ACELEROGRAFO       : 
NUMERO DE CANALES                      : 3
ORIENTACION C1-C6 (rumbo;orientacion)  : /S00E/+V/N90W
ORIENTACION C7-C12 (rumbo;orientacion) : 
VEL. DE MUESTREO, C1-C6 (muestras/s)   : /100/100/100
VEL. DE MUESTREO, C7-C12 (muestras/s)  : 
ESC. COMPLETA DE SENSORES, C1-C6, (g)  : /2.0/2.0/2.0
ESC. COMPLETA DE SENSORES, C7-C12, (g) : 
FREC. NAT. DE SENSORES, C1-C6, (Hz)    : /51.65/53.47/50.5
FREC. NAT. DE SENSORES, C7-C12, (Hz)   : 
AMORTIGUAMIENTO DE SENSORES, C1-C6     : /0.5763/0.5779/0.5763
AMORTIGUAMIENTO DE SENSORES, C7-C12    : 
INTERVALO DE MUESTREO, C1-C6, (s)      : /0.01/0.01/0.01
INTERVALO DE MUESTREO, C7-C12, (s)     : 
UMBRAL DE DISPARO, C1-C6, (Gal)        : / / /
UMBRAL DE DISPARO, C7-C12, (Gal)       : 
MEMORIA DE PREEVENTO (s)               : 60
TIEMPO DE POSEVENTO (s)                : 90


================================================================================
DATOS DEL SISMO:
FECHA DEL SISMO (GMT)                  : 19/SEP/17
HORA EPICENTRO (GMT)                   : 18:14:40.0
MAGNITUD(ES)                           : /Mc=7.1
COORDENADAS DEL EPICENTRO              : 18.40 LAT. N
                                       : 98.72 LONG. W
PROFUNDIDAD FOCAL (km)                 : 57
FUENTE DE LOS DATOS EPICENTRALES       : SSN
                                       : INSTITUTO DE GEOFISICA, UNAM

================================================================================
DATOS DE ESTE REGISTRO:
HORA DE LA PRIMERA MUESTRA (GMT)       : 13:13:57.00
EXACTITUD DEL TIEMPO (s)               : 
DURACION DEL REGISTRO (s), C1-C6       : /329.01/329.01/329.01
DURACION DEL REGISTRO (s), C7-C12      : 
NUM. TOTAL DE MUESTRAS, C1-C6          : /32901/32901/32901
NUM. TOTAL DE MUESTRAS, C7-C12         : 
ACEL. MAX. (Gal), C1-C6                : /77.91325/24.11212/95.14325
ACEL. MAX., C1-C6, EN LA MUESTRA       : /8509/9405/9529
ACEL. MAX. (Gal), C7-C12               : 
ACEL. MAX., C7-C12, EN LA MUESTRA      : 
UNIDADES DE LOS DATOS                  : Gal (cm/s/s)
FACTOR DE DECIMACION                   : 1
FORMATO DATOS (FORTRAN,10 campos/dato) : 3F10.5


================================================================================
CALIDAD DEL ACELEROGRAMA:
REGISTRO DIGITAL COMPLETO CON TIEMPO ABSOLUTO CORRECTO.


================================================================================
COMENTARIOS:














================================================================================
DATOS DE ACELERACION:
---------+---------+---------+---------+---------+---------+---------+---------+
   CANAL-1   CANAL-2   CANAL-3   CANAL-4   CANAL-5   CANAL-6   CANAL-7   CANAL-8
      N00E        +V      N90W
---------+---------+---------+---------+---------+---------+---------+---------+
[...]
  18.41765   8.98758  10.68825
  22.30825   8.44888  12.18465
  25.60025   8.02988  13.56125
  28.29365   7.25178  14.75835
  30.32875   6.11458  15.95545
  31.88495   4.97728  17.21245
  32.90255   3.66048  18.64895
  33.56095   2.16408  20.08545
  33.86015   0.66778  21.52195
  33.92005  -0.52932  22.71905
  34.15945  -0.88842  23.61685
  34.63825  -0.94832  24.15555
  35.83535  -1.00822  24.63435
  37.57115  -1.48702  25.29275
  39.60625  -2.02572  26.01105
  41.64125  -2.32502  26.84905
  43.31725  -2.32502  27.68695
  44.33475  -2.32502  28.28555
  44.39465  -2.62422  28.46505
  43.61645  -2.98342  28.46505
  41.76105  -3.10312  28.16585
  39.42665  -2.98342  27.92645
  36.91275  -2.98342  27.62715
  34.69815  -3.22282  27.14825
  33.08205  -3.52212  26.37015
  32.12435  -3.70162  25.47235
  31.70545  -3.76152  24.27525
  31.64555  -4.12062  22.77885
  31.64555  -5.79652  21.28255
  31.76525 -11.06382  19.84605
  31.70545 -15.55292  18.58905
  31.40615 -17.16892  17.39195
  31.40615 -17.34852  15.89565
  31.70545 -17.10912  14.09995
  32.42365 -16.33102  12.30435
  33.44115 -14.83462  10.44885
  34.69815 -11.78202   8.59335
  35.89525  -9.20832   6.91735
  37.15215  -9.14842   5.36115
  38.34925 -11.06382   4.10425
  39.30695 -12.20102   3.26625
  39.96535 -11.06382   2.78745
  40.56395  -8.66962   2.60785
  41.10255  -6.27542   2.42825
  41.88075  -5.07832   2.42825
  43.07785  -4.47972   2.30855
  44.51435  -4.06072   2.30855
  46.01065  -3.70162   2.54795
  47.38735  -3.40232   3.44585
  48.40485  -3.10312   5.30135
  48.94355  -2.98342   8.23415
  49.12315  -2.86372  12.36415
  49.00345  -2.74392  17.69125
  48.76405  -2.68412  23.43725
  48.70415  -2.68412  29.12345
  48.76405  -2.86372  34.33085
  49.24285  -3.10312  38.70025
  49.78155  -3.46222  42.17185
  50.43995  -3.70162  45.16455
  50.79905  -3.94102  47.67845
  50.61955  -4.00092  50.19235
  49.54215  -3.82132  52.82595
  47.80635  -3.40232  55.87855
  45.41215  -2.62422  58.99105
  42.83835  -1.42712  61.98375
  40.62375  -0.58922  64.67725
  38.88795  -0.34982  67.37065
  37.99015  -0.58922  70.12395
  37.87045  -0.46952  72.69775
  38.28945   0.42838  74.79265
  39.18725   1.68528  76.10945
  40.44415   2.04438  76.94745
  41.58145   0.48818  77.42625
  42.35955  -1.24762  77.36645
  42.77855  -2.08552  76.76785
  42.59895  -1.90602  76.22915
  41.34205  -1.24762  75.75035
  39.06755  -0.64902  75.51095
  36.07485  -0.34982  75.51095
  32.24405   0.30858  75.63065
  28.11415   1.20648  75.81015
  24.34325   1.98458  75.92995
  21.11115   0.78748  75.92995
  18.77675  -0.58922  75.75035
  17.40015  -1.42712  75.45105
  16.80155  -1.72642  75.03205
  17.04095  -1.54682  74.61305
  17.81915  -1.36732  74.37365
  18.77675  -1.54682  74.31385
  19.73445  -1.78632  74.43355
  20.39285  -1.78632  74.49335
  20.69215  -1.54682  74.55325
  20.57245  -1.30742  74.49335
  20.27315  -1.18772  73.95465
  20.15345  -0.88842  72.39845
  20.09355   0.18888  70.00425
  20.45275   2.04438  66.89185
  20.75195   4.19918  63.24065
  20.75195   6.53348  59.58955
  20.09355   9.04738  56.29755
  19.07605  11.32188  53.36465
  17.40015  13.11758  51.09015
  15.24535  14.49418  49.23465
  12.85115  15.39198  47.31935
  10.27745  16.11028  44.92515
   7.82335  16.64898  41.93245
   5.36935  17.36718  38.22145
   3.15465  18.14538  33.91185
   1.35905  18.44458  29.72205
   0.04225  18.20518  26.01105
  -0.73585  17.84608  23.43725
  -1.09495  18.02558  21.94095
  -1.09495  18.68408  21.16285
  -0.61615  19.34248  20.98325
   0.28165  19.16288  20.80365
   1.59845  18.14538  20.26495
   3.21455  16.88838  19.42705
   5.18975  16.11028  17.99055
   6.98535  16.17018  15.95545
   8.48175  16.40958  13.50145
   9.43945  15.81098  11.16705
   9.61905  14.37448   9.01235
   9.02045  13.35698   7.57575
   7.52405  13.35698   7.45605
   5.48905  14.19488   8.59335
   3.03495  14.97308  10.74805
   0.10215  15.33218  13.74085
  -3.18995  15.87088  17.09265
  -6.66145  16.58908  20.26495
 -10.25275  17.06798  23.07815
 -13.78415  16.46938  25.23295
 -17.01635  14.49418  26.72935
 -19.94925  12.09998  27.50745
 -22.88215  10.60368  27.14825
 -25.99455   9.94528  25.95115
 -29.28655   9.04738  24.45485
 -32.81805   6.89268  22.65915
 -36.88815   3.54078  20.98325
 -41.25755   0.84728  19.54675
 -45.92615   0.36848  18.40945
 -50.41525   1.56558  17.33215
 -54.42555   2.64298  16.13505
 -57.77745   2.16408  14.81825
 -60.23145   0.12908  13.38175
 -61.78765  -1.66662  11.94515
 -62.68555  -2.50452  10.62835
 -63.16435  -2.68412   9.55095
 -63.22425  -2.32502   8.77285
 -63.52345  -1.00822   8.35395
 -64.18185   1.68528   8.17435
 -65.13955   4.37878   8.35395
 -66.03735   6.05468   8.47365
 -66.51625   6.95248   8.65315
 -66.27675   7.49118   9.01235
 -65.25925   7.73058   9.07215
 -63.70305   7.49118   8.71305
 -61.60815   6.71308   7.57575
 -59.15405   5.51598   5.78015
 -56.40075   4.61818   3.26625
 -53.70735   4.49848   0.39325
 -51.13355   5.03718  -2.71925
 -49.21815   5.75538  -5.89155
 -47.36275   6.83278  -8.46525
 -45.68675   7.79048  -9.78205
 -44.84885   7.67078  -9.90175
 -44.48965   6.29408  -9.00395
 -44.01085   4.01958  -7.62735
 -43.65175   1.92468  -6.13095
 -43.59185   0.90718  -4.99375
 -43.71155   0.84728  -4.69445
 -42.99335   0.96698  -5.23315
 -41.55675   1.44588  -6.72945
 -39.70125   2.46338  -8.82445
 -37.66625   4.31888 -11.81715
 -35.93045   6.29408 -15.46825
 -34.43405   7.49118 -19.77785
 -33.53625   7.55108 -24.44645
 -33.17715   7.07218 -29.05535
 -33.59615   6.47368 -33.54445
 -34.01505   6.59338 -37.55465
 -34.49395   7.19188 -41.14595
 -34.79325   7.37148 -44.25845
 -34.43405   6.77298 -46.83215
 -33.53625   5.93498 -48.74755
 -31.92015   5.69558 -50.06435
 -29.88515   6.35398 -50.54315
 -27.19165   7.31168 -50.54315
 -24.07925   7.67078 -50.42345
 -20.78715   6.89268 -50.42345
 -17.25575   5.81528 -50.42345
 -13.78415   5.51598 -50.96215
 -10.49215   5.33638 -51.91985
  -7.26005   4.85758 -52.87745
  -4.26725   4.13938 -53.65565
  -1.63365   3.36118 -54.01475
   0.58095   2.52328 -53.95485
   1.95765   0.96698 -53.41615
   2.55615  -1.00822 -52.45855
   2.67585  -2.26512 -51.74025
   1.95765  -2.86372 -51.08185
   0.76055  -2.80382 -50.42345
  -0.61615  -2.44472 -50.00445
  -1.63365  -1.96582 -49.82495
  -2.29205  -1.60672 -50.06435
  -2.59135  -1.54682 -50.54315
  -2.59135  -1.66662 -51.26145
  -2.47165  -2.14542 -51.97965
  -2.05265  -2.92352 -52.63805
  -1.63365  -3.58192 -52.93735
  -1.57385  -4.06072 -52.81765
  -1.75335  -4.65932 -52.63805
  -2.41175  -5.37762 -52.69795
  -3.42935  -6.51482 -53.11695
  -4.68625  -8.84912 -54.31405
  -6.18265 -12.50032 -56.58845
  -7.49945 -15.49302 -59.76075
  -8.75635 -17.82732 -63.47175
 -10.25275 -19.68282 -67.54195
 -11.98855 -21.17922 -71.49235
 -13.96375 -22.19672 -75.26315
 -15.93895 -22.91502 -78.67485
 -17.67475 -23.63322 -81.66765
 -19.35065 -24.11212 -84.30125
 -20.24855 -23.75302 -86.39615
 -20.24855 -22.07702 -88.01225
 -19.53025 -19.86242 -89.32905
 -17.91415 -17.82732 -90.34655
 -15.63965 -17.34852 -91.24435
 -12.82655 -18.72522 -91.96265
  -9.47465 -19.92232 -92.44145
  -6.00305 -19.92232 -92.80065
  -2.53155 -18.78502 -92.98015
   0.94005 -16.69012 -92.86045
   4.23205 -14.53532 -92.50135
   7.16495 -13.45792 -91.84295
   9.85845 -12.97912 -91.00495
  12.07305 -12.08132 -89.92755
  13.62925  -8.60972 -89.26915
  14.58695  -5.25782 -88.79035
  14.82635  -4.18052 -88.79035
  14.58695  -3.94102 -88.91005
  14.16795  -3.94102 -89.56845
  13.86865  -4.12062 -90.34655
  13.80885  -4.36002 -91.00495
  14.34755  -4.83892 -91.42395
  15.30525  -5.61702 -91.48375
  16.56215  -6.99362 -90.94515
  17.99865  -7.41262 -89.86775
  19.13595  -5.97612 -88.43125
  20.09355  -4.65932 -86.45595
  20.81185  -4.18052 -84.30125
  21.58995  -4.18052 -81.72745
  22.18855  -4.53962 -78.67485
  23.14615  -6.51482 -75.50255
  24.34325 -10.28562 -72.21055
  25.36085 -12.38062 -68.97845
  26.25865 -11.54262 -65.74625
  27.09655  -8.07102 -62.51415
  27.63525  -5.01842 -59.28195
  27.87475  -4.00092 -56.04975
  27.81485  -3.58192 -52.57825
  27.63525  -3.40232 -49.04675
  27.33605  -3.34252 -45.63505
  27.09655  -3.22282 -42.52265
  27.21635  -3.04322 -39.88905
  27.51555  -2.62422 -37.55465
  28.17395  -1.96582 -35.45975
  28.65285  -1.48702 -33.36485
  28.95205  -1.24762 -30.97065
  29.79005  -1.00822 -27.61875
  29.90975  -0.76872 -23.54865
  28.95205  -0.76872 -19.35885
  28.65285  -1.12792 -15.46825
  28.47325  -1.78632 -11.57775
  27.87475  -2.02572  -8.28575
  27.21635  -1.90602  -5.59225
  26.19875  -1.72642  -3.61705
  25.54035  -1.36732  -2.36005
  24.52285  -0.70892  -1.40245
  23.44545   0.06918  -0.32505
  22.48775   0.54808   1.05165
  21.70965   0.78748   2.96695
  20.93155   1.56558   5.66045
  20.15345   2.94228   8.65315
  19.37535   4.73788  11.94515
  19.19575   5.81528  15.35695
  19.25565   6.17438  18.40945
  19.55485   6.77298  20.62415
  20.15345   7.85028  22.06065
  20.93155   9.28688  22.77885
  21.82935  10.42408  23.25775
  23.44545  11.44158  23.79645
  25.30095  12.39928  24.69425
  27.51555  13.23728  26.07095
  30.14915  12.99788  27.98625
  33.56095  11.62118  30.67975
  36.91275   9.94528  34.03155
  39.48655   9.22698  37.62285
  41.22235   9.34668  41.27405
  42.53915   9.88538  44.56605
  43.49675   9.70578  47.13975
  44.57415   8.74818  48.93545
  45.65155   8.32918  50.07265
  46.30995   9.04738  50.49165
  46.84865  10.06498  50.31205
  47.68665  10.42408  49.59385
  48.58445   9.46638  48.75585
  48.88375   7.55108  48.09745
  48.88375   5.99478  47.73835
  48.40485   5.57588  47.13975
  47.56695   5.63568  46.54125
  46.36985   5.75538  46.18205
  44.57415   5.57588  45.82295
  42.23985   4.79778  45.04485
  39.78575   3.72038  44.08715
  37.57115   3.24148  43.18935
  35.11715   3.12178  42.35135
  32.42365   2.82248  41.63315
  29.96965   2.28388  40.85505
  27.15645   1.92468  40.43605
  24.40315   1.56558  40.31635
  21.70965   1.20648  40.55575
  18.95635   0.66778  41.03455
  16.32275  -0.17022  41.69295
  13.62925  -0.58922  42.47115
  10.69635  -0.52932  43.72805
   7.70365  -0.52932  45.34415
   5.24965  -0.64902  46.96025
   3.27445  -0.88842  49.17485
   1.53865  -1.06802  52.10775
   0.22185  -1.30742  54.92085
  -0.97525  -1.42712  57.55445
  -2.59135  -1.54682  61.02605
  -4.32715  -1.84612  65.57505
  -5.28485  -2.08552  69.64515
  -5.46435  -1.96582  72.93715
  -5.28485  -1.72642  76.10945
  -4.92565  -1.66662  79.52115
  -4.56655  -1.72642  83.05265
  -4.26725  -1.48702  85.62635
  -4.08775  -0.76872  87.24245
  -4.26725  -0.05052  89.03805
  -4.62645   0.30858  91.13305
  -4.92565   1.20648  92.92865
  -5.46435   2.94228  94.36515
  -6.18265   4.97728  95.08345
  -7.20015   6.65318  95.14325
  -8.57685   7.61088  94.78415
 -10.01335   8.08978  94.30535
 -11.39005   8.68828  93.88635
 -12.64695   9.40658  93.04835
 -13.72435  10.24448  92.09065
 -14.56235  11.20218  91.13305
 -14.92145  12.21968  90.23515
 -15.04115  13.23728  89.33735
 -14.98125  14.25478  88.31985
 -14.68205  15.09278  87.54175
 -14.50245  15.69128  86.82345
 -14.56235  16.28988  86.10525
 -14.68205  17.30738  85.32705
 -14.86155  18.32488  84.48915
 -15.28055  19.40228  83.53145
 -15.81925  20.18038  82.93295
 -16.17835  20.18038  82.87305
 -16.05865  19.34248  83.53145
 -15.51995  18.32488  84.66865
 -14.80175  18.08548  85.86575
 -14.38275  18.50448  86.94315
 -14.32285  18.20518  87.78115
 -14.50245  16.82858  88.25995
 -14.92145  14.91318  88.43955
 -15.63965  13.59638  88.25995
 -16.53755  12.93798  87.78115
 -17.67475  12.51898  86.88335
 -19.17115  11.32188  85.38695
 -20.78715   8.92768  83.71105
 -22.58285   6.29408  81.97525
 -24.61795   4.31888  80.05985
 -26.41355   3.30138  77.54595
 -27.49095   3.00208  75.15175
 -28.14935   3.12178  73.17655
 -28.92745   2.52328  71.32105
 -29.94495   1.32618  69.40575
 -30.96255  -0.05052  67.31085
 -32.09975  -1.12792  65.09615
 -32.99755  -1.84612  62.88155
 -33.77565  -2.50452  60.84655
 -34.31435  -3.04322  59.23045
 -34.61365  -3.40232  58.03335
 -34.73335  -3.52212  56.77635
 -34.13485  -3.58192  55.57925
 -32.75815  -3.70162  54.32235
 -31.14205  -3.94102  52.52665
 -29.34645  -4.65932  50.37195
 -26.89235  -5.43742  47.79815
 -24.49815  -5.37762  44.92515
 -21.92445  -4.53962  41.99225
 -19.53025  -4.30022  39.53825
 -17.25575  -4.30022  37.50315
 -15.46015  -4.65932  35.82725
 -13.54475  -5.73672  34.45055
 -11.74915  -8.90902  33.31335
 -10.01335 -14.11632  32.23595
  -8.27755 -17.46822  30.97895
  -6.54175 -18.72522  29.30305
  -5.34465 -18.66532  27.14825
  -4.80595 -18.30622  24.45485
  -5.04545 -18.36602  21.46205
  -5.88335 -18.84492  18.22995
  -7.31985 -19.26392  14.75835
  -8.81625 -19.32372  11.16705
 -10.25275 -18.72522   7.39625
 -11.62945 -17.64782   3.50565
 -13.12575 -16.33102  -0.86375
 -14.50245 -15.37332  -5.59225
 -16.11855 -14.95432 -10.73975
 -17.97405 -15.31342 -16.00695
 -20.00905 -15.55292 -21.27415
 -22.34345 -14.71492 -26.48155
 -24.43835 -11.66232 -31.74875
 -26.23395  -6.45492 -36.53715
 -28.26905  -4.30022 -40.78685
 -30.30415  -3.76152 -44.91685
 -32.09975  -3.52212 -48.62785
 -33.71585  -3.28262 -51.80015
 -35.09245  -3.04322 -54.43375
 -36.40925  -2.56442 -56.76805
 -37.60635  -1.84612 -58.62355
 -38.44435  -1.24762 -59.70095
 -39.10275  -1.12792 -60.53885
 -39.82105  -1.30742 -61.01775
 -40.71885  -1.96582 -61.13745
 -41.55675  -2.50452 -60.77835
 -42.33495  -2.56442 -60.29945
 -42.57435  -2.14542 -59.76075
 -41.97575  -1.48702 -58.86295
 -41.01805  -1.12792 -57.60605
 -39.34215  -1.00822 -55.51115
 -37.30715  -0.82862 -52.87745
 -35.21215  -0.58922 -49.70515
 -32.87785  -0.34982 -46.17375
 -30.78295  -0.23002 -42.82185
 -29.04715  -0.52932 -39.82915
 -27.31135  -0.46952 -37.67435
 -25.69525   0.24878 -36.35755
 -23.77995   1.38598 -36.05835
 -21.62515   3.06198 -36.53715
 -20.00905   4.73788 -37.79405
 -18.75215   6.35398 -39.23065
 -17.37545   7.61088 -40.84665
 -15.75945   8.62848 -42.70215
 -14.08345   9.76568 -44.49785
 -12.46735  11.14238 -46.53285
 -10.85135  12.87808 -48.68765
  -9.11555  14.43438 -51.02195
  -7.14035  15.39198 -53.71545
  -5.10525  15.81098 -56.46875
  -3.07015  15.75118 -59.58125
  -1.33445  15.33218 -62.93305
   0.04225  14.67378 -66.22505
   1.05975  13.83578 -69.51715
   1.77805  13.35698 -72.92885
   2.43645  13.41678 -76.10115
   2.97515  13.71608 -78.97415
   3.69335  13.77598 -81.72745
   4.53135  13.59638 -83.82235
   5.54885  13.41678 -85.37865
   6.68615  13.65628 -86.69545
   7.76355  14.07518 -87.71295
   8.84085  14.31468 -88.37135
   9.85845  13.83578 -89.14945
  10.75625  12.27958 -89.68815
  11.83365  10.24448 -90.34655
  13.03075   8.50868 -90.76555
  14.34755   7.31168 -91.60355
  15.66435   6.47368 -92.44145
  16.80155   5.09698 -92.74075
  17.45995   3.78018 -92.68085
  18.41765   3.18168 -93.15975
  19.43515   3.54078 -93.33925
  19.79435   2.64298 -91.54365
  20.57245   0.00938 -90.64585
  22.84695  -1.42712 -90.28675
  24.70245  -2.08552 -89.86775
  26.13895  -2.44472 -89.68815
  28.65285  -2.62422 -89.08965
  31.34625  -3.10312 -88.19175
  34.33905  -3.64182 -87.29395
  37.09235  -3.88122 -86.45595
  39.06755  -4.12062 -85.25895
  40.68365  -4.12062 -83.70265
  42.17995  -4.06072 -82.08665
  43.37705  -4.24032 -80.11135
  44.45445  -4.47972 -77.77705
  45.77125  -4.36002 -75.26315
  46.84865  -4.06072 -72.56965
