********************************************************************************
              CENTRO DE INSTRUMENTACION Y REGISTRO SISMICO  A.C.

    Anaxagoras 814, Col. Narvarte, Benito Juarez, C.P. 03020 Mexico, D.F.
           Tels. 5687 45 42/ 5687 45  82             Fax. 5669 25 12
********************************************************************************
ARCHIVO ESTANDAR DE ACELERACION:
VERSION DEL FORMATO                    : 2.0
NOMBRE DEL ARCHIVO                     : CA5920170919181440
FECHA Y HORA DE CREACION               : 25/SEP/17, 11:23
REF. CATALOGO ACELEROGRAMAS, SMIS 1996 : REGISTRO No.     /PAG.


================================================================================
DATOS DE LA ESTACION:
NOMBRE DE LA ESTACION                  : CANDELARIA
CLAVE DE LA ESTACION                   : CA59
LOCALIZACION DE LA ESTACION            : Del. Venustiano Carranza, Col.         
                                       : El Parque, Av. Congreso de la Unión    
                                       : Entre calles Sidar  y Cecilio Robelo.  
                                       :                                        
                                       : 
COORDENADAS DE LA ESTACION             : 19.4258 LAT. N
                                       : 99.1183 LONG. W
ALTITUD (msnm)                         : 2233
TIPO DE SUELO                          : Terreno blando, material compresible
                                       : (arcillas)                
                                       : 
INSTITUCION RESPONSABLE                : CIRES
                                       : 

================================================================================
DATOS DEL ACELEROGRAFO:
MODELO DEL ACELEROGRAFO                : RADESD
NUMERO DE SERIE DEL ACELEROGRAFO       : 181
NUMERO DE CANALES                      : 3
ORIENTACION C1-C6 (rumbo;orientacion)  : /S00E/+V/N90W
ORIENTACION C7-C12 (rumbo;orientacion) : 
VEL. DE MUESTREO, C1-C6 (muestras/s)   : /100/100/100
VEL. DE MUESTREO, C7-C12 (muestras/s)  : 
ESC. COMPLETA DE SENSORES, C1-C6, (g)  : /0.5/0.5/0.5
ESC. COMPLETA DE SENSORES, C7-C12, (g) : 
FREC. NAT. DE SENSORES, C1-C6, (Hz)    : /51.94/51.34/51.64
FREC. NAT. DE SENSORES, C7-C12, (Hz)   : 
AMORTIGUAMIENTO DE SENSORES, C1-C6     : /0.5912/0.5572/0.5849
AMORTIGUAMIENTO DE SENSORES, C7-C12    : 
INTERVALO DE MUESTREO, C1-C6, (s)      : /0.01/0.01/0.01
INTERVALO DE MUESTREO, C7-C12, (s)     : 
UMBRAL DE DISPARO, C1-C6, (Gal)        : /0.72/1.92/0.72
UMBRAL DE DISPARO, C7-C12, (Gal)       : 
MEMORIA DE PREEVENTO (s)               : 44.0
TIEMPO DE POSEVENTO (s)                : 0.0


================================================================================
DATOS DEL SISMO:
FECHA DEL SISMO (GMT)                  : 19/SEP/17
HORA EPICENTRO (GMT)                   : 18:14:40.0
MAGNITUD(ES)                           : /Mc=7.1
COORDENADAS DEL EPICENTRO              : 18.40 LAT. N
                                       : 98.72 LONG. W
PROFUNDIDAD FOCAL (km)                 : 57
FUENTE DE LOS DATOS EPICENTRALES       : SSN
                                       : INSTITUTO DE GEOFISICA, UNAM

================================================================================
DATOS DE ESTE REGISTRO:
HORA DE LA PRIMERA MUESTRA (GMT)       : 18:15:00.00
EXACTITUD DEL TIEMPO (s)               : 0.01
DURACION DEL REGISTRO (s), C1-C6       : /495.6/495.6/495.6
DURACION DEL REGISTRO (s), C7-C12      : 
NUM. TOTAL DE MUESTRAS, C1-C6          : /49560/49560/49560
NUM. TOTAL DE MUESTRAS, C7-C12         : 
ACEL. MAX. (Gal), C1-C6                : /83.50424/35.61812/89.83383
ACEL. MAX., C1-C6, EN LA MUESTRA       : /6972/6775/6887
ACEL. MAX. (Gal), C7-C12               : 
ACEL. MAX., C7-C12, EN LA MUESTRA      : 
UNIDADES DE LOS DATOS                  : Gal (cm/s/s)
FACTOR DE DECIMACION                   : 1
FORMATO DATOS (FORTRAN,10 campos/dato) : 3F10.5


================================================================================
CALIDAD DEL ACELEROGRAMA:
REGISTRO DIGITAL COMPLETO CON TIEMPO ABSOLUTO CORRECTO.


================================================================================
COMENTARIOS:














================================================================================
DATOS DE ACELERACION:
---------+---------+---------+---------+---------+---------+---------+---------+
   CANAL-1   CANAL-2   CANAL-3   CANAL-4   CANAL-5   CANAL-6   CANAL-7   CANAL-8
      S00E        +V      N90W
---------+---------+---------+---------+---------+---------+---------+---------+
[...]
  26.64400  -7.34284  30.65216
  26.29984  -4.36505  30.09850
  26.65897  -1.49201  29.35031
  27.61665  -0.57922  28.76672
  29.17288  -1.71646  28.57220
  31.07327  -3.21284  28.87147
  33.16820  -3.75153  29.61966
  35.47262  -3.87124  30.54741
  38.04639  -4.40994  31.19085
  40.69497  -5.44244  31.72955
  43.38845  -6.93881  31.59488
  45.58812  -8.79432  30.98136
  47.11443 -10.14106  30.09850
  47.84765  -9.79689  28.61709
  48.10203  -7.16327  26.71669
  48.04218  -2.65918  24.87615
  48.37138   2.44346  23.23013
  49.40388   6.60339  21.50930
  50.73566   9.40161  19.66876
  51.97765  10.04505  17.49901
  52.69591   8.78810  14.94021
  52.41160   5.72053  11.84271
  50.61595   2.06937   8.80507
  47.24910  -0.78871   5.85721
  42.40084  -1.34237   3.67250
  36.08613   0.33357   1.99656
  29.08309   3.90991   1.12866
  21.51143   8.35415   0.84435
  13.86495  12.39436   1.26333
   6.47285  14.45936   2.32576
  -0.64990  14.50425   3.65753
  -7.00950  13.93563   5.70757
 -12.38149  12.94802   8.19155
 -16.66112  11.07755  11.03467
 -19.80351   7.11216  13.87778
 -21.79369   2.83252  16.60119
 -22.55684   0.43832  19.44430
 -22.73641   0.85730  22.09289
 -22.34735   3.23654  24.69658
 -21.49442   5.07708  27.27035
 -20.34221   5.95995  29.72441
 -19.01043   6.67821  32.16350
 -17.70858   8.05487  33.85440
 -16.49652   9.82060  34.91683
 -15.23956  10.65857  34.99165
 -13.53369   9.83556  34.31828
 -11.61833   6.88770  33.01643
  -9.37377   3.65553  30.92151
  -7.08431   1.96462  28.37767
  -4.66018   2.23397  25.62434
  -2.46051   2.56317  23.54437
  -0.53019   1.87484  22.45202
   0.98115   1.36607  22.63158
   2.40271   2.71281  23.33488
   3.83923   6.00484  24.27760
   5.21590   9.32679  24.80133
   6.69731  11.24215  25.17542
   8.05901  10.79324  25.28017
   9.30100   8.86292  25.63930
  10.31854   5.52600  26.22289
  11.15651   1.91973  26.56705
  12.15908  -0.66900  26.97107
  13.22151  -2.40480  26.86633
  14.53832  -4.30519  26.17799
  15.95988  -6.69939  24.42723
  17.27669  -9.31805  21.49434
  18.51868 -10.82939  17.42419
  19.43147 -10.05128  12.50112
  20.10484  -6.32530   7.24884
  20.64353  -0.27994   2.23598
  21.12237   6.54353  -1.81920
  21.87056  10.64360  -4.58750
  22.85817   9.43154  -6.14373
  24.26476   3.43107  -6.89192
  25.89581  -4.23037  -7.50543
  27.57176 -11.26334  -8.52297
  29.20280 -16.48569 -10.82739
  30.51962 -18.80508 -14.19423
  31.68679 -16.45577 -17.98006
  32.64447 -10.41041 -21.46662
  33.43755  -3.54204 -24.19002
  34.09595   1.00694 -25.79115
  34.94889   2.33872 -26.19517
  36.10110   0.63285 -25.89589
  37.35805  -3.43729 -25.46194
  38.65990  -7.19320 -25.37216
  39.90189  -7.95635 -25.83604
  40.76979  -5.63697 -26.25502
  40.99425  -3.09313 -26.09042
  40.29095  -2.64422 -24.77361
  38.19602  -4.26030 -21.70604
  35.00874  -5.99610 -17.38151
  30.89371  -6.89392 -12.59311
  26.40458  -7.65708  -7.81967
  21.94538  -9.25820  -3.51011
  17.65078 -11.24838   0.58996
  13.46093 -12.53526   4.60025
   9.09151 -12.01153   8.56565
   4.91662  -9.70711  12.27666
   1.37021  -6.89392  15.62854
  -1.36816  -5.69682  18.60633
  -3.58279  -7.52240  21.13521
  -5.91714 -11.35312  23.42466
  -8.74529 -15.81232  25.39988
 -12.12710 -19.25399  26.98604
 -15.88301 -21.04964  28.01854
 -19.54913 -20.75037  28.13825
 -23.03568 -17.80250  27.15064
 -25.74412 -13.55280  24.95097
 -27.74927 -10.63486  21.73376
 -29.50003 -10.58997  18.11253
 -31.14604 -11.89182  14.68583
 -32.85191 -12.17613  11.81278
 -34.69245 -10.29070   9.17916
 -36.18883  -6.90889   6.59043
 -37.29615  -3.33255   3.92688
 -37.77499  -1.05806   1.51772
 -37.87973  -0.16023   0.06623
 -38.01441   1.00694  -0.00859
 -38.25383   3.22158   0.90420
 -38.26879   6.21433   2.25094
 -38.02937   9.16219   3.74732
 -37.10162  10.74835   5.27362
 -35.73992  10.49397   6.71014
 -34.18368   8.27933   8.37112
 -33.06140   5.27161  10.22663
 -32.44789   2.56317  11.94746
 -32.65738   0.70767  13.41391
 -33.42053  -0.54929  14.38655
 -34.81216  -0.77375  14.94021
 -36.45818   0.96205  14.83546
 -38.26879   3.92488  14.35662
 -40.16919   6.58842  13.30916
 -42.30901   7.75560  11.88760
 -44.77803   7.36654  10.31641
 -47.15726   6.61835   8.80507
 -49.52154   6.01980   7.09920
 -51.30223   5.51103   5.33348
 -52.22998   5.18183   3.64257
 -51.99056   5.75045   2.28087
 -50.37447   7.56107   1.35312
 -47.66603  10.49397   0.91917
 -44.05977  13.05277   0.51515
 -40.21408  13.39694   0.45529
 -36.48810  10.49397   0.72464
 -32.89680   5.04716   1.65239
 -29.29053  -0.42958   3.05898
 -24.93608  -3.70664   4.82471
 -19.72869  -3.51211   6.56050
 -13.66837  -0.14527   8.02695
  -7.23395   4.50846   9.26895
  -1.32327   8.08480  10.07699
   3.64470   9.94031  10.21166
   7.41557  10.95784   9.35873
   9.91452  11.64618   6.81489
  11.21636  11.52647   2.71482
  12.02441  10.14980  -2.80681
  12.59303   7.80049  -8.56786
  13.29633   6.45375 -13.70043
  14.28394   6.88770 -18.06985
  15.27154   8.12969 -21.75093
  16.31901   7.77056 -25.07288
  17.63582   4.85263 -28.15542
  19.34169   2.20404 -31.46241
  21.66107   2.68288 -35.02379
  24.63886   6.39390 -38.80962
  27.93089  11.31697 -42.90969
  31.04335  14.48929 -46.80027
  33.61711  14.50425 -50.18207
  35.12845  10.94288 -52.92044
  35.89161   4.20919 -55.28472
  35.77190  -3.81139 -57.61906
  34.91896 -11.12867 -60.46218
  33.45251 -16.15649 -63.61953
  31.28277 -18.89486 -66.91156
  28.72396 -19.95729 -70.15869
  26.12027 -19.55326 -73.16641
  23.71110 -17.38352 -75.62047
  21.51143 -14.16631 -77.20663
  19.25190 -11.17356 -77.73036
  17.17194 -10.05128 -77.19166
  15.27154 -10.42537 -75.72521
  13.90984 -10.05128 -73.66021
  13.28136  -6.98371 -71.37076
  13.86495  -2.50954 -69.14116
  15.75038   0.99198 -67.06120
  18.77306   2.29383 -64.59218
  22.87313   1.71024 -61.58446
  27.61665  -0.68396 -58.20265
  32.43498  -4.45483 -54.67120
  36.86425  -8.30052 -51.21457
  40.20117 -11.18852 -47.57838
  42.28113 -12.46044 -44.00204
  43.17896 -12.66993 -40.71001
  43.02932 -12.78964 -37.88186
  42.07164 -13.40316 -35.47270
  40.11139 -15.04917 -33.73690
  36.96900 -17.00943 -32.40513
  32.44994 -18.52077 -31.53723
  26.85349 -18.96968 -30.72919
  20.77821 -17.92221 -29.89122
  14.74781 -15.24370 -29.14303
   9.45064 -11.12867 -28.57440
   4.61735  -7.16327 -28.23024
   0.26289  -5.69682 -28.42477
  -3.88207  -7.46255 -29.20288
  -7.78761 -10.96407 -30.48977
 -11.06467 -13.94185 -32.27045
 -13.83297 -15.58787 -34.15589
 -16.13739 -16.87475 -35.47270
 -18.42684 -18.59558 -36.10118
 -20.89586 -20.25656 -35.69715
 -23.58934 -21.13942 -34.47013
 -26.71677 -21.06460 -32.68944
 -30.00879 -20.88504 -30.56459
 -33.21104 -19.70290 -28.18535
 -35.85963 -16.65030 -25.32727
 -37.59542 -11.12867 -21.81079
 -38.13412  -4.42490 -18.66840
 -38.32865   0.15401 -14.85264
 -38.37354   0.00437 -11.12666
 -38.94216  -3.97599  -7.17623
 -40.25897  -7.92642  -3.52507
 -42.26411  -9.66222  -0.32283
 -44.92766  -9.42280   1.83196
 -48.04013  -8.30052   3.11884
 -51.48179  -5.30776   3.82214
 -54.89353   0.57299   4.36083
 -58.06585   7.69574   4.70500
 -60.77429  14.41447   5.15391
 -62.67468  20.23537   5.10902
 -63.52762  25.86175   4.98931
 -63.31813  30.90454   4.51047
 -62.33052  34.45095   3.77725
 -61.07356  35.61812   2.41554
 -59.62208  34.82504   0.53011
 -58.57461  31.96696  -2.11848
 -57.99103  27.50776  -4.82692
 -57.84139  22.25548  -7.56529
 -58.24541  17.24262  -9.88467
 -58.91878  13.15752 -11.66536
 -59.95128   9.71585 -12.93728
 -60.80421   7.18698 -13.65554
 -61.41773   5.73549 -13.71539
 -61.65715   6.01980 -13.46101
 -61.25313   7.77056 -13.38619
 -60.22063  10.73339 -13.44604
 -58.58958  15.17762 -13.40115
 -56.33005  20.50472 -13.04202
 -53.45701  25.38291 -12.23398
 -50.19491  28.10631 -11.12666
 -46.33426  28.30084 -10.19891
 -41.89002  25.68218  -9.95949
 -36.80234  20.96860 -10.31862
 -31.19093  15.22251 -10.93213
 -24.93608  10.43411 -11.91974
 -18.36699   8.65342 -12.83253
 -11.75301   9.89542 -13.62561
  -5.39341  12.75349 -14.20919
   0.24793  14.99806 -14.59825
   5.06626  16.59918 -15.12198
   8.85209  18.06563 -15.90010
  11.45579  18.93353 -16.99245
  12.90727  17.84117 -18.66840
  13.50582  14.44440 -20.68850
  13.82006   9.64103 -22.75350
  14.23904   5.48111 -24.69879
  15.34636   2.12922 -26.15028
  16.99238  -0.69893 -27.69154
  18.54861  -2.97342 -28.93354
  19.20701  -4.99353 -30.48977
  18.60846  -7.04356 -31.74672
  16.99238  -9.58740 -32.89893
  15.21169 -11.41298 -33.33288
  14.20912 -11.68233 -32.88397
  14.70292 -10.32062 -31.34270
  16.66317  -7.94139 -28.61930
  19.56614  -6.83407 -25.23749
  22.57386  -9.06367 -21.19727
  24.96806 -14.73493 -16.96253
  26.40458 -21.06460 -12.60807
  26.61407 -25.43402  -8.52297
  26.35969 -26.78076  -4.87181
  25.88085 -26.39170  -1.78927
  25.20748 -25.70337   1.26333
  24.39944 -25.26942   4.31594
  23.20234 -24.47634   7.68279
  21.16727 -22.63580  11.43869
  18.05480 -19.47845  15.14970
  13.83502 -15.36341  18.80086
   8.88202 -11.12867  22.16771
   4.00383  -7.43262  25.32506
   0.11325  -4.93367  28.64701
  -2.64008  -3.30262  32.67227
  -3.94192  -1.25259  37.25118
  -3.88207   1.02191  42.09944
  -2.37073   2.17412  46.40900
   0.08333   1.51571  49.41671
   2.79177  -0.38469  50.47914
   5.30568  -1.50697  49.73095
   7.13126  -0.35476  47.50135
   8.08894   2.68288  44.74802
   8.50792   5.64571  42.17425
   8.61267   6.84281  40.60306
   8.67253   5.10701  39.95962
   9.01669   0.52810  40.06436
   9.61524  -5.35266  40.48335
  10.81234 -11.38305  40.69284
  12.23390 -16.39591  40.91730
  13.95473 -19.13428  40.84248
  16.19930 -19.10435  40.48335
  18.77306 -16.45577  40.13918
  21.70596 -12.25095  39.75012
  24.68375  -7.88153  39.92969
  27.30241  -3.72161  40.82752
  29.42726   0.10912  42.32389
  30.71414   2.86245  44.35896
  31.22291   3.73035  46.60353
  31.37255   2.93727  48.92291
  31.32766   1.17154  51.25726
  31.35759  -0.66900  53.72628
  31.61197  -2.37487  56.15041
  31.94117  -4.39498  58.79899
  32.18059  -6.74429  61.76182
  31.98606  -9.54251  65.17355
  31.14809 -11.68233  68.76486
  29.74150 -11.48780  72.08681
  27.78125  -8.62972  74.91496
  25.34215  -3.69168  77.08471
  22.57386   1.78506  78.32670
  19.55118   6.21433  79.17963
  16.19930   7.95013  79.82308
  12.48828   6.99245  80.33184
   8.20865   5.01723  80.90047
   3.61477   4.46357  81.34938
  -0.79953   5.34643  81.61873
  -4.63026   5.98987  81.87311
  -7.57812   5.82527  82.36691
  -9.40370   6.28915  83.10014
  -9.97232   7.48625  84.08775
  -9.37377   8.42897  85.06039
  -8.08689   8.69831  86.10785
  -6.33613   9.98520  87.15532
  -4.57040  13.15752  88.20278
  -2.95432  16.26998  89.04075
  -1.50283  17.73643  89.59441
  -0.41048  18.79885  89.83383
   0.48735  20.39998  89.81887
   1.65452  22.45001  89.28017
   3.13593  22.95878  88.29256
   5.17101  20.28027  86.93086
   7.86448  15.17762  85.35967
  11.18644  10.62864  83.57898
  14.88249   7.98005  81.52894
  18.51868   6.90266  78.92525
  21.76582   6.48368  75.93250
  24.51915   6.49864  72.68536
  26.86846   7.14208  69.37837
  28.81375   8.29429  66.04145
  30.44480   9.82060  62.83921
  31.49226  11.69107  59.69682
  32.04592  14.50425  56.61428
  31.88132  17.63168  53.60657
  31.05831  19.41237  50.28461
  29.66668  18.76893  47.09733
  27.97578  16.34480  44.40385
  26.55422  13.32212  42.44360
  25.76114  10.91295  41.08190
  25.92574   9.94031  40.01947
  27.21262  10.59871  39.09172
  29.45719  12.57393  37.87965
  32.27038  14.74367  36.02415
  35.03867  16.09041  33.48031
  37.44784  15.85099  30.45763
  39.36320  12.99291  27.34517
  40.70994   7.32165  24.41227
  41.50302  -0.22009  21.70383
  41.83222  -7.86657  19.15999
  41.98186 -13.50791  16.79572
  42.01178 -16.69519  14.65590
  42.25120 -17.27877  12.51608
  42.77494 -16.21635  10.13684
  43.79247 -14.92946   7.54811
  45.06439 -14.82472   5.03420
  46.48595 -15.45319   2.84949
  48.14693 -15.43823   1.41297
  49.89769 -14.19624   0.61989
  51.84297 -13.28345   0.23083
  53.81819 -13.73236  -0.08341
  55.64377 -14.73493  -0.80167
  57.02044 -14.70501  -2.10351
  57.30475 -13.56776  -3.98895
  56.19743 -12.25095  -5.99409
  53.63863 -11.78707  -7.75981
  49.68819 -12.38562  -8.71749
  44.75015 -13.07396  -8.70253
  39.04896 -13.49294  -8.38829
  33.36273 -14.04660  -8.65764
  27.85607 -15.25867 -10.54307
  22.79832 -16.65030 -14.05956
  18.27926 -16.66526 -18.68336
  14.20912 -14.00171 -23.77104
  10.51307  -9.55747 -28.87368
   6.96666  -5.95121 -33.15332
   3.59981  -4.79900 -36.66980
   0.42749  -5.98113 -39.03407
  -2.55029  -8.19577 -40.60527
  -5.06421 -10.73961 -41.51806
  -6.80000 -12.96921 -42.16150
  -7.81754 -13.56776 -42.44581
  -8.38616 -12.59512 -42.81990
  -9.19420 -10.96407 -43.11918
 -10.79533 -10.69472 -43.59802
 -13.57859 -11.92175 -44.01701
 -17.39434 -13.28345 -44.33124
 -21.92836 -13.41812 -44.48088
 -26.49231 -12.49037 -45.22907
 -30.81684 -12.02649 -46.56084
 -34.97676 -12.49037 -47.84773
 -38.61296 -12.95425 -49.22439
 -42.11448 -13.37323 -50.58610
 -45.73571 -14.01667 -51.70838
 -49.89563 -15.06414 -52.63613
 -54.69900 -15.67765 -53.02519
 -60.02610 -15.06414 -53.11497
 -65.44298 -12.58015 -52.77081
 -70.80001  -8.18081 -52.33686
 -75.42381  -2.61429 -51.73831
 -79.20964   2.68288 -51.22954
 -81.90312   6.66324 -50.45142
 -83.33964   9.20708 -49.62842
 -83.50424  10.92792 -48.58095
 -82.09764  12.36444 -47.63824
 -79.38920  14.78857 -46.78530
 -75.61834  17.24262 -46.24661
 -71.11424  18.73900 -46.27653
 -66.08642  18.61929 -46.84516
 -60.84910  17.57182 -48.25175
 -55.71654  17.28751 -50.16711
 -50.91317  17.85614 -52.56131
 -46.81310  18.39483 -55.09019
 -43.53603  18.63425 -57.78367
 -40.79767  18.02074 -60.82131
 -38.29872  16.91342 -64.06844
 -35.72495  15.31230 -67.85428
 -32.61249  13.30715 -72.08902
 -29.03615  11.21223 -76.36866
 -25.08572   9.94031 -80.28916
 -21.35974  10.14980 -83.56622
 -18.18742  12.11005 -86.02028
 -15.79322  14.35462 -87.57651
 -14.04246  16.00063 -88.30974
 -12.83040  16.59918 -88.44441
 -11.87272  16.58422 -87.83090
 -10.81029  16.68896 -86.54401
  -9.88254  17.37730 -84.74836
  -9.32888  18.36490 -82.60854
  -9.46355  18.49958 -80.42383
 -10.88511  16.94335 -77.90992
 -13.56362  14.33965 -74.88724
 -16.96040  11.75092 -71.29594
 -20.50681  10.76331 -67.37544
 -23.70905  11.10748 -63.60457
 -26.16311  11.61625 -60.25269
 -28.04854  11.04763 -57.64899
 -29.60477   9.46147 -55.38946
 -30.95151   7.68078 -53.71352
 -32.26832   6.94755 -52.09744
 -33.28586   7.38150 -50.81055
 -33.83952   7.84538 -49.53863
 -33.85448   7.54611 -48.34153
 -33.15118   7.36654 -47.06961
 -32.13365   8.05487 -45.93237
 -31.02633   9.40161 -45.07943
 -30.33800   9.91038 -44.48088
 -30.18836   8.90781 -44.19657
 -30.54749   6.18440 -44.33124
 -30.78691   2.56317 -44.79512
 -30.39785  -1.23762 -45.31885
 -28.66206  -4.14059 -46.11193
 -25.77405  -6.23552 -46.97983
 -21.77873  -8.33044 -48.16197
 -17.22974 -10.57501 -49.58352
 -12.26178 -11.27831 -51.27443
  -7.11424  -8.74943 -53.36936
  -1.98167  -3.49715 -55.52414
   2.70199   1.66535 -57.27490
   6.83198   4.68803 -58.72638
  10.22876   5.01723 -59.41472
  13.17662   3.01209 -59.47457
  15.92995  -0.14527 -58.80120
  18.48875  -3.03327 -57.34972
  20.98770  -4.26030 -55.00041
  23.24723  -4.08074 -51.82809
  25.29726  -3.18291 -48.02729
  27.00313  -2.21027 -43.88233
