**************************************************************************************
                       INSTITUTO DE INGENIERIA, UNAM
                 Grupo de Procesamiento y Analisis Sismico
                   Coordinacion de Ingenieria Sismologica
           Ciudad Universitaria, Coyoacan, Mexico D.F., C.P. 04510
**************************************************************************************
ARCHIVO ESTANDAR DE ACELERACION:
VERSION DEL FORMATO                    : 2.0
NOMBRE DEL ARCHIVO                     : CCCL1709.191
FECHA Y HORA DE CREACION               : Dic 03 2018
REF. CATALOGO ACELEROGRAMAS, SMIS 1995 : REGISTRO NO.      /PAG.    


================================================================================
DATOS DE LA ESTACION:
NOMBRE DE LA ESTACION                  : CENTRO CULTURAL UNIVERSITARIO TLATELOLCO CAMPO LIBRE
CLAVE DE LA ESTACION                   : CCCL
LOCALIZACION DE LA ESTACION            : CAMPO LIBRE, EN EL LADO SUROESTE DE LA TORRE 
                                       : 
                                       : 
                                       : 
                                       : 
COORDENADAS DE LA ESTACION             : 19.449858 LAT. N
                                       : 99.137919 LONG. W
ALTITUD (msnm)                         : 2231
TIPO DE SUELO                          : SUELO
                                       : 
                                       : 
INSTITUCION RESPONSABLE                : INSTITUTO DE INGENIERIA UNAM 
                                       : 

================================================================================
DATOS DEL ACELEROGRAFO: 
MODELO DEL ACELEROGRAFO                : K2
NUMERO DE SERIE DEL ACELEROGRAFO       : 2774
NUMERO DE CANALES                      : 3
ORIENTACION C1-C6 (rumbo;orientacion)  : /N00W/N90W/V
ORIENTACION C7-C12 (rumbo;orientacion) : 
VEL. DE MUESTREO, C1-C6 (muestras/s)   : /100/100/100
VEL. DE MUESTREO, C7-C12 (muestras/s)  : 
ESC. COMPLETA DE SENSORES, C1-C6, (g)  : /2/2/2
ESC. COMPLETA DE SENSORES, C7-C12 (g)  : 
FREC. NAT. DE SENSORES, C1-C6, (Hz)    : /200/200/200
FREC. NAT. DE SENSORES, C7-C12 (Hz)    : 
AMORTIGUAMIENTO DE SENSORES, C1-C6     : /0.7/0.7/0.7
AMORTIGUAMIENTO DE SENSORES, C7-C12    : 
INTERVALO DE MUESTREO, C1-C6 (s)       : /0.01/0.01/0.01
INTERVALO DE MUESTREO, C7-C12 (s)      : 
UMBRAL DE DISPARO, C1-C6 (Gal)         : /2/2/2
UMBRAL DE DISPARO, C7-C12 (Gal)        : 
MEMORIA DE PREEVENTO (s)               : 50
TIEMPO DE POSEVENTO (s)                : 70


================================================================================
DATOS DEL SISMO:
FECHA DEL SISMO [GMT]                  : 2017/09/19
HORA EPICENTRO (GMT)                   : 18:14:40
MAGNITUD(ES)                           : /M=7.1
COORDENADAS DEL EPICENTRO              : 18.3353 LAT. N
                                       : 98.6763 LONG. W
PROFUNDIDAD FOCAL (Km)                 : 38.5
FUENTE DE LOS DATOS EPICENTRALES       : SSN
                                       : INSTITUTO DE GEOFISICA, UNAM
De http://www.ssn.unam.mx, el 16/10/2018. Informacion sujeta a cambios
================================================================================
DATOS DE ESTE REGISTRO:
HORA DE LA PRIMERA MUESTRA (GMT)       : 18:14:10.000
EXACTITUD DEL TIEMPO (s)               : 0.0005
DURACION DEL REGISTRO (s), C1-C6       : /620.00/620.00/620.00
DURACION DEL REGISTRO (s), C7-C12      : 
NUM. TOTAL DE MUESTRAS, C1-C6          : /62000/62000/62000
NUM. TOTAL DE MUESTRAS, C7-C12         : 
ACEL. MAX.(Gal), C1-C6                 : /-85.53/73.42/-41.00
ACEL. MAX., C1-C6, EN LA MUESTRA       : /7653/7875/7611
ACEL. MAX.(Gal), C7-C12                : 
ACEL. MAX., C7-C12,EN LA MUESTRA       : 
UNIDADES DE LOS DATOS                  : Gal (cm/s/s)
FACTOR DE DECIMACION                   : 1
FORMATO DATOS (FORTRAN,10 campos/dato) : 3F10.4


================================================================================
CALIDAD DEL ACELEROGRAMA:
REGISTRO DIGITAL COMPLETO CON TIEMPO ABSOLUTO CORRECTO


================================================================================
COMENTARIOS:














================================================================================
DATOS DE ACELERACION:
---------+---------+---------+---------+---------+---------+---------+---------+
   CANAL-1   CANAL-2   CANAL-3   
      N00W      N90W         V
---------+---------+---------+---------+---------+---------+---------+---------+
[...]
  -41.5245   -6.0318  -12.4241
  -40.8140   -4.6566  -14.7480
  -41.9460   -3.2013  -14.6877
  -44.6039   -2.0071  -14.8505
  -48.8326   -1.0149  -17.0172
  -52.0088   -0.5630  -21.1982
  -54.9002   -0.9948  -25.7085
  -57.5791   -1.4930  -26.9860
  -56.9808   -2.0744  -24.1312
  -55.0246   -2.8491  -20.2926
  -51.8231   -3.3599  -17.1108
  -48.2760   -3.6153  -15.2827
  -45.3271   -3.5470  -12.7740
  -41.9334   -3.6111   -8.3666
  -38.4316   -4.4203   -3.3366
  -34.3493   -5.5734    1.5316
  -29.7001   -7.5348    4.3995
  -23.6372  -11.2793    4.9286
  -15.9769  -16.6691    4.8083
   -6.7575  -23.0411    5.0801
    3.2843  -29.4693    4.5314
   13.0609  -35.3301    3.1140
   22.0674  -39.9574    1.1227
   29.7338  -43.5125    0.1123
   37.6393  -45.3826    0.0880
   43.1619  -45.8883    0.4374
   47.2970  -47.0535    2.2917
   52.2569  -46.6218    2.8886
   54.7454  -45.1357    4.1123
   56.6591  -44.0546    5.2382
   58.1401  -40.9215    3.9298
   58.5784  -36.3213    1.5489
   59.2136  -30.1135   -2.5091
   59.3460  -22.6407   -6.7846
   58.6336  -15.5637   -9.3008
   56.7887   -9.3474   -7.3824
   53.2972   -4.5925   -3.2524
   46.9326   -1.1047    1.3412
   38.2043    1.1462    6.0021
   28.4989    2.3072    8.4832
   19.0208    2.5622    9.2181
   11.1313    2.5327    8.3513
    5.2976    2.8082    7.1603
    1.8571    3.4786    4.3794
    1.0329    4.5502    0.9604
    2.1139    6.0139   -1.5127
    4.3490    7.9767   -3.4872
    6.9353    9.7748   -3.7440
    8.7835   10.9382   -3.9241
    9.5231   10.8563   -4.4948
    9.0618    9.3319   -5.4781
    8.3761    6.6318   -5.9360
    7.7160    3.1076   -6.0623
    8.2329   -0.7127   -5.1979
   11.2819   -4.8240   -3.5434
   14.3440   -8.2421   -2.0268
   17.4823  -10.2755   -0.6212
   20.6098  -11.4665   -0.4434
   22.4183  -12.0942    1.4520
   24.1350  -12.6705    1.7028
   25.3494  -14.3316    6.1906
   26.1525  -16.1910   13.6086
   25.5472  -17.5200   15.4231
   23.5180  -18.8606   16.1533
   22.2864  -19.5206   12.0135
   21.4453  -19.9538    8.0608
   21.6829  -20.1016    5.6578
   23.5321  -19.5412    3.5481
   26.7167  -19.0505    4.5941
   31.4744  -18.9626    4.5941
   36.7421  -18.9883    4.5216
   42.1744  -18.7830    3.3606
   47.6184  -17.9812    1.5142
   52.0767  -16.1840    0.1619
   55.5972  -13.7001   -0.1417
   58.9578  -10.9140    0.2251
   62.2233   -8.0278   -0.2638
   65.8121   -4.8530   -0.5772
   70.0651   -1.8340   -2.0549
   74.0651    1.0246   -5.3233
   77.5397    4.5418   -9.1024
   80.5097    8.2316  -12.7810
   82.3331   11.9430  -14.5960
   83.1133   15.4326  -11.4320
   82.8135   18.1626   -5.0711
   81.0317   20.4593   -0.8087
   77.8358   22.3169    0.5960
   73.1590   23.9766    0.2676
   67.4760   25.7972   -0.3433
   61.3214   28.0991   -0.8925
   54.8811   31.0699   -2.9853
   48.5090   33.9477   -2.7725
   42.7104   36.4316    0.6133
   37.4540   38.0473    5.1938
   32.1588   38.3219   11.0017
   26.6821   37.4247   14.2490
   20.1945   35.8207   14.6129
   12.4434   34.0824   11.8858
    4.0604   32.2520    7.7249
   -4.4719   30.9450    7.5635
  -12.1542   30.3383   10.8539
  -18.7630   30.2013   14.2935
  -24.3211   30.2176   16.1131
  -28.4422   29.5286   15.6622
  -31.1025   27.7394   12.6876
  -32.5194   24.5407    8.9463
  -32.9324   20.0514    5.6457
  -32.9174   14.7183    2.9826
  -32.9951    9.2926    1.4151
  -33.1466    4.4281    0.9515
  -33.2631    0.8833    2.6159
  -32.9217   -0.3394    5.0029
  -31.0117    0.5942    6.0054
  -27.0595    3.0272    3.9532
  -21.6028    6.0541   -1.1006
  -14.8505    9.2650   -5.2760
   -7.6837   12.1586   -6.4754
   -0.2862   14.5275   -4.0275
    6.1134   16.1787   -0.6375
   10.8066   16.9852    1.8113
   15.0040   18.0339    1.2041
   16.1066   18.6369   -3.4105
   14.6621   19.6941   -4.9486
   12.2263   21.5399   -6.7032
    7.3278   24.2109   -7.2846
    1.7355   28.5528   -3.3983
   -3.7918   32.8087   -3.1191
   -9.2835   37.2872   -0.4836
  -13.2287   40.0012    2.7585
  -16.0349   41.1370    2.0241
  -19.0694   42.5155    0.0127
  -22.2100   42.1090   -3.6912
  -25.3872   40.2847   -1.5941
  -28.8894   36.7614    4.6329
  -31.6933   31.6575   11.6089
  -33.7580   25.6882   17.4711
  -35.5814   19.2922   18.5680
  -36.7111   13.5040   18.4829
  -38.1617    8.7518   17.9360
  -40.0075    5.4849   16.6974
  -41.6345    3.2232   14.6181
  -43.4588    1.5565   12.0313
  -45.2916    0.1793    9.4786
  -46.2767   -1.5585    6.8577
  -45.7748   -3.8534    4.8018
  -43.9593   -5.8700    2.3483
  -40.5572   -7.2593   -0.4177
  -36.3575   -8.0072   -1.7410
  -32.4894   -7.7331   -0.8120
  -29.5499   -6.5351    3.0210
  -27.6793   -4.3352    7.5752
  -26.6670   -1.4350    9.5408
  -27.2920    2.3924    7.4513
  -29.4339    6.6365    2.3965
  -32.1381   11.0916   -2.2111
  -35.0061   15.2595   -5.9234
  -37.4624   17.6798   -5.2774
  -38.6257   19.6842   -4.1445
  -39.1679   20.5075   -5.0842
  -39.5299   19.8961   -3.7136
  -39.7372   19.5827   -5.9739
  -39.7830   19.5355  -11.5386
  -39.3583   20.1066  -17.3049
  -38.3549   20.8387  -22.7175
  -35.5777   21.9174  -25.3666
  -30.9879   23.2211  -26.0579
  -24.3913   24.3106  -29.2543
  -16.8184   25.6615  -32.0600
   -9.7152   26.4090  -31.8256
   -3.3577   26.5755  -32.5512
    1.0488   26.4684  -29.4353
    4.0407   25.8023  -25.5925
    5.3800   24.8719  -24.0226
    5.4333   22.8497  -22.2919
    4.9351   20.1342  -21.3727
    3.3395   17.6714  -19.7514
    1.2920   15.2731  -19.1086
   -1.4080   13.9105  -18.0706
   -4.1496   13.6939  -15.5259
   -5.5557   13.9077  -12.7918
   -5.7078   13.9100   -9.5987
   -4.8527   12.9539   -6.8735
   -3.3483   10.1626   -4.6431
   -1.9847    6.2469   -2.1938
   -1.2934    2.5940    0.5015
   -1.9651   -0.6622    4.1909
   -4.2913   -2.2835    8.7466
   -8.0598   -2.2073   11.4685
  -12.9134   -0.4606   10.8431
  -17.3283    2.3292    9.9062
  -20.0760    4.6569    9.6307
  -20.5288    6.5084    7.4714
  -18.2989    7.6900    6.3019
  -13.8228    8.4202    7.1697
   -8.3390    8.3701    7.0705
   -3.6439    8.0015    5.9263
   -0.8050    7.6170    4.3270
   -0.1777    6.8021    2.4250
   -0.9776    5.7510    1.6036
   -2.0306    4.5713    3.0448
   -2.4263    3.8055    5.9001
   -1.5408    3.5010    7.2286
   -0.1974    3.7840    4.5922
    0.7939    4.7523   -0.5159
    0.7251    6.3255   -7.1878
   -1.2938    8.3738  -12.4297
   -6.0998   11.4481  -14.2035
  -13.0177   14.6594  -13.4149
  -20.7010   17.3290  -10.9801
  -28.1672   20.0889  -10.6989
  -33.2729   21.1493  -11.5854
  -36.2705   21.0034  -13.3424
  -37.5503   20.2708  -14.6114
  -36.7729   18.6991  -12.4119
  -35.2400   17.3411   -8.2038
  -33.4680   15.8948   -1.5249
  -32.7383   14.3792    5.3018
  -33.1350   12.4725   11.1879
  -33.5480    9.5171   16.0911
  -34.2922    5.6200   18.6372
  -34.4363    1.4152   19.8764
  -33.6645   -3.4067   18.6115
  -32.3818   -9.1117   16.0182
  -30.2371  -14.9308   15.1593
  -27.9394  -20.9623   15.9718
  -25.6823  -27.2820   17.6521
  -23.4688  -33.8636   18.7818
  -21.0326  -40.6015   17.8284
  -17.8639  -47.2177   14.8889
  -14.1376  -53.4476   11.8437
   -9.4804  -58.7526   10.0788
   -3.9181  -62.7709   10.4235
    1.9881  -65.2024   12.1384
    7.4316  -65.8601   13.8458
   12.0921  -65.0606   15.8577
   15.9667  -63.0146   16.6314
   19.2893  -60.0054   14.8169
   22.5249  -56.2341   10.2098
   25.7484  -51.5807    3.9865
   30.2596  -46.5404   -1.5141
   36.2331  -41.2031   -4.6267
   42.1720  -35.5897   -4.3002
   47.1899  -29.8337   -2.0039
   50.5986  -24.2218    0.9001
   52.5015  -19.3766    2.5261
   52.6292  -14.9650    2.7693
   50.9761  -11.0735    2.0466
   48.7649   -7.9469    1.8244
   46.3381   -4.9934    6.1424
   44.1273   -2.2433   11.0363
   43.1076   -0.2646   12.8331
   43.7648    0.8010   12.4659
   45.6439    0.8071   10.3856
   48.1437   -0.4101    8.4766
   51.2764   -3.0334    7.2370
   54.3450   -6.8771    6.3338
   56.5697  -11.2471    5.2102
   57.8150  -16.1700    4.1273
   58.0049  -21.2500    3.7432
   57.3130  -25.9671    3.9972
   56.3125  -30.3277    4.4584
   55.7918  -33.9450    4.3218
   56.4472  -37.0670    4.0912
   58.5391  -40.1169    4.0449
   61.9099  -43.1476    4.1132
   66.1699  -46.2957    4.6315
   70.5675  -49.3036    5.3238
   74.4070  -51.9128    6.6561
   77.1580  -53.9313    8.8219
   78.3897  -55.1718   10.4235
   77.9617  -55.6228   10.0591
   75.6738  -55.1054    7.8297
   71.9783  -53.9112    5.1620
   67.5143  -52.3095    2.4840
   62.3791  -50.5483    0.6662
   56.7045  -48.8213    0.2545
   50.8016  -46.8024    0.8416
   45.1887  -44.6978    2.9906
   40.1325  -42.8903    4.9664
   35.8725  -41.5478    4.6558
   31.7602  -40.2151    1.2645
   27.3538  -38.8791   -6.1105
   23.2888  -37.7359  -15.3996
   19.7781  -36.0556  -22.4130
   17.4308  -33.8669  -25.7408
   16.4812  -31.1589  -27.4061
   16.5121  -27.7517  -29.9751
   17.5511  -23.8462  -33.5157
   20.2366  -19.9267  -36.2017
   24.6589  -16.7416  -37.4895
   29.4564  -14.0865  -37.8211
   34.0879  -11.8856  -38.6875
   38.3190  -10.2493  -40.3813
   41.1008   -8.7328  -41.0016
   42.4957   -6.9819  -39.9009
   42.9303   -4.8423  -37.4221
   42.6866   -2.6886  -34.7787
   42.1702   -0.7492  -32.1475
   42.1739    0.5447  -29.1457
   42.8372    0.7673  -25.8185
   43.5683    0.0404  -20.4643
   44.5324   -1.8859  -14.4351
   43.9159   -4.3389   -9.8630
   40.9263   -6.6217   -4.2843
   35.9936   -8.7641    3.1496
   28.9274  -10.1225   10.7758
   20.8386  -10.0285   16.2876
   11.6921   -8.0980   17.5052
    2.6935   -4.7075   16.6548
   -5.0192   -0.8035   16.2595
  -11.7051    2.9968   17.6147
  -17.3493    6.0565   21.3803
  -22.4902    7.5562   25.1033
  -26.7423    7.1675   28.2388
  -30.5472    5.2889   31.0011
  -34.6707    3.0880   32.2491
  -39.0121    1.8058   31.6714
  -43.9691    2.5772   29.2923
  -49.2737    5.7122   25.8003
  -54.2649   10.3296   21.6591
  -58.9534   15.8929   17.0243
  -62.8000   20.7171   12.2610
  -65.2076   24.1029    7.5285
  -66.2919   26.2640    2.5059
  -66.3902   26.6831   -2.5250
  -66.5937   26.1737   -8.6342
  -67.5610   25.3457  -16.0723
  -69.2128   25.2096  -20.9788
  -71.7434   25.7307  -21.7371
  -74.4210   26.6616  -20.7922
  -77.3890   28.0275  -20.3076
  -80.4866   28.9673  -21.0373
  -82.1753   30.0965  -23.3509
  -83.6727   30.6560  -26.4761
  -85.1527   30.0913  -29.8703
  -85.5283   29.0487  -31.2390
  -85.1995   27.8470  -28.6429
  -84.4258   27.5429  -24.4282
  -83.4117   28.1178  -19.5872
  -81.7057   29.2330  -15.3575
  -79.4103   30.7154  -12.7417
  -76.9404   32.1898  -10.1245
  -74.3405   33.6160   -7.5092
  -71.7617   34.9038   -5.2264
  -69.6571   35.7884   -2.4170
  -68.6580   35.8179    0.6199
  -68.6121   34.8968    4.3485
  -68.8970   33.1988    9.8309
  -68.9003   30.8917   15.1210
  -68.2805   28.3858   18.4576
  -66.6788   25.9066   20.1720
  -64.0550   23.4414   20.9995
  -60.5285   21.4281   21.2399
  -56.6534   20.3779   20.7329
  -53.7401   20.7779   20.4073
  -51.8334   22.8052   19.6462
  -51.1233   25.2227   17.5861
  -51.8858   26.8861   15.5518
  -53.0033   27.6664   13.1170
  -53.8145   27.7333   10.6527
  -53.5642   27.1313    8.5562
  -51.8091   26.1545    7.6211
  -48.9875   25.8135    8.9009
  -45.8767   26.5213    9.1867
  -42.3478   28.2099    9.5156
  -38.2576   30.7317   11.0929
  -34.7853   33.5276   11.0925
  -31.3429   36.2978   10.2589
  -27.9637   38.6685    8.1338
  -24.4872   40.2987    3.8508
  -19.6747   41.4518   -1.6255
  -14.4454   42.0103   -7.0035
   -9.0889   42.1778   -9.3920
   -3.7384   42.2292   -8.2478
    0.4753   42.1263   -5.2877
    2.6154   41.8489   -2.6303
    2.7557   40.9513   -3.5130
    0.6231   40.0414   -6.9754
   -3.1055   39.3290   -9.3265
   -6.6667   38.6217  -11.0259
   -9.8504   38.4056  -12.2945
  -11.7767   38.3790  -13.1683
  -12.2206   37.7362  -14.2854
  -10.7280   35.7351  -14.9001
   -7.7361   32.1379  -15.3098
   -4.0579   26.6845  -14.7752
    0.9604   20.1347  -14.1198
    6.0620   14.2866  -12.5032
   11.4994    9.5330   -8.1996
   16.6936    6.2745   -4.0200
   20.5813    4.9240   -0.3381
   24.3329    4.7373    2.8825
   28.0859    5.2271    6.3904
   32.1438    5.9494   11.7169
   36.6850    6.3750   17.3359
   41.9976    6.1337   21.9542
   48.1063    5.5555   24.5364
   54.2505    5.2786   24.1968
   59.7586    5.3796   20.4246
   63.9971    5.9204   13.9571
   66.4983    6.4817    7.3764
   67.4994    6.8119    2.5841
   67.7333    7.0262   -0.2975
   67.4741    7.4285   -1.3635
   67.1387    8.0001   -1.0959
   66.9801    8.3458    0.3780
   67.6102    8.7785    2.2473
   68.9757    9.2378    2.7356
   70.3079   10.1402    2.4517
   71.3889   11.9982    2.1163
   71.5882   14.3076    2.6884
   70.6980   16.7602    4.6208
   68.7689   18.8694    6.0807
   65.6353   20.1464    5.2158
   61.4314   20.3101    2.1247
   57.0881   19.2927   -1.3125
   53.1395   17.5783   -4.3695
   49.9390   15.5715   -7.1728
   48.0876   13.4544  -10.1746
   46.9686   11.5365  -13.3484
   46.3254    9.7571  -15.4516
   45.9021    8.0862  -15.4572
   45.1883    6.8405  -14.0852
   44.0113    5.9246  -12.0115
   41.5742    5.5592   -8.0069
   37.7272    6.1019   -2.9600
   32.9704    7.2418    1.1723
   27.8108    8.6859    3.3760
   22.8982   10.1748    2.5967
   18.8103   11.1810    0.7045
   15.9569   11.3377   -0.3798
   14.1999   10.5004   -1.3074
   13.3916    8.7644   -2.0755
   13.3368    6.5088   -2.1134
   13.6297    4.0273   -0.9837
   13.9847    1.6846    0.6573
   13.7111   -0.2005    1.9755
   12.5065   -1.6230    3.3727
   10.7683   -2.6802    4.7185
    8.4972   -3.7205    5.1288
    6.0596   -5.2441    4.4257
    4.0861   -7.3804    2.4213
    2.8329  -10.1871   -1.0155
    2.6453  -13.5387   -5.5440
    3.4101  -16.4207  -10.3392
    5.1330  -17.9873  -13.9224
    7.3633  -17.9718  -16.7595
    9.6292  -16.3767  -17.5912
   12.3676  -13.8563  -14.8715
   15.2355  -11.1002   -9.8869
   18.2036   -8.7033   -3.4021
   21.0739   -7.5217    2.6219
   23.0573   -8.2318    6.8731
   23.8964  -10.8340    8.3822
   23.4829  -14.6988    7.5523
   22.1867  -18.7731    6.5522
   20.5088  -22.0476    5.8566
   18.9090  -24.0426    5.9731
   17.5670  -24.6311    7.1945
   16.7072  -23.9907    9.8351
   16.3297  -22.7520   13.3443
   15.5592  -21.2968   16.7240
   13.5885  -19.7653   19.6355
    9.9791  -18.3563   21.6043
    4.8266  -17.0148   22.5857
   -1.5272  -15.9164   22.2672
   -8.4751  -15.1221   21.3822
  -15.3346  -14.8401   21.2016
  -21.6412  -15.2807   21.5955
  -26.4397  -16.0684   21.7826
  -29.2052  -17.1729   21.2021
  -30.1477  -18.4232   19.7884
  -29.3829  -19.5436   18.7074
  -27.6390  -20.6826   18.8248
  -26.2114  -21.9971   19.2753
  -26.1950  -23.5941   19.6238
  -28.3117  -25.7131   19.2603
  -32.0867  -28.3532   17.8991
  -36.6536  -31.2343   16.1304
  -41.4488  -34.3066   13.6956
