********************************************************************************
              CENTRO DE INSTRUMENTACION Y REGISTRO SISMICO  A.C.

    Anaxagoras 814, Col. Narvarte, Benito Juarez, C.P. 03020 Mexico, D.F.
           Tels. 5687 45 42/ 5687 45  82             Fax. 5669 25 12
********************************************************************************
ARCHIVO ESTANDAR DE ACELERACION:
VERSION DEL FORMATO                    : 2.0
NOMBRE DEL ARCHIVO                     : CE1820170919181440
FECHA Y HORA DE CREACION               : 27/SEP/17, 17:26
REF. CATALOGO ACELEROGRAMAS, SMIS 1996 : REGISTRO No.     /PAG.


================================================================================
DATOS DE LA ESTACION:
NOMBRE DE LA ESTACION                  : ESC. PRIM. "RAMÓN ESPINOZA VILLANUEVA"
CLAVE DE LA ESTACION                   : CE18
LOCALIZACION DE LA ESTACION            : Del. Iztapalapa, Col. U. H. San Nicólas
                                       : Tolentino, calle 3 entre Carril        
                                       : y Estrella.                            
                                       :                                        
                                       : 
COORDENADAS DE LA ESTACION             : 19.3398 LAT. N
                                       : 99.0847 LONG. W
ALTITUD (msnm)                         : 2240
TIPO DE SUELO                          : Arenoso, limoso, compacto           
                                       :                           
                                       : 
INSTITUCION RESPONSABLE                : CIRES
                                       : 

================================================================================
DATOS DEL ACELEROGRAFO:
MODELO DEL ACELEROGRAFO                : RADESD
NUMERO DE SERIE DEL ACELEROGRAFO       : 223
NUMERO DE CANALES                      : 3
ORIENTACION C1-C6 (rumbo;orientacion)  : /N00E/+V/N90W
ORIENTACION C7-C12 (rumbo;orientacion) : 
VEL. DE MUESTREO, C1-C6 (muestras/s)   : /100/100/100
VEL. DE MUESTREO, C7-C12 (muestras/s)  : 
ESC. COMPLETA DE SENSORES, C1-C6, (g)  : /0.5/0.5/0.5
ESC. COMPLETA DE SENSORES, C7-C12, (g) : 
FREC. NAT. DE SENSORES, C1-C6, (Hz)    : /30/30/30
FREC. NAT. DE SENSORES, C7-C12, (Hz)   : 
AMORTIGUAMIENTO DE SENSORES, C1-C6     : /0.720/0.774/0.740
AMORTIGUAMIENTO DE SENSORES, C7-C12    : 
INTERVALO DE MUESTREO, C1-C6, (s)      : /0.01/0.01/0.01
INTERVALO DE MUESTREO, C7-C12, (s)     : 
UMBRAL DE DISPARO, C1-C6, (Gal)        : /1.0/2.99/1.2
UMBRAL DE DISPARO, C7-C12, (Gal)       : 
MEMORIA DE PREEVENTO (s)               : 44.0
TIEMPO DE POSEVENTO (s)                : 167.0


================================================================================
DATOS DEL SISMO:
FECHA DEL SISMO (GMT)                  : 19/SEP/17
HORA EPICENTRO (GMT)                   : 18:14:40.0
MAGNITUD(ES)                           : /Mc=7.1
COORDENADAS DEL EPICENTRO              : 18.40 LAT. N
                                       : 98.72 LONG. W
PROFUNDIDAD FOCAL (km)                 : 57
FUENTE DE LOS DATOS EPICENTRALES       : SSN
                                       : INSTITUTO DE GEOFISICA, UNAM

================================================================================
DATOS DE ESTE REGISTRO:
HORA DE LA PRIMERA MUESTRA (GMT)       : 18:14:59.00
EXACTITUD DEL TIEMPO (s)               : 0.01
DURACION DEL REGISTRO (s), C1-C6       : /245.4/245.4/245.4
DURACION DEL REGISTRO (s), C7-C12      : 
NUM. TOTAL DE MUESTRAS, C1-C6          : /24540/24540/24540
NUM. TOTAL DE MUESTRAS, C7-C12         : 
ACEL. MAX. (Gal), C1-C6                : /72.73564/29.6702/51.05899
ACEL. MAX., C1-C6, EN LA MUESTRA       : /6513/6471/6404
ACEL. MAX. (Gal), C7-C12               : 
ACEL. MAX., C7-C12, EN LA MUESTRA      : 
UNIDADES DE LOS DATOS                  : Gal (cm/s/s)
FACTOR DE DECIMACION                   : 1
FORMATO DATOS (FORTRAN,10 campos/dato) : 3F10.5


================================================================================
CALIDAD DEL ACELEROGRAMA:
REGISTRO DIGITAL COMPLETO CON TIEMPO ABSOLUTO CORRECTO.


================================================================================
COMENTARIOS:














================================================================================
DATOS DE ACELERACION:
---------+---------+---------+---------+---------+---------+---------+---------+
   CANAL-1   CANAL-2   CANAL-3   CANAL-4   CANAL-5   CANAL-6   CANAL-7   CANAL-8
      N00E        +V      N90W
---------+---------+---------+---------+---------+---------+---------+---------+
[...]
  -5.26404   1.68797  -1.10995
  -6.92502   0.25145  -1.64865
  -7.76299  -1.30478  -1.67858
  -8.06226  -2.87597  -2.03771
  -7.83781  -4.37235  -2.86071
  -7.25422  -5.24025  -3.77350
  -6.10201  -5.07565  -4.02789
  -4.72535  -4.26760  -4.07278
  -3.73774  -3.28000  -3.47423
  -2.98955  -2.57670  -2.77093
  -2.19647  -2.17268  -2.50158
  -0.70009  -2.54677  -0.94535
   0.54190  -4.08804   2.01747
   0.96088  -6.28771   6.34200
  -0.23622  -8.21804  10.20265
  -3.16911  -8.98119  12.49210
  -7.29911  -8.47242  12.58189
 -11.21962  -6.99101  11.39975
 -13.35943  -5.09061  10.02308
 -13.19483  -2.80116   7.83837
 -11.08494  -0.10768   4.54635
  -8.10716   2.55587   0.77548
  -4.66549   4.30663  -2.27713
  -1.76252   4.38145  -3.15999
   0.12291   2.33141  -2.02274
   0.90103  -1.12521  -0.09242
   0.67657  -4.34242   1.34410
  -0.67017  -5.91362   2.03244
  -2.33114  -5.30010   1.82294
  -3.64795  -2.17268   0.40139
  -3.97716   2.85515  -2.65122
  -2.98955   8.15232  -6.85604
  -0.74498  11.56405 -10.91122
   1.70907  11.41442 -13.44009
   3.68429   8.09246 -14.33792
   4.37262   2.85515 -13.14082
   3.68429  -2.06793 -10.53712
   1.94849  -6.10815  -7.97832
   0.09299  -8.51731  -6.12281
  -1.04426  -9.08593  -5.92829
  -1.10412  -8.57717  -6.54180
   0.19773  -7.73920  -7.91847
   2.68172  -7.49978  -8.90607
   6.27302  -7.97862  -9.01082
   9.55008  -8.41257  -8.71154
  11.61508  -8.60709  -7.87357
  12.78225  -8.38264  -6.40713
  12.96182  -7.90380  -5.04542
  12.30341  -6.61691  -4.40198
  10.71726  -4.41724  -4.71622
   7.88910  -1.88837  -5.47937
   3.98356   0.53576  -5.03046
  -0.50556   2.13689  -2.89064
  -4.99469   2.88507   0.19189
  -9.04987   3.28909   2.85544
 -12.50650   3.30406   4.45656
 -14.67625   3.24420   4.54635
 -15.79853   2.87011   3.66349
 -16.35219   2.73544   1.62841
 -16.00802   3.22924  -1.08003
 -14.61639   4.48620  -3.86329
 -11.20465   6.20703  -5.94325
  -5.93741   7.73333  -7.12539
   0.28751   8.94540  -7.46955
   6.51244   9.63373  -6.88597
  11.63004   9.51402  -5.41952
  14.42827   8.58627  -3.42934
  14.89214   7.05996  -1.69354
  12.96182   5.75812  -0.42162
   9.59497   5.11467   0.08715
   5.82411   5.06978  -0.16724
   2.71164   5.11467  -0.99024
   0.90103   4.95007  -2.39684
   0.99081   4.45627  -4.19249
   2.84632   3.58837  -5.71879
   6.48251   2.28652  -6.76626
  10.62747   0.13174  -7.02064
  13.78483  -2.54677  -6.46698
  15.73012  -4.58184  -5.98814
  16.61298  -5.30010  -6.18267
  16.07428  -4.52199  -7.39473
  14.38338  -3.19021  -8.93600
  12.37823  -2.05297  -9.86375
  10.58258  -1.33471  -9.90865
   9.28073  -1.49931  -9.59441
   8.48766  -2.50188 -10.17799
   7.90407  -4.01322 -11.40502
   7.97889  -5.76398 -12.42256
   8.96650  -7.36510 -13.39520
  10.83697  -8.33775 -14.29303
  13.45562  -7.57460 -15.90911
  16.68780  -4.91105 -18.87194
  19.99479  -0.90076 -21.65520
  22.91272   3.07960 -23.00194
  25.44160   6.25192 -22.70266
  28.26975   8.25706 -20.75737
  31.32235   9.66366 -17.57009
  34.18043  10.18739 -14.48756
  36.17061   8.64612 -11.76415
  37.11333   5.45884 -10.37252
  35.96112   1.62812  -9.80390
  33.34246  -1.75369  -9.53455
  29.91576  -3.74387  -9.25024
  26.50402  -3.66905  -9.10060
  23.13718  -1.87340  -8.62176
  19.89004   0.73029  -7.69401
  16.34363   3.55844  -6.07792
  12.07896   5.60848  -4.50673
   7.57487   6.86543  -4.11767
   3.62443   7.46398  -5.13521
   0.40722   7.08989  -6.60165
  -1.10412   5.38402  -8.09803
  -0.99937   2.54091  -9.83383
  -0.61031  -0.43688 -11.65941
  -0.49060  -2.44203 -13.66455
  -0.43075  -2.77123 -15.02625
  -0.43075  -1.54420 -16.31313
  -0.56542   0.22152 -17.42045
  -0.14643   1.95732 -17.54016
   0.51197   3.21428 -17.15111
   0.85614   3.78290 -16.22335
  -0.25118   4.06721 -15.10107
  -3.16911   4.14203 -13.38024
  -7.02976   3.97743 -11.43495
 -10.44150   3.49859  -9.31009
 -12.41672   3.04967  -6.28742
 -13.23972   2.76536  -2.92057
 -13.37440   3.66319  -0.10738
 -12.59628   5.33913   1.56856
 -10.87545   7.00011   2.63099
  -8.46629   7.91290   2.48135
  -6.07208   7.80815   2.16711
  -4.91987   6.38659   2.19704
  -5.84763   4.15699   3.33428
  -9.07980   1.73286   5.99783
 -14.12259  -0.01790   9.21504
 -20.76650  -0.00293  12.25268
 -28.89182   1.02957  14.99105
 -37.27152   2.84018  17.40022
 -44.36435   4.95007  18.80681
 -49.43706   6.41652  19.12105
 -52.60938   7.22456  18.40279
 -53.73166   6.74572  17.01116
 -52.81887   4.72562  16.51736
 -49.73634   0.76022  17.22065
 -44.51398  -4.89608  19.27069
 -37.76533 -11.25568  21.78460
 -30.94185 -17.46564  23.95434
 -25.21073 -22.32886  25.66021
 -20.55700 -25.24680  26.91717
 -17.04052 -25.90520  26.55804
 -14.25726 -25.06723  23.90945
 -11.57875 -23.09201  19.58493
  -8.66081 -20.30876  14.00344
  -6.25165 -16.62767   8.87087
  -3.79759 -12.42285   4.45656
  -1.38843  -8.54724   0.88023
   0.31744  -6.13807  -2.06763
   0.39226  -5.35996  -3.65379
  -1.37346  -5.07565  -3.44430
  -3.48335  -4.79134  -0.34680
  -5.44361  -4.86615   4.41167
  -7.22429  -4.98586   9.57417
  -9.03491  -4.74644  13.85381
 -11.21962  -5.04572  16.11333
 -13.67367  -7.05086  16.35275
 -15.57407 -10.68706  15.18558
 -16.51679 -14.29332  12.67167
 -16.08284 -16.35832   8.82598
 -14.79596 -16.28350   5.07008
 -12.76088 -15.38568   3.18464
  -9.82799 -15.28093   2.78062
  -6.17683 -16.25358   2.19704
  -3.01948 -17.22622   1.05979
  -0.55046 -17.36089  -0.43659
   1.93353 -16.95687  -0.99024
   5.33030 -15.55028   0.04226
   9.17599 -13.14111   2.33171
  13.08153  -9.84909   4.66606
  17.97468  -6.19793   6.23725
  24.04997  -2.80116   7.89823
  30.94826  -0.58652  10.15776
  37.65202  -0.04782  13.04576
  43.71235  -0.04782  16.20312
  48.82995   0.74526  18.17833
  52.46615   2.76536  18.29804
  54.33662   5.69826  17.17576
  54.78553   7.92786  15.15565
  54.54611   7.89793  13.47971
  54.06727   5.29424  12.70160
  53.76799   0.55073  13.28518
  54.02238  -5.43478  15.48486
  54.48625 -10.50749  18.86667
  53.18441 -12.84184  22.29337
  47.97702 -11.82430  25.39087
  39.35789  -9.53485  28.18909
  28.95808  -6.52713  32.37894
  17.98964  -2.83108  37.45166
   7.55990   1.37373  42.01560
  -1.74756   5.60848  44.85872
  -8.97505   9.82826  45.98100
 -12.83570  13.53927  45.00836
 -13.09009  15.34989  41.95575
 -10.18712  16.32253  36.73340
  -4.97973  17.17546  29.98474
   1.84375  16.54699  23.25105
   9.32563  13.56920  18.53746
  14.96696   9.03518  16.90641
  16.41845   5.51870  17.04109
  14.05417   4.32159  18.25315
   9.28073   5.20446  19.83931
   3.98356   7.01507  21.44043
  -1.37346   9.43920  22.18862
  -6.17683  12.55166  20.96159
  -9.67835  16.54699  18.29804
 -10.87545  20.33282  16.08341
 -10.24697  22.93651  14.76660
  -9.40900  24.10369  13.61439
 -10.11230  23.81937  11.60924
 -13.47914  23.01133   8.78109
 -19.25516  22.17336   5.47410
 -26.66222  21.48503   1.88280
 -34.81747  21.06604  -2.50158
 -42.68841  20.72188  -7.23013
 -48.98815  20.12333 -11.88386
 -52.86376  18.71673 -15.56495
 -54.15065  16.68166 -17.80951
 -52.81887  15.06557 -18.01900
 -50.12539  14.04804 -17.07629
 -46.87826  13.37467 -15.81933
 -43.70594  12.29728 -14.90654
 -40.86283  10.39688 -15.13100
 -39.24674   7.85304 -18.49784
 -39.60587   4.47123 -24.66291
 -42.03000   0.19160 -32.38421
 -45.53152  -5.07565 -39.86609
 -48.68887 -10.95640 -45.92642
 -50.24510 -16.89702 -49.63743
 -49.24253 -21.64053 -51.05899
 -45.23224 -23.92999 -50.55022
 -38.39381 -22.95734 -49.03888
 -29.11627 -19.62042 -47.18337
 -18.83617 -14.89187 -45.67203
  -8.33161 -10.11843 -44.17566
   1.30505  -4.98586 -42.49972
   9.05628  -0.15257 -39.68653
  14.38338   3.48362 -34.86820
  17.39109   5.23438 -28.31407
  18.42359   4.65080 -20.63766
  17.51080   2.13689 -13.54484
  14.29359  -1.33471  -6.03303
   9.84936  -5.31507   0.74555
   5.16570  -8.74177   6.67120
   0.67657 -10.86662  11.19026
  -2.73517 -12.33307  14.00344
  -4.51585 -13.82945  15.14069
  -5.93741 -15.71488  14.46732
  -7.26918 -17.98937  12.25268
  -8.45132 -19.08173   9.14022
  -9.13965 -18.09412   5.36935
 -10.02252 -15.99919   2.40653
 -10.69589 -14.11376   0.92512
 -11.05502 -12.96155   1.44885
 -11.04005 -12.67724   3.03501
  -9.76813 -13.09622   5.18979
  -7.19437 -12.24329   6.97048
  -3.99212  -9.14579   7.49421
  -0.40082  -4.46213   7.67377
   3.72918   0.49087   9.12526
   8.80189   3.70808  10.65156
  12.84211   4.56101  12.56692
  15.26624   3.46866  15.18558
  16.04435   1.23906  19.00134
  15.41588  -2.27742  23.08645
  13.99432  -5.61434  26.66278
  12.58773  -9.02608  27.53068
  11.94428 -11.12101  24.82224
  12.40816  -9.78923  18.19330
  13.38080  -4.37235   9.30482
  14.06914   3.40880   2.21200
  14.11403  10.93558  -0.13731
  13.57533  16.89115   1.49374
  12.01910  20.52735   4.75584
   9.78950  21.48503   7.97305
   7.99385  19.46492   9.96323
   6.76682  15.29003  10.77127
   5.43505  10.81587   9.06540
   3.10070   7.92786   6.01280
   0.10795   6.80558   2.94522
  -1.83734   6.56616   0.65577
  -1.85230   6.13221  -0.03256
   0.10795   5.39899   1.37403
   4.05838   4.84533   4.60620
   9.52015   4.71065   8.21247
  14.59287   5.11467  12.02823
  18.97725   5.71322  15.82902
  23.01747   6.22199  18.76192
  26.68359   6.58112  20.03384
  28.80844   7.46398  20.13859
  29.03290   8.48152  20.87181
  28.83837  10.59141  22.09884
  28.49420  14.51192  22.32329
  27.43178  19.58463  20.03384
  25.35181  24.64238  15.99362
  22.74812  28.48807  11.98334
  20.05464  29.67020   9.46942
  17.19656  27.21615   7.55406
  14.26367  21.66459   5.21972
  11.64501  15.42470   1.68827
   9.20592   9.73848  -2.17238
   8.15845   4.65080  -4.46184
   8.65226   0.29634  -5.50930
   9.63986  -1.90333  -6.13778
  10.55265  -1.70880  -7.54437
  10.76215  -0.25732  -9.95354
   9.80447   0.82007 -12.46745
   7.69458   0.19160 -14.21821
   5.10585  -1.60405 -14.72698
   2.99596  -3.71394 -14.00872
   1.55943  -4.95594 -13.05104
   1.70907  -4.70155 -12.85651
   4.55219  -2.80116 -12.88643
  10.32820  -0.34710 -11.92875
  17.45095   1.94236  -9.48966
  24.91786   3.70808  -6.27245
  31.38221   4.62087  -2.56144
  34.25525   3.96246   2.04740
  32.83369   1.70294   7.37450
  27.07265  -1.97815  11.87859
  18.06446  -6.52713  15.38011
   6.91646 -11.31554  16.92138
  -5.12937 -14.96669  16.80167
 -17.22009 -16.58278  15.21551
 -29.17613 -15.65503  12.25268
 -40.45880 -12.13854   9.27490
 -49.58670  -6.48224   7.59895
 -55.96126  -0.39199   6.73106
 -59.46278   4.32159   6.46171
 -59.43285   6.34170   7.06026
 -56.51492   5.24935   8.76613
 -52.80391   2.16681  11.36982
 -50.72394  -1.39456  14.00344
 -51.83126  -4.70155  15.66442
 -54.79409  -6.93115  15.18558
 -59.16351  -7.20050  11.95341
 -64.68513  -5.35996   5.65367
 -69.74288  -2.38217  -2.03771
 -72.73564   1.49344  -9.98346
 -72.43636   4.93511 -17.04636
 -68.12680   6.37163 -23.31617
 -58.87919   5.74315 -26.92244
 -45.78590   3.48362 -27.46114
 -31.07653  -0.28724 -25.62059
 -17.10037  -4.56688 -23.03186
  -5.66806  -8.00854 -21.13147
   2.33755 -10.59727 -20.90701
   6.82668 -12.64731 -22.29864
   7.61976 -13.90427 -23.73516
   5.39016 -14.48785 -23.55559
   0.36233 -14.18858 -21.29607
  -7.04473 -12.13854 -17.39053
 -14.96056  -9.46003 -13.54484
 -22.48733  -5.95851 -11.58459
 -28.62247  -1.85844 -11.58459
 -32.46816   1.41862 -13.30542
 -33.24627   3.13946 -15.44524
 -30.14877   3.34895 -18.37813
 -24.05852   3.40880 -23.06179
 -16.71132   3.91757 -28.40385
  -9.13965   5.45884 -31.75574
  -2.69027   7.43406 -31.95026
   3.11567   8.58627 -28.68816
   9.01139   8.39174 -22.80741
  14.08410   8.21217 -16.05875
  18.39366   8.93043  -8.32249
  21.92511  10.60637  -0.99024
  23.87040  11.98304   5.17483
  22.71819  12.25239  10.50192
  18.37870  11.11514  14.51221
  11.85450   9.08007  16.11333
   4.85146   5.86286  15.18558
  -1.79245   2.54091  13.00087
  -7.35897  -0.25732   9.78366
 -12.10248  -1.76866   6.68616
 -16.42701  -2.48692   4.11240
 -19.94349  -3.47452   1.07475
 -22.44244  -4.07308  -3.11510
 -23.23552  -3.66905  -7.67905
 -21.85885  -2.47195 -10.86633
 -18.76135  -1.70880 -12.21306
 -14.79596  -1.48434 -10.43238
 -10.08237  -1.85844  -6.91589
  -5.50346  -1.73873  -3.68372
  -1.74756  -1.08032  -2.51655
   1.18534   0.43102  -3.20488
   3.08574   2.60076  -4.14760
   4.47737   5.60848  -4.53666
   5.88396   9.72351  -3.63883
   8.35298  13.58416  -1.64865
  11.94428  15.75391   0.70066
  15.22135  15.82873   2.49631
  17.85497  14.01811   3.93283
  20.02471  10.33703   4.54635
  22.43388   4.89022   5.18979
  24.25946  -1.91829   5.41425
  25.26203  -9.32536   5.62374
  26.41424 -16.61271   5.24964
  28.58399 -22.50843   4.38175
  32.16032 -25.96506   2.76566
  36.58960 -26.41397   1.38899
  41.43786 -24.72306   0.97001
  46.49561 -21.99966   2.13718
  49.74274 -19.26129   5.47410
  51.70300 -17.52550   8.75116
  53.85778 -15.90941  10.80120
  56.37169 -14.81706  12.68663
  58.34690 -12.96155  13.65928
  60.75607  -9.72938  12.22276
  65.06563  -7.03590   8.49678
  68.83650  -3.65409   4.24707
  71.02121   1.35877  -0.12235
  71.73947   6.40156  -2.92057
  72.38291   7.05996  -5.47937
  70.54237   3.12449  -5.98814
  64.54190  -1.14018  -4.40198
  55.63846  -3.13036  -1.45412
  45.98684  -6.00340   0.97001
  35.12315  -9.26550   3.39414
  24.07989 -10.89655   4.57627
  14.33849  -9.32536   4.02262
   5.62958  -4.73148   2.73573
  -2.61545   0.59562   0.92512
 -10.33676   5.57855  -1.55887
 -17.62411   8.67605  -4.16256
 -23.99867   9.73848  -6.28742
 -28.21845   9.16985  -7.67905
 -30.44805   7.46398  -8.26263
 -31.57033   5.48877  -8.12796
 -32.69261   4.51612  -8.63673
 -34.02439   4.50116  -9.78894
 -35.84997   5.59351 -10.89625
 -37.79526   8.16728 -11.03093
 -38.51352  10.69616  -8.24767
 -36.86750  11.96808  -1.12492
 -32.42327  11.84837   6.89566
 -25.80928  11.42938  13.21036
 -18.73142  10.81587  17.25058
 -12.97038   8.63116  19.82435
  -9.78310   4.83036  21.00648
  -8.42139   0.77518  20.06377
  -8.27176  -2.17268  15.99362
  -7.80788  -3.57927  10.21761
  -6.73049  -3.33985   3.79816
  -5.90748  -1.84347  -1.93296
  -5.54835  -0.54163  -6.54180
  -5.00966   0.40109  -9.25024
  -3.93227   1.17920 -10.04332
  -1.56799   1.61315  -9.74404
   2.99596   1.77776  -8.95096
   9.28073   2.52594  -9.26520
  15.34106   3.81283 -10.59698
  20.09953   6.05739 -12.06343
  22.76308   9.51402 -12.57219
  22.22439  12.22246 -11.70430
  18.94732  12.88087  -9.22031
  14.54798  11.66880  -5.38959
   9.63986   9.00525  -0.61615
   4.80657   5.51870   4.90548
   0.67657   1.77776  10.41214
  -1.74756  -1.55916  15.20054
  -0.70009  -4.41724  18.40279
   3.38501  -7.03590  19.55500
   9.69972  -8.29286  18.11848
  15.49070  -8.02351  14.73667
  18.91740  -6.90123  10.42710
  19.68055  -6.18297   5.53396
  17.28635  -6.52713   1.10468
  12.46802  -7.63445  -3.14503
   7.24566  -9.50492  -8.15789
   3.34012 -12.19840 -13.88901
  -0.20629 -14.41303 -20.24860
  -4.38118 -14.00901 -25.27643
  -8.87031 -10.38778 -29.21190
 -13.12001  -4.46213 -30.48382
 -15.78356   1.86754 -26.39871
 -14.63135   6.77565 -18.57266
 -11.06998  10.18739  -8.57687
  -7.20933  10.33703   0.01233
  -5.56332   8.28699   5.14490
  -6.73049   4.87525   9.05044
 -10.78567  -0.34710  12.11801
 -15.52918  -5.21032  15.87391
 -19.49458  -9.20565  16.92138
 -21.57454 -11.24072  15.26040
 -21.70921 -10.40275   9.75374
 -20.67671  -7.12568   3.18464
