********************************************************************************
              CENTRO DE INSTRUMENTACION Y REGISTRO SISMICO  A.C.

    Anaxagoras 814, Col. Narvarte, Benito Juarez, C.P. 03020 Mexico, D.F.
           Tels. 5687 45 42/ 5687 45  82             Fax. 5669 25 12
********************************************************************************
ARCHIVO ESTANDAR DE ACELERACION:
VERSION DEL FORMATO                    : 2.0
NOMBRE DEL ARCHIVO                     : CE2320170919181440
FECHA Y HORA DE CREACION               : 25/SEP/17, 11:11
REF. CATALOGO ACELEROGRAMAS, SMIS 1996 : REGISTRO No.     /PAG.


================================================================================
DATOS DE LA ESTACION:
NOMBRE DE LA ESTACION                  : CETIS ARAGÓN
CLAVE DE LA ESTACION                   : CE23
LOCALIZACION DE LA ESTACION            : Del. Gustavo A. Madero, Col. U. Hab.   
                                       : San Juan de Aragón 5ta. Secc.,         
                                       : Av. 412 entre Av. Taxímetros           
                                       : y Av. 608.                             
                                       : 
COORDENADAS DE LA ESTACION             : 19.4619 LAT. N
                                       : 99.0642 LONG. W
ALTITUD (msnm)                         : 2233
TIPO DE SUELO                          : Terreno blando, material compresible
                                       : (arcillas)                
                                       : 
INSTITUCION RESPONSABLE                : CIRES
                                       : 

================================================================================
DATOS DEL ACELEROGRAFO:
MODELO DEL ACELEROGRAFO                : RADESD
NUMERO DE SERIE DEL ACELEROGRAFO       : 163
NUMERO DE CANALES                      : 3
ORIENTACION C1-C6 (rumbo;orientacion)  : /S00E/+V/N90W
ORIENTACION C7-C12 (rumbo;orientacion) : 
VEL. DE MUESTREO, C1-C6 (muestras/s)   : /100/100/100
VEL. DE MUESTREO, C7-C12 (muestras/s)  : 
ESC. COMPLETA DE SENSORES, C1-C6, (g)  : /0.5/0.5/0.5
ESC. COMPLETA DE SENSORES, C7-C12, (g) : 
FREC. NAT. DE SENSORES, C1-C6, (Hz)    : /52.03/55.02/51.46
FREC. NAT. DE SENSORES, C7-C12, (Hz)   : 
AMORTIGUAMIENTO DE SENSORES, C1-C6     : /0.6067/0.6082/0.5956
AMORTIGUAMIENTO DE SENSORES, C7-C12    : 
INTERVALO DE MUESTREO, C1-C6, (s)      : /0.01/0.01/0.01
INTERVALO DE MUESTREO, C7-C12, (s)     : 
UMBRAL DE DISPARO, C1-C6, (Gal)        : /0.51/1.44/0.51
UMBRAL DE DISPARO, C7-C12, (Gal)       : 
MEMORIA DE PREEVENTO (s)               : 44.0
TIEMPO DE POSEVENTO (s)                : 0.0


================================================================================
DATOS DEL SISMO:
FECHA DEL SISMO (GMT)                  : 19/SEP/17
HORA EPICENTRO (GMT)                   : 18:14:40.0
MAGNITUD(ES)                           : /Mc=7.1
COORDENADAS DEL EPICENTRO              : 18.40 LAT. N
                                       : 98.72 LONG. W
PROFUNDIDAD FOCAL (km)                 : 57
FUENTE DE LOS DATOS EPICENTRALES       : SSN
                                       : INSTITUTO DE GEOFISICA, UNAM

================================================================================
DATOS DE ESTE REGISTRO:
HORA DE LA PRIMERA MUESTRA (GMT)       : 18:15:00.00
EXACTITUD DEL TIEMPO (s)               : 0.01
DURACION DEL REGISTRO (s), C1-C6       : /626.0/626.0/626.0
DURACION DEL REGISTRO (s), C7-C12      : 
NUM. TOTAL DE MUESTRAS, C1-C6          : /62600/62600/62600
NUM. TOTAL DE MUESTRAS, C7-C12         : 
ACEL. MAX. (Gal), C1-C6                : /52.09163/26.54523/59.98714
ACEL. MAX., C1-C6, EN LA MUESTRA       : /7009/5005/7018
ACEL. MAX. (Gal), C7-C12               : 
ACEL. MAX., C7-C12, EN LA MUESTRA      : 
UNIDADES DE LOS DATOS                  : Gal (cm/s/s)
FACTOR DE DECIMACION                   : 1
FORMATO DATOS (FORTRAN,10 campos/dato) : 3F10.5


================================================================================
CALIDAD DEL ACELEROGRAMA:
REGISTRO DIGITAL COMPLETO CON TIEMPO ABSOLUTO CORRECTO.


================================================================================
COMENTARIOS:














================================================================================
DATOS DE ACELERACION:
---------+---------+---------+---------+---------+---------+---------+---------+
   CANAL-1   CANAL-2   CANAL-3   CANAL-4   CANAL-5   CANAL-6   CANAL-7   CANAL-8
      S00E        +V      N90W
---------+---------+---------+---------+---------+---------+---------+---------+
[...]
 -27.81485   6.10570  24.28361
 -27.57543   3.26258  24.28361
 -26.76739  -1.43604  23.70002
 -25.51044  -5.44633  21.93430
 -23.69982  -6.70328  19.07622
 -21.32058  -5.74560  15.97872
 -18.64207  -4.65325  14.12321
 -16.00845  -4.50361  14.12321
 -14.42229  -4.53354  15.11082
 -14.27265  -4.38390  15.76923
 -14.78142  -4.15944  15.54477
 -15.39493  -4.00981  13.98854
 -16.03837  -3.90506  11.54945
 -16.36758  -4.14448   8.76619
 -16.35261  -4.86274   6.32709
 -16.00845  -6.62846   4.65115
 -15.78399  -9.12741   3.76829
 -15.70917 -11.76103   2.91536
 -15.58946 -13.91582   1.91278
 -14.54200 -16.53447   0.73065
 -12.37225 -20.12578  -0.63106
  -9.28972 -23.74701  -1.96283
  -5.69842 -25.97661  -2.60627
  -2.00237 -25.81201  -2.27707
   1.31959 -23.89664  -0.70587
   3.63897 -22.20574   1.73322
   4.76125 -21.35280   4.27706
   4.80614 -20.21556   6.25227
   4.19263 -17.71661   7.16506
   3.11524 -14.73882   6.85082
   1.85828 -12.86835   5.65372
   0.09256 -12.10520   3.87304
  -2.12208 -10.96795   2.15220
  -4.69584  -8.25951   1.14963
  -7.13494  -4.69814   1.28431
  -9.06526  -1.91488   2.27191
 -10.56164  -0.02945   3.30441
 -11.69888   1.72131   3.73836
 -12.31240   3.24762   3.07996
 -11.80363   3.39726   1.74818
 -10.21747   1.15269   0.46130
  -8.21233  -2.60321  -0.22703
  -6.70099  -6.14962  -0.03250
  -6.01266  -7.72082   0.49123
  -6.10244  -7.76571   1.16460
  -6.88055  -7.84053   1.59855
  -7.70356  -8.76828   1.52373
  -8.52657  -9.83071   0.98503
  -9.05030 -10.18984   0.14706
  -9.08023  -9.45662  -0.43653
  -8.76599  -7.40658  -0.42156
  -8.24226  -4.42879   0.16202
  -7.94298  -1.30137   1.34416
  -7.82327   1.57168   2.90039
  -7.65867   3.45711   4.95043
  -7.64371   3.86113   7.20996
  -7.74845   2.61914   9.31985
  -8.15247   0.76363  11.02571
  -8.84081  -0.13419  11.92354
  -9.49921   0.76363  12.34253
  -9.60396   2.85856  12.67173
  -9.00541   5.19291  13.24035
  -7.91305   6.86885  14.06336
  -6.91048   8.23055  15.11082
  -6.16229   9.80174  16.30792
  -5.68345  11.71711  17.40028
  -5.53381  13.42297  18.62730
  -5.60863  13.61750  20.18354
  -6.04258  12.03134  22.18868
  -6.79077   9.41269  24.17886
  -7.70356   7.06338  25.80991
  -8.75102   5.71664  26.93219
 -10.38207   5.89620  27.68038
 -12.34233   6.68928  28.02455
 -14.43725   7.67689  27.96469
 -16.33765   9.11341  27.51578
 -17.78913  10.98388  26.40846
 -18.64207  12.82442  24.62777
 -18.82163  13.99160  22.14379
 -18.16323  14.48540  18.80687
 -16.44240  14.45547  14.64694
 -13.61425  14.45547  10.15782
  -9.72367  13.94671   6.17746
  -5.30936  13.75218   3.07996
  -0.96987  14.87446   1.20949
   2.87582  17.34348   0.59597
   5.76382  19.85739   0.77554
   7.70911  20.75522   1.49380
   8.83140  18.94460   2.54126
   9.38505  14.57518   3.79822
   9.45987   8.79917   4.63619
   9.10074   2.96331   5.05517
   8.87629  -1.43604   4.95043
   8.84636  -3.38133   4.51648
   9.02592  -2.58825   4.02267
   9.31024  -0.08930   3.70844
   9.45987   2.78374   3.45405
   9.51973   5.10312   2.94528
   9.35513   6.07577   2.06242
   8.80147   6.30022   0.83539
   8.02335   7.58711  -0.66098
   7.03574  10.46015  -2.24714
   5.62915  13.30326  -3.02526
   3.80357  14.08138  -2.96540
   1.37944  12.74961  -2.23218
  -1.04469  10.87914  -1.55881
  -3.04983   9.50247  -1.19968
  -4.11226   8.14077  -1.40917
  -4.11226   6.27030  -2.32196
  -3.22940   4.23523  -4.17747
  -2.15201   2.94834  -6.76620
  -0.53592   2.61914  -9.38486
   1.11009   2.27497 -11.41993
   2.30720   0.73371 -13.00609
   2.33712  -1.31633 -14.12837
   0.88564  -3.05213 -14.96634
  -1.62827  -4.51857 -15.50503
  -4.44146  -5.68575 -15.83424
  -7.00026  -5.89524 -16.04373
  -8.99044  -4.59339 -16.40286
 -10.47186  -2.22912 -16.98645
 -11.23501  -0.29879 -18.04887
 -11.20508   4.8E-40 -19.67992
 -10.77113  -0.67289 -22.08909
 -10.32222  -1.13676 -25.09680
 -10.09776  -0.23894 -28.28408
  -9.61892   1.79613 -31.21698
  -8.78095   4.26515 -33.91046
  -7.41925   6.49475 -36.36452
  -5.77324   7.85646 -38.51930
  -4.05240   8.20062 -40.19524
  -2.36150   7.55718 -41.25766
  -1.05965   6.74914 -41.61679
  -0.82023   6.56957 -41.52701
  -1.58338   6.83892 -41.33248
  -3.21443   6.71921 -41.00328
  -5.09987   5.83635 -40.74890
  -7.04515   4.81881 -40.64415
  -9.11015   4.17537 -40.71897
 -11.24997   3.69653 -40.53940
 -13.62921   3.09798 -40.38977
 -16.48729   2.67899 -40.55437
 -19.70450   3.47207 -41.22774
 -22.63739   5.94109 -42.45477
 -24.37319   9.32290 -43.68179
 -24.82210  12.37551 -44.90882
 -24.29837  13.58758 -45.98621
 -23.32573  13.00399 -47.22821
 -22.26330  11.55250 -48.72458
 -21.09613   9.80174 -50.11621
 -19.94392   8.05098 -51.04396
 -19.21069   6.58454 -51.34324
 -18.77674   6.01591 -51.05893
 -18.52236   6.83892 -50.34067
 -18.01359   8.85903 -49.78701
 -17.13073  11.05870 -49.77204
 -16.26283  12.34558 -50.23592
 -15.84385  12.40544 -51.20857
 -16.18801  11.58243 -52.10639
 -17.05591  10.38533 -52.68998
 -18.02855   9.36780 -52.67501
 -18.55229   8.73932 -51.76222
 -18.16323   8.39515 -50.02643
 -16.75664   8.02106 -47.84172
 -14.19783   7.52725 -45.70190
 -10.74120   7.07834 -44.28034
  -6.83566   6.15059 -43.87632
  -2.82537   4.35494 -44.57962
   0.69111   2.58921 -45.97125
   3.38459   1.39211 -47.55741
   5.12038   1.64650 -48.88918
   5.76382   3.60675 -49.71219
   5.80872   6.33015 -50.25088
   5.68901   8.08091 -50.49030
   5.79375   7.79660 -50.52023
   6.37734   6.16555 -50.29578
   7.61933   4.99838 -50.04139
   9.07082   5.70167 -50.01146
  10.61208   7.37762 -50.10125
  11.94386   8.00609 -50.07132
  13.08110   6.62943 -49.99650
  13.67965   4.17537 -49.78701
  13.67965   1.84102 -49.80197
  13.14096  -0.25390 -49.75708
  12.45263  -2.10941 -49.90672
  11.92889  -3.36636 -49.99650
  11.10589  -4.26419 -50.16110
  10.50734  -4.11455 -50.52023
  10.65697  -2.42365 -50.10125
  11.61465  -1.03202 -49.48773
  12.52744  -0.94224 -48.64976
  13.14096  -1.43604 -47.51252
  13.45520  -2.15430 -45.88147
  13.66469  -3.30651 -43.81647
  14.09864  -4.48865 -41.33248
  14.69719  -4.89267 -38.36966
  15.63991  -4.14448 -35.13749
  16.64248  -2.60321 -32.08488
  17.42059  -1.16669 -29.91513
  17.57023   0.06034 -29.04724
  16.62751   0.85342 -29.34651
  14.78697   0.23990 -30.13959
  12.36284  -2.25905 -30.91771
   9.62447  -4.95252 -31.24691
   7.05071  -6.26933 -30.91771
   5.13535  -6.04488 -30.04981
   4.28241  -5.56604 -28.94249
   4.67147  -6.25437 -27.79028
   5.92843  -7.69089 -26.59318
   7.24524  -7.90038 -25.54572
   8.12810  -6.01495 -24.94717
   8.54708  -3.47111 -24.72271
   8.29270  -1.95977 -25.05191
   7.54451  -1.72035 -25.80010
   5.95835  -2.03459 -26.74282
   3.75868  -2.45358 -27.71546
   1.06520  -2.87256 -28.19430
  -1.86769  -3.06709 -27.90999
  -5.01008  -2.52839 -26.80267
  -8.15247  -1.52582 -25.20155
 -10.26236  -1.49589 -23.15151
 -11.02551  -3.48607 -20.51789
 -10.75617  -6.95767 -17.79449
 -10.30725 -10.26466 -15.43021
 -10.03791 -12.34462 -13.12580
 -10.03791 -13.78114 -11.13562
 -10.56164 -14.48444  -9.51953
 -11.77370 -14.76875  -8.15783
 -13.41972 -14.99321  -7.11036
 -15.29019 -15.41219  -6.78116
 -17.08584 -16.89360  -6.75123
 -19.04609 -19.60204  -7.23007
 -21.03627 -22.10099  -8.38228
 -22.80199 -22.75940  -9.47464
 -24.14873 -20.96375  -9.69909
 -24.71736 -17.10310  -8.72645
 -24.67246 -12.83842  -6.72131
 -24.20859  -9.45662  -4.14754
 -23.61004  -7.39162  -1.75334
 -23.16112  -6.29926   0.11713
 -22.63739  -5.59596   1.11970
 -22.15855  -4.77296   1.29927
 -21.64978  -3.72549   1.07481
 -21.33555  -2.70796   0.85036
 -21.29065  -2.31890   0.73065
 -21.54504  -2.66307   0.94014
 -22.09870  -3.51600   1.25438
 -22.56257  -3.94995   1.68833
 -22.95163  -2.91745   2.09235
 -22.99652  -0.73274   2.73579
 -22.62243   1.36218   3.42412
 -22.15855   2.37972   4.03764
 -21.94906   1.94577   4.71101
 -21.63482   0.65889   5.08510
 -21.12605  -1.01705   5.23474
 -20.64721  -2.57329   4.95043
 -20.39283  -4.44376   4.29202
 -20.45268  -6.71825   3.12485
 -20.88663  -8.36426   1.92775
 -21.54504  -8.42412   0.86532
 -22.62243  -6.68832   0.41641
 -24.02902  -4.36894   0.56605
 -25.39072  -2.97731   1.68833
 -26.55790  -2.58825   3.52887
 -27.48565  -2.25905   6.02782
 -27.79989  -1.61560   8.96072
 -27.35098  -1.25647  12.16296
 -25.92942  -2.22912  15.58966
 -23.55018  -4.59339  18.89665
 -20.54247  -7.24198  21.84451
 -16.80153  -9.45662  24.08908
 -12.80620 -10.18984  25.18143
  -9.00541 -10.07013  25.16647
  -6.23711 -10.20480  24.37339
  -4.54621 -10.93803  23.52045
  -3.66334 -11.76103  22.87701
  -3.37903 -12.40448  22.84708
  -3.37903 -13.73625  23.52045
  -3.88780 -16.04067  24.56792
  -4.98016 -18.31516  25.76502
  -6.62617 -18.41991  26.70773
  -8.52657 -16.28009  27.17161
 -10.44193 -13.18259  27.27636
 -12.34233 -11.02781  27.15665
 -14.04819 -10.87817  27.32125
 -15.52961 -12.01542  27.81505
 -16.45736 -13.37712  28.59317
 -16.30772 -14.64904  29.29647
 -15.46975 -15.66658  29.88005
 -13.65914 -16.71404  30.29904
 -11.13026 -17.38741  30.29904
  -8.07765 -17.07317  30.04465
  -4.96519 -14.79868  29.88005
  -2.21186 -10.33948  30.01473
  -0.16182  -4.84778  30.82277
   1.02031  -0.82253  32.49871
   1.63383   0.35961  34.80313
   2.21741  -1.01705  37.48164
   3.14517  -3.08205  40.11526
   4.47694  -4.15944  42.21019
   6.03317  -3.71053  44.09562
   7.55948  -2.67803  45.50222
   8.77154  -2.10941  46.68436
   9.59455  -1.98970  47.86649
   9.86389  -1.64553  49.07856
   9.84893  -0.82253  50.44026
   9.48980   0.61400  52.01145
   8.71168   1.97570  53.77718
   7.57444   3.09798  55.46808
   6.36237   4.10055  56.38087
   5.35980   5.05823  56.56044
   5.13535   5.98599  55.85714
   5.46455   7.13820  54.58522
   6.25763   8.21559  52.59504
   6.81129   9.05356  50.42530
   7.26020   9.45758  48.12088
   7.93357  10.16087  45.45733
   9.05585  11.65725  42.82370
  10.79165  13.51276  40.92331
  13.03621  14.70986  39.75613
  15.08625  14.35073  39.29226
  16.86693  12.58500  39.24737
  18.18375  10.86417  39.65139
  19.17135  10.26562  40.65396
  20.12903  10.71453  42.49450
  20.89219  10.98388  44.97849
  21.77505  10.07109  47.49240
  22.79258   8.30537  49.52747
  24.64809   6.61446  50.87421
  27.55106   5.80642  51.30816
  31.53142   6.00095  50.82932
  35.78113   6.59950  49.99135
  39.95602   7.09330  48.83914
  43.63710   7.90135  47.58218
  46.76453   9.18823  46.32522
  49.12880  10.35540  45.09820
  51.05913  11.05870  44.57446
  52.09163  11.26819  44.81389
  51.74746  11.64229  45.65186
  49.84706  12.88428  46.96867
  46.74956  15.03906  48.88403
  42.91884  16.74493  51.18845
  39.14797  16.83471  53.82207
  35.85595  15.36826  56.39584
  33.07269  13.15363  58.43091
  31.08251  11.05870  59.67290
  30.03504   9.26305  59.98714
  29.88541   7.99113  59.47837
  30.33432   7.58711  58.26631
  31.09747   8.69443  56.87468
  32.04019  10.60979  55.57283
  32.59385  13.06384  54.60018
  32.69859  15.39819  53.65747
  32.36939  17.22377  52.98410
  31.63617  18.39094  51.86182
  30.46899  18.91467  49.97638
  28.97262  18.61540  47.28291
  27.34157  17.62779  44.48468
  25.51599  16.52047  41.50689
  23.52581  15.66754  38.75356
  21.77505  14.67993  36.58382
  20.30860  13.25837  34.75824
  19.02172  11.88171  33.03741
  18.07900  11.11856  30.98737
  17.68994  10.99885  29.05705
  17.85454  11.67221  26.99205
  17.94433  12.85435  24.65770
  17.39067  13.88685  21.94926
  15.80451  13.84196  19.71966
  13.75447  12.76457  18.02875
  11.37523  11.34301  17.11596
   8.68176  10.22073  16.69698
   5.59922   9.98131  16.62216
   2.77107  10.35540  16.42763
   0.55644  10.40029  15.79915
  -0.40125   9.65211  14.55716
   0.06263   8.42508  12.92611
   1.96303   6.77906  11.07061
   5.04556   4.93852   9.30488
   8.62190   3.29251   7.52419
  11.61465   2.52936   5.78840
  13.57491   3.24762   3.73836
  14.38295   4.80385   1.61351
  14.05375   6.06080  -0.40660
  12.60226   6.56957  -2.30700
  10.19310   7.13820  -3.75848
   7.55948   8.08091  -4.70120
   5.52440   9.38276  -5.12018
   4.32730  10.66964  -5.53917
   4.26745  11.76200  -6.28736
   5.19520  12.62990  -7.37971
   6.82625  13.91678  -8.93594
   8.65183  15.26352 -11.06080
  10.59712  15.60768 -13.61960
  11.97378  14.47044 -16.49264
  12.66212  12.13609 -19.41057
  12.69205   8.90392 -21.98434
  12.73694   5.83635 -23.98949
  12.61723   3.56186 -25.69535
  11.91393   1.30233 -27.43115
  10.79165  -0.77763 -29.15198
   9.26534  -1.52582 -30.88778
   7.85875  -0.32872 -32.53379
   7.03574   1.81110 -33.50644
   6.75143   2.76878 -33.43162
   6.91603   1.54175 -32.27941
   7.24524  -0.91231 -30.21441
   8.06824  -3.44118 -27.80524
  10.46244  -4.83281 -25.44097
  14.08367  -4.23426 -23.07670
  18.01914  -2.78278 -21.20623
  21.41592  -2.01963 -20.00912
  23.84005  -2.69300 -19.26094
  24.97729  -4.09959 -18.97663
  24.57327  -5.38647 -18.97663
  22.88237  -6.02991 -18.93173
  20.72758  -6.04488 -18.48282
  18.45309  -6.14962 -17.49521
  16.56766  -6.28430 -16.29811
  15.34063  -6.16459 -15.63971
  14.95157  -5.62589 -15.56489
  15.34063  -4.96749 -15.92402
  16.13371  -4.60836 -16.71710
  16.59759  -4.39886 -17.82442
  16.13371  -4.39886 -19.21605
  14.72712  -4.78792 -20.29344
  12.64715  -5.58100 -20.47300
  10.35770  -6.35912 -19.17115
   7.99342  -6.46386 -16.17840
   5.52440  -6.22444 -12.18308
   3.60904  -6.17955  -7.94833
   2.32216  -6.53868  -4.08768
   1.40937  -7.36169  -1.37924
   0.94549  -8.54383  -0.15221
   1.30462  -9.86064  -0.04747
   2.47180 -11.20738  -0.75077
   4.22256 -11.97053  -2.39678
   6.51201 -11.86578  -4.67127
   9.40002 -11.43183  -7.20015
  12.61723 -10.89314  -9.48960
  15.77458 -10.71357 -11.68927
  18.21367 -11.07270 -13.78420
  19.53048 -11.47672 -15.52000
  19.69509 -11.53658 -16.77695
  18.69251 -10.59386 -16.85177
  16.71730  -8.31937 -15.74445
  14.20339  -5.04231 -13.36522
  11.24056  -2.09445 -10.20786
   7.81386  -0.50829  -6.70634
   3.80357  -0.77763  -3.62381
  -0.47606  -2.10941  -1.58874
  -4.42650  -3.48607  -0.60113
  -7.64371  -4.18937  -0.63106
  -9.94812  -3.78535  -1.45406
 -10.90580  -2.39372  -2.71102
 -10.80106  -0.62800  -3.69863
 -10.09776   1.27240  -3.98294
  -9.42439   3.09798  -3.78841
  -9.12512   4.39983  -3.57892
  -9.42439   5.13305  -3.60884
 -10.50178   5.07320  -4.04279
 -12.28247   4.35494  -5.16507
 -14.46718   3.38229  -6.94576
 -17.16066   2.82863  -9.13047
 -20.01873   3.15783 -11.58453
 -23.07134   4.07062 -13.84406
 -26.04913   4.90859 -15.63971
 -28.75757   4.60932 -16.49264
 -30.85250   3.03812 -16.05869
 -32.52844   0.98809 -15.07108
 -34.15949  -0.35865 -13.82909
 -35.73068  -0.71778 -12.24293
 -37.12231  -0.53821 -10.25275
 -38.64862  -0.59807  -8.11294
 -40.29463  -1.13676  -6.24247
 -41.97057  -1.95977  -4.40192
 -43.25745  -2.90249  -3.01029
 -44.02061  -3.68060  -2.23218
 -44.48448  -4.68318  -2.21721
 -44.73887  -6.10473  -3.05518
 -44.69398  -7.73578  -4.73113
 -44.02061  -8.54383  -7.20015
 -42.80854  -8.75332  -9.87866
 -40.98296  -9.06756 -12.00351
 -38.76833 -10.10006 -13.05098
 -36.41902 -11.62636 -13.12580
 -34.45876 -13.10777 -12.67688
 -32.84268 -14.09538 -11.89877
 -31.51090 -14.85853 -11.10569
 -30.43351 -15.80125 -10.07319
 -29.82000 -16.54944  -9.08558
 -29.93971 -17.01331  -8.54688
 -30.37366 -17.88121  -8.57681
 -30.62804 -19.45241  -8.87609
 -30.62804 -21.48748  -9.36989
 -29.99956 -22.89407 -10.43232
