********************************************************************************
              CENTRO DE INSTRUMENTACION Y REGISTRO SISMICO  A.C.

    Anaxagoras 814, Col. Narvarte, Benito Juarez, C.P. 03020 Mexico, D.F.
           Tels. 5687 45 42/ 5687 45  82             Fax. 5669 25 12
********************************************************************************
ARCHIVO ESTANDAR DE ACELERACION:
VERSION DEL FORMATO                    : 2.0
NOMBRE DEL ARCHIVO                     : CE3220170919181440
FECHA Y HORA DE CREACION               : 27/SEP/17, 17:26
REF. CATALOGO ACELEROGRAMAS, SMIS 1996 : REGISTRO No.     /PAG.


================================================================================
DATOS DE LA ESTACION:
NOMBRE DE LA ESTACION                  : CETIS NO. 57
CLAVE DE LA ESTACION                   : CE32
LOCALIZACION DE LA ESTACION            : Del. Iztapalapa, Col. U. H. Ejército   
                                       : Constitucionalista, calle Verduzco,    
                                       : Entre Av. Tepalcates                   
                                       : y Av. Revolución.                      
                                       : 
COORDENADAS DE LA ESTACION             : 19.3858 LAT. N
                                       : 99.0537 LONG. W
ALTITUD (msnm)                         : 2233
TIPO DE SUELO                          : Arcilloso, zona lago                
                                       :                           
                                       : 
INSTITUCION RESPONSABLE                : CIRES
                                       : 

================================================================================
DATOS DEL ACELEROGRAFO:
MODELO DEL ACELEROGRAFO                : RADESD
NUMERO DE SERIE DEL ACELEROGRAFO       : 227
NUMERO DE CANALES                      : 3
ORIENTACION C1-C6 (rumbo;orientacion)  : /N00E/+V/N90W
ORIENTACION C7-C12 (rumbo;orientacion) : 
VEL. DE MUESTREO, C1-C6 (muestras/s)   : /100/100/100
VEL. DE MUESTREO, C7-C12 (muestras/s)  : 
ESC. COMPLETA DE SENSORES, C1-C6, (g)  : /0.5/0.5/0.5
ESC. COMPLETA DE SENSORES, C7-C12, (g) : 
FREC. NAT. DE SENSORES, C1-C6, (Hz)    : /30/30/30
FREC. NAT. DE SENSORES, C7-C12, (Hz)   : 
AMORTIGUAMIENTO DE SENSORES, C1-C6     : /0.750/0.733/0.733
AMORTIGUAMIENTO DE SENSORES, C7-C12    : 
INTERVALO DE MUESTREO, C1-C6, (s)      : /0.01/0.01/0.01
INTERVALO DE MUESTREO, C7-C12, (s)     : 
UMBRAL DE DISPARO, C1-C6, (Gal)        : /2.54/6.14/3.74
UMBRAL DE DISPARO, C7-C12, (Gal)       : 
MEMORIA DE PREEVENTO (s)               : 44.0
TIEMPO DE POSEVENTO (s)                : 64.0


================================================================================
DATOS DEL SISMO:
FECHA DEL SISMO (GMT)                  : 19/SEP/17
HORA EPICENTRO (GMT)                   : 18:14:40.0
MAGNITUD(ES)                           : /Mc=7.1
COORDENADAS DEL EPICENTRO              : 18.40 LAT. N
                                       : 98.72 LONG. W
PROFUNDIDAD FOCAL (km)                 : 57
FUENTE DE LOS DATOS EPICENTRALES       : SSN
                                       : INSTITUTO DE GEOFISICA, UNAM

================================================================================
DATOS DE ESTE REGISTRO:
HORA DE LA PRIMERA MUESTRA (GMT)       : 18:15:01.00
EXACTITUD DEL TIEMPO (s)               : 0.01
DURACION DEL REGISTRO (s), C1-C6       : /327.8/327.8/327.8
DURACION DEL REGISTRO (s), C7-C12      : 
NUM. TOTAL DE MUESTRAS, C1-C6          : /32780/32780/32780
NUM. TOTAL DE MUESTRAS, C7-C12         : 
ACEL. MAX. (Gal), C1-C6                : /80.38773/35.7721/76.75866
ACEL. MAX., C1-C6, EN LA MUESTRA       : /6852/6782/6999
ACEL. MAX. (Gal), C7-C12               : 
ACEL. MAX., C7-C12, EN LA MUESTRA      : 
UNIDADES DE LOS DATOS                  : Gal (cm/s/s)
FACTOR DE DECIMACION                   : 1
FORMATO DATOS (FORTRAN,10 campos/dato) : 3F10.5


================================================================================
CALIDAD DEL ACELEROGRAMA:
REGISTRO DIGITAL COMPLETO CON TIEMPO ABSOLUTO CORRECTO.


================================================================================
COMENTARIOS:














================================================================================
DATOS DE ACELERACION:
---------+---------+---------+---------+---------+---------+---------+---------+
   CANAL-1   CANAL-2   CANAL-3   CANAL-4   CANAL-5   CANAL-6   CANAL-7   CANAL-8
      N00E        +V      N90W
---------+---------+---------+---------+---------+---------+---------+---------+
[...]
  26.52834   9.17904  13.63741
  24.04435  11.07943  12.11111
  21.62023  13.80284  10.27057
  18.97164  16.52624   7.77162
  16.35298  18.30693   4.64419
  14.12338  18.41168   1.29231
  12.05838  16.07733  -2.31396
  10.39741  11.61813  -5.74066
   9.40980   6.44067  -8.53888
   8.96088   1.08364 -10.93308
   9.02074  -4.21353 -12.63895
   9.27512  -8.82237 -14.13533
   9.39483 -13.23668 -15.25761
   9.42476 -17.15718 -16.51456
   9.40980 -20.85323 -17.98101
   9.87367 -24.25000 -19.97119
  10.63683 -27.13801 -22.30554
  11.51969 -29.41250 -24.84938
  11.77407 -30.95377 -27.31840
  11.68429 -31.88152 -29.50311
  11.95364 -31.49246 -31.29876
  12.52226 -29.89134 -32.95974
  13.27045 -26.50953 -34.21669
  14.03360 -21.45178 -35.35394
  14.61719 -15.07722 -36.07220
  15.44019  -8.14900 -36.73060
  16.29313  -1.89415 -37.22441
  17.04131   3.23842 -37.50872
  17.46030   7.32353 -37.22441
  17.28073  11.31885 -37.05981
  16.18838  15.13461 -37.13463
  14.15331  18.06751 -37.59850
  11.16056  18.99526 -38.79560
   7.83860  18.77081 -40.48651
   4.18744  17.69342 -42.67122
   0.16219  16.57113 -45.66397
  -3.54882  15.08972 -48.62679
  -6.70617  13.20429 -51.18560
  -9.50440  10.94476 -53.46009
 -11.88363   8.64034 -54.79186
 -13.93367   6.00672 -55.06121
 -14.95121   3.10375 -54.64223
 -15.57968  -0.15835 -54.04368
 -15.11581  -2.89672 -52.95132
 -14.23294  -5.12632 -51.93379
 -12.76650  -6.30846 -51.03596
 -11.03070  -6.87708 -50.16806
  -9.78871  -6.42817 -49.76404
  -8.56168  -5.32085 -49.67426
  -7.39451  -4.00404 -49.70419
  -6.04777  -2.50766 -50.07828
  -4.61125  -1.99889 -50.36259
  -3.32436  -2.19342 -50.27281
  -2.05244  -3.45038 -49.82390
  -0.66081  -5.47048 -48.88118
   0.52132  -7.65519 -47.89357
   1.62864  -9.24135 -46.87603
   2.31697  -9.60048 -46.06799
   2.94545  -9.19646 -45.87346
   2.87063  -8.26871 -46.18770
   2.36187  -7.11650 -46.84611
   1.85310  -6.23364 -47.95343
   1.32937  -5.97925 -49.44980
   0.85053  -6.33838 -51.12574
  -0.07723  -7.17635 -52.95132
  -1.27433  -7.53548 -54.67215
  -2.84552  -7.90958 -56.36306
  -4.55139  -7.64023 -57.99411
  -6.55654  -7.55045 -59.22114
  -8.02298  -8.19389 -60.10400
  -8.57664  -8.74755 -60.53795
  -8.32226  -8.47820 -60.50802
  -7.33465  -7.92454 -59.80472
  -6.31712  -6.99679 -58.93683
  -5.73353  -5.78472 -58.44302
  -5.56893  -4.37813 -58.29338
  -6.12259  -2.61241 -58.68244
  -6.96056  -0.29302 -59.25106
  -8.26240   1.96650 -59.87954
  -9.92338   3.85194 -60.67262
 -11.71903   4.95926 -61.51059
 -13.76907   4.77969 -62.40842
 -16.22312   3.20850 -63.32121
 -19.24580   0.00625 -64.02450
 -22.49294  -4.03396 -64.09932
 -25.41087  -7.64023 -63.33617
 -27.71529  -9.73516 -62.52813
 -29.55584 -10.37860 -61.63030
 -30.52848 -10.46838 -60.29853
 -30.94746 -10.67787 -58.72733
 -30.75294 -10.21400 -57.33570
 -29.91497  -9.00193 -55.74954
 -29.09196  -7.84972 -54.04368
 -27.96968  -7.25117 -52.06846
 -26.29374  -7.68512 -50.01842
 -24.10903  -9.30121 -47.71401
 -21.50533 -11.74030 -44.54169
 -18.84178 -14.11954 -40.39673
 -16.13334 -15.54110 -36.10213
 -12.85628 -15.54110 -31.79256
  -9.86353 -14.17939 -27.42315
  -6.94559 -11.81512 -23.65228
  -3.99773  -9.06179 -20.45003
  -0.84038  -5.97925 -17.68174
   2.75092  -2.71715 -15.03315
   6.23748   0.09603 -12.14515
   9.37987   2.13111  -9.72102
  11.41494   3.13368  -7.34178
  12.17809   3.16361  -5.69577
  11.47480   2.72966  -4.82787
   9.63425   2.55009  -4.94758
   7.82364   2.95411  -5.26182
   6.07288   3.49281  -5.83044
   4.89074   3.82201  -6.35417
   4.20241   4.45049  -7.05747
   4.48672   5.27350  -7.76076
   5.65389   6.82973  -8.34435
   7.62911   9.04436  -8.23961
  10.44230  10.95972  -7.22207
  13.92885  12.77034  -5.74066
  17.75958  13.69809  -3.40631
  21.65015  13.66816  -0.75773
  25.16664  12.14186   2.36970
  28.50356   9.38853   5.43727
  31.63098   5.39321   8.68441
  34.53395   1.11357  11.66220
  37.82598  -2.13357  14.40056
  41.25268  -4.18360  17.09404
  44.73924  -4.75222  20.14665
  47.92652  -5.06646  23.09451
  51.02401  -5.00661  25.87777
  53.97188  -4.82704  28.79570
  56.39600  -3.68980  31.29465
  57.92231  -1.80436  33.73374
  58.77524   0.45516  35.88852
  59.13437   2.32563  37.68418
  59.52343   4.33078  38.68675
  59.76285   6.15636  39.30026
  59.46358   7.63777  39.83896
  58.86502   8.53560  40.78167
  58.29640   8.67027  41.93388
  57.72778   8.16150  42.93646
  57.02448   7.57791  43.75946
  56.12666   7.39835  44.64232
  55.34854   7.66770  46.04892
  54.69014   8.08668  47.33580
  54.64524   8.71516  48.48801
  55.55803   9.40349  49.38584
  57.05441   9.79255  50.40337
  59.02963   9.50824  51.54062
  61.51361   9.41846  52.19902
  64.02752   8.93962  52.42348
  66.39180   8.40092  51.64536
  68.30716   6.87462  50.08913
  69.71375   5.04904  47.78471
  70.17763   3.37310  44.88174
  69.48929   2.26578  41.54483
  67.43926   1.99643  37.90863
  64.17716   1.99643  34.01805
  60.01723   1.95154  30.44172
  55.40840   1.65227  27.52378
  50.44043   1.02379  25.11462
  45.69692   0.23071  22.91494
  40.90851  -0.38281  20.74520
  36.00040  -0.87661  18.72509
  30.83790  -1.65473  17.03419
  25.58562  -2.28320  15.44803
  20.30341  -2.82190  13.96662
  15.58983  -3.00146  12.36549
  11.41494  -2.29817  11.15343
   7.43458  -1.01128  10.06107
   4.15752   0.58984   9.23807
   1.34433   2.25082   8.92383
  -1.12469   3.22346   9.40267
  -3.63860   3.28332  10.70452
  -5.79338   2.23585  12.15600
  -7.15509   0.44020  13.84691
  -7.45436  -1.53502  15.26846
  -6.85581  -3.51023  16.28600
  -5.85324  -5.14128  17.43821
  -4.52146  -6.15882  18.91962
  -3.44407  -6.38327  20.74520
  -2.78567  -6.53291  22.40618
  -2.26194  -6.35335  24.38139
  -2.51632  -6.12889  26.05733
  -3.59371  -5.82961  27.76320
  -5.43425  -5.99422  29.34936
  -8.14269  -6.06904  31.39940
 -11.40479  -5.96429  33.32972
 -14.65193  -5.47048  35.45458
 -17.98885  -5.30588  37.38490
 -20.71225  -4.96172  39.00099
 -22.95682  -4.27338  40.27291
 -24.18385  -3.45038  41.29044
 -24.67765  -2.49270  41.64957
 -24.75247  -1.54998  41.47001
 -24.94700  -0.27806  41.38022
 -25.20138   0.52998  40.79664
 -25.68022   1.96650  40.18312
 -26.92221   3.95668  39.21048
 -29.25656   6.51549  38.53711
 -32.29420   8.95458  37.95352
 -35.33185  11.09440  37.68418
 -38.11511  13.03969  37.57943
 -40.26989  15.19447  37.42979
 -42.14036  16.61603  37.48965
 -43.75644  17.34925  38.10316
 -45.53713  16.79559  38.88128
 -47.01854  15.67331  39.97363
 -48.33535  14.19190  40.81160
 -49.45764  12.36632  41.76928
 -49.90655  10.40607  42.41272
 -49.86166   8.56552  42.50251
 -49.12843   7.17389  42.11345
 -47.96126   6.60527  41.64957
 -46.62949   6.82973  41.23059
 -45.35757   7.33849  40.48240
 -44.51960   7.84726  39.30026
 -43.89112   7.69762  37.90863
 -43.41228   6.90455  35.94838
 -42.69402   5.49795  33.85345
 -42.09547   3.52274  31.54903
 -41.34728   1.42781  28.82563
 -40.25492   0.08107  25.48871
 -38.92315   0.84422  21.73281
 -37.69612   3.55266  17.42324
 -36.19974   7.41331  13.50274
 -34.43402  12.08201   9.26799
 -31.93507  16.79559   4.76390
 -28.92736  20.77595  -0.05443
 -26.03935  22.93073  -4.85780
 -22.67251  22.73620  -9.33196
 -19.00638  19.78834 -13.97073
 -15.63954  15.56856 -19.17811
 -12.45226  11.49842 -24.44536
  -9.95331   7.90712 -29.56296
  -7.94817   4.91437 -34.36633
  -6.33208   2.75958 -38.66093
  -5.38936   1.14350 -42.26720
  -5.37440  -0.42770 -45.28988
  -6.01784  -1.96896 -47.92350
  -7.67882  -3.48030 -49.98850
  -9.96827  -4.85697 -51.42502
 -13.29023  -6.57780 -52.27795
 -17.51001  -8.71762 -52.21810
 -21.75972 -10.61802 -51.36516
 -26.39848 -12.14432 -49.67426
 -30.90257 -12.81769 -47.20524
 -35.16725 -12.53338 -44.07781
 -39.14761 -11.21657 -40.75586
 -42.60423  -9.24135 -37.50872
 -45.53713  -7.11650 -34.26158
 -47.64702  -4.96172 -31.11919
 -48.70945  -3.00146 -27.42315
 -49.14340  -1.22078 -23.45775
 -49.03865   0.57487 -19.11826
 -47.84155   2.93915 -14.10540
 -46.01597   5.15379  -8.07500
 -43.71155   7.02426  -1.90993
 -41.21260   8.04179   3.83615
 -37.99540   8.07172   9.43260
 -34.35920   7.50310  14.46042
 -30.15439   6.23118  19.21890
 -25.93461   4.39063  23.43868
 -21.62504   1.98147  27.17962
 -17.68957  -0.78683  30.06762
 -14.47236  -3.70476  32.37204
 -11.56940  -6.29349  34.03302
  -9.01059  -9.39099  35.09544
  -6.72114 -12.74287  35.90349
  -4.28204 -16.13965  36.77139
  -2.21704 -19.85066  37.41483
  -0.04730 -23.62153  37.75899
   1.95784 -27.78145  37.72907
   3.99292 -31.53736  37.07066
   6.16266 -34.39543  36.56189
   8.54190 -35.77210  36.18780
  11.01092 -35.27830  35.94838
  13.31534 -33.90163  36.18780
  15.88911 -32.18080  36.90606
  18.92675 -29.53221  37.68418
  22.26367 -25.91098  38.74660
  25.21153 -21.28718  39.65939
  28.75794 -16.43892  40.75175
  32.63355 -12.06950  41.38022
  36.77851  -8.32856  41.51490
  40.78880  -6.05407  41.23059
  44.20054  -5.44056  40.36269
  47.16336  -6.42817  39.16559
  49.55757  -8.65777  37.68418
  51.17365 -11.66548  35.87356
  52.14630 -14.86773  34.04798
  52.23608 -17.45646  32.47679
  51.71235 -19.32693  30.65121
  50.88934 -20.13497  28.36175
  49.75209 -19.97037  25.63835
  48.97398 -18.90794  23.09451
  48.28565 -17.17215  21.38864
  47.62724 -15.55606  20.11672
  47.16336 -14.41881  19.09918
  46.92394 -13.92501  18.00683
  46.53489 -13.79034  16.71995
  46.54985 -14.61334  15.08890
  46.87905 -15.88526  13.38303
  47.16336 -17.44149  11.24321
  47.53746 -17.98019   8.77419
  47.79184 -17.86048   6.48474
  47.50753 -17.18711   4.68908
  46.56481 -16.40899   2.86350
  45.33779 -15.49620   1.02296
  44.11076 -13.93997  -0.81758
  42.04576 -12.02461  -2.16432
  39.65156  -9.63041  -3.07711
  37.16757  -7.05664  -3.40631
  35.16243  -4.09382  -3.98990
  32.97772  -0.95143  -4.84283
  30.40395   2.08621  -5.54613
  27.15682   4.48042  -6.23446
  23.25128   6.30599  -6.93776
  18.91178   7.99690  -7.79069
  14.67704  10.15168  -8.59874
  10.50215  12.53092  -9.30203
   6.35719  15.50871  -9.61627
   2.24216  18.72592  -9.51152
  -2.08237  21.73363  -9.72102
  -6.22733  24.45704 -10.46921
  -9.98324  26.56693 -11.42689
 -13.33512  27.68921 -12.68384
 -16.55233  27.40490 -13.70138
 -19.50019  26.16290 -14.19518
 -22.86703  24.18769 -13.97073
 -26.78754  21.44932 -12.78859
 -31.24674  18.50146 -11.29221
 -36.51398  15.98755  -9.75095
 -42.43963  14.79045  -8.41917
 -48.63463  14.46124  -7.22207
 -54.65006  15.44885  -6.32424
 -60.62060  17.03501  -5.51620
 -66.44150  18.80073  -4.18443
 -71.06531  20.67120  -2.70301
 -74.22266  23.08037  -1.50591
 -76.30262  25.66910  -0.18910
 -77.79900  28.13812   0.81347
 -79.02603  30.15823   1.77115
 -79.86400  31.69950   2.68394
 -80.35780  33.03127   3.32738
 -80.38773  33.83931   3.77629
 -80.35780  33.24076   4.07557
 -80.08845  31.71446   4.52448
 -79.66947  29.03595   5.09311
 -79.26545  25.44464   5.76647
 -78.84646  21.40443   6.24531
 -78.32273  16.91530   6.91868
 -77.69425  12.47106   7.72673
 -76.70664   7.80237   9.07347
 -75.19530   3.53770  10.09100
 -72.93578  -0.35288  11.22825
 -69.89813  -3.48030  12.32060
 -66.02252  -5.72487  13.17354
 -61.57828  -6.95190  13.90676
 -56.71506  -6.78730  14.29582
 -51.34307  -5.56027  14.78962
 -45.91123  -4.18360  15.89694
 -40.19507  -3.61498  17.01922
 -34.62855  -3.77958  17.85719
 -29.24160  -4.45295  18.27618
 -24.76743  -4.76719  18.21632
 -20.62247  -4.76719  17.66266
 -17.19577  -4.87193  16.60024
 -14.03842  -4.82704  14.99911
 -10.98581  -4.42302  13.00893
  -7.70875  -3.57009  10.68955
  -4.01270  -2.53759   8.59463
   0.08737  -1.57991   6.54459
   4.68125  -1.29560   4.55441
   9.55943  -1.57991   2.98322
  14.48251  -2.37299   1.95072
  19.30084  -3.07628   1.23246
  23.78997  -4.33324   1.24742
  27.41120  -5.26099   1.03793
  30.40395  -5.67998   0.78354
  32.63355  -5.56027   0.52916
  34.12993  -5.27596   0.60398
  35.17739  -5.05150   1.14267
  35.68616  -5.17121   2.20510
  35.71609  -5.63509   3.31242
  35.56645  -6.26356   4.21024
  34.81826  -6.54788   5.04821
  33.74087  -6.33838   4.89858
  32.64852  -6.00918   4.16535
  31.73573  -5.76976   3.01314
  31.07732  -5.27596   1.83101
  30.58352  -4.70733   0.90325
  30.31417  -3.88433  -0.00954
  29.58095  -3.40549  -1.07196
  28.42874  -2.50766  -2.05957
  26.76776  -1.83429  -3.34646
  25.03196  -2.14853  -4.43881
  23.53559  -3.60001  -5.12714
  22.11403  -5.50041  -4.84283
  20.97678  -7.35592  -4.27421
  19.92932  -9.16653  -3.66069
  19.73479 -10.73773  -3.04718
  20.16874 -11.87497  -2.25410
  21.03664 -12.39871  -1.46102
  22.90711 -12.57827  -1.08693
  25.00204 -12.51842  -0.69787
  27.11193 -12.12936  -0.02450
  28.78787 -11.84505   0.49923
  29.61087 -11.51584   0.55909
  29.41634 -11.74030   0.22988
  27.90500 -11.86001  -0.90736
  25.07685 -12.08447  -2.52345
  21.32095 -12.26403  -4.24428
  16.90664 -11.83008  -5.74066
  12.29780 -10.43845  -6.93776
   7.77875  -8.62784  -7.82062
   3.88817  -6.68255  -8.59874
   0.56621  -4.81208  -9.30203
  -1.49878  -3.42045 -10.16993
  -2.15719  -2.56752 -11.62142
  -1.67835  -1.78940 -13.28239
  -0.82542  -0.90654 -14.58424
   0.16219   0.14093 -15.27257
   1.38922   0.76940 -15.15286
   3.09509   0.88911 -15.28754
   4.92067   0.66466 -15.46710
   6.94078   0.42524 -15.39228
   9.14045   0.38035 -15.12293
  11.38501   0.73948 -14.85359
  13.56972   1.26321 -14.70395
  15.69458   1.92161 -14.86855
  17.63987   3.05886 -15.06308
  19.21106   4.06143 -14.92841
  20.55780   5.15379 -14.74884
  22.05417   5.64759 -14.64409
  23.78997   5.69248 -15.03315
  25.78015   5.15379 -15.60178
  27.54587   4.18114 -16.14047
  28.93750   2.89426 -16.52953
  29.97000   1.35299 -16.58938
  30.22439  -0.48755 -16.69413
  30.28424  -2.44781 -16.96348
  29.67073  -4.51280 -17.65181
  28.32399  -6.21867 -18.54964
  26.46848  -7.43074 -19.79163
  24.59801  -8.20885 -21.07851
  22.50309  -8.46324 -22.66467
  20.39320  -8.11907 -24.16105
  18.88186  -7.71505 -25.29829
  18.32820  -7.11650 -26.40561
  18.52273  -6.66759 -27.34833
  19.15120  -6.47306 -28.24615
  19.91436  -6.45809 -29.24872
  20.91693  -6.36831 -29.80238
  21.68008  -5.88947 -30.07173
  22.45820  -4.97668 -29.92209
  23.22135  -4.01900 -29.39836
  24.11917  -2.85183 -28.53046
  25.13671  -1.49012 -27.34833
  26.04950  -0.03864 -25.95670
  26.66301   1.99643 -24.49025
  26.40863   4.10632 -23.14351
  25.66044   6.45563 -22.23072
  24.19399   8.80494 -22.00626
  22.24870  10.73527 -22.21576
  20.22860  12.47106 -22.87416
  18.52273  13.93751 -23.59242
  16.72708  14.76052 -24.74463
  14.76682  15.29921 -26.22605
  13.09088  15.55360 -28.11148
  11.66932  15.94266 -30.35604
  10.27769  16.15215 -32.75024
   8.66161  16.33171 -35.27912
   7.00063  15.79302 -38.00252
   5.27980  14.70066 -41.24966
   3.58889  12.89005 -44.75118
   1.53886   9.86737 -48.02824
  -0.25679   6.15636 -51.33524
  -2.17215   2.25082 -54.35791
  -3.87802  -1.11603 -57.36563
  -4.97038  -3.88433 -59.65509
  -5.91309  -6.11393 -61.67519
  -6.90070  -7.50556 -63.63545
  -7.75364  -7.55045 -65.38621
  -8.51679  -6.56284 -67.15193
  -9.04052  -4.48288 -68.94758
  -9.51936  -1.62480 -70.39907
 -10.32740   1.38292 -71.97026
 -11.65918   4.57020 -73.61627
 -13.73914   7.17389 -75.24732
 -16.14831   9.14911 -76.13019
 -18.46769  10.45096 -76.48932
 -21.04146  11.12433 -76.75866
 -23.77982  11.27396 -76.57910
 -26.59301  10.95972 -76.16011
