********************************************************************************
              CENTRO DE INSTRUMENTACION Y REGISTRO SISMICO  A.C.

    Anaxagoras 814, Col. Narvarte, Benito Juarez, C.P. 03020 Mexico, D.F.
           Tels. 5687 45 42/ 5687 45  82             Fax. 5669 25 12
********************************************************************************
ARCHIVO ESTANDAR DE ACELERACION:
VERSION DEL FORMATO                    : 2.0
NOMBRE DEL ARCHIVO                     : CH8420170919181440
FECHA Y HORA DE CREACION               : 25/SEP/17, 11:11
REF. CATALOGO ACELEROGRAMAS, SMIS 1996 : REGISTRO No.     /PAG.


================================================================================
DATOS DE LA ESTACION:
NOMBRE DE LA ESTACION                  : CULHUACÁN
CLAVE DE LA ESTACION                   : CH84
LOCALIZACION DE LA ESTACION            : Del. Coyoacán, Col. Ampliación         
                                       : San  Francisco Culhuacán,  entre       
                                       : Calle Ejido Santa Úrsula               
                                       : y Ejido Culhuacán.                     
                                       : 
COORDENADAS DE LA ESTACION             : 19.3300 LAT. N
                                       : 99.1254 LONG. W
ALTITUD (msnm)                         : 2234
TIPO DE SUELO                          : Alto riesgo sísmico                 
                                       :                           
                                       : 
INSTITUCION RESPONSABLE                : CIRES
                                       : 

================================================================================
DATOS DEL ACELEROGRAFO:
MODELO DEL ACELEROGRAFO                : RADESD
NUMERO DE SERIE DEL ACELEROGRAFO       : 219
NUMERO DE CANALES                      : 3
ORIENTACION C1-C6 (rumbo;orientacion)  : /N00E/+V/N90W
ORIENTACION C7-C12 (rumbo;orientacion) : 
VEL. DE MUESTREO, C1-C6 (muestras/s)   : /100/100/100
VEL. DE MUESTREO, C7-C12 (muestras/s)  : 
ESC. COMPLETA DE SENSORES, C1-C6, (g)  : /0.5/0.5/0.5
ESC. COMPLETA DE SENSORES, C7-C12, (g) : 
FREC. NAT. DE SENSORES, C1-C6, (Hz)    : /32/30/33
FREC. NAT. DE SENSORES, C7-C12, (Hz)   : 
AMORTIGUAMIENTO DE SENSORES, C1-C6     : /0.793/0.714/0.776
AMORTIGUAMIENTO DE SENSORES, C7-C12    : 
INTERVALO DE MUESTREO, C1-C6, (s)      : /0.01/0.01/0.01
INTERVALO DE MUESTREO, C7-C12, (s)     : 
UMBRAL DE DISPARO, C1-C6, (Gal)        : /1.5/4.94/1.5
UMBRAL DE DISPARO, C7-C12, (Gal)       : 
MEMORIA DE PREEVENTO (s)               : 44.0
TIEMPO DE POSEVENTO (s)                : 214.0


================================================================================
DATOS DEL SISMO:
FECHA DEL SISMO (GMT)                  : 19/SEP/17
HORA EPICENTRO (GMT)                   : 18:14:40.0
MAGNITUD(ES)                           : /Mc=7.1
COORDENADAS DEL EPICENTRO              : 18.40 LAT. N
                                       : 98.72 LONG. W
PROFUNDIDAD FOCAL (km)                 : 57
FUENTE DE LOS DATOS EPICENTRALES       : SSN
                                       : INSTITUTO DE GEOFISICA, UNAM

================================================================================
DATOS DE ESTE REGISTRO:
HORA DE LA PRIMERA MUESTRA (GMT)       : 18:14:59.00
EXACTITUD DEL TIEMPO (s)               : 0.01
DURACION DEL REGISTRO (s), C1-C6       : /338.6/338.6/338.6
DURACION DEL REGISTRO (s), C7-C12      : 
NUM. TOTAL DE MUESTRAS, C1-C6          : /33860/33860/33860
NUM. TOTAL DE MUESTRAS, C7-C12         : 
ACEL. MAX. (Gal), C1-C6                : /148.95962/83.80995/225.59915
ACEL. MAX., C1-C6, EN LA MUESTRA       : /6744/6657/6895
ACEL. MAX. (Gal), C7-C12               : 
ACEL. MAX., C7-C12, EN LA MUESTRA      : 
UNIDADES DE LOS DATOS                  : Gal (cm/s/s)
FACTOR DE DECIMACION                   : 1
FORMATO DATOS (FORTRAN,10 campos/dato) : 3F10.5


================================================================================
CALIDAD DEL ACELEROGRAMA:
REGISTRO DIGITAL COMPLETO CON TIEMPO ABSOLUTO CORRECTO.


================================================================================
COMENTARIOS:














================================================================================
DATOS DE ACELERACION:
---------+---------+---------+---------+---------+---------+---------+---------+
   CANAL-1   CANAL-2   CANAL-3   CANAL-4   CANAL-5   CANAL-6   CANAL-7   CANAL-8
      N00E        +V      N90W
---------+---------+---------+---------+---------+---------+---------+---------+
[...]
 -76.61906 -35.98992 -50.73661
 -59.38081 -38.83303 -61.12146
 -40.94546 -35.37640 -75.66624
 -24.21598 -28.62775 -92.87456
 -11.16758 -21.19076-111.13035
  -4.02986 -12.07783-129.79016
  -3.98497  -1.18421-147.76164
  -9.64127   8.03347-163.65315
 -18.70931  13.70473-177.15046
 -27.65764  16.03908-188.19372
 -34.10702  15.09636-197.48621
 -37.51876  10.65212-205.65642
 -38.80564   6.20789-211.67186
 -38.17716   2.34724-215.23323
 -35.18441  -0.39113-216.98399
 -31.02449   0.04282-216.07120
 -25.75724   1.41948-213.27298
 -20.50496   3.39470-207.84113
 -15.95598   2.82608-197.44132
 -13.90594  -0.30135-182.44763
 -15.86620  -4.99997-164.08710
 -21.35790 -10.11758-142.52432
 -28.52554 -16.47717-119.42027
 -35.49865 -22.67217 -96.36112
 -41.61883 -26.69742 -74.42425
 -46.78133 -26.14376 -54.28302
 -50.73176 -21.43018 -35.57832
 -53.08107 -14.89102 -19.23790
 -53.82926  -7.99272  -6.48877
 -50.94125  -3.38388   1.35224
 -44.22252  -1.87254   5.70669
 -35.33405  -2.57584   9.11843
 -25.84703  -5.70327  11.73709
 -17.45236  -9.53399  13.06886
 -11.28729  -9.20479  14.61013
  -8.04015  -5.76312  17.09411
  -6.51385  -0.55573  20.52081
  -6.16968   6.16300  26.62603
  -5.57113   9.93386  36.36744
  -1.02215  10.81672  49.98446
   8.06086  11.62477  65.68144
  19.77748  11.54995  80.40578
  34.38211   8.73676  92.04759
  50.81232   5.98343  99.02070
  66.49434   2.42206 102.01345
  78.73470  -0.88494 101.23534
  85.06437  -3.20432  97.10534
  85.01947  -4.82040  90.53625
  81.11393  -7.10986  82.30618
  76.74452 -11.52417  72.90894
  73.31781 -17.64435  63.27228
  70.47470 -25.54521  55.55098
  67.70640 -33.99974  50.67279
  64.59394 -39.31187  50.02935
  60.41905 -39.25202  55.32652
  55.88503 -37.17205  66.78876
  52.66782 -35.39137  81.60288
  51.78496 -32.20409  96.01298
  52.53315 -28.26862 109.10627
  51.79993 -24.54264 121.18203
  48.26848 -19.90388 132.43478
  43.53993 -15.89359 141.48785
  39.39497 -13.20011 146.26129
  35.45950 -11.86834 148.02702
  33.06530 -12.45192 148.08687
  31.80834 -13.54428 147.45839
  30.38679 -13.66399 146.23136
  28.98019 -13.05047 145.57296
  27.00498 -11.09022 145.82734
  24.13193  -7.10986 147.74270
  21.78262  -1.63312 151.60335
  18.84973   4.57684 156.39176
  15.10879  11.93901 162.13784
  11.95143  21.06690 168.22809
   9.70687  31.55650 173.89936
   8.46488  43.24319 178.65783
   8.09078  54.73536 180.28888
   8.88386  65.03043 176.71254
  11.71201  72.90137 168.12335
  17.12889  75.72952 156.63118
  24.82027  72.28785 144.89959
  33.93320  64.82094 133.51217
  43.39029  54.25652 122.33424
  50.63275  41.86653 111.06653
  54.26895  28.04001 102.14813
  54.73282  13.34560  98.22762
  52.98206  -0.95975  99.57436
  50.60283 -14.33736 107.20588
  48.46301 -27.47554 118.89257
  46.24837 -40.44912 132.09061
  43.64468 -52.24056 144.60031
  40.18805 -62.64037 155.47897
  33.58903 -69.44889 163.46962
  23.50346 -70.28686 168.00364
  13.31314 -65.33385 169.63469
   5.45716 -54.76944 167.50983
   0.07021 -40.86810 160.26737
  -4.20943 -25.33572 147.14415
  -8.99783 -10.94058 129.68145
 -14.93844   0.65633 108.37305
 -21.62725  11.20578  84.47593
 -28.64525  20.87237  61.67115
 -36.24684  30.44918  42.66718
 -44.47691  42.31544  27.88298
 -52.04857  54.03206  18.33610
 -57.98918  64.23735  13.47288
 -63.04693  73.38021  10.61480
 -67.76052  80.57778   7.62205
 -72.26461  83.80995   2.60919
 -77.03805  82.73256  -4.27414
 -82.24544  79.21607 -12.51917
 -87.52765  74.86162 -22.27554
 -89.71235  69.31006 -33.54325
 -85.98638  62.68112 -46.96575
 -77.11287  53.88243 -62.36346
 -65.65063  41.10338 -78.19511
 -54.44277  26.03487 -92.39572
 -45.49444   9.42510-104.15724
 -38.22206  -8.38178-113.74901
 -29.48322 -25.32076-122.11375
 -16.27022 -41.87068-129.16168
   0.78847 -56.23589-136.03005
  18.40081 -65.99226-142.70388
  33.73867 -70.58613-148.09084
  42.82167 -68.59595-152.28069
  45.44033 -61.20385-154.67489
  44.01877 -51.41755-155.19862
  39.87381 -40.92796-155.21359
  33.52918 -30.70771-156.00667
  26.82541 -21.75938-158.01181
  21.06436 -14.50196-161.36369
  16.47049  -7.90294-165.04478
  12.01129  -0.78019-168.21710
   7.52216   7.49477-169.72844
   3.49691  15.94929-167.51380
  -1.27653  23.95491-160.69032
  -7.56131  31.55650-149.45254
 -15.35743  38.66428-134.78806
 -25.86199  44.61986-118.62719
 -38.55126  49.43819-104.30688
 -52.60223  51.80246 -94.59540
 -65.77034  52.92475 -91.09388
 -76.17015  51.44333 -93.09902
 -83.02355  47.23852 -99.89257
 -86.28565  42.28551-109.88836
 -86.40536  35.77628-121.57505
 -84.44511  27.21701-135.23697
 -80.52461  18.14897-149.61714
 -74.98801   9.38020-164.34148
 -67.29664   0.35706-179.69430
 -56.74719 -10.07268-194.73288
 -45.32984 -22.70210-207.09295
 -34.66068 -35.52604-215.30805
 -25.69739 -46.97332-219.48294
 -19.41261 -55.84683-219.28841
 -14.96837 -62.99951-214.47008
 -12.27490 -68.25179-205.13269
 -11.63145 -71.09490-191.51567
 -11.48182 -72.78580-176.38731
 -11.64642 -73.36939-160.76514
 -11.91576 -73.84823-145.29262
 -11.15261 -74.17743-130.97230
  -8.05511 -72.59128-119.04618
  -3.22182 -68.64084-110.93582
   2.52426 -62.95461-106.76093
   7.86633 -55.03878-105.81822
  11.33792 -44.14517-106.50655
  13.76205 -32.27891-106.73100
  14.80951 -22.77692-106.55144
  13.41788 -14.95087-106.95546
  10.61966  -9.18982-106.88064
   7.43238  -3.38388-106.35691
   4.17028   2.31731-104.80068
   0.99796   6.52213-100.13199
  -2.75794  10.38278 -91.79717
  -7.44160  14.75219 -78.89841
 -11.64642  17.95444 -62.58791
 -15.46218  18.58292 -44.69125
 -19.75678  18.16393 -27.91688
 -24.50029  16.90698 -13.83598
 -27.68757  14.60256  -3.88508
 -26.98427  10.14336   1.05296
 -19.93634   3.17024   1.99568
  -6.91787  -4.32660   0.96318
   9.30285 -10.08765   0.24492
  28.32179 -14.65160   2.48948
  47.65497 -18.24290   8.32535
  65.68630 -20.32286  16.46563
  82.78987 -20.90645  27.61364
  97.87335 -20.92141  40.84160
 110.00895 -20.75681  55.70061
 121.08214 -18.96116  72.38521
 132.00568 -15.02569  90.34172
 141.92666 -11.32964 109.80957
 148.34611  -7.48395 128.63398
 148.95962  -1.97729 145.07915
 143.87194   5.04071 157.66368
 134.42981  12.14850 166.34266
 122.45880  18.07415 173.22599
 109.72464  22.84759 180.58816
  97.51421  26.58853 188.05507
  84.85487  29.91048 194.10043
  70.39988  33.59157 198.36511
  55.16677  36.71899 201.35786
  37.43472  43.07859 202.61481
  18.93951  48.91446 203.25826
   3.27245  51.50319 203.45278
  -8.74345  51.96707 203.87177
 -17.46732  49.46812 205.54771
 -22.94406  44.00635 207.32840
 -23.85685  36.53943 209.40836
 -21.10351  27.68088 211.08430
 -15.98591  19.21139 210.65035
  -9.22229  11.54995 208.76492
  -2.24918   5.10057 206.25101
   4.69401  -0.75026 202.67467
  11.54741  -7.00511 197.61692
  17.15882 -12.78113 193.36721
  22.50088 -17.56953 190.13504
  28.08237 -23.31561 186.81308
  33.22990 -30.13909 182.89258
  38.97598 -37.44140 177.71512
  45.42536 -43.50173 171.77450
  49.79478 -44.57912 164.96599
  52.54811 -41.58636 157.79835
  53.87989 -35.31655 151.01977
  53.05688 -26.51786 145.40836
  49.49551 -15.53446 141.26340
  44.03374  -3.35396 138.74948
  36.62667   8.00354 139.12358
  28.98019  16.93690 141.69735
  23.05454  25.06222 144.63024
  18.38585  33.18755 146.26129
  15.04893  38.12559 145.75252
  14.62995  38.97852 143.65760
  15.52777  38.99349 140.15608
  16.73984  38.81392 133.76655
  19.91215  36.76389 124.26456
  24.65567  33.38208 112.21874
  30.40175  28.54878  98.24258
  34.23247  23.74541  83.44343
  33.63392  19.15154  68.68916
  27.58856  15.51535  54.89257
  15.78216  12.70216  42.71207
  -0.01958  10.38278  33.32979
 -16.83884   7.70426  28.04758
 -33.29898   2.60162  26.64099
 -47.96346  -4.76055  28.09248
 -61.04179 -13.63406  31.95313
 -72.65367 -23.54007  36.59189
 -82.61953 -34.89756  40.70693
 -89.59264 -44.92328  43.32558
 -93.46826 -49.47227  42.17337
 -95.08434 -49.75658  36.68167
 -93.39344 -46.55433  27.77824
 -88.53022 -41.81082  17.42332
 -82.69435 -36.24430   5.06325
 -76.37964 -29.83981  -9.49649
 -70.57371 -27.07152 -25.52268
 -65.39624 -27.26605 -41.99778
 -60.95201 -26.93684 -58.71230
 -56.85194 -24.61746 -76.18997
 -51.27045 -20.78674 -94.68518
 -45.13531 -15.13044-113.68915
 -39.10492  -7.00511-132.25918
 -33.92746   1.52423-149.06348
 -31.90735   7.52470-164.10206
 -34.57090  12.13354-176.67162
 -40.51151  15.15622-186.09879
 -48.26274  17.93947-194.26900
 -56.40302  21.20157-201.27204
 -62.59802  23.59578-206.01555
 -66.81780  24.80784-208.05063
 -70.00508  24.04469-206.89842
 -71.56131  20.64792-204.18998
 -70.64852  16.12886-201.07751
 -66.98240  13.18100-198.50375
 -61.44581  10.78680-196.15444
 -54.03875   6.20789-194.59821
 -45.07546   2.24249-193.86498
 -36.47130  -2.03715-193.05694
 -29.70768  -6.24196-192.54817
 -24.62000  -9.98290-193.08687
 -22.13601 -13.40960-193.58067
 -22.00134 -15.59431-192.92226
 -23.73714 -16.35746-190.57295
 -27.31347 -16.53703-187.32582
 -31.84749 -16.19286-183.91408
 -35.84282 -15.56438-179.42495
 -37.72825 -13.46946-174.03800
 -38.52133  -9.65370-168.00760
 -38.97024  -4.65580-161.99217
 -39.01513   0.41691-155.79717
 -39.06003   4.71151-149.27298
 -38.29687   7.50973-141.89584
 -37.14466   8.75173-133.20190
 -35.79793   9.91890-123.96926
 -34.57090  11.11600-114.54209
 -34.51104  11.96893-105.92296
 -35.01981  12.35799 -98.91992
 -34.69061  13.89926 -92.60521
 -32.26648  15.33578 -87.86170
 -28.00181  15.99419 -85.57225
 -21.77688  17.81976 -84.94377
 -12.72381  19.37600 -84.56968
  -1.02215  18.94205 -84.55471
  12.19085  17.55042 -84.82406
  25.62831  15.85951 -84.67442
  36.88106  12.23828 -84.40507
  44.48265   7.33017 -85.42261
  48.52286   1.50927 -88.28069
  50.67764  -4.86530 -92.65011
  51.78496 -10.25225 -97.79764
  52.29373 -14.29247-101.34405
  53.01199 -18.90130-101.58347
  53.43098 -22.83677 -99.05460
  53.14667 -25.15616 -93.33844
  51.30612 -27.14634 -84.50982
  47.46044 -29.25623 -73.76584
  44.18337 -31.91977 -61.46563
  42.89649 -34.07456 -48.16285
  45.57500 -34.71800 -34.57575
  52.69775 -33.95485 -19.62696
  61.28695 -31.59057  -2.05950
  69.92104 -28.29854  18.68027
  77.04379 -25.12623  41.06606
  80.63509 -20.69695  62.91315
  81.21868 -14.24757  82.88977
  81.32343  -9.38435  99.72400
  81.51795  -7.51388 112.83225
  80.99422  -5.89780 122.57366
  78.83944  -3.65323 130.08547
  75.48756  -1.97729 135.38264
  70.98347  -0.76523 138.86919
  64.89322   0.82093 141.90684
  57.92010   2.63155 145.64778
  48.79221   7.92872 149.43361
  38.72160  14.27335 153.77310
  28.81559  21.11179 159.48926
  18.59534  27.56117 166.89632
  11.15835  30.28458 175.73990
   5.65169  32.63389 186.12475
   1.98557  33.93573 197.28771
   0.90818  33.15762 207.85213
   2.85347  31.82584 216.26176
   7.05828  30.95795 222.51661
  12.60984  31.21233 225.59915
  18.59534  30.14990 225.56922
  24.08704  29.70099 223.93817
  29.92291  30.53896 220.97535
  37.19530  29.82070 215.60336
  44.73703  27.36664 208.13644
  50.78239  24.76295 200.19068
  55.24159  20.63295 192.96319
  57.96500  14.31824 187.84558
  57.99492   7.28528 184.83787
  55.01714  -0.67544 183.62580
  50.22873  -8.47156 184.17946
  45.69471 -15.28007 185.25685
  42.41765 -20.62214 185.82547
  40.87638 -22.61232 185.57109
  41.05595 -20.81666 183.02725
  42.32787 -17.62938 177.35599
  42.73189 -14.18772 169.69454
  40.95120  -9.96794 160.79110
  39.21540  -5.73319 150.88509
  37.83874  -2.90504 140.79952
  36.02812  -1.94736 130.63913
  33.60399  -1.97729 121.04736
  30.62621  -2.08204 113.26620
  27.73820  -3.51856 106.80186
  24.82027  -4.99997 101.53461
  21.75270  -4.91019  97.22505
  18.65520  -4.47624  92.96038
  14.77958  -3.15943  88.06723
   9.66198  -0.48091  82.85984
   3.43705   1.89832  77.81705
  -3.44628   3.12535  73.67209
 -10.19493   4.32245  70.11072
 -16.43482   5.36992  66.57927
 -21.97141   6.43234  62.86826
 -26.49047   8.96122  57.93021
 -30.60550  12.11857  51.78011
 -34.63075  15.90440  44.98656
 -39.55383  20.27382  38.26783
 -46.43716  24.61331  32.73124
 -53.58984  27.84548  28.88556
 -61.13157  29.73092  27.08990
 -68.97258  31.73606  25.89280
 -75.91577  34.14523  23.79788
 -79.13298  32.19994  19.44342
 -77.18769  27.69585  11.15350
 -72.53396  25.49617   0.06535
 -68.68827  23.44614 -12.16004
 -64.01958  17.78984 -26.01648
 -57.91436  13.31567 -43.47919
 -53.44020  13.07625 -63.39595
 -51.24053  10.08350 -84.01602
 -49.08575   5.75897-103.94775
 -47.51455   2.55673-120.97650
 -49.63940  -1.30392-135.25193
 -54.50263  -7.42410-146.59446
 -60.56295 -12.58660-154.04642
 -67.44628 -13.91837-158.70014
 -73.43178 -16.77645-163.14438
 -79.73153 -18.96116-167.43898
 -86.46522 -18.54217-171.03028
 -92.07663 -17.22536-174.39713
 -96.11684 -17.85384-177.24024
 -97.64315 -20.78674-179.75416
 -97.94242 -21.37032-183.45020
 -95.66793 -20.42761-188.94190
 -90.86456 -19.99366-196.04969
 -86.01631 -19.76920-203.27719
 -80.67424 -18.78159-209.29262
 -75.52671 -16.22279-214.76935
 -71.44160 -14.02312-218.88439
 -68.38900 -12.25739-221.14392
 -65.24661 -10.74605-222.71511
 -61.76005 -10.76102-223.80747
 -59.17132 -12.36214-223.61294
 -57.24099 -14.29247-221.72750
 -55.75958 -17.04580-219.13877
 -54.00882 -20.53235-216.08617
 -51.74929 -23.07619-212.59961
 -48.78647 -24.37804-209.12802
 -46.27256 -24.01891-205.80606
 -44.76122 -23.36050-202.11001
 -43.74368 -22.07362-198.63842
 -42.50169 -20.42761-195.78034
 -41.46919 -19.69438-192.59306
 -40.81079 -19.63453-188.77730
 -41.02028 -19.03598-185.41046
 -42.00789 -18.45239-181.78923
 -43.05535 -18.00348-178.40742
 -43.07031 -16.52207-175.77380
 -43.39952 -11.15008-172.79601
 -44.50683  -6.01751-168.09739
 -43.72872  -4.70069-162.20166
 -41.64876  -2.27657-155.61761
 -38.86550   0.98553-148.12077
 -33.35883   3.09542-139.72610
 -25.69739   4.36734-131.61574
 -17.09323   5.78890-125.04665
  -7.90548   8.49734-119.89911
   1.11767  11.25067-115.88883
   9.72183  12.91165-112.55191
  16.66502  15.08140-108.79600
  21.28882  15.67995-103.90285
  23.81769  15.59016 -98.18670
  24.41625  17.08654 -91.84206
  24.44617  15.96426 -84.71931
  24.74545  11.37038 -77.29729
  24.40128   8.85647 -69.21686
  24.52099   8.06339 -58.90683
  25.71809   5.14546 -44.64636
  26.24182   2.66148 -26.83949
  27.00498   1.19503  -6.68330
  30.28204  -2.14189  14.34078
  34.96570  -5.59852  35.24515
  40.63696  -7.42410  54.15935
  48.17870 -10.20736  71.12825
  56.91753 -13.33478  85.58324
  65.22242 -14.99576  97.44951
  72.19553 -16.46221 105.97885
  77.91169 -17.85384 110.99171
  82.01176 -17.98851 113.14649
  84.76509 -17.24033 114.40345
  87.21915 -15.48957 115.78011
  89.22429 -13.18515 117.09692
  89.71810  -9.86319 118.68308
  90.03233  -6.42153 121.12217
  89.52357  -2.62073 124.44413
  88.47610   2.24249 129.74130
  88.17683   7.55463 137.94144
  89.14947  12.16346 148.04198
  91.19951  15.38067 159.35458
  93.02509  17.20625 170.45769
  94.05759  18.49313 180.06443
  94.13240  20.79755 188.29449
  93.66853  23.47607 195.38732
  92.81559  25.31661 201.46260
  90.13708  28.27943 205.81706
  85.75270  31.87074 208.21126
  82.07161  33.53171 209.27369
  80.11136  32.91820 209.42332
  78.16607  32.05030 209.03427
  74.73937  32.43936 207.95688
  71.38749  31.19737 206.20612
  69.62177  27.09730 204.81449
  69.99586  24.25418 204.21594
  72.16560  22.60817 205.18858
  76.78941  19.78002 207.80724
  82.89462  16.74237 210.68028
  88.41625  16.11390 212.44600
  93.01012  15.63506 213.85260
