********************************************************************************
            CENTRO NACIONAL DE PREVENCION DE DESASTRES (CENAPRED)               
                   Coordinacion de Instrumentacion Sismica                      
  Av. Delfin Madrigal No. 665, Col. Santo Domingo, C.P. 04360, Mexico, D.F.     
  Tels.: 606-8837, 606-9156, 606-9942, 606-7956, 606-9837.       FAX: 606-1608  
********************************************************************************
ARCHIVO ESTANDAR DE ACELERACION:                                                
VERSION DEL FORMATO                    : 2.0                                    
NOMBRE DEL ARCHIVO                     : CHAS1709.191
FECHA Y HORA DE CREACION               : 08 de Noviembre de 2017/13:23:44
REF. CATALOGO ACELEROGRAMAS, SMIS 1995 : NUM. REG. /PAG. 
                                                                                
                                                                                
================================================================================
DATOS DE LA ESTACION:                                                           
NOMBRE DE LA ESTACION                  : EST. No.14, CHAPULTEPEC, superficie
CLAVE DE LA ESTACION                   : CHAS
LOCALIZACION DE LA ESTACION            : Av. Panteon de Dolores y el cementerio
                                       : Col. Lomas de Chapultepec, 
                                       : Del. Miguel Hidalgo, Mexico, D.F.
                                       :
                                       :
COORDENADAS DE LA ESTACION             : 19.4157 LAT. N
                                       : 99.2048 LONG. W
ALTITUD (msnm)                         : 2245    
TIPO DE SUELO                          : Arena con grava
                                       :
                                       :
INSTITUCION RESPONSABLE                : CENAPRED
                                       : 
                                                                                
================================================================================
DATOS DEL ACELEROGRAFO:
MODELO DEL ACELEROGRAFO                : ALTUS-K2 EPISENSOR
NUMERO DE SERIE DEL ACELEROGRAFO       : 451
NUMERO DE CANALES                      : 3
ORIENTACION C1-C6 (rumbo;orientacion)  : /N00E/+V/N90E
ORIENTACION C7-C12 (rumbo;orientacion) :
VEL. DE MUESTREO, C1-C6 (muestras/s)   : /100/100/100
VEL. DE MUESTREO, C7-C12 (muestras/s)  :
ESC. COMPLETA DE SENSORES, C1-C6, (g)  : /2/2/2
ESC. COMPLETA DE SENSORES, C7-C12, (g) :
FREC. NAT. DE SENSORES, C1-C6, (Hz)    : /52.4/51.2/50.7
FREC. NAT. DE SENSORES, C7-C12, (Hz)   :
AMORTIGUAMIENTO DE SENSORES, C1-C6     : /0.65/0.66/0.66
AMORTIGUAMIENTO DE SENSORES, C7-C12    :
INTERVALO DE MUESTREO, C1-C6, (s)      : /0.01/0.01/0.01          
INTERVALO DE MUESTREO, C7-C12, (s)     :
UMBRAL DE DISPARO, C1-C6, (Gal)        : /8/8/8
UMBRAL DE DISPARO, C7-C12, (Gal)       :
MEMORIA DE PREEVENTO (s)               : 60
TIEMPO DE POSEVENTO (s)                : 60
                                                                                
                                                                                
================================================================================
DATOS DEL SISMO:
FECHA DEL SISMO (GMT)                  : 19 de septiembre, 2017
HORA EPICENTRO (GMT)                   : 18:14:40.0
MAGNITUD(ES)                           : /Mc=7.1
COORDENADAS DEL EPICENTRO              : 18.4 LAT. N
                                       : 98.72 LONG. W
PROFUNDIDAD FOCAL (km)                 : 57
FUENTE DE LOS DATOS EPICENTRALES       : SSN                               
                                       : Instituto de Geofisica, UNAM
                                       :                                                                                
================================================================================
DATOS DE ESTE REGISTRO:
HORA DE LA PRIMER MUESTRA (GMT)        : 18:13:59.00
EXACTITUD DEL TIEMPO (s)               : 0.01
DURACION DEL REGISTRO (s), C1-C6       : /373.00/373.00/373.00
DURACION DEL REGISTRO (s), C7-C12      :
NUM. TOTAL DE MUESTRAS, C1-C6          : /37300/37300/37300
NUM. TOTAL DE MUESTRAS, C7-C12         :
ACEL. MAX. (Gal), C1-C6                : /70.86/34.96/-73.98
ACEL. MAX., C1-C6, EN LA MUESTRA       : /8276/8923/8330
ACEL. MAX. (Gal), C7-C12               : 
ACEL. MAX., C7-C12, EN LA MUESTRA      : 
UNIDADES DE LOS DATOS                  : Gal (cm/s/s)
FACTOR DE DECIMACION                   : 1
FORMATO DATOS (FORTRAN,10 campos/dato) : 3F10.5
                                                                                
                                                                                
================================================================================
CALIDAD DEL ACELEROGRAMA: 
Registro digital completo. Tiempo absoluto correcto.
                                                                                
                                                                                
================================================================================
COMENTARIOS:
                                                                                
                                                                                
                                                                                
                                                                                
                                                                                
                                                                                
                                                                                
                                                                                
                                                                                
                                                                                
                                                                                
                                                                                
                                                                                
                                                                                
================================================================================
DATOS DE ACELERACION:
---------+---------+---------+---------+---------+---------+---------+---------+
   CANAL-1   CANAL-2   CANAL-3   CANAL-4   CANAL-5   CANAL-6   CANAL-7   CANAL-8
      N00E        +V      N90E
---------+---------+---------+---------+---------+---------+---------+---------+
[...]
  10.46429   3.78471  12.08933
  11.72264   4.05461  13.25782
  12.26572   5.02148  14.57793
  11.17156   6.80094  15.91013
   8.80413   8.19254  16.96404
   6.28798   7.71641  17.29154
   4.05483   5.07061  16.58467
   2.28150   1.58053  14.35105
   0.98809  -1.49037  10.48112
   0.04599  -3.87931   6.05924
   0.03383  -5.90479   2.18139
   1.37261  -7.99061  -0.99714
   2.81056 -10.23500  -3.17792
   2.40967 -12.52056  -3.76779
  -0.19258 -14.34583  -3.63728
  -3.66161 -14.60544  -4.77071
  -6.86121 -12.76942  -7.63210
  -9.50368  -9.50854 -10.86724
 -11.55723  -5.72891 -13.38155
 -13.18041  -1.85524 -14.74839
 -14.53462   1.79148 -14.39148
 -15.63624   4.37033 -11.75040
 -16.08811   5.44810  -6.79244
 -15.18156   5.97627  -0.91716
 -12.98675   7.22284   3.67588
 -10.10852   9.69135   6.43022
  -6.93792  12.61026   8.01363
  -3.95116  14.16236   8.54455
  -1.81202  13.20804   8.02854
  -1.42798  10.38316   6.96529
  -3.04321   7.49980   6.07141
  -5.29930   5.90422   5.58679
  -6.95196   5.20952   5.31078
  -8.09240   4.24688   5.55124
  -8.67805   2.69478   6.57800
  -8.22899   0.63567   7.64736
  -7.17696  -1.94692   7.19783
  -6.25637  -4.10572   3.93597
  -5.19451  -5.12080  -1.45229
  -3.07502  -5.85053  -6.74052
   0.60358  -6.68457 -10.30545
   5.16297  -7.30952 -11.48564
   9.58956  -7.67579  -9.98502
  13.41177  -7.22111  -6.36255
  16.06730  -5.79954  -2.23816
  16.84009  -4.10899   0.86133
  15.73658  -2.02692   2.03639
  13.65451   0.86208   1.23883
  11.46389   4.06913  -0.47744
   9.76072   6.83319  -1.90931
   8.88182   8.57050  -2.43322
   8.36260   8.71789  -1.83493
   7.40130   7.16767  -0.08638
   5.74349   4.73385   2.69920
   3.89670   2.25977   6.27114
   2.84704  -0.08423  10.01895
   2.71840  -1.99791  12.82516
   2.16315  -2.64110  13.54788
   0.62510  -1.52640  11.72825
  -1.00932   0.64128   8.08050
  -2.39534   2.53060   3.87703
  -3.55496   3.36697   0.09652
  -4.16260   3.32255  -2.43135
  -3.73692   3.15319  -3.35474
  -1.62631   3.25984  -2.96555
   2.12480   3.26549  -1.77178
   6.62945   2.88094  -0.89283
  11.29736   2.17179  -1.18893
  15.10466   1.10439  -1.97480
  16.45373  -0.08657  -2.32751
  15.71319  -0.75363  -2.06648
  14.84458  -0.48045  -1.49767
  15.04054   0.46166  -1.13186
  16.46401   1.14602  -0.88534
  18.18445   0.54820  -0.41757
  19.04098  -1.50815  -0.20473
  19.03353  -4.06502  -0.89330
  18.58627  -6.13962  -2.16144
  17.54876  -7.19258  -3.25277
  15.85775  -6.78000  -4.20329
  14.20324  -5.49735  -5.55610
  12.86822  -4.56881  -7.09415
  11.27028  -4.15670  -7.83558
   8.98707  -4.10665  -7.00761
   5.77527  -4.38732  -5.13463
   1.94845  -4.59408  -3.91374
  -1.83073  -4.60484  -3.99653
  -5.45226  -4.18010  -4.65048
  -8.31880  -3.06491  -5.46675
  -9.47936  -2.20607  -5.64544
  -8.85674  -2.41377  -3.23873
  -6.98517  -3.04059   2.62763
  -4.80579  -3.09859  10.42925
  -3.09092  -2.25566  17.49033
  -1.87049  -0.96272  21.82941
  -1.06966   0.17819  23.26410
  -0.77496   1.45425  22.30139
  -0.84278   3.38525  19.53638
  -1.12486   5.29844  16.58749
  -1.54726   6.08104  14.95731
  -1.32226   5.10059  15.38392
   0.34303   2.11898  18.23502
   3.39481  -2.00961  22.08478
   7.41488  -5.56986  24.30631
  11.24690  -7.27163  23.68460
  13.98247  -6.42963  20.66555
  15.70056  -3.19963  15.96954
  16.43639   1.20445   9.87259
  16.72315   5.43593   3.19551
  17.39439   8.31325  -2.08613
  18.75704   9.10236  -4.60979
  21.12117   8.34786  -4.75807
  24.18558   6.79576  -3.32340
  26.87721   4.20341  -0.44516
  28.76795   0.49721   3.41721
  29.73482  -3.68705   7.16456
  29.31103  -7.88068  10.20746
  27.16303 -11.60652  12.13705
  23.14807 -14.34770  12.41495
  17.46926 -16.15145  11.34746
  10.92646 -16.99204  10.07185
   4.68534 -16.39657   9.37392
  -0.46342 -14.12036   8.69091
  -4.36140 -10.49789   7.25018
  -6.90471  -6.61206   5.11434
  -8.19812  -3.55233   2.57151
  -9.11964  -1.67374   0.48851
 -10.52671  -1.44172  -0.30670
 -12.88056  -3.11777  -0.07515
 -16.57414  -5.53758   0.64102
 -21.12982  -7.04897   1.44512
 -25.51149  -7.28707   1.78098
 -28.98099  -7.05038   0.61014
 -30.83058  -7.06675  -2.85375
 -30.60558  -7.42647  -8.19857
 -28.22880  -7.41337 -14.50187
 -23.93508  -6.25468 -20.48428
 -18.55424  -3.71138 -24.79671
 -13.17760   0.44295 -27.29324
  -8.62940   5.89065 -28.38269
  -5.08038  11.35191 -27.90042
  -2.11935  15.13669 -25.21865
   0.53342  15.79302 -20.04971
   2.90552  13.33110 -13.41008
   4.92345   8.79880  -7.01042
   6.66217   2.95534  -2.47345
   8.49492  -3.12759  -0.85962
  10.35293  -7.97517  -1.54023
  11.68615 -10.55356  -2.47392
  12.24045 -10.44924  -1.69834
  11.88494  -7.99388   1.67901
   9.70272  -4.08139   7.08223
   4.75503  -0.00238  12.55762
  -2.13759   2.70930  16.13003
  -9.43632   3.19062  17.03797
 -16.31639   1.54780  15.10979
 -22.35212  -1.62275  10.46613
 -27.42189  -5.42906   3.96595
 -31.47097  -8.89342  -2.71950
 -34.44370 -11.25990  -8.08397
 -36.40275 -11.46759 -12.10451
 -37.15633  -7.77730 -15.32423
 -35.86340   0.02382 -17.56675
 -32.29800   8.93677 -18.33718
 -27.87330  15.49040 -18.02657
 -23.32322  18.49493 -17.68136
 -18.59260  18.26945 -16.94133
 -14.83868  15.84544 -14.87750
 -12.71778  12.40307 -11.20404
 -11.59932   8.27259  -5.44150
 -10.84760   3.56764   1.60417
  -9.76657  -1.83840   8.34482
  -8.41657  -7.77917  13.81173
  -7.30466 -12.20247  16.08695
  -5.84613 -13.44629  13.87483
  -3.18307 -12.29603   8.02807
   0.73737 -10.29160   0.24293
   5.24059  -7.90547  -7.14748
   9.67141  -4.67173 -12.42915
  13.22373  -0.92436 -15.57075
  14.17797   2.07966 -17.15042
  11.43352   3.89788 -17.74216
   6.07703   5.61605 -18.20059
   0.38045   8.77589 -19.38453
  -3.84124  13.47519 -21.49093
  -6.15019  18.28437 -24.53102
  -6.96178  21.76605 -28.12402
  -6.60814  23.09221 -30.99477
  -5.72404  22.22822 -32.16561
  -4.58220  19.67464 -30.91711
  -2.84394  15.78180 -25.82208
  -0.71742  11.25789 -16.13021
   1.49002   7.14994  -3.66347
   3.03229   3.47692   8.69892
   3.37329  -0.36303  19.96810
   3.46965  -3.76377  29.74702
   3.79192  -4.93509  35.38840
   4.36915  -2.69256  35.41602
   5.80706   1.87153  32.54899
   7.87422   5.99542  28.94660
   9.82343   7.92830  24.72124
  11.21135   7.74254  21.45239
  11.01342   6.55679  20.65621
   8.64835   5.24884  21.59083
   5.11337   3.48578  23.37264
   1.05311   1.05246  25.10477
  -3.34071  -1.50066  24.77170
  -8.03627  -3.24080  21.09593
 -14.06170  -3.34417  14.05683
 -21.41376  -1.72146   3.68852
 -29.11524   1.35231  -9.04432
 -36.88456   4.92377 -21.55782
 -43.55833   7.36599 -31.52008
 -47.81604   7.44227 -37.91881
 -49.77182   5.29051 -40.95748
 -50.31771   2.54512 -42.88660
 -49.20394   0.03037 -45.27507
 -43.00308  -3.34698 -45.68297
 -30.84508  -8.44903 -42.86134
 -17.07887 -14.80612 -39.29126
  -4.54431 -21.24274 -35.71136
   5.17749 -26.36770 -32.33915
  11.42560 -28.75898 -29.41461
  15.62153 -27.61059 -25.78045
  19.45214 -24.03770 -22.33247
  24.95414 -20.07984 -19.11977
  33.00830 -16.66553 -15.67553
  43.62406 -13.58522 -13.02931
  54.72866 -10.59846 -10.37561
  63.48915  -7.90500  -7.44966
  69.17361  -5.21715  -4.50126
  70.86274  -2.38898  -1.14637
  67.67017   0.68292   2.14811
  58.11068   4.73103   4.64378
  42.67963   9.40694   5.49882
  25.86819  13.19870   5.60359
  12.60484  14.91734   6.65240
   4.32614  14.76061   8.76202
  -2.65542  13.36948  11.65620
  -9.59115  11.17369  15.32640
 -14.10240   8.48543  19.69357
 -16.72195   4.62626  23.60604
 -19.53984  -0.77888  25.98233
 -23.26569  -7.16405  26.93288
 -26.75203 -13.14130  26.27145
 -29.22891 -17.14080  24.15799
 -31.07476 -19.09377  21.16939
 -31.83443 -19.41185  17.49080
 -30.73890 -19.04465  13.35796
 -27.09585 -19.75661   9.25134
 -21.51433 -22.12590   5.88054
 -15.73962 -25.13324   3.34611
 -10.92946 -27.14983   1.61258
  -7.83980 -27.14047   0.68638
  -5.85549 -24.80439  -0.29735
  -4.24119 -20.50271  -1.87189
  -3.46233 -15.10035  -4.58500
  -3.25371  -8.64689  -9.27680
  -2.49684  -1.19567 -14.76944
  -0.54621   5.92479 -18.65293
   2.47890  11.73788 -19.08422
   6.27393  16.81467 -14.87797
  10.62942  21.96908  -6.02621
  14.50821  27.10387   5.54324
  15.87274  31.04961  15.65052
  14.45814  31.83355  21.21475
  11.94623  28.38466  22.81920
   8.69842  21.96343  20.93780
   4.58198  14.97957  15.77028
   0.80520   8.92602  10.38012
  -1.56878   4.27262   7.04621
  -2.88464   0.80688   5.48014
  -4.57986  -2.82167   5.82255
  -8.33938  -7.65381   7.87417
 -14.56409 -12.83069  10.05921
 -21.51714 -16.27307  10.26781
 -27.76430 -16.21132   7.16369
 -32.76297 -12.46209   0.89127
 -34.92176  -6.65978  -8.11157
 -33.72097  -1.56568 -19.46358
 -30.49378   1.03281 -32.24513
 -26.46762   1.85701 -45.35927
 -22.73429   2.45903 -57.76799
 -19.49446   3.32773 -67.54688
 -15.97959   3.82819 -72.83931
 -11.39257   3.30340 -73.97508
  -5.66978   2.17038 -73.18874
  -0.30157   1.36259 -72.41597
   3.16279   1.53705 -71.73582
   4.28352   3.25568 -70.92096
   3.31061   6.51888 -69.86565
   1.49751  10.29753 -67.38222
   0.96985  13.42371 -62.42706
   3.14081  15.40807 -54.80930
   7.40318  16.22756 -45.23016
  12.25631  15.92023 -35.07939
  16.42752  14.20961 -25.16486
  18.87068  10.52913 -15.73353
  19.34643   5.04769  -6.45985
  18.16295  -1.12083   3.01163
  15.89189  -6.69252  11.97146
  13.25646 -10.20553  19.90076
  10.49655 -10.12320  26.59840
   7.82792  -5.72984  31.00301
   5.89126   2.26628  31.89596
   4.84254  11.66065  28.52658
   4.09643  19.54554  20.87470
   3.62916  24.16016  10.52185
   3.83823  25.75857   0.41835
   4.54879  25.50264  -7.57924
   5.08017  24.15828 -13.61169
   4.40234  21.95174 -17.87081
   2.04387  18.88968 -20.78318
  -1.76196  15.07728 -23.59500
  -6.39156  10.97772 -27.03784
 -10.77276   6.92258 -30.67574
 -14.06825   3.13121 -32.78261
 -15.50901   0.19737 -31.74788
 -14.52527  -1.33086 -27.40504
 -11.46274  -1.31215 -20.31728
  -7.50721  -0.15066 -11.72141
  -3.80054   1.43691  -3.70885
  -0.25572   3.06199   2.79926
   3.86954   4.64635   9.23313
   8.71898   5.94770  16.17021
  13.86083   6.33037  22.36825
  18.96799   5.44716  26.98853
  23.45493   4.13364  28.87738
  25.77794   3.21354  27.76320
  25.17820   2.21205  26.08522
  22.69336   1.03095  25.51130
  19.20469   0.65111  25.50612
  15.57570   1.33920  25.78260
  12.45792   2.72845  25.94443
   7.86998   4.95932  24.86250
   1.03159   7.79120  21.94587
  -6.03652  10.34808  17.82897
 -13.10136  12.13499  14.26354
 -19.31110  12.72814  12.10479
 -22.75534  11.80145  10.14805
 -23.43221   9.28106   7.02282
 -21.11672   4.69595   2.83905
 -15.62595  -1.81922  -1.18004
  -7.83278  -8.40646  -3.74533
   1.29355 -12.97056  -3.74955
  10.51013 -14.66906  -1.27922
  18.40804 -13.78356   2.24260
  23.94096 -11.64769   6.18089
  25.83123  -9.60631  10.57004
  23.79922  -7.65054  14.49937
  20.00880  -5.39444  17.24100
  16.13141  -3.06679  19.52931
  12.98892  -0.80601  22.21349
  12.40087   1.27838  25.72971
  14.61628   2.68639  30.16799
  17.17363   3.17469  34.25358
  18.14662   2.62745  36.64345
  16.61226   0.87798  37.44708
  11.95180  -1.66392  36.61677
   5.51103  -4.18711  33.85223
  -1.55802  -6.52881  30.37290
  -9.08502  -9.08334  27.89136
 -15.94029 -11.11256  26.68449
 -22.02514 -11.62056  25.92716
 -27.88639 -10.88568  25.23481
 -33.15029  -8.95750  24.68380
 -37.70270  -5.66856  24.08359
 -41.15021  -1.88565  23.45818
 -42.47075   1.36400  22.31638
 -41.26576   3.67013  19.50036
 -37.10535   4.94944  15.28190
 -29.33977   5.07485  11.20996
 -19.09451   3.77490   8.76021
  -8.89043   1.40842   8.90705
  -1.12205  -0.97862  11.44431
   2.54580  -2.96154  15.84327
   2.42511  -4.09308  21.42476
   0.13253  -3.30020  26.42064
  -2.90802  -0.58289  29.79936
  -5.49062   3.40911  31.34071
  -7.11147   7.95867  30.43976
  -7.48943  11.45810  27.97879
  -6.81396  12.84272  25.74187
  -6.92202  12.47324  24.54905
  -7.43377  11.53579  24.54623
  -5.32784  11.30891  24.84892
  -0.88395  11.68592  24.79234
   4.29522  11.80851  24.35026
   8.94257  11.56295  22.69810
   9.99373  10.55628  19.46716
   7.39102   8.69026  14.35340
   3.49304   7.24576   6.83431
  -0.77262   6.57358  -1.29231
  -4.26317   6.28595  -8.16864
  -6.83735   6.57499 -14.50982
  -8.71735   6.65779 -19.91499
  -9.39001   5.64179 -21.77206
  -9.62717   3.33000 -19.10855
  -8.65560  -0.37893 -13.09433
  -5.39286  -4.29236  -5.05137
  -1.97200  -7.72631   2.92797
   0.52125 -11.33053   7.18661
   1.84506 -14.45576   5.68544
   1.48114 -16.21974  -0.28893
   0.69012 -16.40498  -9.36475
   0.71445 -15.01475 -19.20958
   2.62017 -12.58559 -25.27385
   6.52138  -9.01410 -26.10649
  11.07989  -4.05753 -23.48975
