********************************************************************************
              CENTRO DE INSTRUMENTACION Y REGISTRO SISMICO  A.C.

    Anaxagoras 814, Col. Narvarte, Benito Juarez, C.P. 03020 Mexico, D.F.
           Tels. 5687 45 42/ 5687 45  82             Fax. 5669 25 12
********************************************************************************
ARCHIVO ESTANDAR DE ACELERACION:
VERSION DEL FORMATO                    : 2.0
NOMBRE DEL ARCHIVO                     : CI0520170919181440
FECHA Y HORA DE CREACION               : 25/SEP/17, 11:11
REF. CATALOGO ACELEROGRAMAS, SMIS 1996 : REGISTRO No.     /PAG.


================================================================================
DATOS DE LA ESTACION:
NOMBRE DE LA ESTACION                  : CIBELES
CLAVE DE LA ESTACION                   : CI05
LOCALIZACION DE LA ESTACION            : Del. Cuauhtémoc, Col. Roma Norte,      
                                       : Colima , entre calles Oro              
                                       : y Medellín.                            
                                       :                                        
                                       : 
COORDENADAS DE LA ESTACION             : 19.4186 LAT. N
                                       : 99.1653 LONG. W
ALTITUD (msnm)                         : 2233
TIPO DE SUELO                          : Terreno blando, material compresible
                                       : (arcillas)                
                                       : 
INSTITUCION RESPONSABLE                : CIRES, A. C.
                                       : 

================================================================================
DATOS DEL ACELEROGRAFO:
MODELO DEL ACELEROGRAFO                : RAD_IO14
NUMERO DE SERIE DEL ACELEROGRAFO       : 
NUMERO DE CANALES                      : 3
ORIENTACION C1-C6 (rumbo;orientacion)  : /S00E/+V/N90W
ORIENTACION C7-C12 (rumbo;orientacion) : 
VEL. DE MUESTREO, C1-C6 (muestras/s)   : /100/100/100
VEL. DE MUESTREO, C7-C12 (muestras/s)  : 
ESC. COMPLETA DE SENSORES, C1-C6, (g)  : /2.0/2.0/2.0
ESC. COMPLETA DE SENSORES, C7-C12, (g) : 
FREC. NAT. DE SENSORES, C1-C6, (Hz)    : /52.49/51.93/50.04
FREC. NAT. DE SENSORES, C7-C12, (Hz)   : 
AMORTIGUAMIENTO DE SENSORES, C1-C6     : /0.5896/0.5763/0.5927
AMORTIGUAMIENTO DE SENSORES, C7-C12    : 
INTERVALO DE MUESTREO, C1-C6, (s)      : /0.01/0.01/0.01
INTERVALO DE MUESTREO, C7-C12, (s)     : 
UMBRAL DE DISPARO, C1-C6, (Gal)        : / / /
UMBRAL DE DISPARO, C7-C12, (Gal)       : 
MEMORIA DE PREEVENTO (s)               : 60
TIEMPO DE POSEVENTO (s)                : 90


================================================================================
DATOS DEL SISMO:
FECHA DEL SISMO (GMT)                  : 19/SEP/17
HORA EPICENTRO (GMT)                   : 18:14:40.0
MAGNITUD(ES)                           : /Mc=7.1
COORDENADAS DEL EPICENTRO              : 18.40 LAT. N
                                       : 98.72 LONG. W
PROFUNDIDAD FOCAL (km)                 : 57
FUENTE DE LOS DATOS EPICENTRALES       : SSN
                                       : INSTITUTO DE GEOFISICA, UNAM

================================================================================
DATOS DE ESTE REGISTRO:
HORA DE LA PRIMERA MUESTRA (GMT)       : 13:13:57.00
EXACTITUD DEL TIEMPO (s)               : 
DURACION DEL REGISTRO (s), C1-C6       : /329.01/329.01/329.01
DURACION DEL REGISTRO (s), C7-C12      : 
NUM. TOTAL DE MUESTRAS, C1-C6          : /32901/32901/32901
NUM. TOTAL DE MUESTRAS, C7-C12         : 
ACEL. MAX. (Gal), C1-C6                : /113.31878/51.19687/114.24343
ACEL. MAX., C1-C6, EN LA MUESTRA       : /8342/8825/8756
ACEL. MAX. (Gal), C7-C12               : 
ACEL. MAX., C7-C12, EN LA MUESTRA      : 
UNIDADES DE LOS DATOS                  : Gal (cm/s/s)
FACTOR DE DECIMACION                   : 1
FORMATO DATOS (FORTRAN,10 campos/dato) : 3F10.5


================================================================================
CALIDAD DEL ACELEROGRAMA:
REGISTRO DIGITAL COMPLETO CON TIEMPO ABSOLUTO CORRECTO.


================================================================================
COMENTARIOS:














================================================================================
DATOS DE ACELERACION:
---------+---------+---------+---------+---------+---------+---------+---------+
   CANAL-1   CANAL-2   CANAL-3   CANAL-4   CANAL-5   CANAL-6   CANAL-7   CANAL-8
      N00E        +V      N90W
---------+---------+---------+---------+---------+---------+---------+---------+
[...]
  62.89362 -20.98803 -42.35793
  65.46732 -17.45653 -43.13603
  67.38272 -14.10473 -43.25573
  68.28052  -9.61563 -42.83673
  66.78412  -4.28853 -41.75933
  62.89362   1.15827 -40.26293
  56.72852   5.22837 -37.92863
  49.12702   7.56277 -34.75633
  41.22622   8.64007 -30.74603
  33.74432   9.41817 -25.83793
  27.51942  10.55547 -19.67293
  23.20992  11.99197 -12.43053
  22.01282  13.78757  -4.05083
  23.68872  16.66067   4.50837
  27.51942  20.49137  11.87047
  31.88882  18.87527  16.77857
  35.95892  14.92487  19.23267
  39.66992  11.99197  19.47207
  42.78242   8.87957  18.33477
  44.63792   6.00647  16.12017
  45.41602   3.55247  13.18727
  44.99702   1.57727   9.71577
  44.03932   0.43997   6.06457
  42.72252   0.08087   2.41347
  41.04662   0.49987  -0.39973
  38.53272   1.09837  -2.31503
  34.46262   2.23567  -3.45233
  28.77642   4.33057  -4.35013
  21.77342   6.90427  -5.60703
  13.45362   9.23867  -6.20563
   4.35562   9.95687  -6.44503
  -5.16128   9.05907  -7.16333
 -14.85768   7.32327  -8.36043
 -24.91328   5.04887 -10.75463
 -34.96888   2.89407 -14.76483
 -44.36608   1.57727 -20.03203
 -52.20708   1.15827 -26.61613
 -57.89328   0.67947 -34.51693
 -60.88598   0.43997 -43.85423
 -61.06558   1.09837 -54.02953
 -58.19258   3.07357 -64.08513
 -53.10488   6.24587 -72.88383
 -47.17928   9.59777 -79.52763
 -41.19378  12.11167 -84.19633
 -36.10618  13.72777 -86.35113
 -31.49728  14.44597 -85.63283
 -26.70898  14.56577 -81.92183
 -20.60378  14.74527 -75.39773
 -13.06208  17.01977 -67.01803
  -3.96418  22.64607 -57.80043
   5.73232  26.11767 -48.64263
  15.30912  27.43447 -39.96373
  24.34712  29.11047 -31.88333
  31.94872  30.00827 -24.40143
  37.45532  29.17027 -17.63783
  40.80722  27.55417 -11.83193
  41.82472  25.93817  -7.16333
  40.56782  20.31177  -3.87133
  37.45532  13.12917  -1.53693
  32.96622   9.11897   0.55797
  27.81872   4.68967   2.89227
  22.43182   0.43997   5.88507
  17.58352  -2.97173   9.41647
  13.87252  -5.96443  14.14497
  11.23892  -9.01703  20.66917
   9.86232 -13.02733  29.58747
   8.90462 -18.17483  41.07957
   7.58782 -22.84353  54.30747
   5.73232 -26.79393  67.35587
   4.05642 -30.02603  79.02757
   3.51772 -31.04363  88.00577
   5.07392 -29.36763  93.63207
   8.90462 -25.59683  95.90657
  14.29152 -20.32963  94.88907
  21.23472 -14.16453  90.51967
  29.43482  -7.87983  82.61877
  38.47282  -2.43303  71.72527
  48.04962   2.41517  59.45507
  57.26722   6.54517  47.66367
  64.68922   9.11897  38.38617
  69.05862  10.37587  32.87957
  70.19592  10.61527  32.10137
  67.98122  10.61527  35.21387
  62.05562  11.27367  41.37887
  53.07742  13.12917  49.93817
  42.48312  17.73807  59.03607
  31.17062  23.96287  67.29597
  19.85802  24.32207  74.11947
   9.08422  17.97747  79.74577
  -1.45028  10.67517  84.05527
 -11.74528   3.37287  86.26997
 -22.04028  -5.48563  86.56917
 -31.73678 -15.36163  84.41447
 -39.57768 -24.93843  79.98517
 -44.96468 -32.83923  73.40117
 -47.47858 -37.98673  65.20107
 -47.29898 -39.96193  56.22287
 -45.86248 -38.10643  47.48407
 -45.20408 -34.21593  40.24167
 -46.28148 -30.80413  34.67517
 -49.21428 -29.60703  30.54517
 -53.76328 -30.44503  26.65467
 -59.03048 -32.06113  21.98597
 -65.07588 -33.01883  16.41947
 -71.00148 -31.82173   9.89527
 -75.84968 -28.17053   2.47327
 -79.14168 -22.42453  -6.20563
 -80.57818 -14.82293 -16.32103
 -79.91978  -5.24623 -27.87303
 -77.34608   6.42547 -40.62213
 -73.21608  21.08987 -53.73033
 -67.46998  32.04327 -65.76113
 -60.76628  41.44047 -74.67943
 -53.58368  48.20407 -79.82693
 -46.52088  50.95737 -81.20363
 -40.17628  49.70047 -79.04883
 -35.32798  45.09167 -74.20063
 -31.43748  38.44777 -68.09543
 -27.42718  31.14547 -61.87053
 -22.69868  24.68117 -56.36393
 -17.19208  13.42847 -52.11423
 -11.32628   2.89407 -49.06163
  -4.98168  -6.38343 -46.54773
   1.36292 -14.46383 -43.67473
   6.69002 -21.10773 -39.96373
  10.40102 -25.71653 -35.77383
  11.71782 -28.29023 -32.00303
   9.80242 -29.24793 -29.13003
   4.71482 -29.00853 -27.03503
  -3.18608 -28.23043 -25.89783
 -13.00218 -27.39243 -25.71823
 -23.77608 -25.95593 -26.31683
 -33.71198 -23.62163 -27.09493
 -41.19378 -20.56903 -28.05263
 -46.58068 -17.03753 -28.65113
 -49.27418 -12.48863 -29.18983
 -48.49608  -8.17903 -29.60883
 -45.20408  -4.58783 -29.78843
 -40.11638  -1.41553 -30.14753
 -33.59228   2.71447 -31.34463
 -26.46948   8.22117 -34.09793
 -19.28698  16.30147 -38.70673
 -12.04458  25.21987 -44.39293
  -5.40068  29.05057 -50.85723
   0.34542  33.59957 -57.14203
   4.95422  36.83167 -62.05013
   8.24622  37.60977 -64.68373
  10.16162  37.07107 -64.50413
  10.93972  36.89157 -62.16983
  10.64042  37.54997 -58.93763
   9.80242  37.72947 -55.64563
   9.44332  36.11347 -52.83243
  10.52072  31.68417 -51.39593
  13.21412  26.53667 -51.63533
  17.64342  16.90007 -53.01203
  23.56902   6.72477 -54.98723
  30.45232  -0.15853 -56.72303
  37.81442  -4.94693 -57.38143
  45.23642  -8.05933 -56.90263
  51.88032  -9.91483 -55.28653
  56.60882 -10.21413 -52.71273
  58.94322  -9.31633 -49.72003
  57.50662  -7.34113 -46.72723
  53.43652  -4.94693 -44.51263
  47.87002  -2.43303 -43.85423
  41.16632   0.43997 -44.51263
  33.20562   3.97147 -45.70973
  23.74862   8.10137 -46.48783
  13.51342  13.00947 -45.53023
   2.26072  20.73077 -42.77683
  -9.23138  25.51917 -38.22793
 -19.76578  25.69867 -31.76363
 -27.84618  22.70597 -23.50363
 -32.21558  16.48107 -14.40573
 -32.99368  13.72777  -5.54723
 -30.83888  12.88977   2.29377
 -27.00818  11.51317   8.57847
 -22.63878   9.47807  13.00777
 -18.56868   6.66487  15.76107
 -16.17448   3.97147  17.13777
 -15.93508   1.27797  17.43697
 -18.14968  -0.81693  16.59907
 -22.15998  -1.23593  14.98297
 -27.42718  -0.03883  12.76837
 -33.05358   1.75677  10.37417
 -37.42298   2.95387   8.39897
 -39.99668   3.85177   6.96237
 -40.41568   3.61227   6.36387
 -38.85948   2.23567   7.44127
 -35.86668   0.14077  11.15227
 -31.61708  -2.07393  16.47937
 -26.05058  -4.58783  21.02827
 -19.34678  -8.59803  22.76407
 -11.92478 -13.92513  21.38737
  -4.32328 -19.85073  17.25747
   2.26072 -24.63913  11.03257
   7.16882 -27.51213   4.08937
   9.74262 -28.82893  -2.79393
  10.28132 -29.84653  -8.89913
  10.04182 -31.28303 -13.98673
  10.22142 -32.65963 -18.23643
  10.99952 -32.83923 -22.30653
  12.43602 -30.68443 -26.13723
  14.29152 -26.37493 -29.24973
  16.02732 -20.38943 -31.16503
  17.16462 -14.22443 -30.20733
  18.12222  -9.97473 -25.71823
  19.61862  -8.35863 -17.93713
  22.43182  -9.43603  -8.30053
  26.62162 -11.47113   1.57547
  32.30782 -12.96743  10.73327
  39.37072 -13.20683  17.67637
  46.79262 -11.89003  21.86627
  54.21462  -9.01703  22.82397
  61.09792  -5.42573  20.36987
  66.54472  -2.91183  14.92307
  70.19592  -1.83443   7.86027
  71.63242  -2.01403   0.73757
  71.87182  -4.22863  -5.96623
  71.39292  -8.83743 -11.65243
  70.61482 -14.88283 -16.02183
  70.25572 -20.86823 -18.95473
  69.83672 -25.83623 -19.97223
  69.59732 -28.58953 -18.71523
  69.41772 -28.11073 -14.28603
  69.11852 -24.51943  -7.34283
  68.69952 -18.71353   1.69517
  67.38272 -11.29153  11.87047
  65.34762  -2.37313  22.16557
  61.87602   7.68247  31.50287
  56.48912  19.29427  39.10437
  49.66572  26.29727  43.95267
  42.54302  27.31477  45.86797
  35.83922  27.49437  44.61107
  29.31512  27.37467  40.60077
  23.68872  27.37467  34.43577
  19.73832  27.49437  27.91157
  17.28432  27.49437  22.76407
  16.68572  27.19507  20.31007
  17.64342  26.65637  21.44727
  19.97772  26.23737  26.53487
  23.68872  25.99797  34.85477
  27.63912  26.23737  46.04757
  31.17062  26.83597  58.61707
  33.38522  27.73377  71.42597
  33.50492  29.11047  83.63637
  31.70932  30.54697  94.23067
  28.05812  31.38487 102.55047
  23.15002  30.90607 107.75777
  17.40402  29.46957 109.61327
  11.23892  28.39217 108.05707
   5.19362  27.73377 103.68767
  -0.37288  27.55417  97.40297
  -5.40068  27.19507  90.39997
  -9.77008  26.53667  84.05527
 -12.76278  22.64607  79.26697
 -14.07958  13.48837  76.87277
 -13.54088   6.30577  76.69317
 -12.22408  -0.81693  78.18957
 -10.66788  -7.22143  80.52387
  -9.65038 -12.66813  82.61877
  -9.47078 -17.09743  83.99547
 -10.66788 -19.97043  83.99547
 -12.64308 -21.46683  81.54147
 -14.37888 -21.58653  75.79537
 -14.61828 -20.50913  67.23617
 -12.88248 -19.67123  56.04327
  -8.45328 -20.38943  41.79787
  -1.74948 -22.96323  24.85897
   5.07392 -27.45233   5.82517
   9.68272 -32.83923 -13.50793
  11.77762 -38.76483 -31.40443
  12.61562 -44.63063 -46.54773
  12.73532 -48.40143 -57.26173
  12.49592 -48.64083 -62.82823
  11.89732 -44.33133 -63.00773
  10.22142 -35.65243 -57.38143
   8.24622 -24.33983 -46.12873
   6.33082 -12.18933 -30.80593
   4.71482  -0.63733 -14.34583
   3.51772  10.43577   0.13897
   2.44032  21.98767  10.49387
   1.66222  26.95567  15.52167
   1.24322  27.55417  14.80337
   1.36292  26.65637   9.35657
   2.08122  21.20957   0.67767
   2.91912  12.05187  -9.91663
   4.29582   5.22837 -20.09193
   5.91192   0.02107 -27.51393
   6.74982  -3.21113 -31.22493
   6.15132  -5.18633 -31.04533
   3.03882  -6.44333 -27.03503
  -2.34808  -6.68273 -20.21163
  -9.41088  -5.54543 -11.05383
 -17.13218  -3.09143  -1.17783
 -24.79358   0.26047   8.21937
 -31.97618   3.49257  16.00047
 -38.79958   6.00647  22.28527
 -44.96468   8.10137  27.49257
 -49.69318  10.25617  31.56267
 -52.44648  12.17157  33.89707
 -52.50638  13.66787  34.07657
 -50.71068  14.56577  31.86197
 -47.59828  13.96717  27.13347
 -44.18658  11.87227  20.48957
 -41.25368   8.40067  12.88807
 -38.67988   5.04887   6.18427
 -36.58498   2.71447   1.69517
 -35.02878   1.21807   0.19887
 -33.89148   0.61957   1.99447
 -33.41268   0.91887   6.06457
 -32.57468   1.57727  10.67337
 -30.95868   2.17577  15.04277
 -28.74398   3.01377  18.45457
 -26.64908   4.68967  20.19027
 -24.91328   6.90427  19.77137
 -23.95558   8.87957  17.79617
 -23.47678   9.77737  14.38437
 -22.99798   9.05907   9.41647
 -21.98038   7.08387   4.26897
 -20.66358   4.39047  -0.51943
 -19.64608   1.81667  -4.17053
 -20.00518  -0.03883  -6.62463
 -22.45928  -1.35563  -7.88153
 -27.06808  -1.95423  -8.48013
 -33.53238  -2.37313  -8.24073
 -41.49308  -2.55273  -8.00123
 -50.17198  -2.73233  -8.24073
 -58.49178  -3.57023  -8.89913
 -65.37508  -5.18633  -9.91663
 -70.04378  -7.46083 -11.47283
 -72.91678  -9.97473 -13.80713
 -74.83218 -12.36893 -16.85973
 -75.72998 -14.94263 -20.45103
 -75.90958 -17.63613 -24.46133
 -75.43068 -20.20983 -29.36943
 -75.01168 -22.60403 -35.35483
 -74.83218 -24.63913 -42.53743
 -75.07158 -26.67423 -50.73753
 -75.25118 -28.35013 -59.95513
 -74.77228 -28.76913 -69.65163
 -73.51538 -27.51213 -79.64743
 -71.12118 -24.45953 -89.34383
 -67.41018 -20.20983 -98.38193
 -62.44218 -15.66093-105.92363
 -56.87578 -11.94993-111.43023
 -51.18958  -8.77763-114.24343
 -46.34128  -5.24623-113.10623
 -42.27118  -1.17603-108.25793
 -39.15878   3.55247 -99.99803
 -36.70468   8.64007 -88.92483
 -35.08858  13.48837 -76.47513
 -34.31048  19.59357 -64.08513
 -34.25068  24.80087 -52.89233
 -35.08858  26.05787 -43.79443
 -36.46528  26.65637 -36.91113
 -37.90178  27.19507 -31.88333
 -38.62008  28.03307 -28.23213
 -38.32078  29.70897 -26.55623
 -36.28568  31.80387 -27.03503
 -31.85648  33.47987 -29.48913
 -25.45198  33.83897 -33.08043
 -17.79058  32.70167 -37.27023
 -10.00948  30.18777 -41.16083
  -3.12618  27.97317 -44.27323
   1.90162  26.95567 -45.94913
   5.01402  26.35707 -45.88933
   6.98922  25.69867 -44.39293
   8.36592  22.64607 -41.51993
  10.10172  16.18177 -37.98853
  12.37622  12.71027 -34.15783
  15.36892  10.73507 -30.44683
  19.13982   8.75977 -27.15483
  23.80842   5.70727 -24.76063
  29.73402   1.51737 -23.56353
  36.49762  -3.51043 -23.74303
  43.74012  -8.59803 -25.00003
  51.10222 -12.36893 -26.31683
  57.86582 -14.70323 -26.97523
  63.67172 -16.19963 -26.13723
  68.10092 -17.57623 -23.56353
  71.33312 -18.47413 -19.13423
  73.12872 -18.29453 -13.08893
  73.36822 -16.79813  -5.66693
  71.87182 -14.76313   2.23387
  69.11852 -12.90763  10.01497
  65.40752 -11.83023  16.95817
  61.15782 -12.18933  23.00347
  56.54902 -14.22443  27.73197
  52.17962 -17.87553  31.14377
  48.76792 -21.94563  33.53797
  47.51092 -25.41723  35.51317
  48.82772 -27.99103  37.78757
  53.07742 -30.20563  40.78037
  59.48192 -32.18083  44.85047
  67.26302 -33.49763  50.05787
  74.68502 -33.85673  55.74407
  80.85002 -33.49763  61.01127
  85.87782 -33.07863  65.44047
  89.10992 -32.00123  68.73247
  90.18732 -29.48733  71.24637
  88.75082 -24.93843  73.28147
  84.50112 -18.77333  74.41867
  77.73752 -12.24923  74.41867
  68.87902  -6.08413  71.96467
  58.94322  -0.75713  66.21857
  49.00732   4.68967  57.18057
  39.96922  10.43577  45.20957
  32.72682  18.69567  31.80217
  27.87862  26.23737  18.03557
  24.58652  30.36737   5.22667
  21.71352  36.35287  -5.72683
  17.88282  41.97917 -14.52543
  12.79522  46.52817 -21.10943
   6.92942  49.76027 -25.71823
   1.36292  51.19687 -28.71103
  -2.76708  50.53847 -30.50663
  -4.86198  47.48587 -31.10523
  -4.32328  42.45807 -31.04533
  -1.86928  35.99377 -30.62633
   2.32062  29.34987 -29.96793
   7.76742  23.30447 -29.48913
  14.11202  13.00947 -29.01023
  20.93542   5.94667 -28.05263
  28.47712   0.91887 -27.09493
  36.79692  -3.03153 -25.53873
  45.05692  -6.50313 -22.90513
  52.77812 -10.03453 -19.79263
  59.00302 -12.96743 -15.78243
  63.07312 -14.88283 -10.63483
  64.80892 -16.19963  -4.46983
  64.80892 -17.09743   2.59307
  64.09072 -17.87553  10.73327
  62.89362 -19.07263  19.35237
  61.27752 -21.16753  28.45027
  59.66142 -24.16033  37.42847
  58.46432 -27.09313  45.68847
  57.92562 -29.36763  52.63157
  58.16502 -30.86403  57.36007
  59.30232 -32.36043  59.93387
  61.03812 -33.49763  60.71197
  62.89362 -34.33563  60.53237
  63.91112 -34.75453  59.75427
  63.19282 -34.45533  59.03607
  60.43952 -33.43773  58.07837
  55.71102 -31.28303  56.28277
  49.54602 -28.11073  53.05057
  43.02182 -24.33983  48.26217
  36.91662 -20.62883  42.33657
  31.64942 -17.27703  35.93207
  27.33992 -14.40393  29.82697
  23.74862 -11.77033  24.38017
  20.27702  -9.73533  20.07057
  16.32662  -8.89733  16.83847
  12.97472  -8.83743  14.38437
  10.93972 -10.09443  12.10997
  10.34112 -11.71053   9.77557
  11.29882 -12.90763   7.74057
  13.21412 -13.32663   6.48357
  15.54852 -13.14703   6.24417
  17.22442 -12.42873   7.26167
  17.46382 -11.29153   9.77557
  16.26672  -9.49583  13.36687
  13.93242  -7.04183  17.07787
  10.99952  -4.70753  19.95087
   7.64772  -2.13373  21.56697
   4.59512   0.97867  21.44727
   2.20092   4.39047  19.17277
   0.22572   8.52037  15.34207
  -1.92908  12.35107  10.61357
  -4.74228  15.94237   4.86747
  -7.97438  20.01247  -1.89613
 -11.68538  20.43147  -9.13853
 -15.51608  17.37887 -16.32103
 -19.22708  15.34387 -22.66563
 -22.63878  14.68547 -27.21463
 -25.63158  15.58327 -29.78843
 -27.84618  19.95267 -30.08763
 -28.62428  24.86077 -28.41173
 -27.90608  26.53667 -25.59853
 -26.64908  27.79367 -22.06713
 -25.45198  29.82867 -18.05683
 -24.19508  31.68417 -14.28603
 -22.99798  31.44477 -11.23343
 -22.33958  29.23017  -8.83923
 -22.63878  27.19507  -7.10343
 -24.13518  23.90307  -5.84653
 -26.40968  15.76287  -5.12823
 -28.68418  10.79487  -4.17053
 -30.41998   7.86197  -2.97343
 -31.31778   5.88677  -1.23763
 -31.37758   4.68967   1.33607
 -31.13818   4.27067   5.22667
 -31.49728   3.97147   9.59607
 -32.99368   3.67217  13.60627
 -35.56748   3.07357  16.35957
