********************************************************************************
              CENTRO DE INSTRUMENTACION Y REGISTRO SISMICO  A.C.

    Anaxagoras 814, Col. Narvarte, Benito Juarez, C.P. 03020 Mexico, D.F.
           Tels. 5687 45 42/ 5687 45  82             Fax. 5669 25 12
********************************************************************************
ARCHIVO ESTANDAR DE ACELERACION:
VERSION DEL FORMATO                    : 2.0
NOMBRE DEL ARCHIVO                     : CJ0320170919181440
FECHA Y HORA DE CREACION               : 25/SEP/17, 11:11
REF. CATALOGO ACELEROGRAMAS, SMIS 1996 : REGISTRO No.     /PAG.


================================================================================
DATOS DE LA ESTACION:
NOMBRE DE LA ESTACION                  : CENTRO URBANO JUÁREZ
CLAVE DE LA ESTACION                   : CJ03
LOCALIZACION DE LA ESTACION            : Del. Cuauhtémoc, Col. Roma,            
                                       : Prol. Orizaba, entre calles            
                                       : Antonio M. Anza y Huatabampo.          
                                       :                                        
                                       : 
COORDENADAS DE LA ESTACION             : 19.4097 LAT. N
                                       : 99.1567 LONG. W
ALTITUD (msnm)                         : 2233
TIPO DE SUELO                          : Terreno blando, material compresible
                                       : (arcillas)                
                                       : 
INSTITUCION RESPONSABLE                : CIRES, A. C.
                                       : 

================================================================================
DATOS DEL ACELEROGRAFO:
MODELO DEL ACELEROGRAFO                : RAD_IO14
NUMERO DE SERIE DEL ACELEROGRAFO       : 
NUMERO DE CANALES                      : 3
ORIENTACION C1-C6 (rumbo;orientacion)  : /S00E/+V/N90W
ORIENTACION C7-C12 (rumbo;orientacion) : 
VEL. DE MUESTREO, C1-C6 (muestras/s)   : /100/100/100
VEL. DE MUESTREO, C7-C12 (muestras/s)  : 
ESC. COMPLETA DE SENSORES, C1-C6, (g)  : /2.0/2.0/2.0
ESC. COMPLETA DE SENSORES, C7-C12, (g) : 
FREC. NAT. DE SENSORES, C1-C6, (Hz)    : /52.61/51.08/56.42
FREC. NAT. DE SENSORES, C7-C12, (Hz)   : 
AMORTIGUAMIENTO DE SENSORES, C1-C6     : /0.5896/0.5605/0.5763
AMORTIGUAMIENTO DE SENSORES, C7-C12    : 
INTERVALO DE MUESTREO, C1-C6, (s)      : /0.01/0.01/0.01
INTERVALO DE MUESTREO, C7-C12, (s)     : 
UMBRAL DE DISPARO, C1-C6, (Gal)        : / / /
UMBRAL DE DISPARO, C7-C12, (Gal)       : 
MEMORIA DE PREEVENTO (s)               : 60
TIEMPO DE POSEVENTO (s)                : 90


================================================================================
DATOS DEL SISMO:
FECHA DEL SISMO (GMT)                  : 19/SEP/17
HORA EPICENTRO (GMT)                   : 18:14:40.0
MAGNITUD(ES)                           : /Mc=7.1
COORDENADAS DEL EPICENTRO              : 18.40 LAT. N
                                       : 98.72 LONG. W
PROFUNDIDAD FOCAL (km)                 : 57
FUENTE DE LOS DATOS EPICENTRALES       : SSN
                                       : INSTITUTO DE GEOFISICA, UNAM

================================================================================
DATOS DE ESTE REGISTRO:
HORA DE LA PRIMERA MUESTRA (GMT)       : 13:13:57.00
EXACTITUD DEL TIEMPO (s)               : 
DURACION DEL REGISTRO (s), C1-C6       : /329.01/329.01/329.01
DURACION DEL REGISTRO (s), C7-C12      : 
NUM. TOTAL DE MUESTRAS, C1-C6          : /32901/32901/32901
NUM. TOTAL DE MUESTRAS, C7-C12         : 
ACEL. MAX. (Gal), C1-C6                : /111.99449/36.3878/98.0309
ACEL. MAX., C1-C6, EN LA MUESTRA       : /8950/8887/9689
ACEL. MAX. (Gal), C7-C12               : 
ACEL. MAX., C7-C12, EN LA MUESTRA      : 
UNIDADES DE LOS DATOS                  : Gal (cm/s/s)
FACTOR DE DECIMACION                   : 1
FORMATO DATOS (FORTRAN,10 campos/dato) : 3F10.5


================================================================================
CALIDAD DEL ACELEROGRAMA:
REGISTRO DIGITAL COMPLETO CON TIEMPO ABSOLUTO CORRECTO.


================================================================================
COMENTARIOS:














================================================================================
DATOS DE ACELERACION:
---------+---------+---------+---------+---------+---------+---------+---------+
   CANAL-1   CANAL-2   CANAL-3   CANAL-4   CANAL-5   CANAL-6   CANAL-7   CANAL-8
      N00E        +V      N90W
---------+---------+---------+---------+---------+---------+---------+---------+
[...]
  53.57619   8.80250  15.81290
  54.71349   9.58070  23.89320
  53.69599   9.87990  30.11810
  50.88279   8.44340  33.94880
  46.69289   4.67260  35.20580
  42.08409  -0.95380  34.24810
  37.35559  -7.23850  31.55460
  32.74679 -13.04440  28.08310
  28.49709 -17.65320  24.91080
  24.36709 -20.16710  23.11510
  21.01529 -20.94530  22.87570
  18.68089 -20.58610  23.65380
  17.24439 -19.38900  25.38960
  16.82539 -17.77300  27.90350
  17.24439 -15.25910  30.89620
  17.84299 -11.42840  33.82910
  18.26189  -6.52030  36.40290
  18.26189  -1.67200  37.89920
  17.84299   2.57770  38.07880
  17.12469   5.33100  37.06130
  16.40649   6.22880  35.26560
  15.56849   5.86970  33.11090
  14.67069   4.79230  30.53710
  13.89259   2.87690  28.26260
  12.99469   0.12360  27.00570
  11.85749  -3.04870  27.54440
  10.42099  -6.93920  29.81890
   8.08659 -11.12910  33.64960
   4.19609 -15.67800  38.25840
  -0.89161 -19.20950  43.40590
  -7.05661 -20.88540  48.79280
 -13.99981 -21.12480  54.00020
 -20.82321 -20.94530  58.42940
 -26.62911 -21.60370  61.84110
 -31.05841 -23.10000  63.93610
 -34.23071 -24.35700  64.71420
 -36.44531 -24.41680  64.23530
 -38.48031 -23.15990  62.91850
 -40.69501 -20.58610  60.82360
 -43.26871 -17.53350  57.77100
 -46.14171 -14.30140  54.06000
 -48.77541 -11.60790  50.22930
 -50.87031 -10.17140  46.87750
 -52.24691  -9.99180  44.42340
 -52.78561 -10.05170  42.98690
 -52.06741  -9.63270  42.38840
 -50.09221  -8.25610  42.14890
 -46.56071  -7.17870  41.55040
 -42.13151  -7.53780  40.05400
 -37.52271  -9.63270  36.88170
 -33.69201 -12.20650  32.21300
 -31.17811 -14.12180  26.58670
 -30.40001 -14.54080  20.36180
 -31.59701 -13.22400  13.89750
 -33.99121 -10.77000   7.31350
 -37.40301  -8.25610   0.96890
 -41.41321  -6.40060  -4.41810
 -45.90231  -5.68230  -8.54800
 -50.51111  -6.04140 -11.42110
 -55.06011  -6.34070 -12.97730
 -59.66891  -4.96400 -13.51600
 -63.97851  -2.09100 -12.79770
 -67.80921   1.38060 -11.36120
 -70.56251   4.13390  -9.08670
 -72.11871   6.28860  -6.45310
 -72.05881   8.56310  -2.86180
 -70.32311  11.25660   1.68710
 -66.55221  13.95010   6.83460
 -60.44701  15.80560  11.80260
 -53.08491  16.52380  16.71070
 -45.36361  16.22450  20.60120
 -38.48031  15.38660  23.59400
 -33.03361  15.14710  25.74870
 -29.56201  15.80560  26.70640
 -27.94591  16.70340  26.70640
 -28.06561  17.42160  26.46700
 -30.10071  17.12240  25.92830
 -33.21311  15.26690  25.74870
 -36.56501  12.27410  25.98820
 -39.43801   9.10180  26.10790
 -41.05411   6.04920  26.52680
 -40.99421   3.77470  26.94580
 -39.43801   2.87690  27.18530
 -36.74461   3.59520  27.78380
 -33.39271   6.16890  28.86120
 -30.22041  10.05950  30.65680
 -27.94591  14.66830  33.17070
 -26.98821  19.15740  35.80430
 -27.58681  22.92830  38.43790
 -30.28021  26.22030  40.35330
 -35.06861  29.15320  41.07150
 -41.23371  31.18820  40.89200
 -47.81771  31.54730  39.81460
 -53.86301  30.41010  38.13870
 -58.89081  27.77650  35.74450
 -62.66171  23.88590  32.57220
 -65.11571  19.57640  28.20280
 -66.13321  15.56610  23.05530
 -65.83401  12.33400  17.60850
 -64.15801   9.70040  11.86240
 -61.76381   7.24630   5.39810
 -58.65141   4.55290  -2.26330
 -55.41921   1.67980 -11.48090
 -52.42651  -1.37280 -21.83580
 -49.37391  -4.30560 -32.31040
 -45.96221  -7.17870 -42.36600
 -42.37091  -9.81230 -51.64340
 -38.54021 -11.66780 -60.02310
 -35.00881 -12.14660 -67.08600
 -31.47731 -11.18890 -72.29330
 -28.24521  -9.87210 -75.64520
 -25.13271  -8.37580 -77.20140
 -22.31961  -6.52030 -76.90210
 -19.50641  -4.30560 -74.98680
 -16.51371  -2.45010 -71.99400
 -13.16181  -0.71440 -68.34290
  -9.15151   1.32070 -64.69180
  -4.18361   3.77470 -61.33990
   1.98149   6.22880 -58.46690
   9.04429   7.78500 -56.85080
  16.40649   8.02440 -56.91070
  23.22989   6.88720 -58.64640
  29.09569   5.27110 -61.99830
  33.40519   4.19370 -66.24800
  36.45779   3.65500 -70.91670
  38.61259   2.81710 -75.22620
  40.22859   0.96160 -78.69780
  41.60529  -1.37280 -80.67300
  43.40089  -3.52750 -81.03210
  46.15429  -4.96400 -80.31390
  49.62579  -5.14360 -79.11680
  54.05509  -4.18590 -77.74010
  59.14269  -2.74940 -76.60290
  64.88879  -0.89390 -75.16630
  71.17349   0.42290 -73.78970
  77.33859   0.78200 -72.47290
  82.42619   0.48270 -71.33560
  86.61609  -0.11580 -70.25830
  89.42919  -0.95380 -68.88160
  90.86569  -0.95380 -66.78670
  90.68619   0.06380 -64.09320
  88.35179   1.67980 -60.56180
  83.56349   3.35580 -55.17490
  76.44079   5.09160 -48.59080
  68.06109   6.52810 -40.51050
  59.50189   7.72520 -31.47240
  52.61859   8.02440 -22.97300
  48.12949   7.54560 -16.02990
  45.97469   5.92950 -10.22400
  45.85499   3.35580  -5.37570
  47.83019   0.06380  -1.06620
  51.06229  -3.52750   2.82440
  55.19229  -6.75970   6.71490
  59.38219  -8.37580  10.48580
  62.43469  -8.13630  14.07710
  63.75149  -7.11880  17.48880
  63.03329  -6.22100  20.06250
  60.51939  -5.68230  21.67860
  56.92809  -5.08380  22.39690
  52.49889  -4.24580  21.91800
  48.06959  -3.40780  20.30200
  43.99949  -2.27060  17.60850
  40.52789  -0.71440  14.73550
  37.59499   0.72220  12.04200
  35.08109   0.60240  10.00690
  32.62709  -2.09100   9.04930
  29.93359  -6.58010   9.70770
  27.00069 -11.78750  11.68290
  23.28969 -16.51600  14.73550
  18.74079 -20.28690  18.44650
  13.23419 -23.27960  21.79830
   7.18879 -25.43440  24.43190
   0.78439 -26.09280  25.92830
  -5.50041 -24.65630  26.28740
 -11.42601 -21.18470  25.68890
 -16.51371 -16.39630  24.19250
 -19.80571 -11.66780  22.51660
 -21.12251  -8.13630  20.90050
 -20.82321  -5.56260  20.18220
 -19.02761  -3.28810  20.72090
 -16.21441  -1.67200  21.97790
 -12.98221  -1.01360  23.71370
  -9.69021  -1.61220  25.32980
  -6.39821  -3.88670  26.34730
  -3.46531  -6.87940  25.92830
  -1.01131  -9.87210  24.31220
   1.02379 -12.44590  21.55890
   2.81939 -14.60070  18.02750
   4.43549 -15.91750  14.13690
   5.99169 -16.21670  10.54560
   7.66769 -15.73790   7.37330
   9.70269 -14.89990   4.44050
  12.51589 -14.00210   1.98640
  16.16699 -13.46340   0.25060
  20.89559 -12.98460  -0.46760
  26.46199 -12.56560  -0.10850
  32.86649 -12.02690   1.50760
  39.74979 -11.66780   4.32070
  46.69289 -11.54810   8.21130
  53.39669 -11.72760  13.11940
  59.20259 -12.44590  18.80560
  63.87129 -13.58310  24.73120
  66.44499 -14.89990  30.77650
  66.50489 -15.73790  36.76200
  64.35009 -15.61820  42.26860
  60.69899 -15.01960  47.29640
  56.20989 -13.76270  52.08480
  51.42149 -11.96700  56.39440
  47.17179  -9.75240  59.92580
  43.99949  -6.75970  62.43970
  41.42569  -3.16840  63.81630
  39.33079  -0.29540  63.81630
  37.47529   1.08130  62.26010
  35.91909   0.78200  59.56670
  34.30299  -0.83410  56.09510
  32.50739  -3.10850  52.50380
  29.81389  -5.74220  48.91250
  25.92339  -8.25610  45.85990
  20.77579  -9.69260  43.58540
  14.31149 -10.11160  41.96940
   7.66769  -9.51300  40.71240
   1.32309  -7.77720  39.15620
  -4.48291  -4.66480  37.24080
  -9.75011  -0.83410  34.78680
 -14.23921   3.35580  31.97360
 -17.53121   7.60550  28.68160
 -19.20711  12.15440  25.09030
 -19.74581  16.34420  21.55890
 -19.50641  19.69610  17.96760
 -18.84801  21.73120  14.13690
 -18.06991  22.26990  10.60550
 -17.65091  22.03040   7.55290
 -17.29181  21.37200   5.21860
 -17.23191  19.93550   3.54260
 -17.53121  17.90050   2.22580
 -17.83051  15.44640   0.96890
 -18.30931  13.77050  -0.04870
 -18.90781  13.47120  -1.12600
 -19.98521  13.53110  -2.32310
 -21.96041  13.41140  -3.99910
 -25.07291  13.05220  -6.21370
 -29.38241  12.21430  -8.54800
 -34.35041  10.65800 -10.94220
 -39.49791   8.68280 -13.21670
 -44.04681   6.94700 -14.83280
 -47.75781   6.52810 -15.55100
 -50.09221   7.84490 -15.67070
 -51.28931  10.11940 -15.01230
 -51.46881  13.11210 -14.05470
 -51.04981  16.46400 -13.09700
 -50.45131  19.45670 -12.37870
 -49.49361  21.55160 -12.01960
 -48.35641  22.15020 -12.13930
 -47.15931  21.37200 -12.91740
 -46.02201  19.21730 -14.05470
 -45.30381  16.40410 -15.79050
 -45.36361  13.11210 -17.04740
 -46.14171   9.16170 -17.70580
 -46.91991   4.73240 -17.52620
 -47.45861  -0.05600 -16.20940
 -47.69801  -4.54510 -14.17440
 -47.39871  -8.25610 -11.48090
 -46.80011 -11.30860  -8.78740
 -45.66291 -14.00210  -6.51300
 -43.56801 -16.63570  -4.77720
 -40.21611 -18.67080  -3.46040
 -35.54751 -19.14960  -2.74210
 -29.92111 -17.41380  -2.62240
 -23.57651 -13.82250  -3.22100
 -16.87281  -9.45310  -4.53780
 -10.22891  -5.62240  -6.51300
  -3.70471  -2.56990  -8.90720
   2.52019  -0.71440 -11.00210
   8.44579   0.06380 -12.07950
  13.71299  -0.59460 -11.89990
  17.66339  -2.92900 -11.00210
  19.57879  -6.93920  -9.92470
  19.39919 -12.44590  -9.56560
  17.12469 -18.79050 -10.16410
  13.05459 -24.95550 -11.89990
   7.54799 -30.22270 -14.89260
   0.72449 -33.81400 -18.96280
  -7.17631 -35.96880 -24.11030
 -15.73551 -36.38780 -29.67670
 -23.63641 -34.23300 -35.18340
 -30.28021 -29.80380 -39.85210
 -35.30801 -23.63870 -43.02440
 -38.60011 -16.69560 -44.82000
 -40.75481  -9.87210 -45.41850
 -42.13151  -3.82680 -45.05940
 -43.08921   1.67980 -44.16160
 -44.40601   6.64780 -42.84480
 -46.26151  11.85510 -41.10900
 -48.89511  17.06250 -38.95420
 -52.00751  21.61150 -36.20090
 -54.94041  24.24510 -32.72930
 -57.15501  25.38230 -28.77890
 -58.47181  26.04070 -24.88840
 -58.95071  26.39980 -21.47670
 -58.65141  26.28010 -18.30430
 -58.11271  25.98090 -15.49120
 -57.39441  25.86110 -13.39630
 -56.79591  26.04070 -11.54080
 -56.01781  26.28010 -10.04440
 -55.41921  25.86110  -8.60790
 -55.29951  24.60420  -6.39330
 -55.41921  22.38960  -3.34070
 -55.47911  19.33700   0.43020
 -55.17981  15.62600   4.91930
 -54.46161  11.67560  10.30620
 -52.96521   8.38360  16.47130
 -50.99001   5.69010  22.87570
 -48.89511   3.65500  29.51960
 -46.44101   1.97910  36.34300
 -44.04681   0.54260  43.16650
 -41.59281  -0.53480  49.75050
 -39.25851  -0.35520  55.61630
 -37.10371   0.48270  60.46450
 -35.18831   1.26080  64.47480
 -34.11091   1.73970  67.34780
 -34.11091   1.79950  69.32300
 -34.64961   1.79950  70.34050
 -35.06861   1.08130  70.28070
 -35.24821  -0.65450  69.86170
 -34.47011  -3.46770  69.08360
 -32.73431  -6.81950  68.00620
 -29.68171 -10.41080  66.98860
 -26.21011 -13.52330  65.97110
 -22.43931 -15.55830  65.01340
 -18.36911 -16.69560  63.87620
 -13.70051 -17.11460  62.32000
  -8.61281 -17.17440  60.28490
  -2.74711 -16.99480  57.83090
   4.43549 -16.87510  55.25710
  13.23419 -16.45620  52.26440
  23.88829 -16.21670  48.85270
  35.67969 -16.51600  44.84240
  48.06959 -17.41380  40.29340
  60.39969 -18.25180  35.44520
  72.31079 -18.73060  30.17800
  83.26419 -18.07220  25.03050
  92.60149 -17.11460  20.18220
  99.96369 -15.55830  15.63330
 105.05129 -13.28390  11.62300
 108.52289  -9.93200   7.85220
 110.85719  -6.40060   3.78200
 111.99449  -3.64720  -1.12600
 111.75499  -2.27060  -6.81220
 110.19879  -2.15090 -13.81520
 107.62509  -2.62970 -22.01530
 104.69219  -2.92900 -30.87380
 101.40019  -3.22830 -40.27100
  97.74899  -3.88670 -49.42880
  93.43949  -5.08380 -57.56910
  89.07009  -6.52030 -63.79390
  84.10219  -7.05900 -67.62470
  77.75759  -6.22100 -69.71960
  69.67719  -4.18590 -70.73710
  59.92079  -1.25300 -71.27580
  48.30899   1.73970 -71.09620
  36.15849   4.91200 -70.13860
  24.48679   7.96460 -69.18090
  14.19179  10.65800 -68.52250
   5.99169  12.87270 -69.00130
   0.54489  14.42890 -70.43780
  -2.32811  15.38660 -72.41300
  -2.56751  15.44640 -74.86710
  -0.65211  14.54860 -77.02180
   2.93909  13.65080 -78.57810
   7.18879  13.05220 -79.53570
  11.73779  12.93250 -79.53570
  15.56849  12.99240 -78.93720
  18.86049  12.57340 -77.91970
  21.31449  11.61570 -76.42330
  22.69119  10.83760 -74.02910
  23.11019  10.47850 -70.73710
  22.87079  11.07700 -66.36770
  21.85319  12.33400 -60.98080
  20.23719  13.71060 -54.63620
  17.96269  15.20700 -47.45360
  15.08959  17.30190 -39.73230
  11.73779  19.69610 -32.07090
   8.20639  22.09030 -25.24750
   4.73479  23.70640 -19.14230
   1.26319  24.60420 -14.29410
  -1.78941  24.90350 -10.58310
  -4.72231  24.24510  -8.12900
  -7.71501  22.50930  -7.23120
 -10.64791  19.27710  -7.88960
 -13.58081  14.84790  -9.74510
 -16.39391  10.05950 -12.07950
 -18.96771   5.57040 -13.93500
 -21.06261   1.79950 -14.77290
 -22.67871  -0.47490 -14.59340
 -23.87581  -1.67200 -13.15680
 -24.23491  -2.45010 -10.52320
 -23.69621  -3.22830  -6.93190
 -21.90061  -4.18590  -2.74210
 -19.26701  -4.72460   1.38790
 -16.09471  -4.66480   5.27840
 -12.62311  -4.24580   8.21130
  -9.15151  -3.22830  10.06680
  -5.85951  -1.85160  10.54560
  -2.38791  -0.41510   9.58800
   1.08359   0.78200   7.73250
   4.85449   1.08130   5.27840
   8.86479   0.42290   2.34550
  12.51589  -0.47490  -0.52750
  16.16699  -1.13330  -3.34070
  19.81819  -2.27060  -6.03410
  23.46929  -4.24580  -8.90720
  27.29999  -6.64000 -11.60060
  31.42999  -9.03420 -14.29410
  35.50009 -11.00940 -17.34670
  39.57019 -12.56560 -20.69850
  43.40089 -14.12180 -24.11030
  46.93239 -15.49850 -27.76140
  49.92509 -16.51600 -31.53220
  52.19959 -16.99480 -34.70450
  53.69599 -16.51600 -36.67980
  54.11489 -15.01960 -37.27830
  53.39669 -12.86490 -36.61990
  51.90029 -10.11160 -35.24320
  49.74549  -7.11880 -32.96880
  47.05209  -4.24580 -30.03590
  43.81989  -1.55230 -27.28260
  40.28849   0.96160 -24.58910
  35.97899   3.53530 -22.13510
  31.01099   5.33100 -19.80070
  25.68389   5.80980 -17.28680
  20.11739   4.49300 -14.41380
  14.37139   2.09880 -11.06190
   8.38589  -0.89390  -7.59040
   2.52019  -3.58740  -3.87940
  -3.28581  -5.62240   0.60970
  -8.73251  -6.93920   5.93680
 -13.64061  -7.95680  11.62300
 -18.24941  -8.97430  17.48880
 -22.55901 -10.47070  23.53410
 -26.38971 -12.02690  29.69910
 -30.10071 -12.74520  35.62480
 -33.27301 -12.38600  41.67010
 -35.78691 -11.66780  47.95480
 -37.16351 -10.77000  54.06000
 -37.28321  -9.81230  59.92580
 -36.26571  -8.55530  65.55210
 -34.35041  -6.93920  70.40040
 -32.01601  -5.14360  74.41060
 -29.32261  -3.76690  77.46320
 -26.80871  -3.34800  79.43840
 -24.77361  -3.88670  80.51580
 -23.33711  -4.36550  80.27640
 -22.55901  -4.18590  78.78000
 -22.85831  -3.52750  76.50560
 -23.99551  -2.39030  73.57270
 -26.09041  -1.07350  70.87920
 -29.08311   0.24330  68.60470
 -32.55471   1.79950  67.04850
 -36.26571   3.41560  66.39010
 -39.73731   5.45070  66.74920
 -42.49061   6.82730  67.88650
 -44.28631   7.06680  69.74200
 -45.00451   6.04920  72.01640
 -44.64541   4.91200  74.65010
 -43.26871   4.43320  77.46320
 -41.17381   5.09160  80.33630
 -38.89931   6.16890  83.20930
 -37.10371   6.94700  85.78300
 -36.08621   7.30620  87.51880
 -35.78691   7.06680  88.59620
 -36.20591   6.70760  88.95530
 -37.16351   6.10910  88.95530
 -38.30081   5.39080  88.89550
 -39.19861   4.25360  88.53640
 -39.37821   2.27840  88.05750
 -38.60011  -0.53480  86.98010
 -36.50511  -3.88670  85.24430
 -32.79411  -7.41810  83.02970
 -27.52691 -10.41080  79.85740
 -21.30201 -12.20650  75.90700
 -14.77791 -12.80500  71.23830
  -8.31361 -12.38600  66.21050
  -2.92661 -10.77000  60.70390
   1.32309  -8.43560  54.95780
   4.31579  -6.22100  48.85270
   6.23109  -4.36550  41.78980
   7.42819  -2.45010  33.82910
   7.96689  -0.47490  25.62900
   7.90709   1.85940  17.36910
   7.72749   4.13390   9.40840
   7.18879   5.98940   1.32800
   6.35089   7.54560  -6.87210
   5.51289   8.68280 -15.19190
   4.79459   8.68280 -23.21240
   4.49539   7.72520 -30.75410
   4.19609   6.04920 -37.39800
