********************************************************************************
              CENTRO DE INSTRUMENTACION Y REGISTRO SISMICO  A.C.

    Anaxagoras 814, Col. Narvarte, Benito Juarez, C.P. 03020 Mexico, D.F.
           Tels. 5687 45 42/ 5687 45  82             Fax. 5669 25 12
********************************************************************************
ARCHIVO ESTANDAR DE ACELERACION:
VERSION DEL FORMATO                    : 2.0
NOMBRE DEL ARCHIVO                     : CJ0420170919181440
FECHA Y HORA DE CREACION               : 27/SEP/17, 15:28
REF. CATALOGO ACELEROGRAMAS, SMIS 1996 : REGISTRO No.     /PAG.


================================================================================
DATOS DE LA ESTACION:
NOMBRE DE LA ESTACION                  : MULTIFAMILIAR JUÁREZ II
CLAVE DE LA ESTACION                   : CJ04
LOCALIZACION DE LA ESTACION            : Del. Cuauhtémoc, Col. Roma,            
                                       : Prol. Orizaba, entre calles            
                                       : Antonio M. Anza y Huatabampo.          
                                       :                                        
                                       : 
COORDENADAS DE LA ESTACION             : 19.4098 LAT. N
                                       : 99.1566 LONG. W
ALTITUD (msnm)                         : 2233
TIPO DE SUELO                          : Alto riesgo sísmico                 
                                       :                           
                                       : 
INSTITUCION RESPONSABLE                : CIRES, A. C.
                                       : 

================================================================================
DATOS DEL ACELEROGRAFO:
MODELO DEL ACELEROGRAFO                : RAD_IO14
NUMERO DE SERIE DEL ACELEROGRAFO       : 
NUMERO DE CANALES                      : 3
ORIENTACION C1-C6 (rumbo;orientacion)  : /N00E/+V/N90W
ORIENTACION C7-C12 (rumbo;orientacion) : 
VEL. DE MUESTREO, C1-C6 (muestras/s)   : /100/100/100
VEL. DE MUESTREO, C7-C12 (muestras/s)  : 
ESC. COMPLETA DE SENSORES, C1-C6, (g)  : /2.0/2.0/2.0
ESC. COMPLETA DE SENSORES, C7-C12, (g) : 
FREC. NAT. DE SENSORES, C1-C6, (Hz)    : /32/30/30
FREC. NAT. DE SENSORES, C7-C12, (Hz)   : 
AMORTIGUAMIENTO DE SENSORES, C1-C6     : /0.795/0.700/0.700
AMORTIGUAMIENTO DE SENSORES, C7-C12    : 
INTERVALO DE MUESTREO, C1-C6, (s)      : /0.01/0.01/0.01
INTERVALO DE MUESTREO, C7-C12, (s)     : 
UMBRAL DE DISPARO, C1-C6, (Gal)        : / / /
UMBRAL DE DISPARO, C7-C12, (Gal)       : 
MEMORIA DE PREEVENTO (s)               : 60
TIEMPO DE POSEVENTO (s)                : 90


================================================================================
DATOS DEL SISMO:
FECHA DEL SISMO (GMT)                  : 19/SEP/17
HORA EPICENTRO (GMT)                   : 18:14:40.0
MAGNITUD(ES)                           : /Mc=7.1
COORDENADAS DEL EPICENTRO              : 18.40 LAT. N
                                       : 98.72 LONG. W
PROFUNDIDAD FOCAL (km)                 : 57
FUENTE DE LOS DATOS EPICENTRALES       : SSN
                                       : INSTITUTO DE GEOFISICA, UNAM

================================================================================
DATOS DE ESTE REGISTRO:
HORA DE LA PRIMERA MUESTRA (GMT)       : 13:13:59.00
EXACTITUD DEL TIEMPO (s)               : 
DURACION DEL REGISTRO (s), C1-C6       : /600.0/600.0/600.0
DURACION DEL REGISTRO (s), C7-C12      : 
NUM. TOTAL DE MUESTRAS, C1-C6          : /60000/60000/60000
NUM. TOTAL DE MUESTRAS, C7-C12         : 
ACEL. MAX. (Gal), C1-C6                : /123.92777/34.77837/97.064
ACEL. MAX., C1-C6, EN LA MUESTRA       : /8777/8715/9667
ACEL. MAX. (Gal), C7-C12               : 
ACEL. MAX., C7-C12, EN LA MUESTRA      : 
UNIDADES DE LOS DATOS                  : Gal (cm/s/s)
FACTOR DE DECIMACION                   : 1
FORMATO DATOS (FORTRAN,10 campos/dato) : 3F10.5


================================================================================
CALIDAD DEL ACELEROGRAMA:
REGISTRO DIGITAL COMPLETO CON TIEMPO ABSOLUTO CORRECTO.


================================================================================
COMENTARIOS:














================================================================================
DATOS DE ACELERACION:
---------+---------+---------+---------+---------+---------+---------+---------+
   CANAL-1   CANAL-2   CANAL-3   CANAL-4   CANAL-5   CANAL-6   CANAL-7   CANAL-8
      N00E        +V      N90W
---------+---------+---------+---------+---------+---------+---------+---------+
[...]
  47.55307  -0.18237   6.60440
  51.38377   2.63083  16.54030
  52.76047   6.22213  24.50100
  52.22177   8.43673  29.88790
  50.24657   8.49663  33.47920
  47.07427   7.11993  35.45440
  42.88447   4.36663  34.91570
  38.63477   0.83523  32.52150
  33.90617  -2.63637  29.94780
  29.29737  -5.09047  28.21200
  24.38927  -6.34737  27.07470
  19.60097  -7.24517  26.47620
  15.47097  -8.74157  26.71560
  12.23877 -11.07587  27.67330
  10.20377 -12.75187  29.46890
   9.06647 -12.57227  31.38430
   8.46797 -10.23797  33.17990
   8.34827  -6.28757  34.49670
   8.16867  -2.39697  35.03540
   7.98907   0.05703  34.37700
   7.86937   1.01473  32.82080
   7.80957   0.89503  30.54630
   7.68987   0.59573  27.91270
   7.39057   0.53593  24.92000
   6.73217   0.71543  22.52580
   5.95407   0.41623  21.98710
   5.23577  -0.66117  23.72290
   4.21827  -3.35467  27.49370
   2.72187  -7.54447  33.06020
   0.26787 -11.61457  39.64420
  -3.68253 -14.36787  46.34800
  -9.00963 -15.68477  52.33340
 -14.99513 -16.46287  57.54080
 -20.80103 -18.25847  61.61090
 -25.52953 -21.43077  64.30440
 -28.76173 -24.66297  66.04020
 -30.91643 -26.57827  66.75840
 -32.53253 -26.75787  66.21970
 -34.26833 -25.38117  64.54380
 -36.48293 -22.98697  61.85030
 -39.35603 -20.23367  58.01960
 -42.76773 -17.24097  53.77000
 -46.65823 -15.26577  48.92170
 -50.36923 -14.36787  44.43260
 -53.48173 -14.18837  41.08070
 -55.21753 -13.58977  39.04570
 -55.27733 -12.21317  37.72890
 -53.36203 -10.77667  36.71140
 -49.41153 -10.53717  35.51430
 -44.02463 -11.49487  33.77850
 -38.27863 -12.75187  31.14490
 -33.19093 -13.35037  27.79300
 -29.65953 -12.51237  23.48350
 -27.92373 -10.71677  18.21620
 -27.80403  -8.50217  12.53000
 -28.70183  -6.76637   6.78400
 -30.31793  -6.16777   1.57660
 -32.83183  -6.82617  -3.21180
 -36.24353  -8.56197  -7.04250
 -40.25383  -9.93867  -9.73590
 -44.92243  -9.10067 -11.53160
 -50.12983  -6.10797 -12.42940
 -55.51673  -2.03787 -12.48920
 -60.42483   0.95493 -11.95050
 -64.79423   2.63083  -9.91550
 -68.86433   4.72573  -5.48620
 -69.88193   6.76083  -2.67310
 -69.52273   7.35933   0.85840
 -68.56513   9.81343   5.82630
 -63.95623  11.13023   8.63950
 -58.86863  11.78863  11.51250
 -52.76343  12.80613  14.38550
 -46.47873  14.00323  17.07900
 -40.55303  15.67913  19.47320
 -35.58513  18.13323  21.26880
 -31.99383  20.70693  21.86740
 -30.49753  23.04133  21.92720
 -31.33543  24.29823  22.04690
 -33.60993  24.41793  23.12430
 -36.36323  23.58003  24.86010
 -38.81733  21.48503  26.77550
 -39.83483  18.79163  28.81050
 -39.41583  15.43973  30.54630
 -37.79973  12.74623  32.04270
 -35.34573  11.78863  33.41930
 -32.83183  12.38713  34.79600
 -31.09603  13.52443  36.23250
 -30.01863  14.48203  37.66900
 -29.95883  14.84123  38.92600
 -31.51503  15.08063  39.58440
 -35.22603  15.97843  39.40480
 -40.85233  17.59453  38.38730
 -47.61593  19.03103  36.47190
 -54.19993  19.50983  33.83830
 -59.52703  19.03103  31.02520
 -63.47743  17.71423  28.03240
 -65.63223  15.49963  24.26160
 -66.23073  13.58423  20.19140
 -66.11103  13.10543  16.12130
 -64.97383  13.76383  11.81180
 -62.87893  14.18283   6.72410
 -59.34743  13.64413   0.79850
 -54.49923  11.78863  -5.78550
 -49.17213   9.45423 -13.80600
 -43.96483   7.00023 -23.02370
 -39.35603   4.18703 -33.13910
 -35.22603   1.37383 -43.07500
 -31.15593  -1.31957 -52.41230
 -27.26533  -3.05537 -60.55260
 -24.15283  -3.65387 -66.83730
 -21.81853  -4.13277 -71.20670
 -19.96303  -5.03057 -73.54110
 -18.34693  -5.98827 -73.84030
 -17.20973  -6.28757 -72.40380
 -16.01263  -6.40727 -69.77020
 -14.51623  -6.82617 -65.99940
 -11.94253  -7.24517 -61.92930
  -8.23153  -6.70647 -58.51750
  -3.20373  -5.26997 -56.18320
   2.96127  -3.89337 -55.22550
  10.02417  -3.23497 -55.70440
  17.38627  -3.53417 -57.91900
  24.44917  -3.95317 -61.92930
  30.67407  -3.11527 -67.01690
  35.82157  -1.31957 -72.82280
  39.53257   0.53593 -78.03020
  42.16617   1.49363 -81.56160
  44.62017   1.25413 -83.23750
  47.01437   0.53593 -83.11780
  49.52827  -0.06267 -81.26230
  52.46117  -0.42177 -78.44920
  56.05247  -0.96047 -75.69580
  60.42187  -1.25977 -73.42140
  65.56937  -1.13997 -71.44620
  70.77677  -0.96047 -69.83010
  75.80457  -1.02027 -68.63300
  80.41337  -1.61887 -67.85490
  84.06447  -2.51667 -67.37600
  86.39877  -3.23497 -67.07680
  87.47617  -3.11527 -66.59790
  87.29667  -1.49917 -65.46070
  85.62067   1.55343 -63.06650
  82.02947   5.50383 -59.11610
  76.28337   9.21483 -53.48970
  68.20297  12.44703 -45.58890
  59.34447  15.02073 -35.89240
  51.50347  16.75653 -26.07630
  46.17647  16.69673 -17.63670
  43.72237  14.66163 -10.57390
  43.36327  11.90833  -4.70810
  44.62017   8.43673   0.37950
  47.31367   3.88773   4.86860
  51.14437  -1.49917   8.93880
  55.57367  -5.92837  12.82930
  59.82327  -8.02327  16.48050
  63.05547  -8.74157  19.53300
  64.25257  -9.04087  21.74770
  63.41457  -9.28027  23.12430
  60.60147  -9.34007  23.78270
  56.17217  -8.56197  23.48350
  51.26407  -7.84377  21.98710
  46.83487  -7.12547  19.29360
  42.58517  -5.44957  16.06150
  38.09607  -3.05537  12.47020
  33.72667  -1.85827   8.93880
  29.53677  -3.35467   6.48470
  25.70607  -7.36487   6.06570
  22.47397 -12.45257   7.80150
  19.72067 -17.30077  11.39280
  16.90747 -20.89207  16.12130
  13.31617 -23.16657  20.79000
   8.58767 -24.66297  24.56080
   2.90147 -24.84247  27.37400
  -3.20373 -23.16657  28.87040
  -9.06953 -19.75487  28.93020
 -14.33673 -15.38547  27.37400
 -18.40683 -10.89637  24.50100
 -21.04043  -6.94597  21.26880
 -22.35723  -3.65387  18.57540
 -22.41713  -0.78087  17.61770
 -21.39953   1.25413  18.09650
 -19.24483   1.97243  19.65280
 -16.43163   1.01473  21.50830
 -13.61843  -1.55897  23.24400
 -11.10453  -4.85097  24.08200
  -8.59063  -7.66417  23.72290
  -6.19643  -9.99857  21.74770
  -3.62273 -12.51237  18.63520
  -1.40803 -15.02627  14.86440
   0.74667 -16.82197  11.21320
   2.84157 -17.60007   7.80150
   4.93657 -17.95917   4.98830
   7.80957 -18.25847   2.29490
  11.58037 -18.73727  -0.15920
  16.30897 -19.21617  -2.13440
  21.75567 -18.79717  -3.09200
  27.68137 -17.48037  -2.85260
  34.08577 -15.62487  -1.23650
  40.31067 -13.52997   1.93580
  46.47567 -11.85397   5.88620
  52.52107 -11.19557  10.97380
  57.66857 -11.31537  17.07900
  61.14007 -12.21317  23.66300
  62.81607 -13.17087  30.72590
  62.15767 -13.41027  37.42960
  59.34447 -12.87157  43.53480
  55.27437 -11.55477  49.16110
  50.72537  -9.81897  54.36850
  46.41587  -7.54447  58.67800
  43.00417  -4.49187  62.14960
  40.60997  -0.42177  64.48400
  39.05377   3.52863  65.26210
  38.21577   5.98273  64.54380
  37.79677   6.46153  62.68830
  37.49747   5.56373  60.41380
  37.13837   3.76803  57.60070
  36.42007   1.01473  54.60790
  34.68437  -2.39697  52.15390
  31.39227  -5.26997  50.47790
  26.36447  -6.94597  49.04140
  19.90017  -7.66417  47.24580
  12.71767  -7.78387  45.09100
   5.83437  -6.82617  42.57710
  -0.68983  -5.26997  39.40480
  -6.25633  -3.65387  35.93320
 -10.68553  -1.97797  32.40180
 -13.91773   0.47603  29.16970
 -15.95283   3.64833  25.69810
 -16.73093   6.40163  21.92720
 -16.43163   8.13743  18.03670
 -15.59363   9.03533  14.38550
 -14.81553   9.69373  10.67450
 -14.09733  10.59153   7.56210
 -13.61843  11.36963   5.04820
 -13.37903  11.72873   3.13280
 -13.25933  11.42943   1.63650
 -13.31913  11.48933   0.31970
 -13.85783  12.56673  -0.93730
 -14.93523  14.06313  -2.43360
 -16.97033  14.96093  -4.58840
 -20.02293  15.32003  -7.04250
 -24.27263  15.02073  -9.85560
 -29.30043  13.58423 -12.78850
 -34.50773  11.13023 -15.60170
 -39.83483   8.85573 -17.69660
 -44.50353   7.77833 -18.65430
 -48.09473   7.95793 -18.83380
 -50.66853   9.27473 -18.35500
 -52.28463  11.19003 -17.33750
 -53.30213  13.46453 -16.20020
 -53.96053  16.09813 -15.12280
 -54.14013  18.67193 -14.40460
 -53.60143  20.52743 -14.04550
 -52.10503  21.00623 -14.10530
 -50.07003  20.70693 -14.28490
 -48.15463  19.98873 -14.88340
 -47.13713  18.97113 -15.66150
 -47.31663  17.53463 -16.37980
 -48.51373  15.61933 -16.43970
 -49.95023  13.10543 -15.12280
 -50.84813   9.75353 -13.02790
 -51.08753   6.10243 -10.27460
 -50.78823   2.75053  -7.52130
 -50.36923  -0.30207  -5.30670
 -49.53133  -3.35467  -3.93000
 -47.37653  -6.34737  -3.33150
 -43.18673  -8.32257  -3.15190
 -37.14133  -8.68167  -3.39130
 -29.65953  -7.42477  -4.28910
 -21.57913  -5.38967  -5.96510
 -13.49873  -3.41447  -8.35930
  -5.89723  -1.85827 -10.99290
   1.04597  -0.66117 -13.20750
   7.27087   0.23663 -14.46440
  12.77747   0.23663 -14.64400
  17.38627  -1.08017 -13.68630
  20.67827  -3.83347 -11.59140
  22.41407  -8.02327  -9.19720
  22.11487 -13.23067  -6.86290
  20.13967 -18.49787  -5.54610
  16.36877 -23.04687  -5.60590
  10.92197 -26.87757  -7.94030
   4.09857 -30.34917 -12.19000
  -3.38333 -33.40177 -17.69660
 -11.16443 -34.77837 -23.68210
 -18.76593 -34.59877 -29.90700
 -25.34993 -32.74337 -35.35370
 -30.25803 -29.39147 -39.78300
 -33.01143 -25.44107 -43.13490
 -34.32823 -21.43077 -44.63120
 -35.22603 -17.30077 -44.99040
 -36.84213 -12.81167 -45.05020
 -39.23623  -7.48467 -44.87070
 -42.16913  -1.55897 -43.97280
 -45.04223   4.36663 -42.11730
 -47.61593   8.91553 -39.36400
 -49.77073  11.84843 -35.29390
 -51.44663  14.00323 -30.38580
 -52.58383  15.73903 -25.47770
 -53.48173  16.75653 -21.28790
 -53.96053  17.35513 -18.23530
 -53.96053  18.31273 -15.84110
 -53.72113  20.04853 -13.92580
 -53.48173  21.78433 -12.84840
 -53.42183  23.04133 -11.77100
 -53.48173  23.58003 -10.45420
 -53.72113  23.40043  -8.29940
 -54.49923  22.56243  -5.12710
 -55.21753  21.12593  -0.99710
 -55.69633  19.21063   4.27010
 -55.69633  17.17553  10.25560
 -55.03793  15.61933  16.24100
 -54.61893  14.30253  22.28640
 -54.49923  12.74623  28.75070
 -54.67883  11.24993  35.45440
 -54.61893  10.11263  41.97860
 -54.37953   9.57393  48.14360
 -53.60143   9.81343  53.59040
 -52.58383  10.17253  57.95980
 -51.62623   9.87323  61.43140
 -51.02763   9.27473  64.06500
 -50.84813   9.03533  65.86060
 -50.90793   8.91553  66.63870
 -50.54883   8.07763  66.63870
 -49.59113   5.50383  65.92050
 -47.07723   1.91253  64.90290
 -43.30643  -1.85827  63.52630
 -38.39833  -4.79117  61.85030
 -34.02893  -6.70647  60.35400
 -30.73693  -7.48467  59.15690
 -27.26533  -7.72407  57.95980
 -22.83603  -8.26277  56.70280
 -17.44913  -9.28027  55.20650
 -11.22423 -10.65697  53.11160
  -3.56283 -12.03357  50.41810
   5.71467 -13.70947  47.24580
  16.78777 -15.98397  43.65450
  29.53677 -18.73727  39.52450
  43.66257 -21.73007  34.79600
  58.20727 -24.24397  30.00760
  72.51247 -25.56077  25.75790
  85.32147 -26.09947  21.68780
  96.87337 -25.86007  17.97680
 107.46767 -23.88477  15.28340
 115.72767 -20.17387  12.94900
 120.99487 -15.26577   9.71690
 123.92777 -10.95617   5.28760
 123.74817  -7.54447   0.20000
 122.79047  -5.26997  -5.66580
 121.47367  -4.25247 -12.60890
 117.52327  -3.65387 -21.58720
 112.01667  -2.33707 -32.00190
 107.76697  -1.08017 -41.21950
 104.41507  -1.43927 -48.46190
 101.18297  -2.99547 -54.32770
  98.07047  -4.97077 -58.69710
  93.76097  -6.16777 -61.03140
  87.17697  -6.22767 -62.34820
  78.07897  -5.92837 -63.30590
  66.70657  -5.68897 -64.08400
  53.77797  -4.85097 -64.68260
  40.55007  -3.05537 -65.16140
  28.21997  -0.66117 -65.46070
  17.86517   1.85273 -65.76000
  10.38327   4.30673 -66.71760
   5.71467   6.46153 -68.63300
   3.85917   8.25713 -71.14690
   4.21827   9.33453 -73.66080
   6.07377  10.17253 -75.45640
   9.06647  11.13023 -76.77320
  12.71767  12.50683 -77.67100
  16.24907  14.18283 -77.67100
  19.06227  15.32003 -77.31190
  21.15717  15.49963 -76.17470
  22.41407  15.32003 -74.37900
  23.01267  15.20033 -71.44620
  22.65357  15.67913 -67.49570
  21.57617  16.15803 -62.70740
  19.78047  16.09813 -57.02120
  17.20677  15.79883 -50.37730
  14.39357  15.91863 -42.95530
  11.28117  16.39743 -35.17420
   7.98907  17.05583 -27.99160
   4.93657  17.53463 -21.82660
   2.12337  18.25293 -16.79880
  -0.98913  19.68943 -12.90820
  -3.86213  21.60483 -10.09510
  -6.61543  22.98143  -8.29940
  -9.72793  23.22083  -7.94030
 -13.13963  22.38293  -9.07750
 -16.67103  20.88653 -11.05270
 -20.50173  19.03103 -13.32720
 -24.03313  17.11563 -15.12280
 -27.14563  15.73903 -15.84110
 -29.83903  14.90103 -15.36230
 -31.81433  14.00323 -13.44690
 -32.71213  12.56673 -10.45420
 -32.05373  10.17253  -6.26430
 -29.95883   7.83823  -1.05700
 -26.60693   5.50383   3.97080
 -22.47693   2.98993   8.28040
 -18.22723   0.83523  11.15340
 -14.33673  -0.48157  12.47020
 -10.86513  -1.13997  12.23080
  -6.85483  -1.91817  10.73440
  -2.24603  -3.53417   8.28040
   2.96127  -5.80867   5.16790
   8.70737  -7.72407   1.69630
  14.33367  -8.80147  -1.47600
  19.60097  -9.57957  -4.58840
  24.44917 -10.83647  -7.40160
  29.11787 -12.15327  -9.79580
  33.78647 -13.17087 -11.95050
  38.33547 -14.06867 -14.10530
  42.76467 -15.02627 -16.37980
  47.25387 -16.64237 -19.25280
  50.90497 -18.73727 -23.02370
  54.13707 -21.13147 -27.21350
  56.53127 -23.04687 -30.74490
  58.32697 -24.06437 -33.73770
  59.28467 -24.42347 -35.59320
  59.34447 -23.46587 -36.07200
  58.32697 -21.73007 -35.65300
  56.59117 -19.51547 -34.03690
  54.49627 -16.88177 -31.46320
  52.52107 -13.52997 -28.82960
  50.24657  -9.51967 -26.07630
  47.43337  -4.79117 -23.26310
  44.02167  -0.06267 -20.39010
  39.89167   3.94763 -17.15790
  34.68437   6.28193 -13.86590
  28.75867   6.70093 -10.27460
  22.29437   5.98273  -6.44390
  15.11187   4.84543  -2.73290
   7.68987   3.70823   1.51680
   0.38757   2.87023   6.24530
  -6.85483   1.97243  11.57240
 -13.67833   0.71543  17.25860
 -19.90323  -1.25977  23.06450
 -25.46973  -4.01307  28.69080
 -30.55733  -6.88607  34.31720
 -34.98663  -9.04087  39.82380
 -38.87713 -10.35767  45.21070
 -41.98963 -10.77667  50.41810
 -43.96483 -10.59707  55.68530
 -44.62323  -9.81897  60.95250
 -43.90493  -8.20287  65.92050
 -42.16913  -6.22767  70.11030
 -40.01443  -4.49187  73.04320
 -37.73993  -2.99547  74.77900
 -35.22603  -1.91817  75.49720
 -33.31063  -1.08017  75.43740
 -31.99383  -0.18237  74.71910
 -30.85663   1.13443  73.46220
 -29.83903   2.51113  71.78620
 -29.47993   3.52863  69.51170
 -30.25803   3.94763  66.93800
 -32.35293   4.30673  65.02260
 -35.58513   4.66593  64.06500
 -39.23623   5.14473  64.00510
 -42.76773   5.44403  64.84310
 -45.88013   4.54623  66.33940
 -48.33423   2.21183  68.49420
 -49.65103  -0.78087  71.12780
 -50.07003  -3.05537  73.88110
 -49.29183  -3.95317  76.51480
 -47.85533  -3.83347  78.78920
 -46.23923  -3.41447  80.58490
 -44.38383  -3.29477  81.18340
 -42.64803  -3.41447  81.42280
 -42.40853  -2.99547  82.14110
 -43.00713  -1.25977  82.32070
 -43.78523   0.83523  82.50020
 -43.96483   2.69073  82.44040
 -43.72533   3.82793  82.38050
 -43.36623   3.64833  81.90170
 -42.64803   2.63083  81.12360
 -41.21143   1.37383  80.04620
 -38.15893   0.29653  78.31040
 -33.07123  -0.78087  75.49720
 -26.24783  -1.55897  71.42710
 -18.64623  -1.55897  66.75840
 -11.70313  -0.72107  61.67080
  -6.13663   0.71543  56.16410
  -1.70733   2.09213  50.53780
   2.00367   2.33153  44.85160
   5.35547   1.79283  38.26760
   8.22857   1.43373  30.90540
  10.38327   2.03233  22.82510
  11.81977   3.58853  14.56510
  12.77747   4.90533   6.36500
  13.49577   5.68343  -1.41610
  14.03447   6.22213  -9.07750
  14.03447   6.04253 -16.73890
  13.91477   4.84543 -24.63980
  13.55557   3.40893 -31.94200
