********************************************************************************
            CENTRO NACIONAL DE PREVENCION DE DESASTRES (CENAPRED)               
                   Coordinacion de Instrumentacion Sismica                      
  Av. Delfin Madrigal No. 665, Col. Santo Domingo, C.P. 04360, Mexico, D.F.     
  Tels.: 606-8837, 606-9156, 606-9942, 606-7956, 606-9837.       FAX: 606-1608  
********************************************************************************
ARCHIVO ESTANDAR DE ACELERACION:                                                
VERSION DEL FORMATO                    : 2.0                                    
NOMBRE DEL ARCHIVO                     : CNBA1709.191
FECHA Y HORA DE CREACION               : 27 de Septiembre de 2017/12:48:38
REF. CATALOGO ACELEROGRAMAS, SMIS 1995 : NUM. REG. /PAG. 
                                                                                
                                                                                
================================================================================
DATOS DE LA ESTACION:                                                           
NOMBRE DE LA ESTACION                  : ESTACION No.0, CENAPRED, superficie
CLAVE DE LA ESTACION                   : CNBA
LOCALIZACION DE LA ESTACION            : Av. Delfin Madrigal No. 665, 
                                       : Col. Pedregal de Sto. Domingo,  
                                       : Del. Coyoacan, Mexico D.F.
                                       :
                                       :
COORDENADAS DE LA ESTACION             : 19.3147 LAT. N
                                       : 99.1753 LONG. W
ALTITUD (msnm)                         : 2302
TIPO DE SUELO                          : Roca basaltica
                                       :
                                       :
INSTITUCION RESPONSABLE                : CENAPRED
                                       : 
                                                                                
================================================================================
DATOS DEL ACELEROGRAFO:
MODELO DEL ACELEROGRAFO                : ROCK-BASALT
NUMERO DE SERIE DEL ACELEROGRAFO       : 519
NUMERO DE CANALES                      : 3
ORIENTACION C1-C6 (rumbo;orientacion)  : /N00E/+V/N90E
ORIENTACION C7-C12 (rumbo;orientacion) :
VEL. DE MUESTREO, C1-C6 (muestras/s)   : /100/100/100
VEL. DE MUESTREO, C7-C12 (muestras/s)  :
ESC. COMPLETA DE SENSORES, C1-C6, (g)  : /2/2/2
ESC. COMPLETA DE SENSORES, C7-C12, (g) :
FREC. NAT. DE SENSORES, C1-C6, (Hz)    : /208/202/206
FREC. NAT. DE SENSORES, C7-C12, (Hz)   :
AMORTIGUAMIENTO DE SENSORES, C1-C6     : /0.7/0.7/0.7
AMORTIGUAMIENTO DE SENSORES, C7-C12    :
INTERVALO DE MUESTREO, C1-C6, (s)      : /0.01/0.01/0.01          
INTERVALO DE MUESTREO, C7-C12, (s)     :
UMBRAL DE DISPARO, C1-C6, (Gal)        : /0.5/0.5/0.5
UMBRAL DE DISPARO, C7-C12, (Gal)       :
MEMORIA DE PREEVENTO (s)               : 60
TIEMPO DE POSEVENTO (s)                : 180
                                                                                
                                                                                
================================================================================
DATOS DEL SISMO:
FECHA DEL SISMO (GMT)                  : 19 de septiembre, 2017
HORA EPICENTRO (GMT)                   : 18:14:40.0
MAGNITUD(ES)                           : /Mc=7.1
COORDENADAS DEL EPICENTRO              : 18.4 LAT. N
                                       : 98.72 LONG. W
PROFUNDIDAD FOCAL (km)                 : 57
FUENTE DE LOS DATOS EPICENTRALES       : SSN                               
                                       : Instituto de Geofisica, UNAM      
                                       :                                                                                
================================================================================
DATOS DE ESTE REGISTRO:
HORA DE LA PRIMER MUESTRA (GMT)        : 18:13:58.00
EXACTITUD DEL TIEMPO (s)               : 0.01
DURACION DEL REGISTRO (s), C1-C6       : /459.00/459.00/459.00
DURACION DEL REGISTRO (s), C7-C12      :
NUM. TOTAL DE MUESTRAS, C1-C6          : /45900/45900/45900
NUM. TOTAL DE MUESTRAS, C7-C12         :
ACEL. MAX. (Gal), C1-C6                : /-36.31/70.56/-55.42
ACEL. MAX., C1-C6, EN LA MUESTRA       : /8307/8375/8644
ACEL. MAX. (Gal), C7-C12               : 
ACEL. MAX., C7-C12, EN LA MUESTRA      : 
UNIDADES DE LOS DATOS                  : Gal (cm/s/s)
FACTOR DE DECIMACION                   : 1
FORMATO DATOS (FORTRAN,10 campos/dato) : 3F10.5
                                                                                
                                                                                
================================================================================
CALIDAD DEL ACELEROGRAMA: 
Registro digital completo. Tiempo absoluto correcto.
                                                                                
                                                                                
================================================================================
COMENTARIOS:
                                                                                
                                                                                
                                                                                
                                                                                
                                                                                
                                                                                
                                                                                
                                                                                
                                                                                
                                                                                
                                                                                
                                                                                
                                                                                
                                                                                
================================================================================
DATOS DE ACELERACION:
---------+---------+---------+---------+---------+---------+---------+---------+
   CANAL-1   CANAL-2   CANAL-3   CANAL-4   CANAL-5   CANAL-6   CANAL-7   CANAL-8
      N00E        +V      N90E
---------+---------+---------+---------+---------+---------+---------+---------+
[...]
 -10.09019 -28.17817  38.73349
 -11.67643 -30.61809  36.75194
 -14.95415 -31.34853  33.58724
 -18.60323 -29.53589  30.23418
 -20.64065 -25.73216  27.18963
 -20.26222 -20.79828  24.16595
 -18.00639 -14.82360  21.06316
 -15.00602  -7.78215  17.84768
 -12.30113  -0.31010  14.46519
 -10.28781   6.65299  11.27194
  -8.94415  12.37765   8.67087
  -7.96974  16.58788   6.82291
  -6.92776  19.28153   5.74819
  -5.24029  20.46666   5.28649
  -1.87624  20.52207   5.08114
   3.25878  19.82603   4.85521
   7.92042  18.27393   4.52963
   9.51270  15.58333   4.38907
   7.90127  11.93748   5.22989
   5.11232   8.21326   7.47873
   2.79873   5.08641  10.48747
   1.13111   2.52977  13.03191
   0.23668  -0.09118  14.08182
   0.69162  -3.13080  13.02140
   2.30502  -5.96085   9.23570
   4.01941  -7.92131   2.32874
   4.79683  -8.93030  -7.09042
   4.47452  -8.97451 -17.52770
   3.68187  -7.84647 -27.43920
   3.63180  -5.98424 -35.82902
   5.70312  -4.68102 -42.26493
   9.99778  -5.08517 -46.52896
  15.42891  -7.30595 -48.43492
  20.45053 -10.24125 -48.05017
  23.31984 -12.39232 -45.38781
  22.69349 -12.38554 -40.35594
  18.51278  -9.81394 -33.55188
  12.48262  -5.86379 -25.96336
   6.69299  -1.96487 -18.85221
   2.19130   1.16737 -13.85752
  -1.19119   3.64846 -12.18756
  -4.01514   6.50564 -14.45066
  -6.47540  10.46584 -20.23731
  -8.85712  15.33517 -28.11093
 -11.58798  20.64975 -36.26008
 -14.42182  25.79490 -42.53040
 -16.43091  30.14913 -45.80461
 -17.10050  33.00823 -46.64637
 -16.16894  33.57070 -45.64907
 -13.15107  31.23207 -42.98437
  -8.79865  26.44644 -39.25549
  -5.33007  21.27430 -35.34627
  -4.23574  17.95561 -31.14563
  -4.83093  17.83420 -25.67639
  -5.34341  20.78733 -18.82274
  -4.76336  25.40988 -11.57500
  -3.24242  30.02968  -4.88275
  -1.65147  33.43673   0.71281
  -0.89626  35.79522   5.04722
  -1.32217  38.12686   8.27372
  -2.90888  41.31150  10.64862
  -5.92039  45.35243  12.82002
 -10.45434  48.85554  15.55442
 -15.21470  50.24511  18.81196
 -18.31419  49.06979  21.46498
 -19.13305  45.85384  21.99613
 -18.44659  41.17447  19.68301
 -17.12341  35.21988  14.97202
 -15.21188  28.03527   8.98380
 -12.59347  19.97294   2.86762
  -9.70101  11.68089  -2.21876
  -6.90249   3.85148  -5.07196
  -4.10868  -2.70185  -5.04741
  -1.17479  -7.24607  -2.05410
   2.02735  -9.23670   3.61957
   5.78199  -8.76331  11.14003
  10.30723  -6.84262  19.20162
  15.19363  -4.36714  26.28287
  19.30190  -1.61146  31.10358
  21.67867   1.05136  33.19868
  22.30643   2.80997  33.28454
  21.90061   2.61397  32.65654
  21.35525  -0.50657  32.10812
  21.29419  -6.65059  31.69461
  22.27653 -14.85049  31.02800
  24.41472 -23.62530  29.29462
  26.84901 -31.14411  25.44250
  28.20742 -35.64390  18.93196
  27.07024 -36.72329  10.05666
  23.48779 -35.62261  -0.18860
  19.40738 -33.70964 -10.12980
  16.67627 -31.86917 -17.96016
  15.63006 -30.35965 -22.42299
  15.05519 -29.09478 -22.63115
  13.36677 -28.08321 -18.56593
  10.02070 -26.98744 -11.34041
   5.92185 -25.85636  -2.19397
   2.38334 -24.53816   7.25701
  -0.12253 -22.21261  15.55465
  -2.01374 -18.57353  22.61785
  -4.11645 -13.47523  29.17674
  -6.93616  -7.31203  35.65785
 -10.04781  -0.99330  41.36076
 -12.67321   5.07424  45.01691
 -14.69336  10.73318  45.90499
 -16.60184  16.07380  44.11855
 -18.85657  21.36008  40.26377
 -21.77194  26.60788  35.47986
 -25.57806  31.66662  30.96483
 -29.58452  35.96693  27.23106
 -31.88388  38.33036  24.47516
 -30.71490  37.39126  22.43939
 -25.85102  31.86219  20.35331
 -18.67975  21.76009  17.37570
 -11.29235   9.60514  13.17506
  -5.41757  -0.84291   8.24167
  -1.73851  -7.07440   3.16045
  -0.03628  -9.26266  -1.56317
   0.05146  -9.56952  -5.57155
  -1.45967 -10.33293  -8.96434
  -3.73590 -12.55488 -11.67136
  -4.85668 -15.79984 -13.24684
  -4.27333 -18.55201 -13.49710
  -3.46366 -18.94284 -12.57161
  -3.62784 -16.51765 -11.31422
  -4.29719 -11.93063 -10.66143
  -4.86955  -6.29766 -11.07167
  -5.72490  -1.60047 -13.51534
  -6.93828   0.53026 -18.12950
  -8.11289   0.14387 -23.54495
  -9.37281  -1.74829 -28.57707
 -10.79251  -4.34796 -32.68790
 -12.46555  -7.15182 -36.05870
 -14.93374  -9.85019 -38.89694
 -17.41858 -11.73813 -41.27254
 -18.06392 -12.56564 -43.49402
 -16.14132 -12.96979 -45.48979
 -12.41501 -12.89074 -47.01241
  -8.11289 -11.98933 -47.58473
  -3.67955 -10.05040 -46.71116
   0.91286  -7.19227 -44.58207
   5.14835  -4.07150 -41.35090
   8.33369  -1.20894 -36.17845
  10.54298   1.03382 -27.81927
  12.40170   2.77723 -16.34002
  14.20714   4.43597  -3.24810
  15.96854   5.89309   9.64758
  18.09127   6.60621  21.14337
  21.23267   6.48764  30.72233
  24.79362   6.05354  37.99789
  26.39296   5.87858  42.37300
  24.11367   6.25608  43.22953
  18.78919   6.63709  40.54449
  12.86740   6.23480  34.19860
   7.55344   4.50099  24.46857
   2.62561   1.12153  12.97038
  -1.79462  -2.79447   0.98248
  -5.49637  -5.29264 -10.83030
  -8.68658  -4.73902 -21.47059
 -11.48321  -0.49324 -29.65810
 -13.91609   6.65486 -33.57714
 -15.48083  15.74939 -31.89876
 -15.93107  25.89379 -25.39314
 -15.87958  35.56394 -16.31312
 -15.60530  43.00274  -7.69713
 -14.42763  47.27449  -1.83612
 -11.47529  47.92587   1.16397
  -7.41379  44.45611   1.68531
  -3.98335  37.75290   0.37764
  -2.45864  29.74598  -1.87611
  -2.77743  21.93549  -5.04507
  -3.64675  15.74635  -8.99030
  -3.85402  12.55400 -13.22064
  -2.49160  12.58465 -16.91187
  -0.05825  15.08631 -19.25076
   1.35235  19.59914 -19.90471
   0.75967  25.87558 -18.38420
  -1.25735  33.11206 -15.41218
  -4.09424  39.93229 -12.93389
  -7.10999  44.80747 -12.04840
  -8.92916  46.15999 -12.71942
  -8.07263  43.15546 -13.74104
  -4.50587  36.70182 -13.73847
   0.27435  28.30351 -12.44296
   4.89344  18.99359 -10.27318
   9.00540   9.70547  -7.97125
  12.76844   1.40945  -6.06389
  16.25201  -4.63494  -4.20050
  18.94011  -7.00446  -1.57112
  19.62257  -5.18037   2.45714
  17.61646  -0.13539   7.75074
  14.00764   5.98711  13.08316
  11.12005  10.89924  17.27556
  10.33250  13.27742  19.55996
  10.84615  12.98272  18.99655
  10.96638  10.25558  15.18886
   9.75646   5.18441   8.36634
   7.87765  -1.20122  -0.34741
   6.00974  -7.35834  -9.46369
   3.61430 -12.78081 -18.49506
   1.21108 -17.30071 -26.27514
  -0.10173 -20.79688 -31.46793
  -0.34102 -22.98537 -34.35786
   0.20607 -23.46204 -35.33037
   0.44159 -22.88597 -34.60134
  -0.77674 -22.17378 -32.20024
  -2.85763 -21.19332 -27.52434
  -4.53977 -19.20690 -20.82834
  -5.32261 -15.82253 -13.70760
  -5.91898 -11.15061  -7.56381
  -7.24231  -5.81000  -2.86546
  -9.18155  -1.00640  -0.33970
 -11.45166   1.80940  -0.75836
 -14.53287   1.65994  -3.48784
 -19.17465  -1.25525  -7.11592
 -25.22655  -6.36151  -9.74670
 -31.13310 -13.01400  -9.73313
 -35.10312 -19.91465  -7.51236
 -36.31349 -25.27702  -4.82334
 -34.79181 -27.25080  -2.70127
 -30.96165 -25.52400  -1.14965
 -25.56519 -21.28664   0.22164
 -19.92170 -15.71214   2.24033
 -15.49464 -10.19915   5.47642
 -12.72704  -6.04248   9.42164
 -10.88520  -3.63156  13.60819
  -8.80587  -2.68174  17.98078
  -5.55719  -2.98182  22.13810
  -0.89061  -4.60079  25.46424
   4.64388  -7.65117  27.44900
   9.92903 -11.91379  27.95685
  13.69301 -16.26856  27.25233
  15.06335 -19.51400  25.76875
  14.03825 -21.34464  24.08763
  11.66776 -22.45772  22.42252
   9.48813 -24.17703  20.90550
   8.16292 -27.48282  20.06702
   7.16913 -32.17252  20.12972
   5.98361 -37.00443  20.95580
   4.79683 -40.89867  22.55044
   3.95906 -43.68124  25.09099
   3.15660 -46.01989  28.36847
   1.48961 -48.59828  31.72216
  -1.45802 -51.50786  34.47061
  -5.26509 -53.97609  35.98927
  -9.25336 -54.27218  35.77126
 -12.31730 -50.40601  33.74506
 -13.95753 -41.57999  30.27766
 -15.19924 -30.22890  25.52083
 -16.28517 -19.80893  20.18701
 -16.36357 -11.71802  15.52004
 -15.70795  -6.18936  11.66885
 -15.37488  -2.67261   8.22344
 -15.47055  -0.79332   5.34567
 -14.86217  -0.18030   4.00478
 -12.56891   0.12493   4.67838
  -8.29645   0.32537   6.97447
  -1.87907   0.86753  10.68418
   5.95834   2.40628  14.74678
  13.58871   4.90748  17.92530
  19.63214   8.37231  19.39860
  23.02287  12.32736  17.90450
  23.08205  15.60695  13.29459
  20.14038  16.56122   6.34180
  15.30005  13.92810  -2.57801
   9.50406   8.52644 -13.45336
   3.60213   2.66122 -25.50775
  -1.97984  -1.77097 -36.27786
  -7.26484  -4.48198 -44.06728
 -10.95810  -6.12878 -48.72073
 -11.29682  -7.45517 -50.31141
  -8.64498  -9.56274 -49.93508
  -5.40282 -12.12663 -48.90784
  -3.84515 -13.47219 -47.11298
  -4.27710 -12.57990 -43.59038
  -4.89176  -9.28067 -37.64049
  -3.81399  -4.55495 -29.58232
  -0.64552   1.12410 -20.37694
   4.18430   8.39476 -11.26323
   9.48955  17.81647  -3.83165
  14.25509  29.25406   1.82845
  18.28237  41.00841   6.76116
  21.29160  51.41313  11.12997
  23.02421  59.56069  14.84967
  22.65676  65.12602  17.71599
  19.64290  68.68093  19.39860
  15.50731  70.55644  19.98351
  12.76679  70.40113  19.76699
  13.33632  67.27033  18.81620
  17.14103  60.49130  17.27321
  22.16658  49.94383  15.50552
  26.31158  36.37181  13.42855
  27.81172  22.05729  10.63155
  26.06758   9.29898   6.82619
  22.02578  -0.36718   2.42580
  17.08233  -6.58650  -1.58749
  13.02130 -10.43866  -4.11045
  10.95233 -13.38752  -4.28657
  10.16738 -16.66243  -2.32891
   8.58161 -20.15415   1.09288
   4.39196 -22.35972   5.73720
  -2.10030 -22.03228  11.25299
  -9.19089 -19.62089  16.36041
 -15.09047 -17.74019  19.48069
 -18.38318 -19.06517  19.79760
 -18.76420 -23.84561  17.49311
 -16.95060 -29.54128  13.50884
 -14.25175 -33.50802   8.66548
 -12.23678 -35.77206   3.73651
 -12.05133 -37.23060  -0.76070
 -14.28307 -38.39512  -5.32503
 -18.18854 -39.43920 -10.07929
 -21.66254 -39.73648 -14.58726
 -23.20452 -38.52353 -18.79468
 -22.97065 -35.04140 -22.07941
 -22.12565 -29.43859 -22.97240
 -21.27242 -22.47737 -20.20316
 -19.67025 -14.78828 -13.76163
 -16.31232  -7.06574  -4.81352
 -11.60415   0.37519   4.60143
  -6.93545   6.91963  12.27646
  -2.99403  12.48571  17.53266
   0.28188  17.76781  20.66974
   3.18839  22.71456  21.65161
   5.55275  26.77253  19.92277
   6.74165  29.23515  15.19396
   6.64574  29.54366   8.60070
   5.87884  27.63769   1.90049
   5.10887  23.74602  -3.41136
   4.26592  18.32188  -6.54079
   3.25525  12.54932  -8.01218
   2.45421   8.01446  -8.92622
   1.75511   5.50858 -10.43737
   0.55436   4.84153 -13.81823
  -1.25994   5.12336 -19.69000
  -2.90559   5.05133 -27.39149
  -3.53570   3.50813 -35.72073
  -2.99913   0.18761 -43.87315
  -1.47066  -4.25744 -50.71790
   1.08363  -8.29600 -54.51906
   4.14168 -10.39562 -54.60700
   6.44947 -10.01952 -51.95728
   7.68349  -7.40255 -48.15425
   8.26118  -3.13852 -44.41881
   8.08036   2.25472 -40.99468
   6.92733   7.65287 -37.56237
   4.79424  10.72757 -34.63408
   1.98176   9.71483 -33.41436
  -0.85647   5.44262 -33.96633
  -3.10508   0.31110 -35.32686
  -4.20623  -4.57413 -36.16185
  -4.09448  -9.10221 -35.05625
  -2.87843 -12.85683 -31.67516
  -0.32022 -15.29698 -26.29314
   3.33106 -16.07350 -19.54055
   7.68796 -15.53298 -12.44062
  12.33366 -14.12567  -5.68288
  16.02301 -12.11189   0.33648
  17.12487  -9.84598   5.71288
  14.76191  -7.74987  10.62922
   9.69799  -6.73994  15.24591
   3.96165  -7.69537  19.91736
  -0.47804 -10.53150  24.71445
  -2.71472 -14.27185  29.89530
  -2.80544 -17.88099  35.94949
  -1.25060 -21.07170  42.78839
   0.66635 -23.72096  49.27790
   1.25315 -25.32005  53.56110
  -0.21513 -25.51722  53.80431
  -3.34837 -23.87205  48.82272
  -6.54910 -20.28724  39.27021
  -8.07710 -16.25476  27.45277
  -7.68298 -13.51288  15.99689
  -5.14274 -12.37876   7.07808
  -0.14850 -12.85940   1.30314
   6.18774 -15.40575  -2.03609
  11.80628 -19.61785  -3.95538
  14.94665 -24.40180  -5.67282
  15.34729 -28.61975  -8.31039
  14.11916 -30.58535 -12.78795
  12.72025 -29.12752 -19.26830
  12.36662 -24.40344 -26.35279
  13.74567 -17.09302 -31.83491
  16.41407  -7.83360 -34.12210
  19.14400   2.65654 -32.99873
  21.18448  13.56089 -29.57647
  22.10222  23.73755 -25.43290
  21.61643  31.31817 -21.28326
  20.01944  35.15066 -16.40153
  17.91076  35.39018 -10.03508
  15.59662  32.95463  -2.57006
  12.94643  29.25265   5.21656
   9.70215  25.04966  12.39434
   5.58383  19.77643  17.22557
   0.86750  12.08108  18.13209
  -2.88031   2.88201  15.77565
  -4.15248  -5.06436  12.12186
  -3.38949 -10.56963   8.79435
  -1.91179 -13.22684   6.96184
   0.29357 -13.28133   6.65802
   4.05096 -11.70843   7.22122
   9.12257 -10.02584   7.96710
  14.18791  -9.81464   8.46293
  17.70326 -11.62470   8.48399
  18.69376 -15.11222   8.48984
  16.98148 -19.13089   9.12882
  13.32934 -23.52870   9.93620
   8.83071 -27.74454  10.19769
   4.07859 -31.20726   8.53568
   0.43876 -34.67490   5.01308
