********************************************************************************
              CENTRO DE INSTRUMENTACION Y REGISTRO SISMICO  A.C.

    Anaxagoras 814, Col. Narvarte, Benito Juarez, C.P. 03020 Mexico, D.F.
           Tels. 5687 45 42/ 5687 45  82             Fax. 5669 25 12
********************************************************************************
ARCHIVO ESTANDAR DE ACELERACION:
VERSION DEL FORMATO                    : 2.0
NOMBRE DEL ARCHIVO                     : CO4720170919181440
FECHA Y HORA DE CREACION               : 25/SEP/17, 11:11
REF. CATALOGO ACELEROGRAMAS, SMIS 1996 : REGISTRO No.     /PAG.


================================================================================
DATOS DE LA ESTACION:
NOMBRE DE LA ESTACION                  : COYOACÁN
CLAVE DE LA ESTACION                   : CO47
LOCALIZACION DE LA ESTACION            : Del. Benito Juárez, Col. del Valle,    
                                       : Av. Coyoacán entre Av. Félix Cuevas    
                                       : y calle San Lorenzo.                   
                                       :                                        
                                       : 
COORDENADAS DE LA ESTACION             : 19.3714 LAT. N
                                       : 99.1703 LONG. W
ALTITUD (msnm)                         : 2247
TIPO DE SUELO                          : Terreno estratificado               
                                       : (arcillas, limos, arenas) 
                                       : 
INSTITUCION RESPONSABLE                : CIRES
                                       : 

================================================================================
DATOS DEL ACELEROGRAFO:
MODELO DEL ACELEROGRAFO                : RADESD
NUMERO DE SERIE DEL ACELEROGRAFO       : 175
NUMERO DE CANALES                      : 3
ORIENTACION C1-C6 (rumbo;orientacion)  : /S00E/+V/N90W
ORIENTACION C7-C12 (rumbo;orientacion) : 
VEL. DE MUESTREO, C1-C6 (muestras/s)   : /100/100/100
VEL. DE MUESTREO, C7-C12 (muestras/s)  : 
ESC. COMPLETA DE SENSORES, C1-C6, (g)  : /0.5/0.5/0.5
ESC. COMPLETA DE SENSORES, C7-C12, (g) : 
FREC. NAT. DE SENSORES, C1-C6, (Hz)    : /53.07/51.93/52.78
FREC. NAT. DE SENSORES, C7-C12, (Hz)   : 
AMORTIGUAMIENTO DE SENSORES, C1-C6     : /0.5715/0.5589/0.5715
AMORTIGUAMIENTO DE SENSORES, C7-C12    : 
INTERVALO DE MUESTREO, C1-C6, (s)      : /0.01/0.01/0.01
INTERVALO DE MUESTREO, C7-C12, (s)     : 
UMBRAL DE DISPARO, C1-C6, (Gal)        : /0.75/1.92/0.75
UMBRAL DE DISPARO, C7-C12, (Gal)       : 
MEMORIA DE PREEVENTO (s)               : 44.0
TIEMPO DE POSEVENTO (s)                : 230.0


================================================================================
DATOS DEL SISMO:
FECHA DEL SISMO (GMT)                  : 19/SEP/17
HORA EPICENTRO (GMT)                   : 18:14:40.0
MAGNITUD(ES)                           : /Mc=7.1
COORDENADAS DEL EPICENTRO              : 18.40 LAT. N
                                       : 98.72 LONG. W
PROFUNDIDAD FOCAL (km)                 : 57
FUENTE DE LOS DATOS EPICENTRALES       : SSN
                                       : INSTITUTO DE GEOFISICA, UNAM

================================================================================
DATOS DE ESTE REGISTRO:
HORA DE LA PRIMERA MUESTRA (GMT)       : 18:15:00.00
EXACTITUD DEL TIEMPO (s)               : 0.01
DURACION DEL REGISTRO (s), C1-C6       : /323.2/323.2/323.2
DURACION DEL REGISTRO (s), C7-C12      : 
NUM. TOTAL DE MUESTRAS, C1-C6          : /32320/32320/32320
NUM. TOTAL DE MUESTRAS, C7-C12         : 
ACEL. MAX. (Gal), C1-C6                : /71.96151/30.59419/93.95585
ACEL. MAX., C1-C6, EN LA MUESTRA       : /6538/7013/6494
ACEL. MAX. (Gal), C7-C12               : 
ACEL. MAX., C7-C12, EN LA MUESTRA      : 
UNIDADES DE LOS DATOS                  : Gal (cm/s/s)
FACTOR DE DECIMACION                   : 1
FORMATO DATOS (FORTRAN,10 campos/dato) : 3F10.5


================================================================================
CALIDAD DEL ACELEROGRAMA:
REGISTRO DIGITAL COMPLETO CON TIEMPO ABSOLUTO CORRECTO.


================================================================================
COMENTARIOS:














================================================================================
DATOS DE ACELERACION:
---------+---------+---------+---------+---------+---------+---------+---------+
   CANAL-1   CANAL-2   CANAL-3   CANAL-4   CANAL-5   CANAL-6   CANAL-7   CANAL-8
      S00E        +V      N90W
---------+---------+---------+---------+---------+---------+---------+---------+
[...]
   3.51569  -2.85138 -15.90808
   7.63073  -1.99845 -20.96583
  11.50634  -1.17544 -24.76663
  13.60127  -1.04076 -26.80170
  13.37681  -1.45975 -27.34039
  11.49138  -2.08823 -26.86155
   9.29170  -2.34261 -25.66445
   7.95993  -1.89370 -23.89873
   8.04971  -0.80134 -21.45964
   8.64826   0.69503 -18.25739
   9.35156   2.44579 -14.56134
   9.17199   4.52575 -10.91018
   7.25663   6.66557  -7.96232
   3.65037   7.65318  -6.01703
  -1.49717   7.23419  -4.84986
  -7.10858   5.34876  -4.35606
 -11.80720   2.96952  -4.59548
 -15.03937   0.45561  -5.20899
 -16.65546  -1.53457  -5.64294
 -16.29633  -2.58203  -5.02943
 -14.48571  -2.70174  -3.12903
 -12.10647  -2.73167   0.17796
  -9.56263  -2.95613   3.82912
  -7.57245  -3.04591   6.77698
  -5.85162  -2.28276   8.97665
  -5.05854  -1.25026  10.15879
  -5.14832  -0.14294  10.45807
  -6.62974   0.79978   9.88944
  -8.64984   1.50307   8.70731
  -9.95169   1.96695   7.40546
 -10.35571   1.62278   6.08865
  -9.95169   0.73992   5.05615
  -8.61992  -0.86120   4.62220
  -6.27061  -2.52218   5.34046
  -3.18807  -3.80906   6.83684
  -0.01575  -4.55725   7.98904
   2.39341  -4.46747   7.70473
   3.42591  -2.98605   5.37039
   3.59051  -0.17287   1.46485
   3.50073   2.76003  -3.08414
   4.02446   4.78014  -7.01961
   5.65551   4.98963  -9.05468
   8.03475   3.77757  -8.11196
  10.65341   1.99688  -4.17649
  12.74833   0.42568   1.22543
  14.22975  -0.32250   6.31310
  14.91808  -0.68163   9.66499
  14.30456  -1.20537  10.35332
  12.86804  -2.28276   8.67738
  11.23699  -4.18315   5.25068
  10.30924  -6.42772   1.13564
  10.78808  -8.79199  -2.36588
  12.59870 -11.33583  -5.02943
  15.30714 -13.28112  -6.94479
  17.50681 -13.47565  -8.47109
  18.35974 -11.99424  -9.65323
  17.05790  -9.28580 -11.17953
  14.03522  -4.96127 -12.37663
  10.03989   0.42568 -13.61863
   5.80515   5.69293 -14.00768
   2.07917   9.94264 -13.10986
  -0.32999  12.18720 -10.73062
  -1.22782  12.21713  -7.27399
  -0.83876  10.54119  -3.45823
  -0.22525   7.60829  -0.16620
  -0.27014   4.61554   1.88383
  -2.12564   2.19141   2.36267
  -5.55235   0.35086   1.89879
  -9.30825  -1.53457   1.24039
 -12.33093  -3.22547   1.09075
 -14.14154  -4.24301   1.97361
 -14.60542  -4.81163   3.88897
 -14.21636  -4.57221   6.95655
 -13.46817  -3.06087  10.80223
 -12.73495  -0.47214  14.21397
 -12.89955   2.37097  16.74284
 -13.69263   4.73525  17.29650
 -14.56053   6.41119  16.18919
 -15.11419   7.62325  14.28879
 -15.00944   8.40137  12.68767
 -13.78241   8.32655  12.35846
 -11.38821   7.24916  13.07672
  -7.72209   3.95713  15.08187
  -3.18807  -1.04076  17.56585
   1.88464  -6.69707  19.60092
   6.20917 -11.45554  20.52868
   8.64826 -14.04427  19.66078
   9.32163 -14.35851  16.35379
   9.17199 -13.44572  10.75734
   9.12710 -11.94935   3.55977
   8.99243  -9.85442  -5.07432
   9.17199  -8.23833 -14.06754
   9.60594  -7.20583 -21.89358
  10.66837  -5.72442 -27.22068
  11.82058  -3.40504 -29.92912
  13.36185  -0.45718 -30.10869
  14.24471   2.49068 -28.23822
  14.58888   5.34876 -24.85641
  13.99033   8.58093 -20.65159
  12.68848  11.66347 -16.19239
  10.68333  13.74343 -11.73319
   8.33402  14.28213  -7.36377
   5.11682  13.47408  -2.82975
   1.51055  11.67843   1.86887
  -2.27528   8.98495   5.92405
  -4.98372   5.51336   9.08140
  -5.67206   1.38336  10.69749
  -3.86144  -3.40504  10.21865
   0.22367  -8.40293   7.79452
   5.73033 -12.84717   3.76926
  11.70087 -15.81000  -1.09396
  16.96811 -17.11184  -5.89732
  21.14300 -17.02206  -9.69812
  24.39014 -16.91731 -11.71823
  25.94637 -15.95963 -11.71823
  25.06351 -12.86214 -10.08718
  22.59449  -8.73214  -7.37874
  18.95829  -4.54228  -4.71519
  14.52902  -0.99587  -3.24874
   9.30667   1.48811  -3.14399
   4.41352   2.62536  -4.38599
  -0.12050   3.56807  -6.42106
  -4.04101   4.70532  -8.50102
  -7.42282   5.64804 -10.07221
 -10.20607   5.81264 -11.07479
 -12.16633   5.43854 -11.55363
 -13.01926   4.58561 -12.04743
 -12.63020   4.09181 -13.07993
 -11.52289   4.21152 -14.35185
 -10.53528   5.13927 -15.04018
 -11.16376   6.91996 -14.12739
 -13.63278   8.59590 -10.91018
 -17.10437   8.96999  -5.29877
 -20.89020   8.79043   1.83894
 -23.76324   8.25173   9.11133
 -25.60378   8.01231  15.23150
 -26.63628   8.11706  19.57100
 -26.05270   7.29405  21.98016
 -23.44900   5.85753  22.26447
 -19.57339   5.12430  20.61846
 -14.09665   4.58561  17.83520
  -6.91405   3.47829  14.58806
   0.40323   2.01184  12.05919
   6.26903  -0.05316  11.26611
   9.96507  -2.91123  11.83473
  11.44649  -6.53246  12.89716
  10.89283  -9.70478  12.92709
   9.03732 -11.68000  10.57778
   7.78037 -12.38330   6.10361
   7.57087 -12.53293   0.35753
   8.42381 -12.44315  -5.76265
   9.86033 -11.91942 -11.40399
  10.92275 -10.21355 -15.05515
  10.87786  -7.16094 -16.76101
   9.30667  -3.56964 -16.17743
   6.59823  -0.30754 -13.31935
   2.75254   2.31112  -9.71308
  -1.72162   4.54072  -6.19660
  -6.30053   6.06702  -3.63780
 -10.77470   6.47104  -2.63523
 -14.94959   6.65061  -3.54801
 -18.85513   6.48601  -5.58309
 -21.92270   5.88746  -7.97729
 -23.98770   5.04949 -10.34156
 -24.70596   4.09181 -12.78065
 -24.16726   3.25383 -15.42924
 -22.82052   2.92463 -18.33221
 -21.35408   2.95456 -21.38482
 -20.54603   3.71771 -24.27282
 -20.51611   5.01956 -27.29550
 -21.05480   6.75535 -29.85431
 -21.00991   8.49115 -30.94666
 -20.27669  10.04738 -30.06380
 -19.48361  11.72332 -27.41521
 -19.21426  13.47408 -23.31514
 -20.30661  15.01535 -18.93076
 -22.95520  16.27231 -15.33946
 -27.62389  16.78107 -13.39417
 -32.90610  14.50658 -13.09489
 -37.99378   9.31416 -14.35185
 -42.19859   1.30855 -17.34460
 -44.44316  -7.74453 -21.47460
 -45.05667 -15.39101 -25.72431
 -44.39827 -20.05970 -29.04626
 -43.24606 -21.22688 -30.28825
 -41.77961 -18.87757 -29.59992
 -39.84928 -13.64025 -27.43018
 -37.85910  -6.77188 -24.64692
 -35.74921  -0.47214 -22.50710
 -32.84624   2.90967 -21.20525
 -29.43451   3.08923 -20.75634
 -24.43661   1.68264 -20.56181
 -18.36132   0.32094 -19.84355
 -12.18129  -0.71156 -17.85337
  -6.86916  -0.02323 -14.36681
  -2.67930   2.38594  -9.65323
   0.70251   5.55825  -4.22138
   3.62044   8.65575   0.82140
   6.04457  10.30177   4.21818
   9.00739   9.80796   4.78680
  13.34688   7.02470   2.57216
  19.03311   3.13412  -1.21367
  24.79416   0.21619  -5.40352
  29.29825  -1.01084  -8.68058
  32.33590  -0.99587 -10.13207
  34.17644  -0.14294  -9.57841
  34.98448   0.94942  -7.49845
  35.02937   1.36840  -4.43088
  34.58046   0.35086  -0.79468
  33.87716  -2.07326   2.33274
  32.91948  -4.93134   4.68205
  31.31836  -7.43029   6.41785
  28.93912  -8.62739   7.25582
  25.70695  -8.08870   7.22589
  21.99594  -5.67953   6.91165
  17.98565  -1.19040   6.13354
  14.40931   4.39108   5.10104
  11.50634   9.85285   4.20321
   9.38149  14.47665   3.54481
   8.52855  17.90336   3.51488
   9.11214  19.90850   4.45760
  11.07239  20.83625   6.64231
  14.05018  20.67165  10.20368
  18.15025  20.16288  14.72274
  23.40253  19.60922  19.73560
  29.25336  18.90593  24.53896
  34.61039  17.18510  29.05802
  38.38126  14.43176  33.35262
  39.92252  10.33169  37.43773
  39.24915   6.06702  41.16370
  36.61553   1.62278  44.38091
  32.56035  -2.62692  46.90979
  27.68217  -6.00873  48.19667
  22.17550  -8.70221  47.97221
  17.02797 -10.18362  46.10174
  12.98775 -10.25844  42.49548
  10.48881  -8.28322  38.06620
  10.17457  -5.00616  32.69421
  11.76073  -2.08823  27.21748
  14.60384  -0.60682  21.80060
  18.12032  -0.18783  16.87752
  21.63681  -0.53200  13.33111
  24.42007  -1.10062  12.01430
  26.06608  -1.20537  13.88477
  26.06608  -1.26522  19.09215
  24.47992  -1.50464  27.17259
  21.98097  -1.60939  36.09099
  19.16779  -0.69660  44.08163
  16.87833   0.94942  49.16931
  15.56152   3.53815  50.54598
  15.23232   6.60572  48.45105
  15.87576   8.73057  44.30609
  17.22250   8.56597  39.74214
  18.59916   6.53090  35.94135
  18.18018   4.24144  32.78400
  15.75605   2.22134  30.16534
  11.76073  -0.20279  27.90581
   6.85261  -3.31526  26.15505
   1.76493  -5.78428  23.91049
  -3.33771  -7.20583  20.36407
  -7.85676  -7.40036  14.66288
 -11.62763  -5.79924   7.00144
 -15.17404  -3.15065  -0.77972
 -19.19929  -0.56192  -6.89990
 -23.79317   1.57789 -11.11968
 -29.15020   3.32865 -14.41170
 -34.98606   4.28633 -18.07783
 -40.97157   4.10677 -22.83630
 -46.59794   1.90710 -28.85173
 -51.19181  -2.49225 -35.61535
 -54.10975  -8.19344 -42.33408
 -55.00757 -14.14902 -48.02031
 -53.09221 -19.10202 -52.37476
 -49.96479 -22.54369 -54.51458
 -46.26874 -23.89043 -54.26020
 -42.21356 -22.55865 -51.79118
 -38.90657 -19.46115 -47.28709
 -35.97367 -15.18152 -41.84028
 -33.22034  -9.74967 -36.61792
 -29.83853  -3.97366 -32.62260
 -25.61875   1.90710 -29.73460
 -20.90516   6.94988 -27.14586
 -15.45835  10.79557 -23.64434
  -8.91919  12.86057 -18.04790
  -1.39242  12.71093  -9.33899
   6.14932  11.15470   2.37763
  12.97279   9.11963  15.88991
  18.64406   7.71304  29.47700
  23.32771   6.65061  42.39073
  26.52996   4.54072  53.26938
  28.72963   0.08152  61.72391
  30.22601  -6.15837  67.72438
  31.19865 -12.20373  71.15108
  32.33590 -17.20163  71.91423
  33.98191 -21.07724  70.10361
  35.64289 -24.04006  66.66195
  36.76517 -26.04521  62.11297
  36.64546 -27.21238  57.48916
  34.84981 -27.81093  53.92779
  31.45303 -27.40691  51.68323
  27.03872 -25.67111  50.74051
  22.07076 -22.81304  50.05218
  16.65387 -18.99728  48.72040
  10.90779 -14.16398  45.51816
   5.22156  -8.65732  40.22098
   0.82222  -2.76160  33.03838
  -2.39499   2.80492  24.46414
  -4.81912   7.41376  14.52821
  -7.01879  10.93024   2.97618
  -8.67977  13.72847  -9.29410
  -9.80205  16.43691 -21.48956
 -10.08636  18.48694 -33.28101
  -9.41300  19.59426 -44.41404
  -7.96151  19.81872 -53.85618
  -5.19322  19.36980 -61.03878
  -2.27528  18.05299 -65.78229
  -0.16539  16.06281 -68.90972
   0.58280  13.68358 -71.45356
   0.31345  11.12477 -74.92515
  -0.35992   8.07217 -79.71355
  -1.24278   4.40604 -84.99576
  -2.40996   0.62021 -90.05351
  -3.99611  -2.05830 -93.22583
  -4.69941  -3.39008 -93.10612
  -3.95122  -3.86892 -89.81409
  -2.66434  -2.94116 -84.72641
  -1.06322  -0.81631 -79.21975
   0.92696   1.83228 -73.33899
   3.30620   4.61554 -66.96443
   5.50587   6.71046 -59.75190
   8.01979   7.80282 -51.55176
  11.20707   7.84771 -42.15452
  15.20239   7.00974 -31.72478
  20.30503   6.00717 -20.69648
  26.44017   4.98963  -8.80029
  33.32350   4.09181   4.30796
  39.89259   3.46333  18.46368
  44.45654   3.38851  32.21537
  44.83064   3.13412  44.88968
  40.74553   2.40090  56.18732
  32.06655   1.56293  66.01851
  20.52949   1.41329  73.87448
   7.21174   2.14652  81.07205
  -5.32789   3.05931  86.89295
 -15.54814   2.61039  91.26237
 -22.65592   0.32094  93.85110
 -27.30965  -4.18315  93.95585
 -29.32976 -10.10880  90.96310
 -29.10530 -16.13920  84.58853
 -26.81585 -19.92503  75.81977
 -23.01505 -20.41883  64.62688
 -18.55585 -17.68047  53.26938
 -14.66528 -12.74243  44.18638
 -12.60028  -7.49015  38.85928
 -12.24115  -2.83642  38.32059
 -13.18386   0.59029  41.80714
 -13.94701   1.51804  46.07181
 -13.27365  -0.06812  48.57076
 -10.81959  -3.24044  47.68790
  -6.71952  -7.16094  43.73747
  -1.19789 -10.13873  37.09356
   6.11939 -11.99424  27.74121
  15.17246 -13.25119  16.20415
  24.79416 -14.71764   3.58970
  34.62535 -15.21145  -8.96490
  44.26201 -14.94210 -19.85851
  52.49208 -14.13406 -27.65463
  58.26809 -13.31105 -32.33829
  60.88675 -11.68000 -35.01680
  60.52762  -8.68725 -36.76756
  58.43269  -3.64446 -38.89242
  56.06842   3.53815 -42.24430
  53.76400  11.72332 -46.89803
  50.15773  19.23513 -51.82111
  43.91785  24.54727 -55.56205
  34.65528  26.94147 -56.65440
  22.31018  26.46263 -53.52697
   8.48366  22.73665 -46.06006
  -3.89137  15.43434 -34.68760
 -12.58531   6.36630 -20.32239
 -17.46350  -1.54953  -5.04439
 -20.36647  -7.23576   9.17118
 -22.74571 -11.51540  20.90277
 -26.81585 -14.25377  31.04820
 -33.19041 -14.97203  40.90932
 -41.36062 -13.68514  49.84268
 -50.33888 -10.07888  56.92054
 -59.13757  -5.67953  61.06550
 -66.21543  -1.31011  61.96333
 -70.67463   3.04434  60.01804
 -71.96151   7.51851  56.03768
 -69.80673  11.03499  51.32409
 -64.73402  13.18977  46.44591
 -56.78826  14.56644  42.13635
 -45.95450  15.79347  39.57754
 -32.96595  16.96064  39.17352
 -19.70806  18.14278  41.40312
  -8.24582  19.41470  46.13167
  -0.28510  19.30995  52.97011
   4.80258  16.40698  59.82351
   8.84279  11.61858  64.07322
  13.24214   5.55825  63.23525
  18.22507  -1.26522  55.61869
  23.16311  -7.72957  42.16627
  26.87412 -13.31105  25.88570
  28.65481 -18.36880  10.30843
  29.07380 -22.48383  -2.08157
  29.11869 -24.15977 -10.22185
  28.98401 -22.61851 -14.69602
  28.72963 -18.17427 -17.83841
  28.26575 -11.62014 -21.47460
  27.71209  -4.81163 -26.71192
  27.45771   0.45561 -33.29597
  27.02376   3.73267 -39.70046
  26.21572   4.70532 -44.96770
  24.42007   3.23887 -49.62143
  20.06561   0.21619 -53.88610
  13.24214  -3.40504 -58.16574
   3.66533  -6.81678 -61.72711
  -7.24325  -9.71975 -64.73483
 -16.11676 -11.12634 -67.14400
 -20.68071 -10.82706 -68.08671
 -20.03727 -10.60261 -67.38342
 -13.88716 -11.97927 -64.79469
  -2.49974 -13.95449 -61.75704
  12.40417 -16.48337 -59.00371
  28.01137 -19.17684 -56.63944
  41.73314 -20.73307 -55.09817
  50.47197 -20.59840 -52.50944
  53.03078 -18.36880 -48.31959
  49.31976 -14.23880 -42.42386
  40.76049  -8.97156 -35.89966
  29.70227  -2.82145 -30.01891
  19.28750   3.50822 -25.49985
  11.22203   8.95503 -22.95601
   6.25406  13.04013 -22.82134
   3.60548  15.58397 -24.19800
   2.79743  16.93071 -26.00862
   2.63283  17.31977 -27.26557
   1.98939  16.31720 -27.53492
   0.49301  13.23466 -27.46010
  -1.45228   8.41633 -27.56485
  -3.17311   3.25383 -27.93894
  -4.81912  -0.77142 -27.81923
  -6.25564  -3.22547 -27.07105
  -7.70713  -4.13826 -25.23050
 -10.22104  -3.15065 -22.37243
 -14.02183  -1.28018 -19.66398
 -18.24161   0.15634 -18.64645
 -22.35665   0.54539 -20.18772
 -26.05270  -0.05316 -24.49728
 -28.83596  -0.05316 -30.96162
 -30.78125   1.83228 -37.59057
 -31.93345   5.37869 -42.78299
 -32.65172   9.92767 -45.92538
 -33.17545  15.62886 -46.34437
 -32.63675  20.89611 -43.53118
 -30.19766  24.84654 -36.54311
 -26.23226  27.06118 -25.51481
 -21.48875  27.76447 -11.70326
 -17.04451  27.18089   2.51231
 -13.55796  25.47502  14.69281
 -11.01412  22.84140  22.74331
  -9.45789  18.57673  25.37693
  -8.42539  12.41166  22.33929
  -6.97390   4.79510  12.70263
  -3.86144  -3.88388  -3.00932
   0.79229 -12.50301 -21.29503
   6.35881 -19.32648 -37.33619
  12.47899 -22.46887 -49.32216
  19.07800 -21.81046 -56.19052
  25.30293 -18.32391 -56.93871
  30.07637 -13.37090 -52.83864
  32.03662  -7.86424 -45.46151
  30.57017  -2.53714 -36.85735
  26.24565   2.49068 -28.17836
  19.52692   6.12688 -19.33478
  11.37167   8.28166  -9.86272
   3.21642   9.71818  -0.71986
  -4.84905  10.52622   6.94158
 -12.16633  10.61600  11.31100
 -19.43872   8.86524  11.31100
 -26.53154   5.64804   7.13611
 -32.26266   1.32351   1.41995
 -35.21052  -3.76417  -2.47062
 -34.50722  -9.04638  -1.70747
 -30.45204 -14.08916   3.93387
 -24.55632 -18.65311  13.09169
 -18.31643 -21.87032  23.47654
 -13.07912 -22.63347  33.68182
  -9.29329 -19.71554  42.97432
  -7.39289 -13.74500  51.41388
  -6.62974  -6.08355  58.65634
  -6.45017   1.89213  64.13307
  -6.46513   8.46122  67.66452
  -6.52499  12.20216  68.39775
