********************************************************************************
              CENTRO DE INSTRUMENTACION Y REGISTRO SISMICO  A.C.

    Anaxagoras 814, Col. Narvarte, Benito Juarez, C.P. 03020 Mexico, D.F.
           Tels. 5687 45 42/ 5687 45  82             Fax. 5669 25 12
********************************************************************************
ARCHIVO ESTANDAR DE ACELERACION:
VERSION DEL FORMATO                    : 2.0
NOMBRE DEL ARCHIVO                     : CO5620170919181440
FECHA Y HORA DE CREACION               : 26/SEP/17, 15:16
REF. CATALOGO ACELEROGRAMAS, SMIS 1996 : REGISTRO No.     /PAG.


================================================================================
DATOS DE LA ESTACION:
NOMBRE DE LA ESTACION                  : ESC. SEC. TÉC. NO. 18
CLAVE DE LA ESTACION                   : CO56
LOCALIZACION DE LA ESTACION            : Del. Cuauhtémoc, Col. Roma Norte,      
                                       : Calle Córdoba entre Colima             
                                       : y Tabasco.                             
                                       :                                        
                                       : 
COORDENADAS DE LA ESTACION             : 19.4215 LAT. N
                                       : 99.1590 LONG. W
ALTITUD (msnm)                         : 2233
TIPO DE SUELO                          : Alto riesgo sísmico                 
                                       :                           
                                       : 
INSTITUCION RESPONSABLE                : CIRES
                                       : 

================================================================================
DATOS DEL ACELEROGRAFO:
MODELO DEL ACELEROGRAFO                : RADESD
NUMERO DE SERIE DEL ACELEROGRAFO       : 213
NUMERO DE CANALES                      : 3
ORIENTACION C1-C6 (rumbo;orientacion)  : /N00E/+V/N90W
ORIENTACION C7-C12 (rumbo;orientacion) : 
VEL. DE MUESTREO, C1-C6 (muestras/s)   : /100/100/100
VEL. DE MUESTREO, C7-C12 (muestras/s)  : 
ESC. COMPLETA DE SENSORES, C1-C6, (g)  : /0.5/0.5/0.5
ESC. COMPLETA DE SENSORES, C7-C12, (g) : 
FREC. NAT. DE SENSORES, C1-C6, (Hz)    : /30/30/30
FREC. NAT. DE SENSORES, C7-C12, (Hz)   : 
AMORTIGUAMIENTO DE SENSORES, C1-C6     : /0.733/0.700/0.733
AMORTIGUAMIENTO DE SENSORES, C7-C12    : 
INTERVALO DE MUESTREO, C1-C6, (s)      : /0.01/0.01/0.01
INTERVALO DE MUESTREO, C7-C12, (s)     : 
UMBRAL DE DISPARO, C1-C6, (Gal)        : /1.65/6.73/3.59
UMBRAL DE DISPARO, C7-C12, (Gal)       : 
MEMORIA DE PREEVENTO (s)               : 44.0
TIEMPO DE POSEVENTO (s)                : 0.0


================================================================================
DATOS DEL SISMO:
FECHA DEL SISMO (GMT)                  : 19/SEP/17
HORA EPICENTRO (GMT)                   : 18:14:40.0
MAGNITUD(ES)                           : /Mc=7.1
COORDENADAS DEL EPICENTRO              : 18.40 LAT. N
                                       : 98.72 LONG. W
PROFUNDIDAD FOCAL (km)                 : 57
FUENTE DE LOS DATOS EPICENTRALES       : SSN
                                       : INSTITUTO DE GEOFISICA, UNAM

================================================================================
DATOS DE ESTE REGISTRO:
HORA DE LA PRIMERA MUESTRA (GMT)       : 18:15:40.00
EXACTITUD DEL TIEMPO (s)               : 0.01
DURACION DEL REGISTRO (s), C1-C6       : /362.8/362.8/362.8
DURACION DEL REGISTRO (s), C7-C12      : 
NUM. TOTAL DE MUESTRAS, C1-C6          : /36280/36280/36280
NUM. TOTAL DE MUESTRAS, C7-C12         : 
ACEL. MAX. (Gal), C1-C6                : /109.76185/53.81906/113.99171
ACEL. MAX., C1-C6, EN LA MUESTRA       : /6327/6442/6999
ACEL. MAX. (Gal), C7-C12               : 
ACEL. MAX., C7-C12, EN LA MUESTRA      : 
UNIDADES DE LOS DATOS                  : Gal (cm/s/s)
FACTOR DE DECIMACION                   : 1
FORMATO DATOS (FORTRAN,10 campos/dato) : 3F10.5


================================================================================
CALIDAD DEL ACELEROGRAMA:
REGISTRO DIGITAL COMPLETO CON TIEMPO ABSOLUTO CORRECTO.


================================================================================
COMENTARIOS:














================================================================================
DATOS DE ACELERACION:
---------+---------+---------+---------+---------+---------+---------+---------+
   CANAL-1   CANAL-2   CANAL-3   CANAL-4   CANAL-5   CANAL-6   CANAL-7   CANAL-8
      N00E        +V      N90W
---------+---------+---------+---------+---------+---------+---------+---------+
[...]
 -14.65219 -12.18608  62.01204
 -13.23063 -11.61746  60.66531
 -12.66201 -11.48279  59.24375
 -12.34777 -11.69228  58.15139
 -11.92879 -12.51529  57.35831
 -11.44995 -12.14119  57.43313
 -11.39009  -9.61232  57.53788
 -12.22806  -5.12319  56.52034
 -13.17078  -1.09794  54.87433
 -12.69194   0.66779  52.80933
 -12.61712  -0.66399  49.90636
 -12.49741  -4.37500  46.00082
 -11.85397  -8.54989  41.82593
 -10.91125 -12.09630  36.90285
  -9.29516 -14.07152  31.32137
  -6.94585 -14.78978  25.72493
  -3.77354 -15.28358  19.64964
  -0.88553 -15.79235  13.94845
   1.23932 -16.77996   9.04033
   2.24190 -18.05188   6.21218
   2.78059 -19.36869   5.56874
   2.73570 -21.37383   7.18483
   2.94519 -23.67825  10.88088
   4.51639 -26.71589  14.81634
   7.06023 -29.96303  17.65946
   9.11026 -32.92586  20.05366
   9.54421 -33.73390  19.88906
   9.27486 -32.53680  16.82149
   8.43689 -29.64879  12.10790
   5.86313 -26.97028   6.66109
   1.83787 -25.33923   1.73802
  -2.56147 -24.68082  -0.83575
  -6.43709 -24.54615  -1.67372
 -10.07328 -23.81293  -0.74597
 -13.54487 -21.58333   2.20189
 -16.71719 -18.29130   6.31693
 -19.70994 -14.43065  10.55167
 -23.27132  -9.97145  14.96598
 -27.16189  -4.52464  19.57482
 -31.05247   2.04445  23.88438
 -34.79341  10.02014  26.96692
 -37.38214  19.05825  28.68775
 -38.27997  27.93176  28.86732
 -38.11537  34.60560  28.35855
 -36.67885  38.46625  27.96949
 -33.98537  39.54364  26.50304
 -30.70830  37.89762  24.19862
 -27.40131  34.09683  21.84931
 -25.33631  29.96683  18.90145
 -24.03447  26.79451  15.05576
 -23.66037  25.13353  10.31225
 -24.96222  25.17843   4.08733
 -27.77541  26.71969  -2.30220
 -31.71088  28.29089  -7.09060
 -35.09269  28.97922  -9.26035
 -38.69895  28.59016  -9.85890
 -42.84391  27.45292  -8.75158
 -47.73706  25.10361  -5.77379
 -53.07913  21.76669  -2.22738
 -58.51097  18.14546   1.03472
 -63.85303  14.98811   4.14718
 -68.61151  13.14756   6.90052
 -74.13314  12.86325   9.18997
 -79.13103  14.28481  12.10790
 -82.09386  15.66147  15.08569
 -83.94936  16.17024  16.52221
 -85.22128  15.07789  17.06091
 -86.13407  12.50412  16.97113
 -86.46328   9.00260  14.32254
 -86.14904   5.03720   9.78852
 -84.02418   2.32876   4.77566
 -80.73216   1.43094  -1.29963
 -77.17078   1.56561  -7.44973
 -72.32252   2.74775 -13.59984
 -65.90307   4.43865 -19.52549
 -59.51354   5.47115 -25.49603
 -54.72514   4.73793 -32.19979
 -50.69989   2.25395 -38.51450
 -46.59982  -1.03808 -42.50982
 -41.90120  -3.73156 -45.33797
 -38.04055  -5.49728 -47.82196
 -35.21240  -6.24547 -50.66507
 -33.23718  -6.32029 -53.56804
 -31.35175  -5.78159 -56.20166
 -29.91523  -4.22536 -57.93746
 -28.82287  -1.23261 -58.44623
 -27.83526   2.67293 -58.34148
 -27.08707   5.60583 -58.64076
 -25.78523   6.65329 -58.65572
 -23.12168   6.18941 -57.63818
 -19.02161   4.79778 -55.24398
 -13.52991   2.83753 -51.90706
  -6.70643   1.23641 -48.57014
   0.86523   0.11413 -45.60732
   9.40954  -1.08297 -43.70692
  17.71442  -3.01330 -43.72189
  25.30105  -6.26043 -46.25076
  32.51358 -10.91416 -51.12895
  40.11517 -15.91206 -55.91735
  48.16568 -19.89242 -59.31412
  56.09647 -22.45122 -62.27695
  62.74038 -24.09724 -65.29963
  67.07987 -25.56369 -68.62158
  69.50400 -26.55129 -71.58441
  70.68614 -26.35676 -74.06839
  70.85074 -24.71075 -76.14836
  69.68356 -21.98735 -78.61738
  67.46893 -19.06941 -80.95172
  65.56853 -16.43579 -81.56524
  64.34150 -14.87956 -79.66484
  63.06958 -14.78978 -75.95383
  62.14183 -14.98431 -70.49205
  61.76773 -14.35583 -64.07260
  61.99219 -12.66492 -57.38380
  62.15679 -10.16598 -51.41326
  62.03708  -8.04112 -46.32558
  60.94473  -7.98127 -42.44997
  58.71513  -9.65721 -38.66414
  56.50049 -12.84449 -34.63888
  54.04643 -16.58543 -29.40157
  51.12850 -19.18912 -23.38614
  48.31531 -19.95228 -16.98165
  46.16053 -19.23401 -10.83154
  44.33495 -17.84238  -5.63912
  42.32981 -16.13652  -2.75111
  40.05532 -15.40329  -0.76093
  38.02025 -14.71496   1.03472
  35.23699 -13.57771   1.88766
  32.27416 -11.42293   1.54349
  29.67047  -8.75938   0.61574
  27.90474  -5.97612  -1.89818
  26.45326  -3.50710  -5.95336
  24.71746  -1.51692 -11.32535
  21.87435  -0.27493 -16.65244
  19.00131   0.69771 -21.50070
  16.65200   1.62547 -25.46610
  14.57203   2.86746 -29.41653
  12.85120   4.30398 -33.71113
  11.84863   5.32152 -37.45207
  12.11798   5.68065 -40.47475
  12.50704   5.86021 -43.16823
  12.70156   6.59344 -45.08359
  12.58185   8.61354 -45.83178
  11.13037  11.89061 -45.59236
   8.66135  15.46695 -43.99123
   5.45910  18.29510 -41.38754
   1.95758  19.43234 -37.12287
  -1.87314  17.77136 -31.00269
  -6.00314  13.67129 -23.61059
  -9.77400   9.45151 -15.64987
 -13.85911   5.92007  -7.80886
 -18.66248   4.21420  -0.22223
 -23.45088   5.48612   6.63117
 -28.11957   9.30188  12.99077
 -32.77330  13.07274  19.60475
 -37.36718  15.04796  25.69500
 -41.36250  14.53919  28.71768
 -44.35525  11.92053  29.46587
 -45.79178   8.29930  31.47101
 -44.95380   4.58829  35.09224
 -40.82381   2.41855  37.80068
 -35.91569   1.70029  37.99521
 -30.99262   1.59554  35.82546
 -25.56077   2.49337  33.31155
 -19.18621   3.25652  30.21405
 -11.44995   3.37623  24.61761
  -3.75857   3.19666  20.24819
   4.18718   2.79264  16.79156
  12.34243   0.81742  13.94845
  19.92906  -1.03808  12.19769
  27.30619  -1.78627  11.76374
  35.05742  -1.45707  14.32254
  43.31742  -0.25997  17.91384
  50.78433   2.52329  20.32301
  56.02165   6.38394  23.12123
  58.62534  10.40919  27.20634
  59.64288  13.65633  32.08452
  61.90241  16.78376  37.48644
  65.40393  19.86629  42.28981
  67.40907  23.33788  44.95336
  66.85541  25.64230  45.76140
  65.43386  25.41785  46.19535
  64.55099  23.06854  45.26760
  63.20426  19.70169  42.34966
  59.95712  15.81111  38.72843
  55.42310  11.60630  35.25684
  51.15843   6.63833  32.14438
  47.55216   0.30866  29.18155
  44.69408  -7.62214  26.89210
  42.46448 -16.18141  25.57529
  40.96811 -23.33408  24.55775
  39.83086 -28.63126  24.19862
  39.27720 -32.49191  24.46797
  39.14253 -35.32006  25.27601
  38.11003 -37.47484  25.85960
  36.17970 -39.12085  26.20377
  34.74318 -40.70701  27.25123
  32.75300 -41.75447  28.77753
  30.14931 -41.51505  30.60311
  28.00949 -39.12085  31.86007
  25.80982 -34.33245  32.99731
  23.58022 -28.28709  34.50865
  21.41047 -22.33151  35.81050
  18.95642 -16.55550  36.70833
  15.58957 -11.36308  36.54372
  11.80374  -6.97869  35.79554
   8.34711  -2.63920  35.64590
   4.96530   2.55322  35.70575
   0.71559   8.59858  35.90028
  -4.62647  14.32970  36.52876
 -10.52219  18.23524  37.66601
 -16.46280  20.37506  38.20470
 -21.81983  21.48238  37.42659
 -26.59327  21.96122  35.66086
 -32.30943  21.81158  33.08710
 -37.68142  21.51230  29.97463
 -41.06323  20.71923  26.03916
 -41.61689  19.19292  21.66975
 -42.79902  17.32245  19.76935
 -49.71228  16.82865  16.73171
 -59.19930  18.22028  11.68892
 -63.82311  19.70169   9.47428
 -61.09970  21.36267  11.74877
 -53.88717  20.21046  16.20797
 -47.70714  13.91071  21.59493
 -44.51986   6.69818  27.55050
 -41.06323   2.46344  30.93231
 -37.57667   1.95467  31.09692
 -36.79856   3.58572  30.24398
 -37.32229   6.39891  30.93231
 -34.86823   8.13470  32.68307
 -29.42142   7.22191  34.49369
 -23.94469   5.29159  36.75322
 -20.96690   3.57076  39.80582
 -19.15628   2.28387  42.06535
 -16.92668   1.38605  42.17010
 -15.17592   0.56304  41.27227
 -14.08357  -0.20011  40.14999
 -14.14342  -1.32239  38.71347
 -15.29563  -2.16036  37.42659
 -16.35806  -2.08555  37.33680
 -16.58252  -1.27750  38.08499
 -17.13617  -0.46946  39.04267
 -19.12635  -0.57421  39.76093
 -21.86472  -1.78627  40.44927
 -24.52827  -4.53960  40.23977
 -25.56077  -7.62214  39.37188
 -24.76769 -11.07877  38.07003
 -22.40342 -14.31094  36.16963
 -18.84204 -17.45333  33.62579
 -14.41277 -20.90996  30.52829
  -9.08567 -24.21695  27.02677
  -3.66879 -26.22209  24.01906
   0.79041 -27.47905  21.74457
   4.09740 -27.85314  19.78431
   6.91059 -27.62868  17.58464
   9.40954 -26.86553  14.45721
  11.39972 -26.32684  11.37468
  13.01580 -26.97028   8.65127
  14.60196 -28.36191   5.97276
  16.83156 -30.45683   4.52128
  19.80935 -33.18024   5.00012
  21.78457 -35.94853   4.79062
  21.33565 -37.41498   3.08476
  18.67210 -36.21788   0.54092
  14.24283 -31.71379  -2.07774
   8.33215 -24.42644  -4.35223
   2.04737 -15.28358  -5.53437
  -3.56404  -6.51482  -6.31249
  -8.50208   0.53311  -5.75883
 -13.08100   5.97992  -4.15770
 -17.31574  10.33438  -1.83832
 -20.95193  14.06035   0.61574
 -24.66295  17.32245   3.20447
 -28.65827  19.79147   5.89794
 -32.38425  21.37763   8.44178
 -35.61642  21.84151  10.61153
 -38.48946  20.98857  12.09294
 -41.13805  18.35495  12.27250
 -42.97859  15.07789  11.79366
 -44.32533  12.63879  10.52175
 -45.34286  12.32456   9.29472
 -46.48011  13.91071   7.57388
 -47.51261  16.30492   5.46399
 -47.93159  19.31263   3.08476
 -47.96152  22.39517   0.03215
 -48.17101  26.00143  -3.11024
 -48.27576  29.62266  -6.28256
 -48.64985  32.61542  -9.67933
 -49.15862  34.71034 -13.00129
 -50.17616  35.77277 -15.35060
 -51.49297  35.57824 -16.63748
 -53.85724  33.69281 -16.96668
 -56.93978  30.35589 -16.48784
 -61.05481  26.31567 -15.94915
 -65.15488  21.97618 -15.17103
 -69.21006  18.14546 -13.94400
 -72.66669  14.62898 -12.52245
 -75.04593  11.27709 -10.66694
 -75.01600   8.02996  -8.51216
 -72.32252   4.49851  -6.31249
 -67.74361   0.78750  -4.63654
 -62.23695  -2.32497  -3.28981
 -56.43101  -5.18304  -2.84089
 -51.19369  -7.66703  -4.56173
 -46.83924  -8.51996  -8.18296
 -42.43989  -7.69696 -12.37281
 -38.56428  -6.79913 -16.63748
 -34.71859  -6.57467 -20.45324
 -30.45392  -6.84402 -23.37117
 -25.77026  -7.02359 -24.56827
 -21.07164  -7.44257 -24.01461
 -16.61244  -7.74185 -22.51824
 -12.39266  -8.25061 -21.78501
  -8.42727  -8.93895 -20.97697
  -4.38705 -10.24079 -20.79741
  -0.79575 -12.02148 -21.30617
   2.31671 -14.16130 -22.80255
   5.21968 -16.07666 -24.38871
   8.19747 -17.31865 -24.85258
  10.83109 -18.00699 -27.39642
  13.95852 -18.21648 -34.41443
  17.65457 -18.33619 -39.84627
  21.39551 -17.87231 -42.55471
  25.37587 -16.61536 -45.59236
  29.50587 -14.29597 -49.93185
  33.60594 -11.84192 -55.24398
  38.49909 -10.57000 -59.64333
  44.55941 -10.39043 -62.48644
  51.95151 -11.15358 -64.74597
  59.43339 -12.53025 -68.17267
  65.56853 -13.68246 -73.39502
  69.59378 -13.80217 -78.66227
  73.63400 -12.09630 -81.84955
  78.70671  -9.20830 -83.42074
  83.07613  -7.18819 -85.08172
  85.73968  -6.94877 -88.31389
  86.18859  -8.56485 -91.96505
  85.54515 -10.94409 -95.33190
  83.43526 -13.02405 -98.77356
  78.99102 -14.59525-102.93349
  73.37961 -15.50804-107.49743
  68.78574 -15.92702-111.11866
  65.55357 -15.62775-112.70482
  62.21665 -14.14634-113.46797
  56.85962 -11.48279-113.73732
  50.91901  -9.56743-113.99171
  46.71419  -8.60974-112.04642
  44.17035  -7.44257-108.15584
  41.82104  -6.48489-103.50211
  38.70858  -4.67428 -98.41443
  34.93771  -1.86109 -93.41653
  31.33145   1.56561 -87.35621
  27.81496   4.88757 -80.60756
  23.83460   7.68579 -73.46984
  19.03123   9.16720 -65.98796
  14.72167   9.70590 -58.17688
  11.71396  10.34934 -50.91946
   8.97559  11.36688 -44.78431
   5.84816  12.95303 -39.59189
   2.75066  15.12278 -34.83341
  -1.72350  17.41223 -31.34686
  -8.08310  19.47723 -29.13222
 -14.51752  21.52727 -27.84534
 -20.68259  24.01125 -27.75555
 -26.38378  26.57006 -28.05483
 -31.59117  29.20368 -28.53367
 -36.25986  31.28364 -29.44646
 -40.12051  32.83987 -30.91291
 -43.86145  33.79755 -32.49907
 -46.85420  35.44357 -34.54910
 -49.56264  37.22425 -36.40461
 -51.62764  37.95748 -37.40718
 -51.89699  36.77534 -37.30243
 -49.87688  33.63295 -35.76117
 -46.01623  29.17375 -32.73849
 -41.27272  23.75687 -28.65338
 -36.73870  18.71408 -24.50842
 -33.07258  14.85343 -21.63538
 -29.76559  11.47162 -19.03168
 -26.63816   7.83543 -15.24585
 -23.58555   4.18427 -10.75672
 -20.39827   1.10174  -5.83365
 -16.88179  -0.79866  -0.20727
 -13.36531  -1.24757   5.73334
  -9.42984  -1.20268  12.24258
  -4.95567  -2.02569  18.15326
   0.34150  -3.29761  23.70482
   6.17736  -4.64435  29.63047
  12.13294  -4.74909  35.78057
  17.81917  -3.22279  41.39198
  23.19116  -0.20011  46.07564
  27.75511   3.79521  49.53227
  31.01721   7.80550  51.80676
  33.17199  10.84314  53.13853
  34.72822  12.77347  53.58745
  35.59612  14.47934  53.15350
  36.14978  16.02060  52.10604
  36.32934  16.61916  50.19067
  35.38662  15.70637  47.90122
  33.99500  14.37459  45.94097
  33.14206  13.17749  45.61176
  33.98003  12.27966  46.25520
  36.23956  11.89061  46.62930
  38.82829  11.56140  47.18296
  41.07285  11.09753  48.97861
  42.80865   8.92778  50.65455
  44.31999   4.84268  50.95383
  45.38242  -0.69392  51.05857
  45.95104  -6.93380  51.32792
  46.26528 -12.84449  51.61223
  45.96600 -17.69275  51.59727
  45.44227 -21.25412  51.37281
  44.82876 -23.84285  51.05857
  44.11050 -25.42901  50.40017
  43.25756 -26.71589  50.05600
  42.01557 -28.51155  50.14578
  40.45934 -30.95064  50.13082
  39.56151 -33.41966  49.98118
  38.40930 -34.72151  49.48738
  35.97021 -34.61676  48.69430
  33.09717 -32.83607  48.11071
  31.33145 -30.42691  48.26035
  30.43362 -27.68854  49.50234
  29.99967 -25.14470  51.05857
  30.40369 -22.61582  53.27321
  30.73290 -20.13184  56.46049
  31.33145 -17.91720  60.66531
  31.87014 -15.88213  64.73545
  31.45116 -13.45800  68.68588
  30.14931  -9.46268  73.08523
  28.08431  -3.41732  77.90356
  25.42076   2.80760  82.16823
  22.11377   8.28434  85.77450
  18.43268  12.42930  89.39573
  14.34758  15.73629  93.33119
  10.24751  18.19035  97.67069
   5.96787  20.55462 101.51637
   1.14954  22.12582 104.17992
  -3.84835  22.54480 105.73615
  -8.47216  21.90136 106.09528
 -13.41020  20.04586 105.90075
 -18.85701  16.76879 105.67630
 -24.30382  12.11506 106.06536
 -29.15207   7.67083 106.31974
 -33.44667   5.05217 105.18249
 -37.89091   4.18427 102.44413
 -42.82895   4.88757  98.23931
 -46.82427   6.39891  92.92717
 -49.54768   7.32666  86.95663
 -50.56521   7.05731  80.47732
 -50.34076   5.32152  74.46189
 -49.45790   2.83753  69.11983
 -47.43779  -0.12529  63.95733
 -44.07094  -2.60928  59.12404
 -40.61431  -3.43228  55.23346
 -37.03798  -3.07315  51.92647
 -32.81820  -1.92094  48.39502
 -28.14950   0.23384  44.54934
 -24.22900   2.59811  39.61130
 -21.99940   5.26166  33.61083
 -21.13150   7.86536  26.80232
 -21.62530   9.45151  19.88906
 -22.74758   9.49641  13.52946
 -23.00197   8.68836   7.91805
 -24.06440   7.71572   2.81541
 -26.45860   6.99746  -1.95803
 -29.43639   6.90767  -6.41723
 -31.93533   7.73068 -10.35270
 -33.25214   8.37412 -13.06114
 -33.79084   8.00003 -15.70973
 -33.77588   6.32409 -18.05904
 -33.02769   3.13681 -20.30360
 -30.96269  -0.20011 -22.33867
 -27.28160  -3.46221 -23.89490
 -22.38845  -6.84402 -25.12193
 -16.34309 -10.25576 -25.66063
  -8.80136 -12.88938 -25.98983
  -0.54136 -14.14634 -26.09458
   6.97044 -14.17626 -26.16940
  14.01837 -13.66750 -27.12708
  20.61739 -13.66750 -28.74316
  26.46822 -15.16387 -30.98773
  31.09203 -18.44094 -33.86077
  34.78807 -22.48115 -37.30243
  38.19981 -24.99506 -39.83131
  39.30713 -26.49144 -41.95616
  38.81333 -26.92539 -43.57225
  37.10746 -25.78814 -44.55986
  35.71583 -23.93264 -44.99381
  33.09717 -22.72057 -45.06862
  29.40112 -23.18445 -44.29051
  25.22623 -24.35162 -43.15326
  20.03381 -24.84542 -42.59960
  13.95852 -24.60600 -42.00105
   8.34711 -23.78300 -41.77660
