********************************************************************************
              CENTRO DE INSTRUMENTACION Y REGISTRO SISMICO  A.C.

    Anaxagoras 814, Col. Narvarte, Benito Juarez, C.P. 03020 Mexico, D.F.
           Tels. 5687 45 42/ 5687 45  82             Fax. 5669 25 12
********************************************************************************
ARCHIVO ESTANDAR DE ACELERACION:
VERSION DEL FORMATO                    : 2.0
NOMBRE DEL ARCHIVO                     : CP2820170919181440
FECHA Y HORA DE CREACION               : 29/SEP/17, 10:03
REF. CATALOGO ACELEROGRAMAS, SMIS 1996 : REGISTRO No.     /PAG.


================================================================================
DATOS DE LA ESTACION:
NOMBRE DE LA ESTACION                  : CERRO DEL PEÑÓN
CLAVE DE LA ESTACION                   : CP28
LOCALIZACION DE LA ESTACION            : Del. Venustiano Carranza, Col. Peñon   
                                       : de los Baños, calle Morelos,           
                                       : Esq. con calle La Paz.                 
                                       :                                        
                                       : 
COORDENADAS DE LA ESTACION             : 19.4385 LAT. N
                                       : 99.0839 LONG. W
ALTITUD (msnm)                         : 2240
TIPO DE SUELO                          : Arenoso, limoso, compacto           
                                       :                           
                                       : 
INSTITUCION RESPONSABLE                : CIRES
                                       : 

================================================================================
DATOS DEL ACELEROGRAFO:
MODELO DEL ACELEROGRAFO                : RADESD
NUMERO DE SERIE DEL ACELEROGRAFO       : 245
NUMERO DE CANALES                      : 3
ORIENTACION C1-C6 (rumbo;orientacion)  : /N00E/+V/N90W
ORIENTACION C7-C12 (rumbo;orientacion) : 
VEL. DE MUESTREO, C1-C6 (muestras/s)   : /100/100/100
VEL. DE MUESTREO, C7-C12 (muestras/s)  : 
ESC. COMPLETA DE SENSORES, C1-C6, (g)  : /0.5/0.5/0.5
ESC. COMPLETA DE SENSORES, C7-C12, (g) : 
FREC. NAT. DE SENSORES, C1-C6, (Hz)    : /30/30/30
FREC. NAT. DE SENSORES, C7-C12, (Hz)   : 
AMORTIGUAMIENTO DE SENSORES, C1-C6     : /0.700/0.700/0.700
AMORTIGUAMIENTO DE SENSORES, C7-C12    : 
INTERVALO DE MUESTREO, C1-C6, (s)      : /0.01/0.01/0.01
INTERVALO DE MUESTREO, C7-C12, (s)     : 
UMBRAL DE DISPARO, C1-C6, (Gal)        : /1.05/2.39/1.05
UMBRAL DE DISPARO, C7-C12, (Gal)       : 
MEMORIA DE PREEVENTO (s)               : 44.0
TIEMPO DE POSEVENTO (s)                : 64.0


================================================================================
DATOS DEL SISMO:
FECHA DEL SISMO (GMT)                  : 19/SEP/17
HORA EPICENTRO (GMT)                   : 18:14:40.0
MAGNITUD(ES)                           : /Mc=7.1
COORDENADAS DEL EPICENTRO              : 18.40 LAT. N
                                       : 98.72 LONG. W
PROFUNDIDAD FOCAL (km)                 : 57
FUENTE DE LOS DATOS EPICENTRALES       : SSN
                                       : INSTITUTO DE GEOFISICA, UNAM

================================================================================
DATOS DE ESTE REGISTRO:
HORA DE LA PRIMERA MUESTRA (GMT)       : 18:14:59.00
EXACTITUD DEL TIEMPO (s)               : 0.01
DURACION DEL REGISTRO (s), C1-C6       : /253.8/253.8/253.8
DURACION DEL REGISTRO (s), C7-C12      : 
NUM. TOTAL DE MUESTRAS, C1-C6          : /25380/25380/25380
NUM. TOTAL DE MUESTRAS, C7-C12         : 
ACEL. MAX. (Gal), C1-C6                : /90.28983/81.15373/133.43816
ACEL. MAX., C1-C6, EN LA MUESTRA       : /6490/6511/6611
ACEL. MAX. (Gal), C7-C12               : 
ACEL. MAX., C7-C12, EN LA MUESTRA      : 
UNIDADES DE LOS DATOS                  : Gal (cm/s/s)
FACTOR DE DECIMACION                   : 1
FORMATO DATOS (FORTRAN,10 campos/dato) : 3F10.5


================================================================================
CALIDAD DEL ACELEROGRAMA:
REGISTRO DIGITAL COMPLETO CON TIEMPO ABSOLUTO CORRECTO.


================================================================================
COMENTARIOS:














================================================================================
DATOS DE ACELERACION:
---------+---------+---------+---------+---------+---------+---------+---------+
   CANAL-1   CANAL-2   CANAL-3   CANAL-4   CANAL-5   CANAL-6   CANAL-7   CANAL-8
      N00E        +V      N90W
---------+---------+---------+---------+---------+---------+---------+---------+
[...]
 -48.18481  17.87198 -13.21931
 -38.36859  19.29354   5.70984
 -27.83410  19.15887  26.53940
 -17.71860  19.41325  45.01964
  -6.31621  19.03916  58.03811
   6.88183  18.38075  64.47253
  21.83062  19.06909  65.44518
  36.36043  21.08919  60.56699
  48.30152  22.75017  49.82301
  56.14253  23.00455  34.30559
  59.35973  21.13408  15.19687
  59.18017  17.22854  -5.10895
  55.34945  11.91641 -22.07786
  47.28398   6.27507 -32.05869
  37.40790   0.85819 -35.21604
  27.42707  -5.11235 -33.01637
  18.53860 -11.93583 -25.92354
  11.41585 -19.32792 -13.45873
   5.22085 -25.59774   4.22843
  -0.45042 -31.20915  26.15034
  -8.26150 -35.74317  50.39163
 -17.79341 -40.45675  72.26865
 -28.31294 -43.71885  86.48422
 -36.04920 -45.18530  90.76386
 -40.35877 -42.49182  84.80828
 -43.77050 -33.04969  69.87445
 -48.22970 -18.48995  47.90765
 -50.66880  -3.10721  23.95067
 -47.33188   8.86380   0.33785
 -40.37373  18.62017 -22.93079
 -34.53786  26.85024 -47.33669
 -28.77681  33.50911 -71.29367
 -21.07048  38.58183 -90.14800
 -14.12729  41.17056-100.15876
  -9.33889  41.38005-101.38579
  -6.13665  39.88368 -93.51485
  -2.88951  37.53437 -76.65069
   0.47734  32.88064 -53.83096
   3.96389  25.33890 -29.27543
   6.85190  16.09130  -4.73486
  11.34103   5.63163  20.32944
  18.80794  -5.92039  47.42881
  27.41211 -18.10090  71.02666
  35.73196 -32.34639  84.29951
  42.82478 -45.46961  87.20248
  45.92228 -53.01135  82.27941
  41.53790 -53.04128  68.10873
  32.54468 -45.67911  45.18424
  22.68356 -33.40882  21.76596
  12.59798 -16.66437   0.54735
   4.14346  -0.95243 -21.59902
  -1.34824   9.91126 -43.70049
  -2.60520  14.83434 -60.87889
  -0.79458  16.39057 -67.02899
   2.73686  16.55517 -63.13842
   7.13621  16.04641 -53.75614
   9.93443  15.04383 -42.42857
   9.72494  13.74199 -31.46014
   7.09132  12.51496 -21.65887
   4.71208   9.68681 -11.66308
   3.39527   6.76887   0.20318
   2.93139   3.46188  12.33879
   1.15071  -0.08453  23.56161
  -0.54020  -3.34663  33.87164
  -0.24092  -6.90800  42.20646
   2.78176  -8.85329  46.12696
   6.44788  -8.37445  49.80805
   7.57016  -5.98025  54.65631
   6.22342  -3.21195  52.78584
   4.26317   0.12497  45.78280
   1.55473   4.53927  37.83704
  -1.36321   9.26782  29.66683
  -1.49788  12.63467  25.68647
   2.27299  14.47521  24.19009
   9.94940  13.48760  21.06266
  19.36160  10.10579  16.28922
  28.75884   6.33493   8.56792
  37.81192   2.96808  -2.47533
  47.07449   0.34942 -13.48866
  54.70600  -2.67326 -22.97568
  60.21267  -6.65362 -32.67220
  63.28024 -13.01322 -44.31401
  64.17806 -20.48013 -57.55693
  62.21781 -26.69009 -70.71008
  56.05274 -30.31132 -82.36685
  46.32630 -30.23650 -90.40239
  34.50493 -26.85469 -93.38018
  22.66859 -20.73452 -90.32757
   9.88954 -13.70155 -82.15736
  -4.32603  -7.14742 -70.62030
 -17.70363  -2.74808 -56.61422
 -27.60964  -1.29659 -41.68038
 -33.34076  -1.19185 -28.06336
 -35.36087  -0.83272 -17.37924
 -35.07656   1.44178 -10.27145
 -34.26851   5.97580  -8.28127
 -32.68236  12.20072  -8.19149
 -29.27062  19.06909  -5.90203
 -23.52453  24.83013  -1.74211
 -16.67113  28.60100   3.55506
  -9.06954  30.92038   9.03180
  -0.39056  32.19230  13.68553
   8.33331  33.16495  16.45382
  18.47874  33.13502  16.49872
  28.99826  31.74339  13.62567
  37.16848  29.67839   8.20879
  41.29848  27.29915   2.26818
  41.70250  24.74035  -2.11620
  38.84442  20.71510  -3.56769
  33.86149  13.56242  -1.14356
  27.06794   4.28489   5.05144
  18.01486  -5.62112  13.53589
   6.29824 -15.12311  23.24737
  -6.81001 -24.26596  32.13585
 -20.27740 -31.88252  37.79215
 -31.76957 -38.82570  39.85715
 -40.91242 -44.57179  41.78747
 -47.42166 -48.77660  43.25392
 -50.26477 -49.33026  43.70283
 -49.86075 -46.35247  42.31120
 -47.73590 -39.55893  36.71476
 -42.40880 -30.62556  25.25252
 -35.01670 -19.74691   9.04676
 -26.68189  -6.80326  -8.90975
 -19.30475   7.57692 -25.95347
 -14.11233  21.88227 -41.00701
  -9.50349  34.09270 -53.72621
  -5.13407  44.20820 -61.97124
  -1.22853  50.64262 -65.74211
   2.07846  53.29121 -63.91653
   4.03871  51.88461 -55.34230
   4.12849  48.78711 -42.47346
   1.64451  44.16331 -28.09329
  -2.21614  37.20516 -13.50362
  -6.22643  27.20937   1.65467
 -12.27179  15.04383  16.42390
 -19.55914   2.60895  28.69418
 -26.23298  -9.39199  37.20856
 -32.54768 -19.35785  39.99182
 -39.07188 -26.83973  37.91186
 -43.48619 -33.60335  35.38298
 -43.80043 -40.42683  31.28291
 -40.59819 -46.42729  24.90835
 -35.34591 -48.55215  19.91045
 -27.34029 -46.47218  15.48118
 -15.77331 -40.38193  10.37854
  -0.86940 -30.83506   7.31097
  12.91222 -19.89655   5.59013
  22.86312 -10.88836   4.87187
  29.94098  -3.46634   4.36311
  34.80420   2.71370   3.40543
  38.06630   8.83387   2.46271
  39.44297  15.56757   2.01380
  38.48529  20.70014   1.04115
  34.60967  22.78010   0.29296
  28.90848  20.13151   0.35282
  21.81566  14.01133   0.93641
  12.73266   5.91594   1.77438
   2.10839  -1.19185   3.40543
  -9.57831  -5.35177   6.08394
 -22.11794  -6.74340  10.28876
 -35.48058  -5.78572  17.15712
 -47.54137  -3.03239  26.35983
 -56.25028  -1.64076  36.78958
 -60.44013  -3.36159  46.90508
 -61.06861  -7.80583  55.22493
 -59.39267 -13.40227  61.07576
 -55.27763 -18.60966  63.24550
 -48.73847 -21.78198  60.40239
 -40.89746 -22.02140  51.31939
 -32.06884 -18.02608  37.92682
 -23.80885  -9.72119  21.36194
 -17.31457   1.38192   2.44775
 -14.18715  13.51753 -14.86533
 -15.24958  26.08709 -26.73159
 -17.35947  38.94096 -32.23825
 -16.26711  49.07143 -31.20575
 -11.95755  53.99450 -23.81365
  -9.03961  51.95943 -10.09189
 -10.02722  43.63958   7.50550
 -13.00501  29.09481  24.13023
 -16.25215  11.72188  36.81950
 -19.91827  -4.00503  44.67548
 -22.67160 -14.67419  48.23685
 -23.80885 -21.55752  46.36638
 -23.76395 -25.91198  40.63526
 -22.52196 -31.11937  32.00117
 -20.39711 -38.79578  23.08277
 -18.75110 -48.92624  16.06477
 -17.00034 -57.03660  10.49825
 -13.04990 -61.66040   4.39303
  -6.51074 -62.04946  -3.74725
   1.13574 -58.78736 -13.83283
   7.80958 -52.38287 -25.95347
  13.22646 -44.46704 -40.75263
  18.50867 -36.47639 -58.96353
  24.85330 -28.50071 -78.70073
  32.72424 -20.53999 -97.52514
  42.31601 -13.11796-111.66589
  51.08477  -6.08500-117.23241
  56.96553   1.90565-112.66846
  59.59915  10.46492-101.13140
  59.12031  18.79974 -86.22750
  53.76329  27.20937 -70.84475
  41.76235  36.23252 -55.23755
  24.41935  44.79179 -38.59785
   4.23324  50.35831 -20.02782
 -15.66856  52.22878  -1.66729
 -32.36812  51.31599  13.99977
 -44.48876  46.49766  27.51204
 -54.02068  38.10299  41.14403
 -61.36788  27.97252  55.68880
 -65.15372  18.96434  69.18612
 -63.53763  11.79670  78.89760
 -55.89115   7.02326  83.41665
 -43.63583   4.71884  83.83564
 -28.47754   3.56663  81.23194
 -10.95498   2.89326  78.62825
   8.16871   1.66623  78.17934
  26.70881  -1.65572  78.53847
  43.30362  -6.14485  75.09680
  58.28234 -12.10043  66.10358
  71.30081 -19.67209  53.21978
  81.73056 -27.31857  36.16110
  88.58396 -33.48364  18.33926
  90.28983 -36.50632   3.42039
  86.11494 -35.87784  -8.74515
  77.61552 -31.67303 -19.89315
  65.33027 -25.74738 -29.84405
  51.86289 -18.92390 -36.95184
  39.24844 -11.59166 -39.58546
  27.74131  -4.85797 -35.99416
  17.65573  -0.59330 -27.12065
   8.97675  -1.01228 -16.33177
   0.68683  -6.17478  -3.91185
  -7.46842 -14.12053   9.95955
 -14.24700 -22.00644  22.31962
 -19.24490 -26.88462  28.69418
 -22.43218 -26.33096  26.91349
 -25.20048 -19.11843  16.28922
 -28.68703  -6.11492  -0.88917
 -32.39804  10.91384 -20.65630
 -36.06417  31.29448 -39.80991
 -37.99449  52.00432 -55.05799
 -36.54301  68.91337 -62.56979
 -31.90424  79.29822 -60.57961
 -24.63185  81.15373 -50.28455
 -12.73566  73.74667 -34.58756
   3.08103  58.72305 -17.73837
  18.11961  41.78407  -3.46294
  30.47968  27.95756   6.54782
  40.35576  18.99427   9.52560
  46.98470  13.99637   5.39561
  50.38148  12.96387  -1.74211
  51.05485  16.13619  -9.23895
  49.00481  21.37350 -15.02993
  45.54818  23.73778 -16.96025
  42.16637  20.22130 -14.02736
  39.59261  12.03612  -5.12392
  37.93163  -1.43127   7.75988
  34.62464 -14.98843  25.28244
  29.67163 -28.29122  44.75030
  24.41935 -40.68121  64.09844
  19.55613 -50.76678  81.18705
  12.76258 -55.97417  92.00585
   5.25078 -55.73475  93.63690
  -0.33071 -51.33541  85.34698
  -3.08404 -42.53672  69.24597
  -4.10157 -31.91245  48.31167
  -4.43078 -21.34803  24.41455
  -3.00922 -12.11539  -2.02642
  -2.29096  -3.07728 -29.05097
  -4.08661   8.45978 -55.71639
  -6.06183  21.38847 -79.82301
  -7.51331  33.71861 -97.37550
 -11.97251  43.86404-105.68039
 -19.57410  49.46048-105.30629
 -27.40015  48.57762 -98.27333
 -32.65243  40.64683 -87.03554
 -36.28862  26.59586 -73.25392
 -39.98467  10.16565 -56.47954
 -44.33913  -6.74340 -37.31097
 -48.55891 -22.85937 -15.23942
 -51.37209 -37.17969   7.77484
 -53.52687 -47.78900  29.03835
 -55.84626 -52.69711  45.12439
 -57.98607 -49.71932  53.92308
 -58.55470 -39.76842  55.20996
 -57.70176 -24.80466  50.46645
 -56.34006  -7.91057  41.15899
 -54.21521   7.90612  26.76386
 -49.59141  20.87970   9.58546
 -39.59561  31.08499  -6.44073
 -22.43218  37.62415 -21.82347
  -0.37560  39.85375 -33.62988
  20.64849  38.40226 -37.92448
  37.24330  33.65875 -38.49310
  50.90521  24.15676 -37.87959
  61.52948  12.54489 -33.25579
  67.29053   1.74105 -24.03811
  66.64709  -5.03753  -9.83750
  60.81122 -11.05296   6.90695
  50.00738 -16.54466  25.23755
  38.91924 -23.89187  42.98457
  29.19279 -32.16683  58.92098
  23.61131 -41.72867  71.16133
  20.64849 -50.66204  78.35890
  19.30175 -55.97417  83.82067
  17.58091 -57.38077  86.87328
  12.43338 -51.93396  87.74118
   3.47009 -41.89327  85.48165
 -10.53599 -27.09412  78.43372
 -28.67207  -8.91315  67.21090
 -47.55633   9.56710  55.47931
 -63.98654  24.66553  44.63059
 -75.64331  35.09527  36.38555
 -80.32697  41.26034  32.43512
 -77.91780  45.77940  33.22820
 -69.50817  49.28092  37.65747
 -58.06089  51.42074  44.78022
 -46.76325  52.25871  51.67852
 -37.23134  51.83972  55.25486
 -28.41768  49.92436  54.29717
 -19.02044  46.01882  48.32663
  -9.17429  41.11070  35.53262
   1.83904  35.64893  13.96984
  13.10675  29.09481 -13.45873
  22.57881  20.67021 -42.00959
  27.38218  10.85398 -65.93664
  27.90591   0.96294 -79.55366
  25.37703  -9.99054 -82.75591
  18.26925 -19.17829 -75.40870
   8.18367 -25.73241 -59.32266
  -1.19860 -29.75766 -39.42086
  -6.70527 -33.73802 -19.20482
  -8.26150 -37.91291   1.60977
  -8.38121 -41.77356  22.03531
  -8.84509 -46.45722  37.20856
  -8.51588 -49.16566  45.13935
  -5.79248 -48.73171  41.53309
  -2.27600 -43.76374  25.31237
  -0.12121 -33.84277   1.53496
   0.05835 -22.18600 -26.20786
  -4.19136  -7.44670 -54.96820
 -14.11233   9.04337 -85.31471
 -24.43732  22.97463-117.27730
 -25.69428  34.57154-133.43816
 -28.95638  45.25567-129.48773
 -35.98935  51.42074-114.85317
 -31.78453  51.27110 -95.29554
 -20.44200  46.09364 -74.30138
 -14.63606  36.02303 -47.21698
  -7.76770  28.28676 -21.43442
   7.00154  22.04687   0.48749
  22.32443  12.24561  17.66589
  31.99102   2.51917  28.55951
  39.65246  -4.97768  32.82418
  47.37376 -13.14789  29.30770
  54.58629 -21.12357  18.54875
  63.25031 -28.09669   1.05612
  70.85190 -34.68074 -21.91326
  72.09389 -38.96038 -44.55343
  68.08361 -38.66110 -60.34019
  63.48973 -34.35154 -64.57494
  60.46705 -28.94962 -57.12298
  58.58162 -21.90169 -42.11433
  54.99032 -14.18039 -24.95090
  46.71536  -5.60616 -10.09189
  32.78410   4.15022   3.57003
  17.25171  12.21568  17.38158
   4.69712  16.42050  27.85621
  -4.61034  19.21872  31.50737
 -11.74806  23.73778  27.06313
 -16.38682  29.27437  16.46879
 -18.94562  34.51169   3.65981
 -21.17522  39.12052  -6.93453
 -24.82638  40.57201 -13.74304
 -29.76442  35.72375 -19.38438
 -34.37326  24.63560 -24.20271
 -38.92224  10.53974 -28.72177
 -44.53365  -3.57108 -30.66706
 -49.84579 -14.53952 -25.87865
 -52.55423 -20.00129 -13.78793
 -52.19510 -21.03379   2.14847
 -49.51659 -19.95640  18.59364
 -44.68329 -18.08593  29.30770
 -37.87478 -16.02093  30.14567
 -30.28815 -14.06068  22.43933
 -22.47707 -12.90847  11.09680
 -14.06744 -12.84862  -0.26070
  -6.16657 -13.46213  -8.83493
  -1.31831 -12.51941 -15.16460
   0.86639  -7.79086 -20.49170
   2.60219   1.65127 -24.95090
   4.84675  14.13104 -27.68927
   7.80958  26.46118 -26.11807
  13.92976  35.75368 -17.70844
  24.13504  38.59679  -4.77975
  38.67982  34.16752   8.02923
  54.91550  22.49579  18.11480
  68.59237   5.60170  24.22002
  76.98704 -10.91829  24.95324
  78.51335 -21.87176  19.83563
  71.42052 -26.42075   9.95955
  55.58887 -27.33354  -5.33341
  35.04362 -26.88462 -23.72387
  12.82244 -25.20868 -40.45336
  -7.99215 -22.42542 -53.38204
 -23.92856 -18.87901 -60.54969
 -33.87946 -14.21032 -59.38251
 -38.53319  -7.94050 -46.93266
 -38.86239  -1.25170 -22.09282
 -35.09152   3.58159   8.91209
 -27.54979   5.39221  38.82465
 -18.78102   3.37210  64.44260
 -10.96994   0.60381  81.96517
  -2.51542   1.54652  88.57915
   5.47523   6.64916  86.99299
   8.58770  15.53764  80.06477
   5.22085  29.01999  67.45032
  -0.67487  45.79436  52.45663
  -6.69030  60.48877  39.16881
 -13.00501  70.02069  29.41244
 -19.90330  73.25286  22.99299
 -25.33515  69.19768  22.30466
 -28.19323  59.29167  28.85878
 -27.07095  46.09364  40.53052
 -21.41464  31.74339  54.53660
 -12.90026  18.39572  68.85691
  -3.86215   7.62181  80.30419
   2.57226  -0.27906  86.25977
   6.16357  -4.96271  84.61375
   8.12382  -9.04782  74.34861
   7.71980 -14.62930  57.73884
   6.20846 -20.80934  37.55273
   6.38802 -26.58535  18.12977
   8.34827 -31.64310   2.23825
   9.15632 -34.59096  -9.52326
   6.16357 -36.04244 -18.41174
  -0.31574 -37.68846 -26.32757
  -6.46585 -40.03777 -32.77695
 -11.47871 -42.44693 -36.02408
 -16.34193 -43.28490 -35.39560
 -21.74385 -40.66625 -31.47510
 -25.99356 -35.33915 -26.67173
 -28.77681 -29.29379 -23.93336
 -28.41768 -22.81448 -25.26514
 -23.43475 -16.48481 -30.50246
 -15.57878  -9.07775 -38.25368
  -7.06440  -0.63819 -49.31190
  -0.54020   9.04337 -61.86650
   2.45255  18.12637 -75.01964
   2.31788  24.03705 -86.30232
   0.34266  27.04477 -93.03601
  -1.22853  28.30173 -94.96633
   0.79158  28.72071 -92.75170
   7.71980  26.95499 -87.63409
  15.14182  21.59796 -80.25696
  17.32653  15.58253 -70.39584
  15.75534  11.72188 -56.13538
  15.35131   8.80395 -38.17886
  17.52106   3.71627 -18.39677
  19.21196  -3.25684   0.02362
  17.26668  -9.79601  15.01730
  11.49066 -15.70669  25.94085
   5.90918 -21.27321  32.16577
   3.66462 -25.14883  34.61983
   2.13831 -27.42332  34.29063
  -1.91686 -28.14158  28.85878
  -7.67791 -27.09412  20.34440
 -11.55353 -24.37071  13.16180
  -9.44364 -21.00386   9.19640
  -0.19603 -19.64216  10.69278
  13.78012 -21.40789  18.98270
  27.26247 -24.98422  31.56722
  35.41772 -28.38100  42.87983
  36.86920 -29.54817  49.29928
  33.56221 -27.00433  49.08979
  25.69127 -19.77684  41.96704
  13.55566  -9.24235  29.66683
  -0.15114   3.64145  16.49872
 -12.00244  15.13362   4.99158
 -20.93580  20.89466  -3.17863
 -26.59211  20.44575  -7.20388
 -25.87385  14.46025  -6.87468
 -19.99309   4.43453  -4.22609
 -11.92762  -7.68612  -1.54758
  -2.44060 -20.80934   1.75941
   7.21103 -32.06208   6.26350
  14.60313 -38.96038  10.84241
  17.10207 -38.43665  13.11691
  12.91222 -28.74013  11.84499
   3.02118 -11.89093   7.40075
 -10.46117   7.84627   0.11340
 -26.14319  26.01227 -10.24152
 -43.20188  39.62929 -21.47931
