********************************************************************************
              CENTRO DE INSTRUMENTACION Y REGISTRO SISMICO  A.C.

    Anaxagoras 814, Col. Narvarte, Benito Juarez, C.P. 03020 Mexico, D.F.
           Tels. 5687 45 42/ 5687 45  82             Fax. 5669 25 12
********************************************************************************
ARCHIVO ESTANDAR DE ACELERACION:
VERSION DEL FORMATO                    : 2.0
NOMBRE DEL ARCHIVO                     : CS7820170919181440
FECHA Y HORA DE CREACION               : 26/SEP/17, 15:16
REF. CATALOGO ACELEROGRAMAS, SMIS 1996 : REGISTRO No.     /PAG.


================================================================================
DATOS DE LA ESTACION:
NOMBRE DE LA ESTACION                  : ESC. SEC. NO. TÉC. NO. 243
CLAVE DE LA ESTACION                   : CS78
LOCALIZACION DE LA ESTACION            : Del. Magdalena Contreras, Col. Colinas 
                                       : del Sur, entre calle de los Corceles   
                                       : y Corrido.                             
                                       :                                        
                                       : 
COORDENADAS DE LA ESTACION             : 19.3656 LAT. N
                                       : 99.2262 LONG. W
ALTITUD (msnm)                         : 2430
TIPO DE SUELO                          : Arenoso, limoso, compacto           
                                       :                           
                                       : 
INSTITUCION RESPONSABLE                : CIRES
                                       : 

================================================================================
DATOS DEL ACELEROGRAFO:
MODELO DEL ACELEROGRAFO                : RADESD
NUMERO DE SERIE DEL ACELEROGRAFO       : 235
NUMERO DE CANALES                      : 3
ORIENTACION C1-C6 (rumbo;orientacion)  : /N00E/+V/N90W
ORIENTACION C7-C12 (rumbo;orientacion) : 
VEL. DE MUESTREO, C1-C6 (muestras/s)   : /100/100/100
VEL. DE MUESTREO, C7-C12 (muestras/s)  : 
ESC. COMPLETA DE SENSORES, C1-C6, (g)  : /0.5/0.5/0.5
ESC. COMPLETA DE SENSORES, C7-C12, (g) : 
FREC. NAT. DE SENSORES, C1-C6, (Hz)    : /33/33/33
FREC. NAT. DE SENSORES, C7-C12, (Hz)   : 
AMORTIGUAMIENTO DE SENSORES, C1-C6     : /0.800/0.795/0.795
AMORTIGUAMIENTO DE SENSORES, C7-C12    : 
INTERVALO DE MUESTREO, C1-C6, (s)      : /0.01/0.01/0.01
INTERVALO DE MUESTREO, C7-C12, (s)     : 
UMBRAL DE DISPARO, C1-C6, (Gal)        : /1.5/3.44/1.65
UMBRAL DE DISPARO, C7-C12, (Gal)       : 
MEMORIA DE PREEVENTO (s)               : 44.0
TIEMPO DE POSEVENTO (s)                : 95.0


================================================================================
DATOS DEL SISMO:
FECHA DEL SISMO (GMT)                  : 19/SEP/17
HORA EPICENTRO (GMT)                   : 18:14:40.0
MAGNITUD(ES)                           : /Mc=7.1
COORDENADAS DEL EPICENTRO              : 18.40 LAT. N
                                       : 98.72 LONG. W
PROFUNDIDAD FOCAL (km)                 : 57
FUENTE DE LOS DATOS EPICENTRALES       : SSN
                                       : INSTITUTO DE GEOFISICA, UNAM

================================================================================
DATOS DE ESTE REGISTRO:
HORA DE LA PRIMERA MUESTRA (GMT)       : 18:15:01.00
EXACTITUD DEL TIEMPO (s)               : 0.01
DURACION DEL REGISTRO (s), C1-C6       : /246.2/246.2/246.2
DURACION DEL REGISTRO (s), C7-C12      : 
NUM. TOTAL DE MUESTRAS, C1-C6          : /24620/24620/24620
NUM. TOTAL DE MUESTRAS, C7-C12         : 
ACEL. MAX. (Gal), C1-C6                : /87.00547/57.99408/55.51598
ACEL. MAX., C1-C6, EN LA MUESTRA       : /6699/6759/6530
ACEL. MAX. (Gal), C7-C12               : 
ACEL. MAX., C7-C12, EN LA MUESTRA      : 
UNIDADES DE LOS DATOS                  : Gal (cm/s/s)
FACTOR DE DECIMACION                   : 1
FORMATO DATOS (FORTRAN,10 campos/dato) : 3F10.5


================================================================================
CALIDAD DEL ACELEROGRAMA:
REGISTRO DIGITAL COMPLETO CON TIEMPO ABSOLUTO CORRECTO.


================================================================================
COMENTARIOS:














================================================================================
DATOS DE ACELERACION:
---------+---------+---------+---------+---------+---------+---------+---------+
   CANAL-1   CANAL-2   CANAL-3   CANAL-4   CANAL-5   CANAL-6   CANAL-7   CANAL-8
      N00E        +V      N90W
---------+---------+---------+---------+---------+---------+---------+---------+
[...]
  48.13225   1.98067  16.66920
  52.47174   3.83617   9.89061
  56.57181   5.34751   5.19199
  59.98355   5.42233   2.84268
  60.25290   3.35733   2.73794
  55.16522  -0.12922   4.24928
  44.13693  -3.51103   7.49641
  29.38266  -6.41400  12.46438
  15.76564  -9.33194  17.98601
   4.52785 -12.69878  23.04376
  -6.53037 -16.72403  26.18615
 -19.04007 -19.77664  27.77231
 -33.39032 -21.51244  28.81977
 -47.51611 -22.41026  30.01687
 -58.15534 -22.99385  32.18662
 -63.43755 -23.48765  35.35893
 -62.74921 -23.26320  37.49875
 -56.97320 -21.25805  36.69071
 -47.14201 -16.26016  32.41107
 -34.69216  -8.34433  25.51278
 -22.27224   0.88831  16.25021
 -10.46584   9.49248   5.70076
  -0.24559  16.42070  -4.53445
   8.25383  20.82004 -13.75213
  15.60103  23.25913 -19.79749
  21.87085  25.17450 -22.86506
  27.87132  27.79315 -24.57093
  33.13856  31.24978 -25.91766
  34.27581  34.30239 -27.65346
  29.90639  35.52942 -29.44911
  21.96063  34.27246 -30.69110
  14.01488  32.37206 -31.48418
   6.99687  29.87312 -32.99552
  -0.91896  25.96758 -36.75143
  -8.81982  20.32624 -41.07595
 -14.65569  14.62505 -44.45776
 -18.47145  10.10599 -47.58519
 -19.36927   6.85885 -49.99435
 -15.91264   4.80882 -50.26370
  -8.92457   4.07559 -47.27095
  -0.42515   4.22523 -42.24313
   7.99944   3.76136 -37.15545
  15.03241   1.87592 -32.69625
  19.68614  -0.90734 -28.62610
  20.98799  -3.52600 -23.97238
  18.96788  -5.45632 -18.73506
  13.82035  -6.51875 -13.73716
   5.33590  -6.50378  -9.41264
  -5.39312  -5.60596  -4.77387
 -16.97507  -4.19937  -0.07525
 -27.46467  -2.22415   5.04236
 -34.01879   0.90328   9.93551
 -36.45789   5.42233  13.46695
 -36.89184  10.18081  14.69398
 -36.32321  13.63744  14.15529
 -34.66224  14.65497  12.61402
 -31.59467  12.76954  10.80340
 -28.10811   7.24791   9.44170
 -24.35221  -0.90734   9.20228
 -20.53645  -9.28704  10.72859
 -16.24185 -15.99081  14.09543
 -11.87243 -20.58468  18.61449
  -7.05410 -23.50262  22.80434
  -1.33794 -25.19352  26.02155
   4.03405 -26.04646  28.38582
   7.23629 -26.27091  30.82492
   7.05673 -25.68733  33.68299
   3.65995 -25.25338  36.79546
  -2.87921 -25.59754  39.36922
 -12.17170 -27.55780  40.97034
 -22.52663 -30.56551  41.59882
 -32.04358 -33.30388  42.12255
 -38.44807 -34.47105  41.89810
 -40.93205 -33.78272  40.74589
 -39.43568 -30.83486  38.60607
 -34.82684 -25.40301  36.31662
 -29.39499 -18.69925  34.26658
 -23.76862 -12.14512  32.48589
 -18.09735  -6.92277  30.51068
 -12.18667  -3.64571  26.81463
  -6.87453  -2.11940  21.27804
  -2.25073  -2.35882  14.97829
   1.41539  -3.66067   8.75337
   3.70485  -5.57603   3.15692
   5.63517  -7.49139  -1.13768
   8.01441  -9.04762  -3.35231
  11.54586  -9.69107  -3.32239
  15.84046  -9.43668  -1.69134
  18.05509  -8.44907   0.38863
  16.72332  -6.80306   1.07696
  13.22180  -4.36397   0.14921
  11.03709  -0.26390  -1.03293
  12.57836   5.37744  -1.16760
  18.42919  11.45273   0.43352
  26.71911  16.43566   3.62080
  35.17363  20.44595   8.22964
  42.74530  24.63580  13.31732
  49.38921  30.05268  17.19293
  54.73127  35.99329  18.53967
  58.38243  40.13826  16.47467
  59.47478  40.63206  12.40453
  55.97326  38.98605   8.31942
  47.53370  37.87873   5.83544
  36.77476  38.23786   5.86536
  27.15306  38.98605   7.84058
  19.92556  38.88130  10.50413
  13.65575  37.87873  12.19503
   6.87716  36.71156  12.70380
  -0.21566  37.20536  12.59906
  -6.87453  39.10576  11.52166
 -12.99471  39.73424  10.13003
 -18.63605  37.26521   8.75337
 -24.84601  32.04286   7.52634
 -31.35525  25.03982   6.50880
 -37.29586  17.79736   5.61098
 -41.65031  11.52755   4.26424
 -43.98466   6.64936   2.52844
 -44.67299   2.84857   1.06200
 -44.58321  -0.20404   0.17913
 -42.09923  -2.14933  -0.09021
 -35.63488  -2.46357  -0.68876
 -26.25260  -1.50589  -3.33735
 -15.59841   0.42444  -8.96372
  -4.85443   2.27994 -16.95437
   4.09390   4.13545 -24.40632
  11.30644   4.85371 -30.28708
  17.50143   4.30005 -35.00067
  21.72121   2.41462 -37.37990
  21.99056  -0.66792 -36.15288
  16.34922  -5.36654 -31.30462
   5.32093 -11.83088 -23.77785
  -7.80229 -19.47736 -15.74231
 -20.52148 -25.88185  -8.24546
 -32.86659 -29.59287  -1.10775
 -44.14926 -30.84982   5.05732
 -53.12752 -30.92464   9.96543
 -60.13056 -29.65272  13.09286
 -64.96385 -26.01653  15.35239
 -67.22338 -19.95621  17.44731
 -65.78686 -11.71117  20.32036
 -60.53458  -3.03219  24.07626
 -52.78335   4.43472  27.23361
 -44.83759   9.35780  28.16137
 -37.14622  12.21588  26.54528
 -29.57456  13.72722  22.95398
 -22.76605  13.92175  18.22543
 -16.96011  12.88925  12.95819
 -11.99214  10.70454   6.44895
  -6.54533   7.30777  -1.24242
   0.44275   2.20512  -9.98126
   7.83484  -2.82270 -18.04673
  13.31158  -6.56364 -23.02966
  15.31672  -8.65857 -25.33408
  14.17948  -9.37683 -25.75306
  12.11448  -9.33194 -24.79538
  11.08198  -9.31697 -23.07455
  12.33894  -9.28704 -20.93473
  15.70578  -9.10748 -18.85477
  20.98799  -8.56878 -16.74488
  26.13552  -7.74578 -15.41310
  29.38266  -7.80563 -14.51528
  30.83414  -9.58632 -13.63242
  30.57976 -12.69878 -13.73716
  28.30527 -16.27512 -15.29339
  24.81871 -18.95363 -17.53796
  22.55918 -19.94124 -18.94455
  23.51686 -18.32516 -19.93216
  27.46730 -14.85356 -21.02451
  33.54258 -10.63378 -22.53585
  39.88722  -6.36911 -24.58589
  45.46870  -2.44861 -26.89031
  50.25710   1.11277 -29.71846
  54.26739   3.61172 -33.27983
  57.11051   5.45226 -38.21787
  57.09554   7.24791 -44.54755
  53.07029   9.53737 -50.71261
  45.93258  11.55747 -54.73787
  37.55287  11.67718 -55.51598
  29.71186   9.62715 -53.86997
  24.05556   6.21541 -51.56555
  19.49161   2.42958 -49.27609
  14.22437  -0.71281 -45.34062
   7.80492  -2.23911 -37.75400
   1.02633  -1.68545 -26.39650
  -4.54019   0.79853 -15.15872
  -8.62529   3.82121  -7.19800
 -12.51587   6.00592  -3.26253
 -17.25938   7.81653  -3.35231
 -22.73612   9.31291  -6.61441
 -27.16539  10.98885 -12.37546
 -30.26289  13.26334 -18.25622
 -32.50745  15.59769 -23.49353
 -33.92901  16.63019 -28.73085
 -32.71695  15.68747 -32.66632
 -28.48220  14.34073 -33.96817
 -22.13757  14.11628 -30.96045
 -14.16188  14.93928 -23.08951
  -6.96432  15.37323 -12.22582
  -3.65732  13.93671  -1.37710
  -5.07888  10.62972   7.67598
  -9.89721   7.69682  13.97572
 -15.85279   7.89135  15.66663
 -20.05761  12.12610  13.85601
 -21.10507  19.14410  11.04282
 -19.18971  26.19203   8.69351
 -15.76301  31.35453   6.53873
 -11.91732  33.88340   4.71315
  -7.95192  34.37721   4.05475
  -5.04895  32.86587   5.11718
  -3.65732  29.51399   7.28692
  -5.07888  24.12703   9.59134
  -9.62787  16.43566  11.92569
 -15.92761   7.09827  13.36221
 -22.28721  -2.10444  12.88337
 -27.67416 -10.06516  11.01290
 -31.04101 -16.67914   8.10993
 -32.20818 -21.82668   4.23431
 -30.54720 -25.28330   1.24156
 -26.04311 -27.28845   0.74776
 -19.86308 -28.54540   2.09450
 -12.50091 -29.29359   3.97993
  -5.84203 -30.26624   5.55112
   0.00880 -31.44837   6.88290
   6.09905 -33.10935   8.02014
  12.93749 -34.59076   9.24717
  20.73360 -34.36631  10.30960
  29.62208 -31.55312  10.51909
  37.31345 -25.95667   9.39681
  41.39856 -19.95621   7.54130
  41.93725 -14.95831   6.47888
  38.42077 -11.75606   7.97525
  31.47758  -9.40675  12.44942
  23.42708  -6.74320  18.71923
  16.52879  -3.57089  24.46532
  12.47361  -1.14676  26.81463
  11.69549   0.58904  25.39307
  12.36886   1.50183  22.43025
  12.17433   0.27480  18.01594
  11.06702  -3.06212  11.68627
  11.12687  -7.25197   3.95000
  14.61343  -9.90056  -5.04322
  20.23980  -9.90056 -14.47039
  26.12056  -7.89541 -21.11430
  32.76447  -6.02494 -24.07712
  42.38617  -5.12712 -24.39136
  55.19514  -4.57346 -22.20665
  67.98916  -4.28915 -18.76499
  75.54586  -4.67821 -14.85944
  75.32140  -5.47129 -10.69952
  67.39061  -6.35415  -5.46220
  55.09040  -6.74320   1.15178
  42.52084  -5.81545   9.02272
  31.95642  -2.88255  16.81884
  22.69386   1.93578  21.72695
  13.92509   9.62715  22.77441
   4.33332  19.89229  21.68206
  -5.04895  30.93554  20.93387
 -11.93228  39.92876  21.56235
 -14.28159  43.77445  22.28061
 -12.50091  42.02369  21.12840
  -8.10156  36.29257  17.68673
  -2.72957  30.45670  13.06293
   3.52528  25.75808   8.22964
  10.52832  21.89743   3.63576
  17.90545  18.03678  -0.56905
  23.93585  14.04146  -4.30999
  26.71911  10.16584  -8.17064
  24.19023   6.91871 -11.46267
  16.46893   5.57197 -11.83677
   5.97934   6.02088  -8.90387
  -4.80953   6.70922  -2.69391
 -13.30895   6.11067   5.68580
 -18.60612   3.37230  16.41481
 -21.82333  -1.37121  27.44311
 -22.76605  -6.90781  36.33158
 -21.07514 -11.84585  42.61636
 -17.64844 -14.92838  46.43212
 -14.07210 -15.24262  48.27266
 -12.59069 -12.42943  49.12559
 -13.87757  -7.62607  49.48472
 -17.25938  -1.82013  49.32012
 -21.47916   4.24020  48.27266
 -26.31246  10.01621  46.74636
 -33.06111  14.28088  44.77114
 -43.65546  14.80461  42.09263
 -58.27505  10.80929  37.94767
 -72.81983   3.70150  32.23151
 -81.15464  -4.81288  25.66242
 -80.78055 -11.62139  18.70427
 -72.59537 -15.13787  12.13518
 -59.36740 -15.21269   6.05989
 -43.17662 -11.99548   0.01453
 -23.96315  -5.75560  -6.73412
  -4.57011   2.96828 -12.42035
  10.64803  11.75200 -14.14118
  20.40440  17.07910 -14.21600
  24.90849  17.13896 -14.35068
  24.10045  12.53012 -14.36564
  19.70111   6.11067 -13.72220
  13.19187  -0.36864 -11.76195
   7.71513  -5.90523  -9.48746
   6.02423 -10.49911  -7.15311
   8.46332 -13.77617  -6.53959
  13.53604 -14.49443  -9.71191
  19.56643 -12.45936 -15.18865
  24.04060  -7.73081 -20.66538
  24.25009  -1.32632 -24.27165
  19.98542   4.82378 -26.17205
  14.35904   9.86657 -26.83045
  10.79767  12.50019 -25.67824
   9.94473  11.60237 -22.49096
  12.11448   7.23295 -17.05912
  16.37915   0.66386 -10.41521
  19.73103  -6.65342  -4.38481
  21.13763 -13.55172  -0.91322
  20.91317 -17.50215   0.52330
  18.86313 -17.96602   0.40359
  16.84303 -16.15541  -1.60155
  16.03498 -11.99548  -5.01329
  15.73571  -5.74063  -8.21554
  16.66346   1.39708 -10.87908
  18.98284   8.14574 -12.71963
  21.51172  13.75715 -13.96162
  22.99313  16.92946 -16.13136
  22.02049  16.86961 -19.33361
  19.35694  13.95168 -22.96980
  16.22951   9.56729 -27.30929
  13.96998   4.91356 -31.05023
  13.55100   0.99306 -32.44186
  15.21198  -2.34386 -31.64878
  18.30948  -5.93516 -29.17976
  23.45701  -9.82574 -23.97238
  31.46262 -13.11777 -16.43064
  40.29124 -14.26998  -8.00604
  46.29171 -12.16009   1.37624
  47.89283  -7.74578  10.75851
  45.34899  -3.70556  18.36010
  39.21385  -1.46100  23.20836
  30.31041  -1.01208  27.11390
  18.63868  -1.25150  31.16908
   4.72238  -1.10187  35.20930
 -11.61805   0.12516  39.14477
 -30.66691   1.27737  42.78096
 -50.68842   0.55911  44.48683
 -67.98653  -2.64313  43.58900
 -80.39149  -6.90781  39.59368
 -87.00547 -10.63378  32.48589
 -86.39196 -12.44440  22.25068
 -79.68819 -12.10023   9.08257
 -68.95918 -10.64875  -7.73670
 -56.92831  -8.62864 -27.18958
 -43.82006  -6.08480 -42.06356
 -30.69684  -3.46614 -49.24617
 -20.94047  -1.38618 -48.21367
 -16.01739  -1.22158 -40.22302
 -16.78054  -2.95737 -29.59875
 -22.64634  -4.90266 -19.82741
 -32.31293  -6.33918 -12.28568
 -43.29633  -7.58118  -5.32753
 -52.31947 -10.15494   1.94486
 -57.00313 -13.40208   9.59134
 -57.36226 -16.61929  16.26518
 -54.60893 -18.16055  19.96123
 -49.73074 -15.49700  21.33789
 -42.83245  -8.22462  21.51746
 -34.63231   1.99563  20.36525
 -26.43217  12.97903  16.96847
 -19.15978  22.92993  10.89319
 -12.44105  30.17239   3.33649
  -7.89207  33.18011  -5.14796
  -5.21356  31.72862 -13.46782
  -3.89674  26.32671 -19.76756
  -3.28323  18.14153 -24.01727
  -3.98653   8.95378 -26.59103
  -5.73729   0.48429 -27.01002
  -7.39826  -6.00998 -25.39393
  -7.47308 -10.78342 -22.55082
  -4.21098 -13.25244 -19.63288
   3.51032 -13.37215 -17.41825
  15.03241 -12.47432 -15.81713
  28.49980 -11.66628 -13.67731
  42.26646 -11.84585 -11.01376
  53.60899 -13.13273  -7.52720
  59.62442 -15.48204  -2.63405
  59.47478 -16.76892   4.95257
  55.18018 -16.09555  15.14289
  49.55381 -15.00320  26.00658
  45.93258 -14.91342  34.86513
  45.19935 -14.15027  41.67364
  46.84537 -11.32212  46.31241
  49.91294  -6.99759  46.49197
  52.51663  -1.93984  42.31708
  52.78598   3.53690  36.31662
  50.60127   9.83664  30.15155
  45.40885  16.54041  24.91423
  36.47548  20.64048  20.57474
  26.40487  21.70290  16.63927
  17.35179  20.56566  13.48192
   8.79252  17.67765  11.52166
   0.29311  12.08121  11.92569
  -6.73986   3.98581  14.14032
 -10.94468  -6.74320  16.28014
 -12.57573 -19.23794  17.16300
 -13.21917 -32.46591  16.34000
 -14.32649 -44.75116  13.57170
 -14.73051 -54.05861   9.27710
 -10.72022 -57.99408   4.11460
   0.50260 -55.52506  -1.10775
  16.52879 -47.02565  -6.12061
  30.54983 -34.35134 -10.16082
  39.34852 -20.07592 -12.74955
  43.56830  -5.53114 -14.67988
  44.15189   9.02860 -15.98173
  41.72776  23.06461 -16.46057
  36.59519  34.09290 -17.04415
  29.48740  40.49739 -18.13651
  20.47922  42.51749 -19.63288
  10.88745  40.67695 -21.63803
   2.89680  36.38235 -22.93988
  -2.50512  31.16000 -22.62564
  -5.37816  26.86540 -20.75517
  -8.35595  24.26171 -18.37593
 -13.39873  23.87265 -16.72992
 -21.28463  24.24674 -16.41568
 -31.05597  24.38142 -17.16386
 -39.92948  24.32156 -17.56789
 -46.18433  23.36388 -17.05912
 -49.47636  21.07443 -15.44303
 -50.31433  17.19881 -13.73716
 -49.17708  12.45530 -13.01890
 -45.94491   7.71179 -12.91416
 -40.66270   3.97085 -12.54006
 -34.54253   1.27737 -11.34296
 -29.33514  -1.76027  -9.23307
 -25.90844  -6.29429  -6.37499
 -23.81351 -12.27980  -3.26253
 -22.76605 -18.10070  -1.31724
 -21.65873 -22.45515  -1.54170
 -17.96268 -24.80446  -4.57934
  -9.68772 -25.28330  -9.69695
   2.46285 -24.81943 -15.42807
  15.24190 -24.07124 -20.38107
  24.92346 -23.83182 -23.37382
  30.69947 -23.12852 -24.42129
  33.27324 -22.50004 -23.80777
  34.47034 -21.91646 -22.23658
  35.17363 -21.09345 -21.36868
  35.81708 -19.65693 -21.68292
  37.38827 -18.32516 -23.22419
  40.08175 -17.47222 -25.04977
  43.19421 -16.93353 -26.26183
  46.09718 -15.84117 -26.75563
  48.53627 -13.76121 -26.35161
  49.20964 -11.24730 -25.25926
  47.68334 -10.12501 -23.16433
  45.51359  -9.34690 -20.18654
  43.31392  -8.06002 -15.77223
  41.26388  -5.98005 -11.20829
  39.16896  -4.46871  -8.17064
  37.19374  -4.58842  -7.82648
  35.11378  -6.59357  -9.74184
  32.61483  -9.85567 -12.36050
  30.59472 -14.01559 -13.45285
  29.26295 -17.56200 -11.92655
  28.33519 -19.10327  -8.49985
  25.97092 -18.08574  -5.23775
  20.97302 -15.19773  -4.16036
  14.55357 -11.47175  -4.69905
   8.10419  -7.61110  -6.27025
   1.05626  -5.02237  -8.11079
  -6.85957  -4.18440  -9.95133
 -14.94000  -4.33404 -11.16340
 -22.15253  -4.27418 -10.31046
 -26.98583  -3.46614  -7.45238
 -27.74898  -0.96719  -3.20268
 -23.05036   3.71646   0.67294
 -13.26406   9.73190   3.75547
  -1.95146  15.64258   6.55370
   6.57789  20.41602   9.66616
  11.62067  23.90258  12.85344
  13.13201  26.16210  16.39985
  10.96227  27.17964  20.12583
   4.81216  26.53620  23.91166
  -5.45298  23.21424  26.21608
 -18.27692  18.02182  26.12629
 -31.43006  12.24581  24.74963
 -42.89230   7.38259  24.07626
 -52.21473   2.98324  24.49524
 -59.87617  -1.98473  25.94673
 -65.93650  -7.07241  27.32340
 -69.36320  -9.88559  27.56282
 -68.97414  -8.94288  26.09637
 -64.73939  -4.67821  23.34304
 -57.25751   0.75364  20.97876
 -48.21940   5.64679  18.94369
 -38.53785   9.50744  17.10315
