********************************************************************************
              CENTRO DE INSTRUMENTACION Y REGISTRO SISMICO  A.C.

    Anaxagoras 814, Col. Narvarte, Benito Juarez, C.P. 03020 Mexico, D.F.
           Tels. 5687 45 42/ 5687 45  82             Fax. 5669 25 12
********************************************************************************
ARCHIVO ESTANDAR DE ACELERACION:
VERSION DEL FORMATO                    : 2.0
NOMBRE DEL ARCHIVO                     : CU8020170919181440
FECHA Y HORA DE CREACION               : 27/SEP/17, 17:26
REF. CATALOGO ACELEROGRAMAS, SMIS 1996 : REGISTRO No.     /PAG.


================================================================================
DATOS DE LA ESTACION:
NOMBRE DE LA ESTACION                  : ESC. PRIM. "AURORA LÓPEZ VELARDE"
CLAVE DE LA ESTACION                   : CU80
LOCALIZACION DE LA ESTACION            : Del. Tlalpan, Col. Unidad Habitacional 
                                       : Hueso, calle Hacienda Torrecillas      
                                       : y esq. con Anillo Periférico Sur.      
                                       :                                        
                                       : 
COORDENADAS DE LA ESTACION             : 19.2938 LAT. N
                                       : 99.1037 LONG. W
ALTITUD (msnm)                         : 2232
TIPO DE SUELO                          : Arcilloso, zona lago                
                                       :                           
                                       : 
INSTITUCION RESPONSABLE                : CIRES
                                       : 

================================================================================
DATOS DEL ACELEROGRAFO:
MODELO DEL ACELEROGRAFO                : RADESD
NUMERO DE SERIE DEL ACELEROGRAFO       : 225
NUMERO DE CANALES                      : 3
ORIENTACION C1-C6 (rumbo;orientacion)  : /N00E/+V/N90W
ORIENTACION C7-C12 (rumbo;orientacion) : 
VEL. DE MUESTREO, C1-C6 (muestras/s)   : /100/100/100
VEL. DE MUESTREO, C7-C12 (muestras/s)  : 
ESC. COMPLETA DE SENSORES, C1-C6, (g)  : /0.5/0.5/0.5
ESC. COMPLETA DE SENSORES, C7-C12, (g) : 
FREC. NAT. DE SENSORES, C1-C6, (Hz)    : /33/30/30
FREC. NAT. DE SENSORES, C7-C12, (Hz)   : 
AMORTIGUAMIENTO DE SENSORES, C1-C6     : /0.790/0.733/0.733
AMORTIGUAMIENTO DE SENSORES, C7-C12    : 
INTERVALO DE MUESTREO, C1-C6, (s)      : /0.01/0.01/0.01
INTERVALO DE MUESTREO, C7-C12, (s)     : 
UMBRAL DE DISPARO, C1-C6, (Gal)        : /3.74/13.44/8.23
UMBRAL DE DISPARO, C7-C12, (Gal)       : 
MEMORIA DE PREEVENTO (s)               : 44.0
TIEMPO DE POSEVENTO (s)                : 21.0


================================================================================
DATOS DEL SISMO:
FECHA DEL SISMO (GMT)                  : 19/SEP/17
HORA EPICENTRO (GMT)                   : 18:14:40.0
MAGNITUD(ES)                           : /Mc=7.1
COORDENADAS DEL EPICENTRO              : 18.40 LAT. N
                                       : 98.72 LONG. W
PROFUNDIDAD FOCAL (km)                 : 57
FUENTE DE LOS DATOS EPICENTRALES       : SSN
                                       : INSTITUTO DE GEOFISICA, UNAM

================================================================================
DATOS DE ESTE REGISTRO:
HORA DE LA PRIMERA MUESTRA (GMT)       : 18:15:02.00
EXACTITUD DEL TIEMPO (s)               : 0.01
DURACION DEL REGISTRO (s), C1-C6       : /371.4/371.4/371.4
DURACION DEL REGISTRO (s), C7-C12      : 
NUM. TOTAL DE MUESTRAS, C1-C6          : /37140/37140/37140
NUM. TOTAL DE MUESTRAS, C7-C12         : 
ACEL. MAX. (Gal), C1-C6                : /144.06778/41.72248/168.30129
ACEL. MAX., C1-C6, EN LA MUESTRA       : /7011/6129/6843
ACEL. MAX. (Gal), C7-C12               : 
ACEL. MAX., C7-C12, EN LA MUESTRA      : 
UNIDADES DE LOS DATOS                  : Gal (cm/s/s)
FACTOR DE DECIMACION                   : 1
FORMATO DATOS (FORTRAN,10 campos/dato) : 3F10.5


================================================================================
CALIDAD DEL ACELEROGRAMA:
REGISTRO DIGITAL COMPLETO CON TIEMPO ABSOLUTO CORRECTO.


================================================================================
COMENTARIOS:














================================================================================
DATOS DE ACELERACION:
---------+---------+---------+---------+---------+---------+---------+---------+
   CANAL-1   CANAL-2   CANAL-3   CANAL-4   CANAL-5   CANAL-6   CANAL-7   CANAL-8
      N00E        +V      N90W
---------+---------+---------+---------+---------+---------+---------+---------+
[...]
  55.29440  17.36148  31.93654
  50.67059  18.28923  37.15889
  46.21139  19.35166  42.75534
  42.23103  20.78818  48.35179
  38.49009  23.18238  54.21758
  35.28785  24.97803  60.23301
  32.48962  26.17513  65.88931
  29.31731  26.36966  70.90217
  26.27966  24.91817  76.63329
  22.92778  22.11995  81.36184
  19.24670  19.23195  83.81590
  14.87728  16.46365  85.44695
   9.49032  14.62311  86.59916
   3.44497  14.75778  87.25756
  -3.33362  15.50597  87.66159
  -9.81293  16.17934  87.76633
 -16.21742  16.55343  87.43713
 -23.57959  16.79285  87.48202
 -31.06147  16.41876  87.79626
 -37.45099  15.13188  87.06303
 -43.24197  13.24644  86.82361
 -48.50921  11.89970  87.31742
 -53.35747  11.69021  87.25756
 -57.74185  11.15152  87.88604
 -62.93428   8.90695  89.05321
 -69.62308   4.56746  87.85611
 -76.79072  -1.79214  84.65387
 -82.13278  -7.88239  80.47898
 -85.88868 -11.62333  77.38148
 -89.92890 -12.94014  75.45116
 -94.34321 -13.10474  72.29380
 -98.80241 -12.64086  67.81964
-103.18679 -12.64086  62.58232
-107.09233 -13.50876  56.68660
-110.24969 -15.36427  49.65363
-112.91324 -18.37198  42.03708
-114.87349 -21.75379  34.07636
-115.54686 -25.28524  26.04082
-115.00816 -28.00865  18.70858
-113.70631 -28.89151  12.43876
-111.85081 -28.11339   6.70764
-109.48653 -25.68926  -0.11583
-106.97262 -22.80126  -8.22619
-103.68060 -20.61655 -15.12449
 -99.46081 -19.59901 -20.85561
 -95.31585 -20.30231 -26.58673
 -91.50009 -23.33995 -33.48502
 -86.99600 -27.18564 -39.27599
 -82.80615 -30.95651 -43.75016
 -79.69369 -33.62006 -48.32907
 -77.17978 -34.50292 -52.89302
 -75.27938 -33.35071 -56.73870
 -72.87021 -31.37549 -58.54932
 -70.80521 -28.42763 -59.14787
 -69.33877 -25.70423 -59.14787
 -67.27377 -23.72901 -58.96830
 -64.56533 -22.81622 -58.26501
 -62.08134 -22.42716 -58.10040
 -60.00138 -23.22024 -57.15769
 -58.01120 -24.20785 -55.45182
 -55.93124 -25.15057 -53.64120
 -54.12062 -25.65934 -52.42914
 -52.95345 -25.37502 -51.08240
 -51.23261 -24.88122 -49.37653
 -48.46432 -24.01332 -47.50606
 -45.38178 -23.02571 -45.60566
 -41.98501 -21.42459 -43.75016
 -38.37874 -20.52677 -41.87969
 -34.63780 -18.62637 -40.00922
 -31.10636 -16.51648 -38.18364
 -27.67966 -14.06242 -36.88179
 -24.01353 -11.38391 -35.87922
 -20.27259  -8.19663 -34.77190
 -16.30720  -5.56301 -33.70948
 -12.28195  -2.54033 -32.81165
  -8.25670  -0.23591 -32.54230
  -4.14166   2.21815 -32.99121
  -0.44561   4.11855 -33.23064
   3.13073   6.63246 -33.42516
   7.27569   8.93688 -32.72187
  11.79474  11.58546 -32.10835
  16.49336  14.68296 -31.49484
  21.73068  19.11224 -30.94118
  27.34209  23.49662 -30.02839
  33.28270  27.37223 -29.34006
  39.64230  29.97593 -28.69662
  46.34607  31.29274 -28.23274
  53.39400  31.24785 -27.11046
  60.21747  30.79893 -25.88343
  67.48986  29.61680 -23.60894
  74.17866  28.31495 -20.69100
  80.02949  26.16017 -16.63582
  85.37155  22.88310 -11.93720
  90.07017  19.33669  -6.52032
  93.72133  15.49101  -0.50489
  96.41481  10.91210   5.95945
  98.27031   6.54268  12.93257
  99.19807   2.75685  20.07028
  99.40756   0.18308  27.40252
  99.36267  -1.29833  34.31578
  98.07579  -1.62754  40.37610
  96.66919  -1.89688  45.58349
  95.18778  -2.82464  49.87809
  93.43702  -3.99181  53.48436
  91.53662  -4.94949  56.46214
  89.39681  -4.33598  58.22787
  86.98764  -1.82207  59.57461
  83.95000   2.21815  60.41258
  80.53826   8.00913  60.72682
  77.36594  13.68039  61.16077
  74.50786  18.99253  61.93888
  71.84431  22.01521  62.73196
  69.12091  21.62615  63.22576
  66.60700  18.69325  63.40533
  64.22776  14.53333  64.45279
  61.89341  11.21137  66.35319
  59.69374   8.50293  68.62768
  57.43421   6.37808  69.55543
  55.44403   5.00141  69.22623
  53.55860   3.23569  68.38826
  51.52353  -0.13116  67.41562
  49.11436  -4.00677  66.35319
  46.42089  -6.86485  64.96156
  43.62266  -7.82253  63.34547
  41.07882  -7.25391  61.59471
  38.92404  -6.90974  59.57461
  37.15832  -8.16670  57.47968
  35.28785 -11.98246  56.65667
  33.62687 -18.10264  55.93841
  32.77394 -20.51180  53.21501
  32.10057 -19.76361  50.80584
  31.26260 -19.04535  50.11751
  30.39470 -18.05775  48.72588
  29.27242 -16.87561  46.40650
  27.38698 -16.20224  43.54842
  25.17235 -15.55880  40.33121
  22.62851 -14.37666  37.24868
  19.93503 -12.44633  34.74973
  17.13681  -9.39373  30.88908
  13.79989  -7.52326  26.86383
  10.11880  -9.27402  23.06303
   6.01873 -10.24666  18.84325
   1.49968 -11.18938  15.41655
  -3.70771 -12.55108  12.21431
  -8.48115 -12.99999   9.22155
 -13.83818 -12.61094   6.55800
 -19.24010 -12.08720   3.77474
 -24.31281 -10.97989   0.87177
 -29.56509 -10.20177  -1.82170
 -35.05679  -9.76782  -4.32065
 -40.81784  -9.66308  -6.98420
 -46.66867  -9.06453  -9.55797
 -52.53446  -7.77764 -11.56311
 -58.40026  -4.91956 -13.31387
 -64.14634  -0.75964 -14.85514
 -70.16177   3.78935 -15.88764
 -75.53376   7.62007 -16.02231
 -80.42691  10.61282 -15.94749
 -84.70655  12.90228 -15.21427
 -88.79165  14.71289 -13.56825
 -91.88915  16.04466 -11.09923
 -94.31328  17.04724  -8.15137
 -96.13886  17.43629  -4.69474
 -97.39582  17.30162  -1.01366
 -98.14400  17.18191   2.62253
 -98.42832  17.51111   6.19887
 -98.12904  18.73814   9.55076
 -97.33596  21.61118  11.91503
 -96.16879  24.19991  15.23698
 -94.70234  25.41198  18.42427
 -92.54756  26.60908  19.81590
 -90.04861  27.77625  21.31227
 -87.65441  26.16017  24.40977
 -84.91604  23.91560  26.11564
 -81.98314  23.33202  26.50470
 -78.94550  23.58640  27.64194
 -75.54873  23.64626  28.73430
 -71.16434  24.61890  28.39013
 -66.55551  25.77111  27.91129
 -61.55761  26.93828  27.49230
 -56.72432  27.83611  26.69923
 -51.53189  27.95582  25.33752
 -46.33947  27.35727  23.70647
 -41.13208  25.36709  21.52176
 -36.16411  22.46412  18.42427
 -31.80965  19.26187  14.81800
 -28.06871  15.79028  10.34384
 -25.91393  13.09680   5.43572
 -24.79165  11.42086   0.67725
 -23.47484  10.77742  -4.32065
 -22.51716   9.86463 -10.00688
 -22.36752   7.94927 -16.11209
 -22.63687   4.79192 -22.66622
 -23.07082   1.35025 -29.72912
 -23.14564  -2.15127 -36.49273
 -22.65183  -4.97942 -42.85233
 -21.36495  -7.23895 -48.43382
 -19.56930  -9.16927 -52.71345
 -18.13278 -10.66565 -54.79341
 -18.11781 -11.05471 -55.03283
 -19.16528 -10.00724 -54.19486
 -20.30252  -7.43348 -53.08755
 -21.70912  -3.91699 -52.74338
 -22.80147  -0.50525 -53.22222
 -23.07082   1.94880 -54.92809
 -22.96607   2.86159 -57.02301
 -22.45730   2.41268 -58.22011
 -21.52955   2.02362 -59.49203
 -20.75144   0.66192 -60.61432
 -20.51201  -0.68482 -61.99098
 -20.18281  -2.27098 -63.26290
 -19.89850  -3.24362 -64.86402
 -19.71894  -4.59036 -66.18084
 -19.25506  -5.14402 -66.67464
 -18.01307  -4.68014 -65.62718
 -16.59151  -2.42062 -63.26290
 -15.03528   0.55717 -59.61174
 -13.92796   3.13094 -55.70620
 -13.22466   3.44518 -51.51635
 -12.68597   2.03859 -47.71556
 -11.93778  -0.31073 -44.24396
 -10.80053  -2.45054 -41.01179
  -9.58847  -4.05167 -37.62998
  -8.88517  -5.50315 -33.85911
  -8.04720  -7.70282 -30.44738
  -7.19427 -10.20177 -27.42470
  -6.70046 -11.90764 -24.49180
  -6.53586 -12.23684 -22.02278
  -6.52090 -11.56347 -20.57129
  -6.31141 -10.54594 -20.12238
  -6.04206  -9.97731 -19.74829
  -6.14680 -10.36637 -18.68586
  -6.16177 -11.98246 -17.68329
  -5.21905 -13.50876 -16.78546
  -4.03691 -13.97264 -15.58836
  -2.80989 -13.74818 -14.45112
  -1.26862 -13.50876 -12.82007
   0.09308 -13.65840 -10.94960
   0.85623 -15.61865  -9.72257
   1.27522 -18.97053  -8.21123
   1.93363 -22.59176  -4.76956
   0.28761 -26.70680  -1.70199
  -2.21134 -30.59738   0.03380
  -3.27376 -30.97147  -2.22572
  -4.88985 -29.59480  -5.72724
  -6.53586 -26.48234  -9.64775
  -7.56836 -22.50198 -12.99963
  -8.25670 -18.79097 -16.39640
  -8.19684 -16.15735 -20.45158
  -7.49354 -14.57119 -24.86589
  -6.52090 -13.80804 -28.54698
  -5.89242 -13.23941 -31.21053
  -5.84753 -11.92260 -32.87150
  -5.69789  -9.85760 -34.35292
  -5.57818  -8.16670 -35.29563
  -5.71286  -8.22655 -35.44527
  -6.11688 -10.24666 -35.02629
  -6.52090 -14.03249 -34.32299
  -7.10449 -18.17746 -33.30545
  -7.92749 -21.61912 -32.16821
  -8.70561 -23.60930 -30.98607
  -9.21438 -23.90858 -30.56709
  -9.10963 -22.87608 -30.58205
  -8.63079 -20.57166 -31.42002
  -8.34648 -17.68365 -32.81165
  -8.07713 -15.34930 -34.53248
  -7.62822 -13.80804 -36.35806
  -6.68550 -12.41641 -38.58766
  -5.33876 -10.77039 -41.31107
  -3.37851  -8.06195 -44.40856
  -0.62518  -4.08159 -47.96994
   3.10080   0.64696 -51.32182
   7.73956   5.33061 -54.14997
  13.12652   9.32594 -56.75367
  18.87260  12.01941 -59.35736
  24.69351  13.23148 -61.90120
  30.87354  13.93477 -63.84649
  37.03861  15.11691 -64.19066
  43.23360  16.82278 -64.46000
  49.20414  19.03742 -67.28815
  53.87284  19.89035 -69.48783
  58.75102  19.15713 -70.37069
  63.19526  18.67829 -71.05902
  66.71174  18.19945 -73.00431
  69.50997  16.05963 -74.79996
  71.93410  13.36615 -75.89232
  73.65493  11.80992 -76.67043
  75.04656  10.32851 -77.76279
  76.21373   8.63760 -78.18177
  77.57543   8.62264 -78.84018
  78.51815  10.50807 -79.72304
  79.02692  12.94717 -80.39641
  79.11670  14.95231 -80.21684
  79.62547  16.43372 -79.63326
  80.10431  17.24177 -78.78032
  80.73279  18.00492 -77.59818
  81.78025  19.06734 -75.86239
  82.87261  20.95278 -73.72257
  83.63576  22.52397 -70.93931
  84.47373  23.37691 -68.09620
  85.17702  22.67361 -64.74431
  85.52119  20.44401 -60.91359
  85.82047  16.86767 -56.88834
  86.52376  12.73767 -52.60870
  87.15224   8.95184 -48.26921
  88.05007   6.75217 -43.86987
  88.93293   5.22587 -39.44060
  89.69608   3.04116 -35.04125
  90.47420   0.01848 -30.19299
  91.25231  -3.13888 -25.25495
  92.13517  -5.18891 -20.09245
  92.86840  -5.42833 -14.31644
  94.12535  -3.46808  -8.64518
  95.24764   0.58710  -2.83924
  96.16042   4.70213   2.71232
  97.16300   7.32079   8.03942
  98.13564   8.11387  13.78550
  99.63202   7.99416  20.10021
 101.02365   7.81460  26.63937
 102.52002   8.23358  33.38803
 103.88173   8.57775  40.07683
 105.10875   8.51789  46.76563
 106.21607   7.59014  53.57414
 106.73980   6.12369  60.42754
 107.18872   4.50761  67.69993
 106.79966   3.26561  75.15188
 106.00658   1.63456  82.97793
 104.25582  -1.02899  90.80397
 102.44520  -4.00677  98.15118
  99.99115  -7.02945 105.55824
  96.93854  -9.21416 112.39668
  93.54177 -10.27659 118.75628
  89.57637 -10.59083 124.51733
  85.14710 -11.02478 129.76961
  80.13424 -11.95253 134.96203
  74.82210 -12.88028 139.97489
  69.33040 -13.37409 144.58373
  63.47957 -13.28431 148.83344
  57.23968 -11.90764 152.85869
  50.98483  -9.46855 156.47992
  44.72998  -6.38601 159.42778
  38.83426  -3.15384 161.74716
  32.98343  -1.07388 163.70742
  27.59647  -0.43044 165.57789
  22.61354  -1.11877 167.08923
  17.89996  -2.77975 168.07683
  13.12652  -4.50058 168.25640
   8.05380  -5.81739 168.30129
   3.16065  -6.19148 167.64288
  -2.04673  -5.74257 166.22133
  -7.29901  -4.14145 163.97676
 -12.61115  -2.31587 160.66977
 -18.20760  -0.50525 156.28539
 -23.99857   0.69185 150.68894
 -29.93918   0.76667 144.83811
 -35.64038  -0.25087 138.58326
 -40.86273  -1.40308 132.04410
 -46.44421  -2.31587 125.31041
 -52.38482  -2.55529 117.99313
 -58.62471  -1.65746 110.67585
 -65.05913   1.05098 103.07426
 -71.92750   4.64228  95.51756
 -79.08017   7.20108  88.66416
 -85.94854   7.72481  82.81333
 -92.48770   6.55764  77.86032
 -98.33853   4.61235  73.50587
-103.75541   3.43021  69.64522
-108.84309   2.71195  66.14370
-113.78113   2.05355  62.11845
-118.27026   1.61960  57.33004
-122.72946   1.29040  51.92813
-127.06895   1.08090  46.82548
-130.57047   1.06594  41.64802
-132.77015   1.49989  36.72494
-134.17674   1.76924  32.74458
-135.37384   2.08348  29.57227
-136.39138   2.62217  26.37002
-137.28920   3.13094  22.68894
-137.84286   3.37036  19.00785
-137.79797   3.92402  15.94028
-137.54358   4.89666  13.68075
-136.54101   5.34558  11.85517
-134.80522   4.85177  10.38873
-132.96467   3.81927   9.74528
-131.31866   2.38275  10.04456
-129.32848   0.82652  10.83764
-126.87442  -0.01145  11.64568
-124.24080   0.75170  11.95992
-121.87653   2.05355  12.60336
-119.48233   3.34043  13.26177
-116.66914   4.44775  13.65083
-113.49682   4.53753  13.53112
-110.10005   3.31050  13.33659
-106.52371   0.82652  12.19934
-103.29154  -2.37572  10.32887
-100.08929  -5.84732   8.48833
 -96.91698  -9.27402   5.86967
 -93.80451 -12.79050   2.56268
 -90.82672 -15.99275  -0.62460
 -87.78908 -17.78840  -3.82685
 -84.49705 -17.81832  -7.05902
 -81.19006 -16.59130 -10.54557
 -77.74840 -15.42412 -14.18177
 -74.27681 -14.81061 -17.66832
 -70.74536 -14.73579 -20.81071
 -67.24384 -15.51391 -23.66879
 -63.80217 -16.66612 -26.48198
 -60.43533 -17.89314 -28.71158
 -56.96374 -18.91068 -30.83643
 -53.62682 -19.19499 -33.41020
 -50.24501 -19.37456 -35.74455
 -46.59385 -18.94061 -37.82451
 -43.12226 -17.69861 -40.12893
 -40.11454 -15.30441 -42.94212
 -37.40610 -13.16460 -45.14179
 -34.63780 -11.74304 -47.04219
 -32.15382 -10.62076 -48.73309
 -29.84940  -9.43862 -50.34918
 -27.53002  -7.82253 -52.39921
 -24.94129  -5.50315 -54.29961
 -22.26277  -3.55786 -56.24490
 -19.44959  -2.97427 -58.27997
 -16.41194  -2.91442 -60.68914
 -13.14984  -2.55529 -63.08334
  -9.88775  -1.13373 -65.10344
  -6.25155   1.38018 -66.91406
  -2.28615   4.14848 -68.24583
   1.90370   6.55764 -69.39804
   6.00377   8.38322 -69.81703
  10.47793  10.02923 -69.86192
  14.41340  11.69021 -70.29587
  18.39376  13.96470 -70.26594
  22.08981  15.76035 -69.99659
  26.48916  17.76550 -68.24583
  30.96332  19.08231 -66.71953
  34.95864  19.26187 -65.47754
  38.37038  17.91513 -64.29540
  41.36313  16.29905 -62.45486
  43.81719  14.66800 -60.70410
  46.21139  13.78514 -59.70153
  48.77020  13.27637 -59.28254
  51.29907  14.50340 -58.78874
  53.09472  16.92753 -58.33982
  54.95023  19.86042 -58.04055
  56.98530  21.56629 -58.02559
  59.30468  22.29952 -57.60660
  62.10291  22.06010 -56.85841
  65.26026  21.95535 -56.39454
  68.59718  21.22213 -56.06533
  72.20344  20.98271 -56.17008
  76.22870  20.84803 -56.43943
  79.80503  20.84803 -56.55914
  83.20181  19.84546 -56.55914
  87.09239  19.72575 -56.79856
  90.10010  20.66847 -56.81352
  91.91072  21.98528 -55.75109
  93.73630  22.92799 -54.22479
  95.36735  23.97546 -52.59374
  96.23524  24.14006 -50.57363
  96.63927  23.64626 -47.85023
  97.19292  22.76339 -44.97719
  97.32760  21.86557 -41.74501
  96.56445  20.44401 -38.04897
  96.14546  19.51626 -33.87408
  95.60677  18.82792 -29.98350
  94.91843  18.48376 -26.90096
  94.28995  17.94506 -23.75857
  93.45198  17.04724 -20.04756
  92.56912  15.96985 -15.46865
  91.73115  14.71289 -10.65032
  90.80340  12.97709  -5.89184
  89.80083  10.80735  -1.10344
  88.99278   8.20365   3.35576
  87.97525   4.95652   8.23394
  86.58362   0.82652  13.53112
  84.62337  -3.82721  18.52901
  82.01967  -8.16670  23.01814
  79.17656 -11.66822  27.52223
  75.88453 -13.40402  32.20589
  71.60489 -13.91278  36.54538
  66.42743 -13.52373  40.40603
  60.77113 -12.28173  43.77288
  54.48635 -10.68061  45.97255
  47.51324  -9.79775  47.49885
  40.43538 -10.08206  49.32443
  33.04328 -11.05471  51.22483
  25.29206 -11.03974  51.97302
  17.18170 -10.53097  52.39200
   9.04141  -9.39373  51.67374
   0.76645  -8.97474  49.99780
  -7.55340  -8.70539  47.09483
 -16.05281  -9.69300  43.98237
 -24.89640 -11.98246  40.85494
 -33.42574 -14.52630  37.48810
 -41.64084 -15.58872  34.33074
 -49.81106 -15.78325  31.20332
