********************************************************************************
            CENTRO NACIONAL DE PREVENCION DE DESASTRES (CENAPRED)               
                   Coordinacion de Instrumentacion Sismica                      
  Av. Delfin Madrigal No. 665, Col. Santo Domingo, C.P. 04360, Mexico, D.F.     
  Tels.: 606-8837, 606-9156, 606-9942, 606-7956, 606-9837.       FAX: 606-1608  
********************************************************************************
ARCHIVO ESTANDAR DE ACELERACION:                                                
VERSION DEL FORMATO                    : 2.0                                    
NOMBRE DEL ARCHIVO                     : CYK21709.191
FECHA Y HORA DE CREACION               : 08 de Noviembre de 2017/13:25:14
REF. CATALOGO ACELEROGRAMAS, SMIS 1995 : NUM. REG. /PAG. 
                                                                                
                                                                                
================================================================================
DATOS DE LA ESTACION:                                                           
NOMBRE DE LA ESTACION                  : ESTACION No.6, COYOACAN, superficie
CLAVE DE LA ESTACION                   : CYK2
LOCALIZACION DE LA ESTACION            : Parque Aurora, Esq. Pino y 
                                       : Ayuntamiento, Del. Coyoacan,
                                       : Mexico, D.F.
                                       :
                                       :
COORDENADAS DE LA ESTACION             : 19.3477 LAT. N
                                       : 99.1687 LONG. W
ALTITUD (msnm)                         : 2275
TIPO DE SUELO                          : Arena limosa
                                       :
                                       :
INSTITUCION RESPONSABLE                : CENAPRED
                                       :  
                                                                                
================================================================================
DATOS DEL ACELEROGRAFO:
MODELO DEL ACELEROGRAFO                : ALTUS-K2 EPISENSOR
NUMERO DE SERIE DEL ACELEROGRAFO       : 2616
NUMERO DE CANALES                      : 3
ORIENTACION C1-C6 (rumbo;orientacion)  : /N00E/+V/N90E
ORIENTACION C7-C12 (rumbo;orientacion) :
VEL. DE MUESTREO, C1-C6 (muestras/s)   : /100/100/100
VEL. DE MUESTREO, C7-C12 (muestras/s)  :
ESC. COMPLETA DE SENSORES, C1-C6, (g)  : /2/2/2
ESC. COMPLETA DE SENSORES, C7-C12, (g) :
FREC. NAT. DE SENSORES, C1-C6, (Hz)    : /204.0/208.0/206.0
FREC. NAT. DE SENSORES, C7-C12, (Hz)   :
AMORTIGUAMIENTO DE SENSORES, C1-C6     : /0.70/0.70/0.70
AMORTIGUAMIENTO DE SENSORES, C7-C12    :
INTERVALO DE MUESTREO, C1-C6, (s)      : /0.01/0.01/0.01          
INTERVALO DE MUESTREO, C7-C12, (s)     :
UMBRAL DE DISPARO, C1-C6, (Gal)        : /0.5/0.5/0.5
UMBRAL DE DISPARO, C7-C12, (Gal)       :
MEMORIA DE PREEVENTO (s)               : 60
TIEMPO DE POSEVENTO (s)                : 180
                                                                                
                                                                                
================================================================================
DATOS DEL SISMO:
FECHA DEL SISMO (GMT)                  : 19 de septiembre, 2017
HORA EPICENTRO (GMT)                   : 18:14:40.0
MAGNITUD(ES)                           : /Mc=7.1
COORDENADAS DEL EPICENTRO              : 18.4 LAT. N
                                       : 98.72 LONG. W
PROFUNDIDAD FOCAL (km)                 : 57
FUENTE DE LOS DATOS EPICENTRALES       : SSN                               
                                       : Instituto de Geofisica, UNAM
                                       :                                                                                
================================================================================
DATOS DE ESTE REGISTRO:
HORA DE LA PRIMER MUESTRA (GMT)        : 18:13:59.00
EXACTITUD DEL TIEMPO (s)               : 0.01
DURACION DEL REGISTRO (s), C1-C6       : /251.20/251.20/251.20
DURACION DEL REGISTRO (s), C7-C12      :
NUM. TOTAL DE MUESTRAS, C1-C6          : /25120/25120/25120
NUM. TOTAL DE MUESTRAS, C7-C12         :
ACEL. MAX. (Gal), C1-C6                : /-81.83/-75.90/106.30
ACEL. MAX., C1-C6, EN LA MUESTRA       : /8200/8150/8092
ACEL. MAX. (Gal), C7-C12               : 
ACEL. MAX., C7-C12, EN LA MUESTRA      : 
UNIDADES DE LOS DATOS                  : Gal (cm/s/s)
FACTOR DE DECIMACION                   : 1
FORMATO DATOS (FORTRAN,10 campos/dato) : 3F10.5
                                                                                
                                                                                
================================================================================
CALIDAD DEL ACELEROGRAMA: 
Registro digital completo. Tiempo absoluto correcto.
                                                                                
                                                                                
================================================================================
COMENTARIOS:
                                                                                
                                                                                
                                                                                
                                                                                
                                                                                
                                                                                
                                                                                
                                                                                
                                                                                
                                                                                
                                                                                
                                                                                
                                                                                
                                                                                
================================================================================
DATOS DE ACELERACION:
---------+---------+---------+---------+---------+---------+---------+---------+
   CANAL-1   CANAL-2   CANAL-3   CANAL-4   CANAL-5   CANAL-6   CANAL-7   CANAL-8
      N00E        +V      N90E
---------+---------+---------+---------+---------+---------+---------+---------+
[...]
  -2.31111  -3.26570  21.12576
  -1.96495  -5.52835  19.89645
  -2.03839  -6.27398  18.33219
  -1.76194  -6.26509  16.52660
  -0.94240  -6.13037  14.32052
   0.11993  -6.75766  12.99390
   2.08828  -7.83074  12.21043
   4.77379  -8.59837  11.29214
   7.25627  -8.88184  10.59704
   9.16859  -9.02451   9.84018
  10.25098  -9.57555   9.12821
  10.02928 -10.65378   8.68990
   9.24621 -11.93128   8.06402
   8.11515 -12.66382   7.16966
   6.71884 -12.12213   6.39451
   5.57326 -10.16075   5.01743
   3.61840  -7.28251   2.68367
   0.57180  -3.61420   0.10811
  -2.37613   0.60554  -2.75563
  -5.04573   4.70377  -5.67876
  -7.49969   7.96233  -8.00268
  -8.43385   9.86571  -9.67077
  -7.75650  10.73299 -10.52260
  -6.40790  10.87332 -10.63720
  -4.88997  10.48319 -11.14848
  -4.48487   9.90872 -11.94791
  -5.60286   9.20098 -12.04709
  -7.82527   7.69197 -11.66818
 -10.76010   5.27636 -11.05493
 -13.25757   2.73258 -10.94313
 -14.74183   0.76556 -11.92780
 -16.05440   0.16025 -13.27874
 -17.31273   0.86939 -14.42339
 -17.84599   2.81444 -14.59787
 -17.80343   5.57850 -13.22167
 -17.04562   7.67180 -11.04042
 -15.51646   8.48015  -8.73101
 -13.93397   8.25373  -6.90200
 -12.34400   7.39257  -6.14514
 -10.49253   6.23295  -6.35610
  -9.06675   4.62144  -7.22056
  -8.20136   2.89064  -8.22160
  -7.39866   1.73620  -9.16651
  -6.74237   0.17100  -9.86490
  -6.03696  -2.77875  -9.95752
  -5.22022  -6.35397  -9.36859
  -4.17286  -9.23033  -8.00221
  -2.17920 -10.26225  -6.21203
   1.02554  -9.11011  -4.26701
   4.53246  -6.24264  -2.35287
   7.59640  -2.80915  -1.04028
   9.51100   0.55084  -0.65109
   9.39500   3.26397  -1.14927
   8.31724   4.84503  -2.48711
   6.81748   4.84040  -4.70438
   4.94032   2.63056  -7.29868
   3.27411  -0.29672  -9.84572
   1.26925  -2.95884 -11.57556
  -0.27160  -4.60729 -11.95774
  -0.62430  -3.96550 -11.51990
  -1.06682  -1.03768  -9.93273
  -0.76230   3.69428  -7.82211
   0.82019   8.50911  -6.45013
   1.36842  11.79899  -5.73209
   1.36328  13.27904  -6.36406
   1.45543  13.84551  -8.55933
   0.68033  14.22629 -10.74385
  -0.40772  14.54163 -12.34974
  -1.94905  14.57765 -12.63274
  -4.14433  13.64162 -10.34390
  -6.28254  11.58011  -6.43516
  -7.55676   8.05494  -1.69892
  -8.01846   3.56377   3.61122
  -7.24710  -1.03722   8.40180
  -5.20338  -5.27528  12.08502
  -3.44079  -8.29338  14.87067
  -2.03231  -9.80570  16.78385
  -1.19593 -10.09946  17.84106
  -1.27966  -9.29021  18.84019
  -1.65949  -7.48787  19.93247
  -1.92192  -5.42029  21.31615
  -1.53647  -3.31295  23.27431
  -0.07887  -1.18550  25.27869
   1.95267   0.87222  27.52031
   3.84058   3.17042  30.22355
   5.43475   5.58180  33.09153
   6.16406   7.14881  35.64935
   5.90586   7.12684  37.04048
   5.38522   5.69827  36.78323
   5.38334   3.29066  35.00660
   5.71123   1.25716  32.05488
   6.20055   0.42174  29.01904
   7.90278   0.50077  26.44670
  10.27115   0.80017  24.22854
  11.38957   0.30339  22.93888
  11.74933  -0.92822  22.02483
  12.16048  -2.60286  20.84464
  11.22304  -4.61524  19.95350
   9.67188  -6.41525  18.59415
   8.13336  -7.24368  15.74399
   6.08778  -7.38635  11.96385
   4.76445  -7.63006   7.11865
   4.37103  -7.90372   1.51698
   4.78454  -7.19222  -3.57704
   6.04289  -4.61103  -8.77966
   8.10346  -1.33799 -13.99163
   9.88566   1.48970 -17.82320
  10.21080   3.65967 -20.05917
   9.71355   4.79402 -20.78797
   8.48236   5.18979 -20.33891
   6.92885   5.18140 -19.42253
   6.02601   4.82353 -18.40885
   6.27911   4.53347 -17.73010
   7.15856   4.10457 -17.50885
   8.12779   2.82849 -17.84986
   9.49091   1.23660 -18.88037
  10.78614  -0.10774 -19.96234
  12.16331  -1.43155 -21.10886
  13.61762  -2.60661 -21.56962
  14.10969  -3.00094 -20.16068
  13.58113  -2.50229 -17.27777
  12.24979  -1.68556 -12.79786
  10.04191  -0.72053  -6.95907
   7.26616   0.09056  -0.86253
   4.04785   0.88862   5.09128
   0.87305   1.89199  10.89079
  -1.30539   2.37001  16.18741
  -1.92940   2.44064  19.97038
  -0.76324   2.72136  21.30399
   1.87309   3.48050  20.07986
   5.43757   4.75007  17.66283
   9.09089   5.77219  15.69722
  12.49496   5.90922  14.68122
  15.81616   5.92656  14.60078
  18.84172   6.32414  15.09049
  21.79853   6.16561  16.03398
  24.59022   5.40216  17.59542
  26.82110   5.13690  19.71076
  28.06304   5.29974  22.29244
  27.72903   4.76506  25.14307
  25.98748   3.13629  27.65781
  23.51669   0.72907  28.58497
  21.14974  -1.42780  27.62838
  19.70155  -2.11731  25.79932
  19.53635  -1.92272  23.94649
  20.32036  -1.85629  22.44626
  21.17407  -1.72298  21.16367
  21.44914  -2.17298  19.85807
  20.94765  -4.45012  18.50994
  19.41243  -8.13199  17.64266
  16.76106 -11.84333  17.66887
  13.13622 -14.05966  18.66902
   8.76395 -14.13544  20.75667
   4.00617 -13.08903  23.06610
  -0.52093 -11.56454  24.38990
  -3.93617  -9.27758  24.16443
  -5.97381  -6.26930  22.62590
  -6.92059  -2.96914  20.44612
  -7.52729  -0.19194  17.71102
  -8.66025   1.08082  14.41878
 -10.15761   0.83808  11.09947
 -11.41639  -0.41460   8.32175
 -12.10870  -2.57807   6.13773
 -12.35382  -5.29726   4.28999
 -12.73552  -7.60481   2.82775
 -13.86287  -8.91411   1.94642
 -16.00014  -9.39218   1.34770
 -18.45925  -8.99879   0.28908
 -20.24944  -7.78210  -1.53379
 -20.80702  -5.49420  -3.75994
 -19.37469  -1.58685  -6.13064
 -16.27566   3.26068  -8.86245
 -12.43335   7.99459 -11.97692
  -8.13681  11.92581 -14.87573
  -4.22198  14.42932 -16.89466
  -0.84884  15.28774 -17.88167
   1.97134  14.69600 -18.23484
   3.55758  12.76594 -17.76799
   3.99118   9.87458 -16.23930
   3.37888   7.00708 -14.79246
   1.86375   4.94564 -14.02157
  -0.29171   3.59845 -13.85457
  -2.71433   2.32088 -14.08191
  -4.84038   0.96529 -14.10577
  -6.66798  -0.51564 -13.92614
  -8.06711  -2.71279 -13.34704
  -9.36847  -6.85215 -12.37593
 -11.20870 -13.66346 -11.32624
 -13.45029 -21.51042 -10.65965
 -16.24994 -27.64344 -10.83320
 -19.49865 -30.36825 -11.38377
 -22.86103 -29.63057 -11.98954
 -26.63834 -26.35472 -12.59017
 -30.94095 -21.65590 -13.15852
 -35.51768 -16.61747 -13.82931
 -39.69493 -12.31579 -14.47625
 -42.70461  -9.41043 -15.09886
 -43.97275  -7.21281 -15.86134
 -43.20747  -4.29575 -16.20328
 -40.61692  -0.09558 -15.80427
 -36.66374   4.55411 -15.22376
 -32.72131   8.22564 -14.84392
 -29.87254   9.88533 -14.82521
 -27.98179   9.42834 -15.05676
 -26.86193   7.34580 -15.46607
 -25.93012   4.35759 -16.08774
 -24.91504   1.33486 -16.94705
 -23.90277  -1.79969 -18.01311
 -22.88676  -5.70189 -18.95896
 -22.00641 -10.17056 -19.24758
 -21.10593 -14.40676 -18.52205
 -20.23119 -17.66436 -17.20386
 -19.20442 -19.65942 -16.09897
 -18.18747 -20.23994 -16.25053
 -17.22572 -18.69767 -18.18058
 -15.73445 -14.74777 -21.38345
 -13.24213  -9.20227 -24.61625
  -9.19118  -3.30453 -26.34189
  -4.05405   1.60710 -26.34797
   1.80151   4.31176 -25.09198
   7.81151   4.25376 -22.55897
  13.70928   2.10945 -19.19893
  19.88770  -0.74813 -15.60780
  26.13769  -3.30874 -12.33757
  32.26415  -4.35983  -9.42379
  37.44854  -2.92984  -6.56754
  41.47559   0.56301  -4.67351
  43.99927   5.23986  -3.90588
  45.56400   9.49097  -3.97792
  46.47335  12.08528  -4.24923
  46.89432  12.40148  -3.72813
  48.05394  11.26572  -2.97501
  48.42162  10.78581  -2.00203
  47.93700  10.88407  -0.68010
  47.64372  12.13582   0.54218
  46.52711  14.33436   1.04783
  43.13434  15.29802   1.33648
  39.27281  14.49995   2.14757
  36.04469  12.55679   2.73742
  31.62611   9.53735   3.21882
  27.90074   6.32273   2.83003
  24.63747   4.80995   1.70227
  21.65915   4.86606   1.29481
  20.42843   6.41306   0.51644
  20.02057   8.23686  -0.52152
  21.06090   9.31046  -1.55764
  23.24727  10.58608  -4.36665
  24.17860  11.85471  -8.76937
  23.81468  12.87722 -14.11840
  22.39027  13.28187 -19.85522
  18.08627  12.59054 -23.73871
  12.26431  11.41216 -25.94614
   5.46002  10.85738 -27.77469
  -2.84952  10.39616 -29.18831
 -11.45335   9.79414 -31.48042
 -20.96326   8.82208 -34.13505
 -30.73279   6.56461 -36.55112
 -38.90299   3.54886 -39.54864
 -44.70202  -0.01704 -42.22012
 -48.17340  -4.03192 -44.91638
 -48.81752  -7.73578 -48.41021
 -47.85063  -9.69624 -51.89328
 -46.59886 -10.00404 -54.51330
 -44.34885 -10.08075 -55.71830
 -42.56755 -10.60840 -54.60031
 -40.50887 -11.92707 -51.21079
 -36.73484 -12.43320 -46.59244
 -33.04828 -10.44936 -40.50758
 -30.06480  -6.15376 -33.46473
 -27.80263  -0.14002 -25.80067
 -26.40491   6.52199 -16.19767
 -25.19571  12.37856  -5.24653
 -22.43068  16.16569   5.94121
 -18.22208  17.26543  17.04111
 -13.90731  15.72369  27.25128
  -9.30906  12.31546  37.01239
  -5.51164   8.56530  46.96436
  -3.14984   5.01204  57.02769
  -1.10003   1.66180  67.14007
   0.48667  -1.33379  76.58640
   1.27861  -4.64518  84.73035
   2.05744  -8.62783  91.41213
   2.04990 -12.91736  97.03570
   1.44374 -16.81627 101.58769
   2.27961 -19.59253 104.52716
   4.71626 -19.43349 106.11811
   8.51603 -16.21846 106.29955
  13.40800 -12.09968 104.98235
  17.96792  -7.51780 102.69348
  21.83973  -4.03099  99.35588
  24.49762  -2.24034  94.80208
  24.75817  -0.44921  89.51056
  23.70285   2.33587  83.48189
  21.14738   6.83450  76.56113
  16.07106  12.32574  68.93915
   8.68908  17.17188  61.31254
  -0.07233  20.04496  53.74997
  -7.91929  20.17414  45.71025
 -13.86240  17.21214  37.55366
 -17.02785  11.95901  28.73416
 -16.81829   6.28577  19.53065
 -14.36760   1.80495  10.43050
 -10.09025  -0.98810   0.90233
  -4.95218  -3.22454  -9.06968
  -0.24400  -5.52975 -19.28032
   4.22929  -7.08651 -30.34840
   7.29276  -6.97892 -43.11778
   8.34761  -4.89170 -56.18888
   8.01784  -1.74870 -69.72916
   5.30847   0.49331 -81.59995
   1.85111   0.86476 -89.44831
  -0.86849  -0.08388 -95.34324
  -3.23965  -1.49564 -98.21165
  -3.62135  -1.53727 -99.33712
  -2.93934   0.42598-100.51498
  -2.91688   2.74098-100.48411
  -2.94027   4.99752 -99.66270
  -3.75093   6.39148 -97.62132
  -5.57011   5.46392 -94.78893
  -7.82948   2.45563 -92.53704
 -11.05387  -1.76929 -91.55425
 -14.95372  -6.23609 -92.12914
 -19.63384 -10.36937 -93.20784
 -24.94217 -13.75467 -93.25228
 -29.82811 -16.77745 -91.50887
 -33.82573 -19.70761 -87.62211
 -36.03785 -21.54316 -81.82682
 -36.36857 -22.31453 -75.22133
 -34.98255 -22.01936 -68.69865
 -32.09309 -20.12627 -62.44540
 -28.35086 -16.83686 -55.78987
 -24.11187 -13.12598 -48.70024
 -20.50110 -10.28096 -41.57880
 -18.93358  -8.62643 -34.70668
 -20.03660  -7.34753 -28.47402
 -23.50423  -4.43094 -22.90326
 -28.20538   0.88391 -17.81197
 -32.73207   7.96932 -12.59345
 -36.01212  16.72376  -7.07415
 -37.41920  25.80053  -1.18015
 -36.87751  33.92116   5.00479
 -34.41279  40.32364  11.62850
 -30.46709  44.33993  18.97494
 -25.19010  46.63202  26.84946
 -18.73571  47.21960  35.81353
 -11.97960  45.37611  45.24667
  -6.22921  40.67868  53.21482
  -3.45530  32.80785  58.22004
  -3.59516  22.94566  59.74169
  -5.52380  13.31137  57.89960
  -7.93426   5.11539  53.13901
  -8.49653  -1.49470  46.45031
  -6.53233  -6.47232  39.02665
  -1.91864  -9.81926  32.50489
   5.93953 -11.76194  27.21808
  15.35956 -12.38736  23.14003
  25.54642 -12.97255  20.94612
  36.78986 -14.65328  19.93388
  46.54257 -16.52111  19.54886
  54.10373 -17.97028  19.44833
  60.17266 -17.90620  18.32379
  63.36146 -14.80905  16.35300
  62.50925 -10.11069  14.05016
  58.88535  -6.03963  10.46511
  54.18228  -3.80693   6.13114
  48.15690  -4.48754   1.40240
  42.61370  -6.91109  -3.92179
  39.62605  -9.04088  -8.16313
  38.64183  -9.36552 -10.37478
  39.75468  -6.89940 -10.47301
  41.91201  -4.05064  -8.39795
  44.04416  -3.44721  -4.05136
  45.79175  -5.01613   1.72982
  45.73375  -8.11188   6.83518
  44.37205 -10.82031  10.19381
  40.56200 -11.99957  11.20934
  33.21933 -12.56699  10.61948
  23.42597 -12.97302  10.08810
  11.40221 -14.05920  10.99744
  -0.60232 -15.93592  14.19237
 -11.31442 -17.73359  18.09086
 -20.80095 -18.59102  21.37321
 -28.43039 -17.19705  23.19379
 -34.88103 -13.97734  23.03714
 -40.64826 -10.28143  22.75406
 -44.57946  -6.52237  22.71482
 -47.32298  -2.48966  22.47860
 -50.07632   2.47344  21.24458
 -52.78943   8.30890  16.92653
 -57.47561  13.52837  11.05262
 -63.91223  16.93990   5.20264
 -70.38252  18.26888  -0.46164
 -75.85645  17.13264  -4.06914
 -79.80964  14.28759  -5.15485
 -81.83371  10.43077  -4.58135
 -80.85372   6.12865  -3.05547
 -78.54149   2.92525  -0.81060
 -74.52189   1.36060   1.68493
 -67.87757   2.71194   3.45410
 -59.27375   6.86307   4.23011
 -48.84980  11.74947   3.47090
 -38.72009  16.57740   1.15778
 -30.56345  20.51560  -1.53846
 -25.00673  23.70346  -4.22725
 -20.83275  26.19112  -5.36629
 -16.65737  27.99490  -3.88624
 -11.70267  28.59080  -1.49637
  -5.82412  26.71129   0.72881
  -0.40258  23.42886   2.84973
   4.82990  20.22931   5.23678
