********************************************************************************
              CENTRO DE INSTRUMENTACION Y REGISTRO SISMICO  A.C.

    Anaxagoras 814, Col. Narvarte, Benito Juarez, C.P. 03020 Mexico, D.F.
           Tels. 5687 45 42/ 5687 45  82             Fax. 5669 25 12
********************************************************************************
ARCHIVO ESTANDAR DE ACELERACION:
VERSION DEL FORMATO                    : 2.0
NOMBRE DEL ARCHIVO                     : DR1620170919181440
FECHA Y HORA DE CREACION               : 29/SEP/17, 10:03
REF. CATALOGO ACELEROGRAMAS, SMIS 1996 : REGISTRO No.     /PAG.


================================================================================
DATOS DE LA ESTACION:
NOMBRE DE LA ESTACION                  : DEPORTIVO REYNOSA
CLAVE DE LA ESTACION                   : DR16
LOCALIZACION DE LA ESTACION            : Del. Azcapotzalco, Col. Nueva España,  
                                       : Entre calle San Pablo y Eje 5 Norte.   
                                       :                                        
                                       :                                        
                                       : 
COORDENADAS DE LA ESTACION             : 19.5005 LAT. N
                                       : 99.1829 LONG. W
ALTITUD (msnm)                         : 2233
TIPO DE SUELO                          : Transición                          
                                       :                           
                                       : 
INSTITUCION RESPONSABLE                : CIRES
                                       : 

================================================================================
DATOS DEL ACELEROGRAFO:
MODELO DEL ACELEROGRAFO                : RADESD
NUMERO DE SERIE DEL ACELEROGRAFO       : 216
NUMERO DE CANALES                      : 3
ORIENTACION C1-C6 (rumbo;orientacion)  : /N00E/+V/N90W
ORIENTACION C7-C12 (rumbo;orientacion) : 
VEL. DE MUESTREO, C1-C6 (muestras/s)   : /100/100/100
VEL. DE MUESTREO, C7-C12 (muestras/s)  : 
ESC. COMPLETA DE SENSORES, C1-C6, (g)  : /0.5/0.5/0.5
ESC. COMPLETA DE SENSORES, C7-C12, (g) : 
FREC. NAT. DE SENSORES, C1-C6, (Hz)    : /30/30/30
FREC. NAT. DE SENSORES, C7-C12, (Hz)   : 
AMORTIGUAMIENTO DE SENSORES, C1-C6     : /0.720/0.774/0.740
AMORTIGUAMIENTO DE SENSORES, C7-C12    : 
INTERVALO DE MUESTREO, C1-C6, (s)      : /0.01/0.01/0.01
INTERVALO DE MUESTREO, C7-C12, (s)     : 
UMBRAL DE DISPARO, C1-C6, (Gal)        : /1.05/2.39/1.2
UMBRAL DE DISPARO, C7-C12, (Gal)       : 
MEMORIA DE PREEVENTO (s)               : 44.0
TIEMPO DE POSEVENTO (s)                : 0.0


================================================================================
DATOS DEL SISMO:
FECHA DEL SISMO (GMT)                  : 19/SEP/17
HORA EPICENTRO (GMT)                   : 18:14:40.0
MAGNITUD(ES)                           : /Mc=7.1
COORDENADAS DEL EPICENTRO              : 18.40 LAT. N
                                       : 98.72 LONG. W
PROFUNDIDAD FOCAL (km)                 : 57
FUENTE DE LOS DATOS EPICENTRALES       : SSN
                                       : INSTITUTO DE GEOFISICA, UNAM

================================================================================
DATOS DE ESTE REGISTRO:
HORA DE LA PRIMERA MUESTRA (GMT)       : 18:15:01.00
EXACTITUD DEL TIEMPO (s)               : 0.01
DURACION DEL REGISTRO (s), C1-C6       : /317.8/317.8/317.8
DURACION DEL REGISTRO (s), C7-C12      : 
NUM. TOTAL DE MUESTRAS, C1-C6          : /31780/31780/31780
NUM. TOTAL DE MUESTRAS, C7-C12         : 
ACEL. MAX. (Gal), C1-C6                : /71.00992/25.0948/77.17395
ACEL. MAX., C1-C6, EN LA MUESTRA       : /6957/6956/7307
ACEL. MAX. (Gal), C7-C12               : 
ACEL. MAX., C7-C12, EN LA MUESTRA      : 
UNIDADES DE LOS DATOS                  : Gal (cm/s/s)
FACTOR DE DECIMACION                   : 1
FORMATO DATOS (FORTRAN,10 campos/dato) : 3F10.5


================================================================================
CALIDAD DEL ACELEROGRAMA:
REGISTRO DIGITAL COMPLETO CON TIEMPO ABSOLUTO CORRECTO.


================================================================================
COMENTARIOS:














================================================================================
DATOS DE ACELERACION:
---------+---------+---------+---------+---------+---------+---------+---------+
   CANAL-1   CANAL-2   CANAL-3   CANAL-4   CANAL-5   CANAL-6   CANAL-7   CANAL-8
      N00E        +V      N90W
---------+---------+---------+---------+---------+---------+---------+---------+
[...]
  59.09877  13.09386  18.50105
  52.26033  11.29821  22.15221
  44.64378  10.29564  24.53145
  37.01226   9.41278  24.03764
  29.90447   8.99379  20.49123
  22.93136   9.02372  15.82254
  15.44948   9.63723  12.17138
   7.11467  10.84930  10.34580
  -1.54935  11.80698   9.64250
  -9.88416  11.67230   9.08884
 -17.05181  10.60988   7.36801
 -23.00738   9.32299   4.71943
 -27.16731   8.49999   1.38251
 -30.04035   7.43756  -2.25369
 -31.62651   5.79154  -5.99463
 -31.64147   3.42727  -9.91513
 -30.72868   0.56919 -14.22469
 -28.90310  -2.36370 -19.23755
 -26.80818  -4.03965 -25.10335
 -25.14720  -4.18928 -30.49030
 -24.50376  -3.48599 -34.06664
 -24.47383  -2.48341 -35.69769
 -24.75814  -1.85494 -35.42834
 -24.50376  -2.01954 -33.88708
 -23.45630  -3.30642 -32.46552
 -21.72050  -5.70062 -32.15128
 -20.58325  -8.87294 -33.21371
 -20.59822 -12.28468 -35.15899
 -21.28655 -13.75113 -36.65537
 -21.67561 -11.88066 -37.35867
 -21.00224  -7.58606 -37.02947
 -18.63796  -3.08196 -35.63784
 -14.92695  -0.40345 -32.92939
  -9.64474   0.46445 -29.44284
  -4.49721   0.31481 -25.38766
   0.15652  -0.17900 -21.42226
   4.22666  -0.97207 -17.92074
   8.13220  -1.60055 -14.97288
  11.78336  -2.00457 -12.71335
  14.98561  -2.03450 -10.27426
  17.48455  -1.98961  -7.28151
  19.05575  -2.00457  -3.89970
  20.11818  -2.15421  -0.20365
  20.79154  -2.70787   3.11830
  21.24046  -3.94986   6.09609
  21.86893  -5.79041   7.98153
  22.91640  -8.21453   9.22352
  24.90658 -11.22225  10.45055
  27.49531 -13.96062  11.81225
  30.14389 -15.45699  13.02431
  31.80487 -15.23254  14.11667
  31.65523 -13.49674  15.68786
  29.93440 -10.84816  18.12696
  27.09129  -8.10979  20.82043
  24.06861  -6.32910  23.40916
  21.15067  -5.67070  24.99532
  18.26267  -6.25428  24.92050
  15.65897  -7.24189  23.34931
  12.98046  -7.46635  20.31166
  10.46655  -6.68823  16.45101
   8.05738  -5.56595  12.76993
   5.18434  -4.95243   9.97171
   1.56311  -4.68309   8.86439
  -3.01580  -4.05461   8.83446
  -7.86406  -3.02211   9.41805
 -11.72471  -1.75019  10.06149
 -14.56782  -1.25639   9.55272
 -16.31858  -1.64544   7.36801
 -18.05438  -2.52831   4.04606
 -20.32887  -4.14439  -0.00912
 -24.03988  -6.71816  -4.82745
 -28.79836  -9.87551 -10.75310
 -34.11049 -12.71863 -17.20248
 -39.09342 -13.93069 -23.14310
 -43.22342 -13.63142 -27.39280
 -46.09646 -12.67374 -29.83190
 -47.32349 -11.64124 -30.99907
 -46.53041 -10.68356 -31.71733
 -44.33074  -9.38171 -32.10639
 -41.51755  -7.63095 -32.04653
 -38.98868  -5.96997 -30.71476
 -37.32770  -5.04222 -28.00632
 -36.04082  -4.90754 -24.54969
 -34.81379  -4.84769 -21.07810
 -33.25756  -4.81776 -18.19009
 -31.65644  -4.92251 -15.94553
 -30.78854  -5.14696 -14.91303
 -31.16263  -5.71559 -15.43676
 -32.13528  -6.13457 -16.91817
 -32.71886  -5.88019 -18.48937
 -32.01557  -4.92251 -19.07295
 -30.36955  -4.11446 -18.56418
 -28.48412  -3.83015 -17.51672
 -26.08992  -3.68052 -16.58897
 -23.18695  -3.45606 -16.22984
 -19.62557  -3.24657 -15.69114
 -15.63025  -3.26153 -14.47908
 -10.49768  -2.63305 -12.05495
  -5.39504  -0.59798  -9.12205
  -0.65152   2.26010  -5.75521
   3.43358   4.31013  -2.07412
   6.78546   4.72912   1.54711
   9.89793   4.04079   5.13841
  13.41441   2.88858   8.90928
  17.66412   1.40716  12.71007
  22.51238   5.7E-40  16.42109
  26.92669  -1.13668  19.65326
  29.94937  -1.76515  22.57119
  31.05668  -1.25639  25.45920
  30.83223   0.53927  29.02057
  30.80230   3.33749  33.49474
  31.83480   6.83901  38.49263
  34.61806  10.29564  43.32593
  38.55353  12.79458  46.18401
  42.65360  13.88694  46.18401
  46.30476  14.06650  43.50549
  49.20773  13.52781  40.49778
  51.27272  12.37560  38.88169
  52.27530  10.62484  38.41781
  52.05084   8.79926  38.26818
  49.52196   7.21310  37.46013
  44.31458   6.37513  35.29039
  37.47614   7.10836  31.33996
  30.77237   9.02372  25.81833
  25.35549  10.44527  19.65326
  22.39267  10.37046  13.96703
  21.59959   9.00875   9.01403
  22.00361   6.86894   5.66214
  23.08100   4.56452   3.49240
  24.14343   2.27506   1.84638
  24.32299   0.40459   0.29015
  22.91640  -0.07425  -1.19126
  19.02582   0.59912  -2.95698
  13.02535   2.31995  -5.68039
   5.66318   4.31013  -9.51111
  -1.63913   6.22549 -13.76082
  -8.19326   8.14086 -19.14777
 -13.50539   9.56241 -24.77415
 -17.29123   9.96643 -29.36802
 -19.77521   8.84415 -32.01661
 -20.97231   6.58462 -32.66005
 -21.42122   3.95100 -31.86697
 -21.75043   0.89840 -30.52023
 -22.01977  -1.94472 -29.29320
 -22.07963  -4.18928 -28.23077
 -21.28655  -5.68566 -27.12346
 -19.67046  -6.20939 -25.94132
 -17.77007  -5.79041 -24.44494
 -16.49815  -5.13200 -22.54454
 -16.39340  -4.29403 -19.83610
 -17.72517  -3.27649 -16.57400
 -19.71536  -1.39106 -12.21955
 -21.88510   1.18271  -7.10194
 -23.24680   4.04079  -1.84966
 -23.59097   6.30031   1.87631
 -22.36394   7.58720   4.01613
 -19.80514   7.94633   5.40776
 -16.24376   7.69194   7.02385
 -11.75463   7.93136   9.41805
  -7.83413   8.72444  12.71007
  -5.55964   9.86169  16.69043
  -4.51217  10.53506  19.92261
  -3.38989  10.31060  22.21206
  -1.30993   8.91897  23.88800
   2.43101   6.49484  25.69862
   7.29423   4.23531  27.73369
  11.49905   2.66412  29.51438
  13.71369   1.67651  31.08557
  13.83340   0.79365  31.75894
  12.75600   0.26992  31.62427
  12.12753   0.13524  30.42717
  12.08264  -0.11914  29.40963
  12.93557   0.06042  28.82604
  13.87829   0.82358  28.37713
  13.86332   1.30242  27.61398
  13.33959   1.12285  26.02782
  12.11256  -0.02936  23.22960
  10.60122  -1.63048  19.75801
   8.37162  -3.12686  16.57072
   5.12449  -4.54841  14.56558
   0.74011  -5.99990  13.96703
  -4.30268  -7.21196  13.18891
  -9.27065  -7.94519  11.10895
 -13.22108  -9.03754   7.84685
 -15.97442 -10.59377   4.04606
 -18.03941 -11.98540   0.67921
 -19.89492 -12.71863  -2.05916
 -22.43876 -12.59892  -4.42343
 -25.32677 -11.89562  -7.41618
 -28.73850 -11.22225 -11.47136
 -31.97067 -10.59377 -16.40940
 -34.73897  -9.86055 -21.30255
 -36.48973  -9.29193 -24.90882
 -37.10324  -9.51638 -27.15338
 -36.20542 -10.32442 -28.48516
 -34.03567 -11.61131 -29.39795
 -31.58162 -13.33214 -30.65490
 -29.80093 -15.39714 -31.41805
 -28.78339 -16.90848 -31.26842
 -28.31952 -17.07308 -29.45780
 -27.78082 -15.14276 -26.37527
 -26.68847 -12.22482 -23.42741
 -24.50376  -9.36674 -21.67665
 -21.63072  -7.67584 -21.78139
 -18.65293  -7.06233 -22.87375
 -16.01931  -7.15211 -23.11317
 -13.61014  -6.98751 -21.48212
 -11.35061  -6.32910 -17.89082
  -9.00130  -4.68309 -13.47651
  -5.78409  -2.69291  -9.45125
  -1.75884  -0.10418  -6.41361
   2.76021   1.70644  -3.77999
   7.20445   2.57434  -1.87959
  11.06510   2.26010  -0.24854
  14.29727   1.75133   1.77157
  16.97579   1.91593   5.31798
  19.20539   3.36742  11.10895
  20.92622   5.98607  18.87514
  21.94375   8.73941  27.06032
  21.94375  11.32814  33.91372
  21.01600  13.45299  38.10358
  19.75904  14.32089  39.94412
  19.36999  13.43803  40.13865
  20.52220  10.86426  39.28571
  23.36531   7.60216  38.56745
  26.89676   4.31013  38.22329
  30.11397   1.61666  38.32803
  32.23882  -0.22389  38.38789
  33.01694  -1.16660  38.29810
  32.13407  -1.06186  37.93897
  30.14389   0.10532  36.77180
  27.80955   2.03564  34.57213
  25.71462   3.53202  31.74398
  24.08357   3.86122  28.06289
  23.03611   2.72397  23.91793
  21.80908   0.62905  19.83282
  19.84883  -1.55566  15.89736
  16.82615  -3.53088  11.58779
  13.04032  -5.20682   6.69464
   8.73075  -6.52363   1.23287
   4.34637  -7.10722  -3.60042
  -0.08290  -6.77801  -7.47604
  -4.45232  -5.73055  -9.81038
  -8.89656  -4.69805 -10.99252
 -12.83203  -3.54584 -12.63854
 -15.60032  -2.39363 -15.49661
 -16.70764  -1.79508 -19.85107
 -16.22880  -1.66041 -25.83657
 -15.54047  -1.61552 -32.73487
 -15.18134  -0.80747 -40.02222
 -16.36347   0.95825 -46.75591
 -19.01206   2.99332 -51.79870
 -22.34898   4.38495 -55.25533
 -25.62604   4.77401 -56.88638
 -28.30455   4.53459 -57.46996
 -30.20495   3.63676 -56.94623
 -31.02796   2.48455 -55.76409
 -31.05789   1.37724 -54.52210
 -31.23745   0.03050 -53.89362
 -31.86593  -1.60055 -53.63924
 -33.28749  -3.50095 -53.31004
 -35.23277  -5.19186 -52.44214
 -36.74411  -6.47874 -50.31728
 -37.05835  -7.15211 -47.65373
 -35.65176  -6.65830 -44.91537
 -32.89843  -5.13200 -42.25182
 -29.99546  -3.08196 -39.70798
 -27.37680  -1.28631 -37.46341
 -25.35669  -0.31367 -35.38345
 -23.11213  -0.13410 -32.79472
 -20.46354   0.01553 -28.73954
 -17.32115   0.61408 -23.41244
 -14.08898   1.31738 -17.11270
 -10.82688   1.73637 -10.51368
  -8.55239   1.96082  -3.89970
  -6.29286   2.29003   2.99859
  -3.21033   2.97836   9.88192
   0.77003   3.90611  16.82511
   5.90260   4.29517  23.24456
  10.85561   3.86122  27.80851
  14.20749   3.06814  30.80126
  15.09035   2.64916  33.10568
  14.08778   2.61923  35.69441
  12.63629   2.64916  38.80687
  11.76840   2.14039  41.76970
  11.93300   1.16774  44.19383
  13.68376   0.50934  45.58546
  16.76629   0.59912  45.95955
  20.70176   1.01811  45.58546
  25.07118   1.03307  44.97194
  29.21614  -0.20892  44.26865
  32.52313  -2.88744  43.17629
  34.63302  -6.40392  41.29086
  35.75530 -10.11493  37.99883
  36.30896 -13.24236  33.53963
  36.84766 -14.82852  28.45195
  37.04219 -14.40953  23.19967
  36.65313 -11.85073  17.67804
  35.53085  -8.16964  11.28852
  33.70527  -4.39878   3.77671
  32.01436  -1.85494  -4.10919
  31.10158   0.06042 -11.78560
  31.26618   1.63162 -18.16016
  32.11911   2.70901 -23.12813
  33.00197   3.03821 -27.76690
  33.19650   2.40974 -32.00164
  32.64284   1.88600 -36.26631
  31.26618   2.18528 -40.41127
  29.45556   3.50209 -43.89783
  27.58509   4.81890 -46.20225
  25.98397   6.33024 -47.32453
  24.24817   7.30288 -48.40192
  22.15325   7.90144 -49.95815
  19.26524   7.90144 -52.15783
  15.56919   7.18317 -53.90859
  11.55890   6.37513 -54.37246
   7.99753   5.79154 -53.05565
   5.28909   5.49227 -50.27239
   3.28394   5.16307 -47.07015
   0.94960   4.51963 -44.10732
  -1.84863   3.71158 -41.00983
  -5.46986   3.26267 -36.83494
  -9.64474   3.18785 -31.08885
 -13.34079   3.36742 -23.39748
 -15.83974   3.98093 -14.88310
 -17.05181   5.17803  -6.98223
 -17.53065   6.88390  -0.69745
 -18.17409   8.66459   4.16577
 -20.11938  10.10111   8.80453
 -22.88767  10.74455  14.28127
 -25.95524   9.99636  20.20692
 -28.39434   7.96129  25.95300
 -29.47173   5.26781  30.95090
 -29.53158   2.23017  35.85901
 -29.17245  -0.82244  40.96165
 -28.60383  -3.38124  46.30372
 -27.33191  -5.34149  51.98995
 -25.52129  -6.37399  57.91559
 -23.48622  -6.74809  63.73650
 -21.76539  -6.50867  68.50994
 -20.56829  -5.46120  71.56254
 -19.92485  -3.42613  73.11878
 -19.31133  -1.83997  74.01660
 -18.44344  -1.78012  74.91443
 -16.94706  -3.41117  75.90203
 -15.37586  -6.13457  76.71008
 -13.34079  -8.18461  77.17395
 -11.41047  -8.81309  77.00935
  -8.89656  -8.03497  76.47066
  -5.63446  -6.67327  75.60276
  -1.87855  -5.40135  73.91185
   1.78757  -4.23417  71.38298
   4.66061  -2.90240  67.64204
   6.95007  -1.66041  62.83867
   9.04499  -0.61294  57.57143
  11.31948   0.52430  52.10966
  13.77354   1.90097  46.85738
  15.80861   3.89115  41.41057
  16.76629   5.94118  35.45499
  16.34731   7.37770  29.03554
  14.68633   8.24560  22.82558
  13.05528   8.84415  17.18424
  12.05271   9.65220  12.17138
  11.88811  10.28067   7.80196
  11.88811  10.78944   3.07341
  11.78336  10.78944  -2.31354
  11.21474  10.22082  -8.65818
  10.39173   8.99379 -14.83821
   9.71836   7.21310 -20.25509
   9.58369   5.41745 -24.74422
   8.86543   3.47216 -28.85925
   7.21941   1.22760 -32.83961
   4.40623  -0.82244 -37.50831
   1.18902  -2.31881 -42.41642
  -1.78877  -2.70787 -47.02526
  -4.27275  -2.39363 -50.58663
  -6.23301  -1.91479 -52.83120
  -7.32536  -2.42356 -53.95348
  -7.26551  -3.29146 -54.20786
  -6.36768  -3.77030 -54.04326
  -5.15562  -3.75533 -54.01333
  -4.18297  -3.32139 -53.90859
  -4.30268  -2.54327 -53.59435
  -5.42496  -1.67537 -52.44214
  -6.93630  -0.34360 -50.36218
  -8.26808   2.26010 -47.42928
  -9.27065   5.98607 -43.85294
 -10.24329   9.47263 -39.73791
 -10.90170  11.79201 -35.35352
 -11.03637  12.61502 -30.53519
 -10.40790  12.15114 -25.98621
  -8.92648  10.95404 -21.34744
  -7.25054   9.08357 -16.69371
  -5.97862   7.28792 -12.27941
  -5.27533   6.00104  -8.22423
  -4.48225   5.80651  -4.22890
  -3.35997   6.15068  -0.30840
  -1.41468   6.52477   3.44751
   1.11420   6.70433   7.15852
   4.09199   6.42002  10.89946
   6.63583   5.50723  14.01192
   8.80557   4.13057  16.00210
  10.34684   2.24513  16.54080
  11.36438   0.40459  16.40612
  11.40927  -0.83740  15.82254
  10.60122  -1.39106  15.38859
   9.13477  -1.51077  14.73018
   7.47380  -1.61552  13.74257
   5.99239  -2.28889  12.33598
   5.37887  -3.30642  10.67500
   6.09713  -4.33892   8.66986
   7.69825  -5.37142   6.67968
   9.86800  -6.62838   4.48001
  12.00782  -8.00504   1.56207
  13.45930 -10.24961  -2.04419
  14.85093 -12.43432  -6.50339
  16.25752 -13.78105 -11.35165
  17.49952 -13.61645 -15.60136
  18.00828 -11.74598 -19.04303
  17.21521  -8.79812 -21.25766
  14.71626  -5.73055 -22.46973
  11.00524  -3.53088 -23.27777
   6.90517  -2.58816 -24.45991
   3.46351  -2.22903 -25.76175
   0.71018  -1.91479 -26.65958
  -1.10044  -1.43595 -26.95885
  -2.58185  -1.13668 -27.13842
  -3.89866  -1.19653 -27.37784
  -5.51475  -2.07939 -27.73697
  -7.14580  -2.85751 -27.70704
  -8.76188  -3.14182 -26.94389
  -9.79438  -3.15678 -25.14824
  -9.71956  -2.87247 -22.85878
  -8.53743  -2.58816 -20.68904
  -7.14580  -2.09436 -19.26748
  -6.57717  -1.10675 -18.39958
  -7.28047  -0.32863 -17.48679
  -8.91152  -0.28374 -16.43933
 -10.76703  -0.50820 -15.46669
 -12.36815  -0.05929 -14.71850
 -13.58021   1.30242 -13.83564
 -14.47804   3.51705 -11.92028
 -15.27112   5.76162  -8.91256
 -16.00434   7.22807  -4.87234
 -16.90217   7.85654  -0.24854
 -16.99195   7.82662   3.19312
 -16.24376   7.10836   5.24316
 -14.40322   6.43499   6.42530
 -11.93420   5.77658   7.63736
  -9.39036   5.35760   9.49287
  -6.80163   5.05832  11.88707
  -4.28772   4.26524  14.22141
  -2.35739   3.14296  15.95721
  -0.56174   2.34988  17.01964
   0.81492   2.26010  17.76783
   1.68282   2.91850  18.66565
   1.99706   3.96597  19.89268
   2.13174   5.29774  20.65583
   2.65547   6.59959  20.76058
   3.55329   7.60216  20.58101
   4.55586   7.64705  20.89525
   6.26173   7.00361  21.55366
   8.86543   6.21053  21.94271
  12.15745   5.19299  21.05985
  15.79365   4.48970  18.63572
  18.72655   4.26524  14.74515
  20.02839   4.77401  10.12134
  20.17803   5.68680   6.26069
  19.69919   6.25542   3.52233
  19.44481   6.18060   1.59200
  19.57948   5.91126   0.14052
  19.78897   5.79154  -1.37082
  19.31013   6.01600  -2.16390
  18.21778   6.74923  -1.68506
  16.52687   7.63209  -0.09890
  14.91079   7.76676   2.10077
  13.56405   6.89886   4.34533
  12.56148   5.47731   5.99135
  11.87314   4.14553   6.82932
  11.54394   2.85865   7.02385
  11.39430   0.79365   6.90414
  11.40927  -1.49581   7.36801
  11.12496  -3.29146   8.28080
  10.28698  -4.41374   9.37316
   8.73075  -5.20682   9.91185
   6.78546  -6.47874   9.76221
   4.60076  -8.60359   8.78957
   2.46094 -10.47406   7.18845
   0.06674 -11.62627   5.51251
  -2.62674 -11.58138   4.62964
  -5.67935 -10.26457   5.03367
  -9.45022  -7.96015   6.72457
 -13.47547  -5.14696   9.04395
 -17.51568  -2.33378  11.18377
 -20.56829  -0.22389  12.81482
 -22.12452   1.43709  14.29623
