********************************************************************************
              CENTRO DE INSTRUMENTACION Y REGISTRO SISMICO  A.C.

    Anaxagoras 814, Col. Narvarte, Benito Juarez, C.P. 03020 Mexico, D.F.
           Tels. 5687 45 42/ 5687 45  82             Fax. 5669 25 12
********************************************************************************
ARCHIVO ESTANDAR DE ACELERACION:
VERSION DEL FORMATO                    : 2.0
NOMBRE DEL ARCHIVO                     : DX3720170919181440
FECHA Y HORA DE CREACION               : 25/SEP/17, 11:17
REF. CATALOGO ACELEROGRAMAS, SMIS 1996 : REGISTRO No.     /PAG.


================================================================================
DATOS DE LA ESTACION:
NOMBRE DE LA ESTACION                  : DGCOH XOTEPINGO
CLAVE DE LA ESTACION                   : DX37
LOCALIZACION DE LA ESTACION            : Del. Coyoacán, DGCOH Xotepingo,        
                                       : Col. Ciudad Jardín, Av. División del   
                                       : Norte esq. con calle Xotepingo.        
                                       :                                        
                                       : 
COORDENADAS DE LA ESTACION             : 19.3322 LAT. N
                                       : 99.1439 LONG. W
ALTITUD (msnm)                         : 2240
TIPO DE SUELO                          : Terreno blando, material compresible
                                       : (arcillas)                
                                       : 
INSTITUCION RESPONSABLE                : CIRES, A. C.
                                       : 

================================================================================
DATOS DEL ACELEROGRAFO:
MODELO DEL ACELEROGRAFO                : RAD_IO14
NUMERO DE SERIE DEL ACELEROGRAFO       : 
NUMERO DE CANALES                      : 3
ORIENTACION C1-C6 (rumbo;orientacion)  : /S00E/+V/N90W
ORIENTACION C7-C12 (rumbo;orientacion) : 
VEL. DE MUESTREO, C1-C6 (muestras/s)   : /100/100/100
VEL. DE MUESTREO, C7-C12 (muestras/s)  : 
ESC. COMPLETA DE SENSORES, C1-C6, (g)  : /2.0/2.0/2.0
ESC. COMPLETA DE SENSORES, C7-C12, (g) : 
FREC. NAT. DE SENSORES, C1-C6, (Hz)    : /52.88/52.56/51.64
FREC. NAT. DE SENSORES, C7-C12, (Hz)   : 
AMORTIGUAMIENTO DE SENSORES, C1-C6     : /0.5605/0.5469/0.5912
AMORTIGUAMIENTO DE SENSORES, C7-C12    : 
INTERVALO DE MUESTREO, C1-C6, (s)      : /0.01/0.01/0.01
INTERVALO DE MUESTREO, C7-C12, (s)     : 
UMBRAL DE DISPARO, C1-C6, (Gal)        : / / /
UMBRAL DE DISPARO, C7-C12, (Gal)       : 
MEMORIA DE PREEVENTO (s)               : 60
TIEMPO DE POSEVENTO (s)                : 90


================================================================================
DATOS DEL SISMO:
FECHA DEL SISMO (GMT)                  : 19/SEP/17
HORA EPICENTRO (GMT)                   : 18:14:40.0
MAGNITUD(ES)                           : /Mc=7.1
COORDENADAS DEL EPICENTRO              : 18.40 LAT. N
                                       : 98.72 LONG. W
PROFUNDIDAD FOCAL (km)                 : 57
FUENTE DE LOS DATOS EPICENTRALES       : SSN
                                       : INSTITUTO DE GEOFISICA, UNAM

================================================================================
DATOS DE ESTE REGISTRO:
HORA DE LA PRIMERA MUESTRA (GMT)       : 13:13:57.00
EXACTITUD DEL TIEMPO (s)               : 
DURACION DEL REGISTRO (s), C1-C6       : /330.34/330.34/330.34
DURACION DEL REGISTRO (s), C7-C12      : 
NUM. TOTAL DE MUESTRAS, C1-C6          : /33034/33034/33034
NUM. TOTAL DE MUESTRAS, C7-C12         : 
ACEL. MAX. (Gal), C1-C6                : /187.72643/52.37194/123.94107
ACEL. MAX., C1-C6, EN LA MUESTRA       : /8462/8508/8588
ACEL. MAX. (Gal), C7-C12               : 
ACEL. MAX., C7-C12, EN LA MUESTRA      : 
UNIDADES DE LOS DATOS                  : Gal (cm/s/s)
FACTOR DE DECIMACION                   : 1
FORMATO DATOS (FORTRAN,10 campos/dato) : 3F10.5


================================================================================
CALIDAD DEL ACELEROGRAMA:
REGISTRO DIGITAL COMPLETO CON TIEMPO ABSOLUTO CORRECTO.


================================================================================
COMENTARIOS:














================================================================================
DATOS DE ACELERACION:
---------+---------+---------+---------+---------+---------+---------+---------+
   CANAL-1   CANAL-2   CANAL-3   CANAL-4   CANAL-5   CANAL-6   CANAL-7   CANAL-8
      N00E        +V      N90W
---------+---------+---------+---------+---------+---------+---------+---------+
[...]
 -20.43243   5.92474   1.53807
 -21.39013   4.60794   2.01697
 -23.24563   2.27354   1.71767
 -26.95663  -0.71916   0.70017
 -32.70263  -3.83166  -0.19773
 -40.18453  -6.04626  -0.37723
 -48.74373  -6.10606   1.05927
 -56.88403  -4.25056   4.88997
 -63.64753  -0.71916  11.29437
 -69.33373   4.00934  20.27267
 -73.70313   9.03714  30.92677
 -77.17473  13.94524  41.94007
 -79.86823  18.01534  52.11537
 -81.30473  20.11024  60.37527
 -81.36453  20.64894  66.60017
 -80.22733  20.28984  70.37107
 -78.97043  19.21244  71.92727
 -78.37183  17.89564  71.68787
 -78.67113  15.92044  69.29367
 -79.98793  13.76564  64.44547
 -81.60403  11.43134  57.80157
 -83.69893   9.21674  50.49927
 -85.79383   7.78024  43.37657
 -88.00843   7.12184  37.86987
 -90.46253   7.18164  34.21877
 -93.27563   7.12184  32.78227
 -96.62753   6.28384  33.38077
 -99.44073   4.42834  35.83487
-101.23633   1.67504  39.12687
-101.53563  -0.95856  43.07727
 -99.68013  -2.33526  47.62627
 -95.31073  -1.97616  52.95327
 -88.36753  -0.30016  59.47747
 -80.16743   1.37574  66.30087
 -71.84763   2.39324  72.46597
 -63.76723   2.87214  77.55357
 -55.86643   3.23124  81.38427
 -48.32473   3.76994  83.89817
 -41.20203   4.30864  85.03547
 -34.67783   3.76994  84.85587
 -28.45303   2.09404  82.76097
 -22.40763  -1.07826  78.15217
 -16.60173  -5.26816  71.50827
 -11.27463  -9.69736  62.58997
  -7.08483 -13.64776  52.77377
  -3.73293 -16.93976  42.65827
  -0.56063 -18.73546  32.96187
   3.38977 -18.55586  24.16317
   9.25547 -16.16166  16.26237
  17.51547 -11.37336   8.78047
  28.34917  -4.43016   2.37607
  40.97847   3.35094  -3.37003
  53.18887   9.45614  -8.27813
  64.26197  12.62844 -11.80953
  73.95847  14.12484 -13.84453
  81.08117  15.32194 -14.56283
  85.51047  15.62114 -14.14383
  88.74257  14.78324 -11.98903
  91.13677  14.42404  -8.27813
  94.24927  14.66354  -4.50723
  97.54127  14.60364  -1.87363
  99.45657  14.30434   0.34097
  99.63617  14.06494   2.13667
  99.03757  13.28684   2.49577
  98.85807  11.25174   2.19647
 101.43177   7.95974   1.83737
 106.10047   4.54804   0.22127
 110.23047   1.79474  -2.53203
 113.64217   0.41804  -5.94373
 116.63487   0.65744  -9.95403
 119.02907   1.61514 -14.92193
 122.56047   1.73484 -21.08703
 127.34887   1.19614 -29.58633
 131.00007   0.71734 -39.76163
 133.21467  -0.77906 -50.17643
 134.11247  -3.65206 -58.49623
 132.25697  -7.78206 -63.82323
 128.66567 -12.63026 -66.81603
 124.83497 -16.87996 -66.99553
 119.02907 -19.27416 -64.84083
 112.50487 -18.85516 -59.39403
 106.45957 -14.72516 -49.87713
 100.05517  -5.92656 -37.90613
  93.47107   6.40354 -25.03743
  85.74987  19.93074 -13.48543
  76.23297  31.90164  -5.46493
  66.41677  38.66524  -2.23273
  57.31887  38.78494  -2.23273
  48.28077  32.85934  -4.02843
  40.14057  22.20524  -6.72183
  31.94047   9.15684 -10.55253
  22.54327  -2.93376 -15.87963
  12.72707 -12.80986 -21.98483
   2.43207 -19.15446 -28.14983
  -9.41913 -21.30916 -34.19523
 -21.86893 -19.81286 -40.30033
 -33.78003 -15.68286 -45.86683
 -45.63133 -10.35576 -50.65523
 -55.26793  -5.74696 -54.96473
 -61.73223  -2.39506 -59.03493
 -65.26363  -0.12066 -63.16483
 -65.98193   1.01664 -66.57663
 -65.80233   1.61514 -68.49193
 -66.99943   2.81224 -68.37223
 -69.81263   4.84734 -66.15763
 -74.54113   7.72034 -61.66853
 -80.46673   9.51594 -55.62323
 -84.47703   9.57584 -48.85963
 -87.94863   9.99484 -43.35293
 -93.27563  10.83284 -40.71933
-100.39833   9.87514 -39.52223
-108.77803   7.24154 -38.32513
-118.41463   2.81224 -37.84633
-126.61473  -3.71186 -38.02593
-132.00163  -9.63756 -38.44483
-137.02943 -13.46826 -39.88143
-141.87773 -16.04196 -41.97633
-145.22953 -17.05956 -44.19093
-148.04273 -17.05956 -46.16613
-150.31723 -16.76026 -47.96173
-151.03553 -15.38356 -49.15883
-151.87343 -11.43316 -49.87713
-152.11283  -6.70466 -49.57783
-149.29973  -2.69436 -46.76463
-145.58873   0.53774 -42.27553
-141.93753   1.25604 -37.06823
-134.87473  -1.37756 -31.50173
-126.97393  -4.31046 -25.45643
-119.67163  -7.78206 -19.47093
-111.35183 -10.59516 -13.12633
-103.09183 -10.41566  -5.28533
 -94.53263  -9.33826   3.75267
 -84.59673  -7.90176  13.26967
 -76.33673  -5.62726  22.30767
 -71.18923  -3.83166  28.59247
 -67.95713  -3.77176  32.42317
 -67.17903  -5.14846  34.39837
 -70.59073  -7.72216  32.30347
 -72.56593 -12.63026  27.03617
 -69.03453 -16.76026  21.52957
 -62.92933 -18.73546  17.45947
 -54.72923 -19.87266  14.46667
 -43.05753 -20.11206  13.98787
 -29.94933 -17.59816  17.04047
 -16.84113 -13.40836  23.44497
  -2.47603  -7.36306  31.10637
  11.29057   0.53774  38.94727
  25.83527   7.42104  46.96787
  43.91137  12.14964  54.38987
  57.25897  16.87814  61.15337
  68.09267  16.39924  68.57537
  81.50017  12.98754  75.39887
  83.95417  12.80804  79.52877
  81.61987   9.93494  82.10257
  84.43307   6.76264  83.95807
  78.98627   5.38604  86.29237
  77.90887   4.30864  87.54937
  88.86227   3.71004  83.29967
  91.01707   4.06924  75.45867
  91.49587   7.06194  74.50097
  96.70327  12.20944  75.45867
  98.91787  15.68104  73.78277
 101.97047  14.18464  70.90977
 109.87127   8.61814  70.55057
 123.09917   4.60794  71.86737
 130.16207   1.73484  69.89217
 135.60887  -4.78926  67.97687
 148.89657  -9.39806  72.28637
 155.18137  -9.21856  78.93027
 149.67467  -8.26086  80.54637
 147.10097  -8.08126  80.90547
 147.16077  -5.74696  82.58137
 140.33737  -3.23306  80.66607
 132.67597  -0.18046  78.63097
 126.98977   4.84734  76.59597
 119.14877   8.01964  73.30397
 115.19837   4.84734  71.56817
 118.49037   0.83704  71.56817
 120.40577  -1.01846  68.45567
 116.09617  -2.51486  59.77677
 110.17057  -1.55716  50.97807
 104.78367   1.79474  45.41157
  98.43907   6.10424  39.18677
  92.99227   9.87514  28.59247
  87.66517  11.79044  19.49447
  80.00377  12.86784  14.40687
  73.12047  14.66354   8.96007
  64.20217  18.01534   0.58037
  48.75967  18.31464  -4.86633
  40.97847  16.81824  -2.53203
  39.72157  16.75844  -0.73643
  30.44407  15.92044  -3.90873
  24.45857  13.16714  -0.19773
  24.27907  11.97004   8.12207
  20.26877   9.69554  12.97037
  16.31837   5.44584  15.00537
  14.04387   2.99184  16.08277
   7.10077   3.05164  13.80827
  -2.77533  -0.24036   8.54107
 -11.93303  -5.02876   3.09427
 -23.84413  -9.93676  -4.08823
 -34.13923 -15.74276  -8.21823
 -41.56113 -18.01716 -12.10883
 -50.35983 -19.15446 -21.32643
 -62.39063 -19.87266 -34.25503
 -76.33673 -18.85516 -47.54283
 -85.67413 -18.61576 -59.03493
 -92.01873 -18.49606 -68.73133
 -99.85973 -20.11206 -77.17093
-103.21153 -22.68586 -84.05413
-103.33123 -23.70336 -87.64543
-106.74293 -22.02746 -87.28633
-109.31673 -21.30916 -82.85713
-111.59123 -18.25656 -75.07593
-118.65403 -11.85216 -64.90063
-123.86143  -6.22576 -53.58813
-125.53733  -0.36006 -44.19093
-129.84693   6.34364 -38.80403
-134.69513  10.05464 -38.14563
-137.86743  11.97004 -40.47993
-141.87773  12.50874 -45.08873
-144.63103  10.65324 -50.29613
-146.90553  10.05464 -54.84503
-151.27493  12.56854 -59.93273
-154.02823  15.20214 -65.02033
-152.59173  18.19494 -69.32993
-148.58143  21.84604 -74.65703
-144.57113  24.77894 -81.95923
-140.38133  26.75414 -88.12433
-135.17393  27.47244 -90.63823
-129.36803  26.09574 -89.26153
-125.17823  23.58184 -86.32863
-121.16793  19.63144 -81.24103
-116.67883  16.57884 -73.22043
-114.58393  14.84304 -65.19993
-115.66133  13.04744 -60.47143
-117.99563  11.19194 -57.77793
-119.55193  10.47364 -55.08453
-119.43223   9.81524 -53.70783
-118.05553   7.84004 -54.48593
-114.82333   5.50574 -56.70053
-108.77803   4.42834 -58.97503
-100.81733   4.60794 -61.01013
 -92.19823   4.90714 -62.20723
 -81.90323   4.72764 -63.10503
 -70.17173   4.42834 -63.76343
 -57.30293   4.30864 -64.12253
 -43.65613   3.59034 -64.06273
 -29.65003   1.79474 -63.58383
 -15.52433  -0.30016 -62.26703
  -0.91983  -2.57466 -59.45393
  12.72707  -4.84916 -54.90493
  23.80017  -6.34556 -48.56033
  32.06017  -6.58496 -40.89893
  37.68647  -6.34556 -33.29733
  41.33767  -7.00396 -27.13233
  43.01357  -8.91926 -22.94253
  42.17557 -11.73246 -20.54833
  41.63687 -13.64776 -19.53073
  45.28807 -13.82736 -19.29133
  50.67497 -14.00696 -18.57313
  55.16407 -14.48576 -14.74243
  60.49117 -12.51056  -8.03863
  66.05767  -9.45796  -2.59193
  70.06787  -7.78206   1.05927
  76.71177  -6.52506   5.42867
  86.58777  -3.65206  11.11487
  96.52367  -0.59946  15.42437
 106.51947  -9.6E-40  19.19527
 117.17357  -0.06076  23.02597
 124.05687   0.59764  26.55737
 129.98247   0.71734  29.01137
 139.25997  -0.41986  30.26837
 147.28057  -0.65936  29.96907
 151.70977   1.25604  27.21577
 153.86457   2.99184  23.98357
 153.02657   3.88964  23.20547
 150.39297   4.54804  26.67707
 147.28057   3.76994  31.52527
 143.68927   1.13634  35.71517
 142.43227  -2.09586  40.56337
 144.16807  -4.01116  46.18977
 145.78417  -5.08856  51.87597
 146.80167  -7.48276  58.99867
 149.97397 -11.43316  66.95927
 154.94197 -14.54566  74.62077
 156.73757 -14.72516  80.48647
 155.89957 -14.24636  82.76097
 155.48067 -15.80256  82.04267
 153.26597 -18.73546  80.00767
 148.59737 -22.02746  76.47627
 140.51697 -26.21726  72.58567
 129.80297 -30.34726  71.14917
 119.32837 -31.00566  72.82507
 108.37497 -27.53406  76.11707
  97.42157 -22.38656  79.52877
  90.11927 -16.58066  83.59897
  85.57027 -10.77476  87.72887
  81.91917  -5.98636  90.66177
  80.00377  -3.11336  91.91877
  81.38047  -2.33526  92.15817
  84.97177  -1.37756  91.61947
  88.14407   1.67504  89.40487
  91.19667   6.46344  85.87337
  93.77037  12.08974  81.02517
  94.90767  17.95554  75.75797
  94.12947  23.64174  70.67027
  90.65797  28.90894  66.48047
  84.01407  32.61994  62.82937
  75.15557  34.53524  59.89647
  64.98027  35.13384  58.34027
  53.78747  35.07394  56.66427
  41.63687  31.78194  54.38987
  29.36667  26.87384  52.65407
  18.53297  21.00814  50.31967
   9.43507  16.15984  46.60867
  -3.43373  13.88534  39.66557
 -16.90103  15.68104  30.68737
 -26.23833  20.22994  24.64207
 -34.67783  24.00084  16.38207
 -43.89553  27.53224   8.60097
 -53.47223  29.98634   0.46067
 -62.86943  30.28554  -7.02113
 -73.34403  29.08844 -14.80223
 -85.07553  26.33514 -21.56583
 -97.46553  22.98334 -26.59363
-109.37663  18.31464 -30.12503
-122.96363  11.49124 -34.97333
-137.20903   3.05164 -42.09603
-150.25733  -4.90896 -47.36323
-160.91153 -11.25356 -50.59543
-168.03423 -15.92226 -50.95453
-171.14663 -15.44346 -50.05673
-172.76273 -11.55286 -49.09903
-173.36133  -7.84186 -47.66253
-169.47073  -2.39506 -47.12383
-163.78453   3.47064 -49.69753
-160.79183   6.28384 -52.21143
-158.99613   5.68524 -51.73263
-157.73923   2.39324 -51.19393
-159.53483  -2.69436 -51.25383
-163.84443  -8.85946 -49.57783
-168.21383 -11.91196 -46.40553
-173.60073 -11.85216 -45.92673
-179.76573 -11.19376 -47.66253
-184.91323 -10.47546 -50.71513
-187.72643  -9.69736 -55.26403
-186.28993 -11.43316 -59.51373
-181.56143 -14.90476 -62.08753
-175.39633 -17.77776 -64.66123
-167.91453 -18.49606 -65.31963
-157.49983 -18.49606 -64.78093
-144.93033 -17.47846 -65.19993
-132.83963 -14.78506 -65.19993
-120.56943 -11.01416 -65.02033
-107.82033  -7.66236 -66.99553
 -97.46553  -4.60976 -68.49193
 -89.86393  -1.97616 -65.79853
 -84.59673   0.29834 -58.25683
 -82.32223   3.17134 -47.90193
 -80.46673   6.46344 -34.31493
 -77.05503  10.89264 -18.09423
 -73.22433  15.38174  -2.23273
 -69.33373  17.71604  11.71337
 -64.36583  17.71604  23.20547
 -57.90153  15.86064  31.94427
 -49.64153  12.86784  38.16917
 -38.98743   9.57584  41.58087
 -26.29823   6.10424  41.94007
 -12.41193   2.87214  38.88747
   2.07297  -0.12066  32.90197
  15.83957  -3.59216  25.24057
  28.04987  -5.62726  17.10037
  37.98577  -5.26816  10.33677
  45.22817  -4.60976   5.30897
  51.09397  -4.31046   3.51327
  56.24147  -3.71186   5.48847
  60.25177  -2.87396  10.21707
  64.50147  -2.33526  16.08277
  71.20517  -2.33526  22.00837
  79.82427  -2.93376  27.99387
  89.58057  -3.59216  34.45817
  99.87557  -3.35276  40.86267
 108.79397  -1.31776  45.89047
 116.09617   2.15384  49.12257
 122.97947   6.94224  50.31967
 129.50367  13.04744  48.88317
 135.36947  19.99054  44.87297
 140.87607  27.23304  39.18677
 145.78417  34.77464  33.02167
 149.19587  42.73534  27.27567
 151.11127  49.25954  22.78657
 152.00907  52.37194  20.63177
 151.41047  51.59384  20.87117
 149.61487  47.22444  22.42737
 147.69947  39.74264  24.58217
 146.62207  29.56734  26.19827
 147.10097  18.79344  27.09607
 148.17837   9.45614  27.15597
 149.85427   2.75244  26.73697
 151.47037  -1.73666  25.89897
 152.48787  -4.84916  25.36027
 154.34337  -7.90176  25.30047
 157.09667 -10.77476  24.28287
 157.27627 -13.94706  21.76897
 156.43827 -16.99966  18.35727
 155.89957 -19.69316  15.12507
 152.78717 -23.10486  11.35427
 145.30527 -26.75596   6.14687
 136.38697 -30.16766  -0.13783
 125.25397 -34.95606  -7.97883
 112.62467 -40.82186 -18.09423
 100.47407 -45.31096 -28.74843
  90.23897 -48.54306 -38.38503
  82.75707 -49.38106 -47.00413
  74.79647 -46.98686 -55.02463
  65.33937 -42.55766 -61.24953
  55.16407 -36.39256 -66.45693
  45.88657 -31.00566 -70.52703
  37.20767 -27.41436 -73.45993
  28.88787 -22.32676 -76.63223
  20.38847 -17.29896 -79.74463
  10.81177 -15.02446 -82.61763
   0.63637 -15.44346 -85.90963
  -9.41913 -16.46096 -88.06443
 -18.99593 -15.74276 -89.08193
 -27.31573 -15.26386 -89.20173
 -34.25893 -15.32376 -90.81773
 -39.88523 -15.32376 -94.46893
 -45.99043 -14.90476 -98.53903
 -53.17303 -14.96456-102.01063
 -61.25333 -15.98216-103.56683
 -67.95713 -16.16166-102.36973
 -73.64333 -15.74276-101.11273
 -80.52663 -17.29896-101.65143
 -86.75153 -19.45366-101.95073
 -90.34283 -20.23186-100.39453
 -92.01873 -19.99236 -98.00033
 -93.51513 -19.09456 -95.84553
 -95.55013 -18.25656 -93.93023
 -97.40563 -17.11936 -91.17693
 -99.08153 -16.16166 -87.40603
-100.51813 -15.68286 -83.57533
-100.63783 -15.32376 -79.80453
 -98.48303 -14.12666 -75.85413
 -95.72973 -12.57036 -71.00583
 -94.23333 -11.49306 -65.85833
 -94.71213  -9.75726 -58.55603
 -97.28593  -7.54266 -48.85963
-100.57793  -5.68716 -38.86383
-103.63053  -3.83166 -29.16743
-105.90503  -1.97616 -19.41103
-107.40143  -0.65936 -10.91173
-107.40143   0.23854  -4.14813
-106.02473   1.79474   0.99937
-103.33123   4.24874   5.42867
 -98.60273   6.94224  10.15717
 -92.19823   8.01964  15.30467
 -84.71643   7.78024  20.39237
 -76.75573   6.88234  25.65957
 -68.25643   5.86484  31.82457
 -58.73953   5.62544  39.66557
 -48.44443   6.88234  48.46417
 -38.02973  11.01234  58.63947
 -28.69243  16.10004  69.59297
 -20.97113  20.34974  79.82807
 -14.74623  24.00084  89.28517
  -9.59873  27.89144  98.20347
  -5.34903  31.12354 106.16417
  -1.69793  33.45784 113.22707
   1.41457  35.13384 118.55407
   3.74887  36.09154 122.20527
   6.50217  35.97174 123.94107
  10.45257  34.17614 123.46217
  15.00157  30.22574 120.94827
  20.68777  24.83884 116.93807
  27.21197  19.03294 111.73067
  33.97547  13.64594 106.52327
  40.61937   8.61814 102.63277
  46.54497   3.71004 100.35827
  51.45307  -0.47976 100.23857
  55.70277  -3.65206 101.55537
  59.11447  -5.26816 103.05177
  61.38897  -5.14846 104.36857
  62.70577  -4.07106 105.74517
  63.72327  -2.51486 107.60067
  64.56127  -1.85646 109.51607
  64.44157  -2.45496 110.95257
  63.78317  -3.83166 112.08977
  62.88537  -5.50756 112.26937
  62.28677  -6.70466 109.99487
  61.38897  -7.90176 105.14667
  60.96997  -8.79956  98.92177
  63.30437  -9.27836  92.15817
  66.53647  -9.69736  84.49677
  69.28977  -9.69736  78.27187
