********************************************************************************
              CENTRO DE INSTRUMENTACION Y REGISTRO SISMICO  A.C.

    Anaxagoras 814, Col. Narvarte, Benito Juarez, C.P. 03020 Mexico, D.F.
           Tels. 5687 45 42/ 5687 45  82             Fax. 5669 25 12
********************************************************************************
ARCHIVO ESTANDAR DE ACELERACION:
VERSION DEL FORMATO                    : 2.0
NOMBRE DEL ARCHIVO                     : EO3020170919181440
FECHA Y HORA DE CREACION               : 25/SEP/17, 11:17
REF. CATALOGO ACELEROGRAMAS, SMIS 1996 : REGISTRO No.     /PAG.


================================================================================
DATOS DE LA ESTACION:
NOMBRE DE LA ESTACION                  : JARDÍN "ESPARZA OTEO"
CLAVE DE LA ESTACION                   : EO30
LOCALIZACION DE LA ESTACION            : Del. Benito Juárez, Col. Napoles,      
                                       : Pensylvania entre Georgia y Alabama.   
                                       :                                        
                                       :                                        
                                       : 
COORDENADAS DE LA ESTACION             : 19.3885 LAT. N
                                       : 99.1772 LONG. W
ALTITUD (msnm)                         : 2236
TIPO DE SUELO                          : Transición                          
                                       :                           
                                       : 
INSTITUCION RESPONSABLE                : CIRES
                                       : 

================================================================================
DATOS DEL ACELEROGRAFO:
MODELO DEL ACELEROGRAFO                : RADESD
NUMERO DE SERIE DEL ACELEROGRAFO       : 209
NUMERO DE CANALES                      : 3
ORIENTACION C1-C6 (rumbo;orientacion)  : /N00E/+V/N90W
ORIENTACION C7-C12 (rumbo;orientacion) : 
VEL. DE MUESTREO, C1-C6 (muestras/s)   : /100/100/100
VEL. DE MUESTREO, C7-C12 (muestras/s)  : 
ESC. COMPLETA DE SENSORES, C1-C6, (g)  : /0.5/0.5/0.5
ESC. COMPLETA DE SENSORES, C7-C12, (g) : 
FREC. NAT. DE SENSORES, C1-C6, (Hz)    : /30/33/30
FREC. NAT. DE SENSORES, C7-C12, (Hz)   : 
AMORTIGUAMIENTO DE SENSORES, C1-C6     : /0.733/0.790/0.733
AMORTIGUAMIENTO DE SENSORES, C7-C12    : 
INTERVALO DE MUESTREO, C1-C6, (s)      : /0.01/0.01/0.01
INTERVALO DE MUESTREO, C7-C12, (s)     : 
UMBRAL DE DISPARO, C1-C6, (Gal)        : /1.95/10.18/1.95
UMBRAL DE DISPARO, C7-C12, (Gal)       : 
MEMORIA DE PREEVENTO (s)               : 44.0
TIEMPO DE POSEVENTO (s)                : 150.0


================================================================================
DATOS DEL SISMO:
FECHA DEL SISMO (GMT)                  : 19/SEP/17
HORA EPICENTRO (GMT)                   : 18:14:40.0
MAGNITUD(ES)                           : /Mc=7.1
COORDENADAS DEL EPICENTRO              : 18.40 LAT. N
                                       : 98.72 LONG. W
PROFUNDIDAD FOCAL (km)                 : 57
FUENTE DE LOS DATOS EPICENTRALES       : SSN
                                       : INSTITUTO DE GEOFISICA, UNAM

================================================================================
DATOS DE ESTE REGISTRO:
HORA DE LA PRIMERA MUESTRA (GMT)       : 18:15:04.00
EXACTITUD DEL TIEMPO (s)               : 0.01
DURACION DEL REGISTRO (s), C1-C6       : /243.8/243.8/243.8
DURACION DEL REGISTRO (s), C7-C12      : 
NUM. TOTAL DE MUESTRAS, C1-C6          : /24380/24380/24380
NUM. TOTAL DE MUESTRAS, C7-C12         : 
ACEL. MAX. (Gal), C1-C6                : /67.50707/34.5288/82.13213
ACEL. MAX., C1-C6, EN LA MUESTRA       : /6966/6381/6152
ACEL. MAX. (Gal), C7-C12               : 
ACEL. MAX., C7-C12, EN LA MUESTRA      : 
UNIDADES DE LOS DATOS                  : Gal (cm/s/s)
FACTOR DE DECIMACION                   : 1
FORMATO DATOS (FORTRAN,10 campos/dato) : 3F10.5


================================================================================
CALIDAD DEL ACELEROGRAMA:
REGISTRO DIGITAL COMPLETO CON TIEMPO ABSOLUTO CORRECTO.


================================================================================
COMENTARIOS:














================================================================================
DATOS DE ACELERACION:
---------+---------+---------+---------+---------+---------+---------+---------+
   CANAL-1   CANAL-2   CANAL-3   CANAL-4   CANAL-5   CANAL-6   CANAL-7   CANAL-8
      N00E        +V      N90W
---------+---------+---------+---------+---------+---------+---------+---------+
[...]
  -7.40151  -5.11020  16.12699
  -6.68325  -6.23249  16.81532
  -5.74054  -7.81864  15.00470
  -3.88503 -10.33256  10.74003
  -1.13170 -12.81654   5.08373
   2.19026 -14.79176  -0.55761
   6.20054 -15.28556  -5.54054
   9.88163 -14.53737  -8.89242
  12.64992 -12.90632 -11.25669
  14.19119 -11.14060 -12.69322
  14.46054  -8.62669 -13.09724
  14.23608  -4.63136 -11.52604
  14.05652  -0.20209  -7.78510
  14.26601   3.47900  -3.72992
  14.38572   6.33707  -0.73717
  13.45797   8.55171   0.32526
  11.36304   9.50939   0.07087
   9.04366   9.00062  -1.48536
   7.57721   7.36957  -2.93684
   6.82902   5.82831  -3.96934
   6.49982   6.11262  -5.40586
   6.17062   7.98309  -7.20152
   6.05091  10.21269  -8.75775
   6.54471  11.61928  -9.41615
   7.62210  12.12805  -8.69789
   7.60714  11.46964  -7.08181
   6.36514   9.85356  -5.03177
   4.38993   7.23490  -3.35583
   2.23515   4.57135  -2.00909
   0.05044   2.58117  -1.44047
  -1.93974   1.02494  -1.42550
  -3.60072  -0.81560  -1.39558
  -4.90257  -2.77586  -0.48279
  -5.44126  -4.03281   1.44754
  -5.41133  -4.15252   4.08116
  -4.88760  -3.68865   6.23594
  -3.79525  -3.35944   8.28598
  -2.89742  -3.16491   9.94695
  -2.13427  -2.37184  11.56304
  -1.70032  -0.78568  12.13166
  -1.43097   1.89284  11.35355
  -1.23645   5.31954   9.40826
  -1.77514   8.52178   6.98413
  -3.30144  11.63424   4.53007
  -5.72557  12.69667   2.80924
  -7.83546  11.90359   1.23804
  -9.13731   8.97070   0.13073
  -9.58622   5.03523  -0.76710
  -9.67601  -0.06742  -0.67732
  -9.25702  -5.57408  -0.52768
  -8.67343 -10.90118  -0.87185
  -7.43144 -15.09103  -2.33829
  -5.35148 -17.50020  -4.91206
  -2.11931 -18.29328  -7.51575
   1.84609 -17.63487  -9.02709
   5.52717 -16.63230  -8.32380
   7.96627 -15.33045  -6.51318
   8.99877 -13.90889  -4.76242
   9.64221 -12.20303  -3.89452
  10.24076 -10.58694  -4.25366
  10.06119  -9.58437  -5.10659
   8.46007  -9.50955  -6.33362
   5.64688 -10.51212  -7.15662
   2.80377 -11.54462  -8.11431
   1.21761 -12.00850  -9.25155
   2.32493 -12.12821  -9.96981
   5.76659 -11.84390 -10.08952
   9.76192 -10.93111  -9.32637
  11.97655  -8.71647  -7.82999
  11.36304  -5.19999  -5.12155
   9.14840  -0.96524  -1.32076
   6.51478   3.26950   3.25815
   4.73409   7.29475   7.86699
   4.00087  11.21526  10.90463
   3.04319  14.14816  12.37108
   1.15776  15.71935  12.41597
  -1.65543  16.10841  12.04188
  -3.28648  16.09345  12.40101
  -2.59815  16.19819  13.79264
   0.20008  16.67703  15.36383
   2.48953  17.15587  15.88757
   2.96837  17.20076  14.67550
   0.94826  16.93142  12.25137
  -2.38866  16.87156   9.15387
  -6.00989  16.46754   5.87681
  -8.67343  15.16569   1.65703
 -10.31945  12.57696  -3.89452
 -11.57640   8.67142 -10.17930
 -12.81840   3.98776 -15.89546
 -13.85090  -0.78568 -20.32473
 -14.34470  -4.82589 -22.94339
 -14.03046  -7.86354 -23.78136
 -13.82097  -8.85114 -23.84122
 -13.83593  -7.57922 -22.71894
 -14.06039  -4.31712 -20.30977
 -13.98557  -0.78568 -16.37430
 -13.86586   1.47385 -12.30416
 -14.03046   1.39903  -9.96981
 -14.65894  -0.69589  -9.93988
 -15.79618  -3.37441 -12.57351
 -17.17285  -5.18502 -15.73086
 -18.54952  -5.87336 -18.08017
 -19.71669  -5.70875 -18.73858
 -19.89625  -4.97553 -17.63126
 -18.62434  -3.79339 -15.56626
 -16.33488  -2.73097 -12.57351
 -13.14760  -2.19227  -8.98220
  -9.09242  -2.01270  -5.12155
  -4.58833  -1.90796  -1.79960
  -0.20395  -1.21963   1.35776
   2.99830   0.32164   4.66475
   4.56949   2.43153   6.66989
   5.09323   4.90055   8.16627
   5.49725   7.02541   9.28855
   6.76917   8.91084  10.12652
   8.38525   9.95830  10.47069
   9.55243  10.03312   9.57286
  10.79442   9.06048   7.55275
  11.91670   7.35461   4.70964
  13.14373   5.81334   2.36033
  14.78974   5.05019   0.45993
  17.18394   5.12501  -1.35069
  20.08691   4.85566  -2.89195
  21.92746   4.09251  -4.98688
  22.03220   2.37168  -6.52815
  20.02706   0.08222  -7.36612
  17.07920  -2.40176  -7.38108
  14.38572  -4.49669  -6.60297
  12.09627  -6.53176  -5.67521
   9.80681  -8.23763  -4.49308
   7.60714  -9.89861  -2.53282
   5.90127 -12.12821  -0.15358
   5.46732 -14.44759   3.04866
   6.20054 -16.15346   6.17609
   7.53232 -16.18339   9.25862
   9.11848 -13.80415  11.62289
   9.76192  -9.89861  13.05942
   9.56739  -5.11020  13.76271
   7.98123  -0.18713  13.94228
   4.50964   4.52646  14.01710
  -1.08681   8.01301  13.80760
  -6.78800   9.79370  13.02949
 -11.09756  10.00319  11.54808
 -12.92314   9.21012   9.76739
 -11.92057   8.13272   8.60022
  -9.12235   6.54657   7.53779
  -6.23434   4.73595   6.37061
  -4.34891   2.88044   5.27826
  -3.75036   0.60595   4.00634
  -3.70547  -1.86307   2.43515
  -3.89999  -4.03281   0.31029
  -4.13941  -5.54415  -2.57771
  -4.18431  -6.08285  -4.95695
  -4.75293  -5.85839  -6.88728
  -5.42630  -5.34962  -8.62307
  -5.71061  -4.07770 -10.80778
  -5.02228  -1.71343 -13.56111
  -3.95985   0.27675 -16.47905
  -2.05945   1.68334 -19.33713
  -0.03934   1.36910 -21.98571
   2.84866   0.57603 -24.29013
   5.94616  -1.11488 -26.16060
   9.50753  -3.50908 -27.47741
  13.72731  -5.40948 -28.03107
  17.25876  -6.14270 -27.41756
  19.65296  -4.94560 -26.08578
  20.80517  -2.44665 -24.36495
  22.12198   0.00740 -22.40470
  24.32166   1.15961 -20.57912
  27.38923   0.98005 -18.91814
  30.93564  -0.41158 -17.37687
  34.04810  -2.74593 -16.44912
  36.20288  -5.84343 -16.13488
  37.13064  -8.82122 -16.16481
  36.75654 -11.23038 -15.94035
  35.72404 -12.36763 -14.47390
  35.70908 -11.78404 -10.71800
  37.07078  -9.91357  -5.30112
  39.18067  -6.77118   0.01102
  40.19821  -3.01528   4.57496
  39.21060   1.06983   7.53779
  36.57698   4.30200   9.66264
  34.04810   6.18744  10.48565
  32.26741   6.62138  10.06666
  31.11520   5.70860   8.06152
  29.18488   3.46403   4.57496
  25.27934   1.32421   0.48986
  19.09930  -0.47144  -3.28101
  12.18605  -1.65357  -5.00184
   6.52975  -2.17731  -5.16644
   3.10305  -2.23716  -4.58286
   1.74134  -2.14738  -3.40072
   0.97819  -2.37184  -2.45800
  -0.35358  -3.74850  -2.44304
  -2.26894  -5.75365  -3.96934
  -4.27409  -7.44455  -6.46829
  -6.09967  -8.26756  -9.71543
  -7.73072  -8.19274 -13.42644
  -9.01760  -7.13031 -17.67615
 -10.19974  -6.06788 -22.07549
 -11.06764  -5.43941 -25.38248
 -12.02532  -4.60144 -26.10075
 -12.99796  -3.23973 -24.00582
 -14.28484  -1.05502 -19.24734
 -16.21517   1.89284 -13.00745
 -18.99843   4.87062  -7.12670
 -22.12585   6.74109  -2.50290
 -25.19343   6.75606  -0.27329
 -28.12632   4.33193  -0.39300
 -31.44828   0.74063  -3.32590
 -34.93483  -2.64118  -7.48583
 -37.50860  -4.40691 -11.64575
 -38.33161  -4.54158 -15.44655
 -37.56846  -4.27223 -17.81082
 -36.07208  -4.60144 -17.93053
 -34.24650  -6.09781 -15.70093
 -32.36107  -8.29748 -10.86764
 -30.61031 -10.72161  -4.76242
 -28.87451 -13.02603   1.82163
 -27.66245 -15.09103   7.10384
 -27.22850 -16.75201  10.00681
 -27.48288 -17.32063  10.26119
 -27.39310 -17.26078   9.52797
 -25.64234 -16.16842   9.54293
 -22.06600 -14.82168  11.41340
 -16.81372 -12.77165  15.12441
 -11.47166  -9.53948  19.61354
  -7.79057  -5.27480  24.56655
  -5.86025  -0.06742  29.20531
  -5.96499   5.42428  32.46741
  -7.43144  10.36232  33.97875
  -9.52637  13.98355  34.63716
 -12.11510  15.86899  35.68462
 -15.09289  16.73689  37.12114
 -17.99586  16.69200  39.09636
 -20.03093  15.59964  41.87962
 -21.76672  12.83135  45.15668
 -22.79922   8.97070  49.40639
 -23.30799   4.21222  54.07508
 -23.12843  -0.18713  58.63903
 -22.18571  -3.70361  62.78399
 -20.83897  -6.15767  65.77674
 -20.52473  -7.35477  66.43515
 -21.75176  -7.56426  64.74424
 -24.62480  -7.74383  61.09309
 -27.33324  -8.50698  56.42439
 -28.63509  -9.61430  50.81298
 -27.40806 -10.40737  44.64791
 -23.90654 -10.28766  38.75219
 -18.72908  -9.01574  33.67948
 -12.57898  -7.05549  29.83379
  -7.44641  -5.11020  26.34723
  -3.03210  -3.28462  22.62126
   0.67892  -0.75575  18.47630
   3.92605   2.35671  14.16673
   6.97866   6.66628   9.18380
   8.99877  11.70906   3.49757
   9.88163  16.94638  -3.49050
  10.31558  21.22601 -10.97238
  11.87181  24.06913 -18.25973
  14.93938  24.66768 -25.62190
  19.20405  23.02167 -32.86436
  23.48369  18.98145 -39.31375
  26.67097  13.51968 -44.47624
  28.04763   7.86338 -48.33689
  27.58376   3.04505 -50.79095
  26.02753  -0.08238 -52.78113
  23.84282  -1.74336 -53.82859
  21.97235  -1.87803 -53.60414
  20.73035  -1.56379 -51.79352
  20.62561  -1.20466 -48.42668
  21.95738  -0.50137 -44.07222
  23.81289  -0.44151 -39.47835
  25.71329   0.14208 -35.85712
  26.50637   0.92019 -33.83701
  26.38666   2.05744 -33.08882
  25.00999   2.91037 -33.68737
  23.13952   3.71842 -34.07643
  21.20920   4.51149 -33.20853
  18.85988   5.67867 -30.18585
  16.03173   7.62396 -24.97846
  12.93424   9.70392 -18.09513
  10.31558  11.82877 -10.71800
   7.77174  13.37004  -3.38576
   4.71913  13.95363   3.43772
   1.14279  13.42990  10.41083
  -3.07699  11.63424  16.35144
  -7.10224   9.01559  21.22963
 -10.87311   6.00787  25.46437
 -13.41695   3.88302  29.44473
 -14.34470   3.65856  33.82912
 -13.82097   4.48157  38.78212
 -12.05524   5.22976  43.95958
 -10.21470   5.15494  48.91259
  -9.06249   4.87062  53.01266
  -9.42162   4.79581  55.60139
 -11.09756   5.18486  56.48425
 -13.79104   5.61881  55.73606
 -17.05314   4.88559  54.16487
 -21.21307   3.34432  51.30679
 -25.94161   1.39903  46.80270
 -29.92197  -1.12984  41.55042
 -32.30121  -4.28720  36.34303
 -32.31618  -8.01317  31.91375
 -29.90701 -11.81397  28.92100
 -25.77701 -14.89650  27.39470
 -20.97365 -16.45273  26.07789
 -15.10785 -15.95893  23.41434
  -8.68840 -13.84904  18.26680
  -2.13427 -11.40995  10.78492
   3.19283  -9.04567   1.92638
   5.24286  -6.95075  -7.94970
   4.27022  -4.87078 -17.21227
   2.30997  -2.41673 -25.89125
   1.44207   0.05229 -34.46549
   2.77384   1.57860 -43.00979
   6.58960   2.10233 -50.17744
  12.02145   1.84795 -55.01073
  18.18652   0.54610 -56.89616
  23.69318  -2.10249 -56.94106
  28.00274  -5.67883 -57.06077
  30.51665  -8.65661 -58.43743
  31.19002  -9.35991 -60.98127
  29.70861  -8.22267 -63.30065
  26.28191  -6.06788 -63.71964
  21.91249  -4.49669 -60.69696
  18.09673  -3.68865 -54.81620
  16.03173  -3.40433 -47.85805
  15.23865  -3.20981 -41.99226
  14.78974  -4.00289 -37.45824
  14.01163  -6.38212 -33.50781
  13.24847  -9.65919 -28.86904
  12.79956 -12.41252 -22.86857
  13.12876 -13.92386 -14.71332
  14.22112 -14.07350  -4.43322
  14.83463 -13.05596   6.58011
  13.95177 -10.46723  17.24927
  10.58493  -5.87336  27.60419
   5.25783  -0.50137  37.01640
  -0.72768   3.85309  45.90487
  -5.81536   6.42686  54.46414
 -10.40923   6.99548  61.81135
 -15.49691   5.63378  68.64979
 -20.21049   2.35671  74.60536
 -25.11861  -1.98278  79.13938
 -28.62013  -5.33466  81.53358
 -30.50556  -6.23249  82.13213
 -30.47563  -4.78100  81.93760
 -29.12889  -2.31198  81.30913
 -27.18361   0.66581  80.80036
 -26.03140   2.95526  81.45876
 -25.26824   4.25711  81.78797
 -24.53502   4.58631  80.60583
 -24.35546   3.98776  77.83753
 -26.04636   4.30200  73.73746
 -30.34096   6.03780  68.69468
 -35.05454   9.61414  62.12559
 -37.76298  12.99595  54.09005
 -36.76041  15.04598  45.38114
 -32.60049  15.97374  36.70216
 -26.70477  16.48250  28.56187
 -21.18314  16.84163  21.34934
 -15.52684  16.97631  15.46858
  -9.78075  16.57229  10.53054
  -3.67554  15.70439   6.08630
   2.38478  15.03102   1.16323
   7.11333  14.22298  -5.12155
   9.77688  14.05837 -11.88517
  10.46522  14.49232 -18.57397
   9.55243  15.64453 -23.63172
   8.04109  17.02120 -25.89125
   7.74181  17.96392 -25.06825
   8.90898  16.96134 -22.79375
  10.85427  13.84888 -20.66890
  12.21598   8.67142 -19.83093
  12.97913   2.86548 -20.47437
  13.69739  -2.17731 -21.67147
  15.53793  -5.15509 -22.53937
  17.43833  -6.09781 -23.46712
  17.88724  -5.75365 -24.91861
  16.28612  -5.55912 -27.11828
  12.42547  -6.48687 -28.94386
   6.42500  -8.68654 -29.67708
  -0.39847 -10.69169 -28.56977
  -6.51865 -12.63697 -24.94854
 -10.78332 -14.52241 -19.57655
 -13.70126 -16.24324 -13.38155
 -15.87100 -17.84436  -6.57304
 -17.39731 -19.92433   0.74424
 -17.62176 -22.49809   8.88453
 -15.97575 -24.69777  17.60840
 -12.81840 -24.51820  26.45198
  -9.45155 -21.15135  34.05357
  -6.59347 -15.21074  39.00658
  -4.46862  -7.95332  40.63763
  -3.88503  -0.80064  38.99161
  -5.29162   4.67610  35.56491
  -8.62854   7.77359  31.82397
 -12.42934   8.26740  29.62430
 -15.55676   7.29475  28.72647
 -17.62176   7.10023  27.93339
 -18.45973   9.44954  25.62897
 -18.14549  13.93866  22.27709
 -17.77140  18.96649  18.04235
 -16.96336  22.24355  14.27148
 -15.54180  23.60525  11.03931
 -13.16256  24.38337   8.12137
 -10.24463  26.13413   5.17351
  -8.28438  28.16920   2.30047
  -8.08985  29.96485  -1.42550
  -9.81068  29.71047  -5.55550
 -13.11767  27.01699 -10.49354
 -16.21517  22.19866 -16.28452
 -16.96336  15.97374 -22.15031
 -14.58412   9.88348 -27.25295
  -9.91543   4.87062 -31.45777
  -5.20184   1.41400 -35.36331
  -2.10434  -1.15977 -39.43346
  -0.24884  -3.49412 -43.15943
   0.12526  -6.41205 -45.94269
  -0.54811  -9.09056 -47.91791
  -1.83500 -10.36248 -49.66867
  -2.80764 -10.18292 -51.41943
  -2.43355  -8.88107 -53.09537
  -0.42840  -7.86354 -54.66656
   2.59428  -6.92082 -56.74653
   5.70674  -5.64890 -59.09584
   7.80167  -3.59886 -60.02359
   8.68453  -0.95028 -58.73671
   9.17833   1.45889 -54.95088
  10.56996   3.76331 -50.04276
  12.66489   6.35204 -45.59853
  14.43061   8.77617 -41.67802
  15.25362  10.70649 -38.34110
  14.22112  10.04809 -35.85712
  12.20101   7.14512 -34.52534
   9.68710   3.53885 -34.43556
   7.18815   0.50121 -34.64505
   4.97352  -2.34191 -33.64248
   2.99830  -4.90071 -31.81690
   1.80120  -7.69893 -29.04861
   1.75631 -10.99096 -25.18796
   3.82131 -14.14831 -21.34227
   8.56482 -16.93157 -17.22724
  14.75981 -18.57759 -12.97753
  20.93985 -18.35313  -9.43112
  25.60854 -15.70455  -8.21905
  27.04506 -10.94607 -10.46362
  25.80307  -5.82846 -14.50383
  22.00227  -2.52147 -19.48676
  16.76496  -1.80321 -23.22770
  10.43529  -3.92807 -24.00582
   3.52203  -8.40223 -22.10542
  -2.46347 -14.14831 -18.36448
  -6.89275 -19.69987 -13.50126
  -9.96032 -24.23389  -8.81760
 -12.05524 -27.12189  -4.64271
 -14.07535 -27.87008  -1.47040
 -15.60166 -27.06204   0.53475
 -15.93086 -24.78755   1.19315
 -14.74872 -21.74990  -0.76710
 -10.93296 -17.63487  -5.21134
  -6.80296 -12.51726  -9.58075
  -4.25913  -6.90585 -12.85782
  -3.88503  -1.98278 -15.64108
  -4.45365   1.81802 -17.61629
  -4.34891   5.45421 -18.27470
  -2.95728  10.70649 -16.65861
  -0.98206  17.66464 -12.69322
   0.79863  25.05674  -6.91720
   1.24754  29.91996  -1.17112
   0.02051  31.53605   3.72203
  -2.73282  30.17434   6.92427
  -6.11463  27.24145   7.40311
  -9.30191  23.90453   5.90674
 -11.33698  20.88185   2.83917
 -12.14503  18.06866  -0.58753
 -11.90561  15.98870  -4.23869
 -10.40923  14.04341  -7.39604
  -7.38655  12.42732 -10.44865
  -2.88246  10.03312 -12.55854
   2.26507   7.02541 -11.69064
   7.05348   4.12244  -7.45590
  10.15098   1.27932  -1.27587
  11.48275  -1.33934   4.67971
  10.68967  -3.50908   8.18123
   6.49982  -4.00289   8.73489
  -1.37112  -2.91053   6.83449
  -9.66104  -2.55140   3.42275
 -15.28742  -3.28462   0.08584
 -16.76883  -5.18502  -2.18866
 -13.34213  -7.51937  -3.71496
  -6.30916  -9.01574  -5.07666
   2.80377  -9.37488  -5.57047
  12.17108  -8.92596  -4.61279
  19.80260  -8.10296  -1.11127
