********************************************************************************
              CENTRO DE INSTRUMENTACION Y REGISTRO SISMICO  A.C.

    Anaxagoras 814, Col. Narvarte, Benito Juarez, C.P. 03020 Mexico, D.F.
           Tels. 5687 45 42/ 5687 45  82             Fax. 5669 25 12
********************************************************************************
ARCHIVO ESTANDAR DE ACELERACION:
VERSION DEL FORMATO                    : 2.0
NOMBRE DEL ARCHIVO                     : ES5720170919181440
FECHA Y HORA DE CREACION               : 25/SEP/17, 11:17
REF. CATALOGO ACELEROGRAMAS, SMIS 1996 : REGISTRO No.     /PAG.


================================================================================
DATOS DE LA ESTACION:
NOMBRE DE LA ESTACION                  : ESCANDÓN
CLAVE DE LA ESTACION                   : ES57
LOCALIZACION DE LA ESTACION            : Del. Miguel Hidalgo, Col. Escandón,    
                                       : Calle Comercio esq. con                
                                       : Calle José Martí.                      
                                       :                                        
                                       : 
COORDENADAS DE LA ESTACION             : 19.4017 LAT. N
                                       : 99.1775 LONG. W
ALTITUD (msnm)                         : 2242
TIPO DE SUELO                          : Terreno estratificado               
                                       : (arcillas, limos, arenas) 
                                       : 
INSTITUCION RESPONSABLE                : CIRES
                                       : 

================================================================================
DATOS DEL ACELEROGRAFO:
MODELO DEL ACELEROGRAFO                : RADESD
NUMERO DE SERIE DEL ACELEROGRAFO       : 180
NUMERO DE CANALES                      : 3
ORIENTACION C1-C6 (rumbo;orientacion)  : /S00E/+V/N90W
ORIENTACION C7-C12 (rumbo;orientacion) : 
VEL. DE MUESTREO, C1-C6 (muestras/s)   : /100/100/100
VEL. DE MUESTREO, C7-C12 (muestras/s)  : 
ESC. COMPLETA DE SENSORES, C1-C6, (g)  : /0.5/0.5/0.5
ESC. COMPLETA DE SENSORES, C7-C12, (g) : 
FREC. NAT. DE SENSORES, C1-C6, (Hz)    : /53.32/54.34/52.35
FREC. NAT. DE SENSORES, C7-C12, (Hz)   : 
AMORTIGUAMIENTO DE SENSORES, C1-C6     : /0.5865/0.5715/0.5715
AMORTIGUAMIENTO DE SENSORES, C7-C12    : 
INTERVALO DE MUESTREO, C1-C6, (s)      : /0.01/0.01/0.01
INTERVALO DE MUESTREO, C7-C12, (s)     : 
UMBRAL DE DISPARO, C1-C6, (Gal)        : /1.5/2.99/1.5
UMBRAL DE DISPARO, C7-C12, (Gal)       : 
MEMORIA DE PREEVENTO (s)               : 44.0
TIEMPO DE POSEVENTO (s)                : 112.0


================================================================================
DATOS DEL SISMO:
FECHA DEL SISMO (GMT)                  : 19/SEP/17
HORA EPICENTRO (GMT)                   : 18:14:40.0
MAGNITUD(ES)                           : /Mc=7.1
COORDENADAS DEL EPICENTRO              : 18.40 LAT. N
                                       : 98.72 LONG. W
PROFUNDIDAD FOCAL (km)                 : 57
FUENTE DE LOS DATOS EPICENTRALES       : SSN
                                       : INSTITUTO DE GEOFISICA, UNAM

================================================================================
DATOS DE ESTE REGISTRO:
HORA DE LA PRIMERA MUESTRA (GMT)       : 18:15:00.00
EXACTITUD DEL TIEMPO (s)               : 0.01
DURACION DEL REGISTRO (s), C1-C6       : /282.2/282.2/282.2
DURACION DEL REGISTRO (s), C7-C12      : 
NUM. TOTAL DE MUESTRAS, C1-C6          : /28220/28220/28220
NUM. TOTAL DE MUESTRAS, C7-C12         : 
ACEL. MAX. (Gal), C1-C6                : /70.49698/28.19031/83.91052
ACEL. MAX., C1-C6, EN LA MUESTRA       : /7226/6644/6607
ACEL. MAX. (Gal), C7-C12               : 
ACEL. MAX., C7-C12, EN LA MUESTRA      : 
UNIDADES DE LOS DATOS                  : Gal (cm/s/s)
FACTOR DE DECIMACION                   : 1
FORMATO DATOS (FORTRAN,10 campos/dato) : 3F10.5


================================================================================
CALIDAD DEL ACELEROGRAMA:
REGISTRO DIGITAL COMPLETO CON TIEMPO ABSOLUTO CORRECTO.


================================================================================
COMENTARIOS:














================================================================================
DATOS DE ACELERACION:
---------+---------+---------+---------+---------+---------+---------+---------+
   CANAL-1   CANAL-2   CANAL-3   CANAL-4   CANAL-5   CANAL-6   CANAL-7   CANAL-8
      S00E        +V      N90W
---------+---------+---------+---------+---------+---------+---------+---------+
[...]
  12.43759  -5.80453  21.32960
  13.88907  -5.35561  23.58913
  13.47009  -5.81949  24.87602
  11.73429  -6.28337  25.13040
   9.04082  -6.35819  24.68149
   6.58676  -5.83445  23.69388
   5.15024  -4.90670  22.27232
   4.65643  -3.69464  20.35696
   5.15024  -1.68949  18.32189
   6.66158   0.71967  16.39156
   8.93607   2.56022  14.67073
  11.24049   3.27848  13.51852
  12.66205   3.06898  13.26414
  12.42263   2.41058  13.83276
  10.71676   1.84196  14.35649
   8.05321   0.73464  14.85030
   5.15024  -1.48000  14.74555
   2.59143  -4.12859  13.95247
   0.28702  -7.00163  12.32142
  -1.28418  -8.73742   9.71773
  -1.59842  -9.51554   6.33592
  -0.47614  -9.12648   2.34059
   1.60383  -7.86953  -2.08868
   4.11774  -5.93920  -6.21868
   5.83857  -4.96656  -9.33114
   6.36230  -5.34065 -11.20161
   5.29988  -7.18119 -11.00708
   3.01042  -8.69253  -9.48078
  -0.35643  -9.53050  -7.67016
  -4.53132  -9.75496  -7.14643
  -8.72117  -9.14144  -8.02929
 -11.86356  -7.22608  -9.80998
 -13.34497  -3.54500 -12.00965
 -12.59678   1.36311 -14.41882
 -10.36718   6.28619 -16.81302
  -7.14997  10.47604 -19.26708
  -3.69334  13.22938 -21.12258
  -0.73052  14.38159 -21.94559
   1.66368  14.81554 -21.87077
   2.93560  14.86043 -21.46675
   3.10020  14.60604 -21.12258
   1.90310  13.69325 -20.67367
  -0.38635  12.04724 -20.41929
  -3.10976  10.10195 -20.38936
  -5.90798   8.12673 -20.58389
  -8.03284   7.06431 -20.65871
  -8.99052   6.64532 -20.26965
  -8.57153   6.46576 -19.38679
  -6.74595   5.64275 -18.15976
  -4.15722   3.80221 -16.49878
  -1.55353   0.89924 -14.55349
   0.39176  -3.08112 -12.51842
   0.72096  -7.04652 -10.66292
  -0.32650 -10.02431  -9.34610
  -2.34661 -10.38344  -8.32857
  -4.74081  -8.30347  -7.83476
  -6.64121  -4.98152  -7.47563
  -7.74852  -1.59971  -7.31103
  -8.19744   1.42297  -7.13147
  -7.98794   4.40076  -6.74241
  -7.22479   7.10920  -5.91940
  -6.05762   8.36615  -4.64748
  -5.04008   8.45594  -3.07629
  -4.50139   7.81250  -1.11604
  -4.90541   6.78000   0.39530
  -6.26711   5.89713   1.32306
  -8.03284   4.98434   1.38291
  -9.69381   3.21862   0.51501
 -11.25004   0.73464  -1.19085
 -12.70153  -1.25554  -3.30075
 -13.74899  -2.70703  -4.60259
 -14.43732  -3.32054  -4.58763
 -14.82638  -3.57493  -3.09125
 -15.27530  -4.26326  -0.39778
 -15.94866  -5.44540   2.44534
 -17.19066  -6.77717   5.00414
 -19.12098  -7.73485   7.03921
 -21.45533  -7.52536   8.01186
 -24.07399  -6.56768   7.44323
 -26.76746  -5.01145   5.64758
 -29.14670  -2.76688   3.28331
 -31.09199   0.27076   0.82925
 -32.46866   3.86206  -0.56238
 -33.14202   6.86978  -0.80180
 -33.17195   8.66543   0.64969
 -32.75297   9.42858   3.16360
 -32.00478   9.60815   6.03664
 -31.18177   9.74282   8.68523
 -30.34380  10.43115  10.04693
 -29.95474  10.88007  10.39110
 -30.16424  11.11949   9.44838
 -31.15184  11.19431   7.78740
 -32.28909  11.22423   5.16874
 -33.23181  10.96985   1.96650
 -33.24677  10.17677  -1.69962
 -32.24420   9.42858  -5.42560
 -30.49344   9.72786  -8.20886
 -28.02442  10.74539  -9.72020
 -25.16634  11.26912  -9.72020
 -22.54768  10.65561  -8.53806
 -20.33305   9.17420  -6.30846
 -18.52243   7.48329  -4.10879
 -16.86145   6.33108  -2.64234
 -15.09573   5.37340  -2.17846
 -12.86613   4.16134  -2.40292
 -10.63653   2.29087  -2.49270
  -8.75110  -0.25297  -3.01643
  -7.26968  -2.72199  -3.91426
  -5.99776  -5.10123  -5.29093
  -4.56124  -6.86695  -6.93694
  -2.61595  -8.00420  -8.64281
  -0.20679  -8.51297 -10.43846
   3.14509  -7.94434 -12.35382
   7.08056  -6.73228 -14.10458
  11.33027  -4.86181 -14.76299
  15.77451  -2.81177 -14.31407
  20.14393  -0.58217 -13.04215
  24.15421   1.82699 -10.94723
  27.61084   4.46061  -8.05922
  30.48388   7.81250  -4.94676
  32.72845  11.25416  -1.92408
  34.73359  14.80057   0.67962
  36.73874  17.79332   2.44534
  38.68402  19.36452   3.05885
  40.31507  19.21488   2.60994
  41.82641  17.76340   1.09860
  43.29286  15.48890  -1.01129
  44.66953  12.98996  -3.09125
  46.01627  10.95489  -4.82705
  47.16848   8.72528  -5.48545
  47.94659   5.56793  -5.82962
  48.02141   1.84196  -5.11136
  47.63235  -2.36286  -3.74966
  46.46518  -6.05891  -1.99890
  44.62464  -7.95931   0.26063
  42.52971  -8.39326   2.08621
  40.61435  -7.86953   3.35813
  39.25265  -6.95674   4.31581
  38.33986  -5.25087   5.46802
  38.17526  -2.90156   6.68008
  39.01323  -0.31283   7.93704
  40.44975   0.83938   9.53816
  42.48482   0.33062  10.91483
  44.60967  -1.28547  12.50099
  46.61482  -2.72199  13.78787
  47.87177  -3.35047  14.92511
  47.93163  -3.44025  15.59848
  47.16848  -3.96398  16.13718
  45.26808  -5.25087  16.43645
  42.61949  -7.07645  16.72077
  39.52200  -8.73742  17.12479
  36.52924  -9.90460  17.54377
  34.00037 -11.11666  18.42663
  32.04012 -12.02945  20.07265
  30.51381 -12.82253  22.09276
  29.27182 -13.15173  24.39718
  27.88019 -11.98456  27.24029
  26.26410  -9.87467  29.64946
  24.43852  -7.06148  31.98380
  21.95454  -4.69721  33.70463
  18.57273  -2.76688  35.05137
  14.56244  -0.62707  36.05394
   9.86382   1.55764  36.45797
   4.73125   3.27848  36.05394
  -0.64074   4.41572  35.32072
  -5.96784   4.11645  34.34808
 -10.90588   1.97663  33.65974
 -15.30522  -1.18072  33.68967
 -19.22573  -4.78699  34.67728
 -22.98163  -7.64507  36.30833
 -26.52804  -9.33597  37.98427
 -29.86496 -10.23380  39.37590
 -33.38145 -11.01192  39.64525
 -37.15231 -12.50829  38.64268
 -41.01296 -14.43862  36.50286
 -45.09807 -16.08463  33.37543
 -48.77915 -16.44376  29.64946
 -51.60731 -15.30651  25.39975
 -53.41792 -12.88239  20.17739
 -54.27085 -10.03927  13.51852
 -54.43546  -7.31587   5.88700
 -53.98654  -4.48772  -2.59745
 -53.16354  -2.06359 -10.99212
 -52.55002   0.37551 -18.93787
 -52.08615   2.57518 -25.95588
 -52.13104   3.98177 -31.88153
 -51.92154   4.26608 -36.16116
 -50.99379   3.30840 -38.57033
 -49.18318   1.93174 -38.98931
 -46.38495   0.15105 -38.15134
 -42.58416  -1.61467 -36.38562
 -37.84065  -2.75192 -34.75457
 -32.28909  -3.15594 -33.37790
 -26.75250  -3.15594 -33.49761
 -21.41044  -3.99391 -35.20348
 -16.92131  -6.02898 -38.22616
 -13.37490  -9.02173 -41.48826
 -10.95077 -11.65536 -44.34634
  -9.00548 -13.16670 -46.20185
  -7.10508 -13.34626 -46.96500
  -4.59117 -12.65793 -46.63580
  -1.01483 -11.22141 -45.55840
   3.42941  -9.53050 -43.95728
   8.30759  -7.67500 -42.08681
  13.21570  -5.32569 -39.85721
  17.34570  -3.33551 -36.61008
  20.48809  -0.76174 -32.24066
  22.10418   2.81460 -26.91356
  22.52316   7.45337 -21.46675
  21.93958  12.82536 -16.72324
  21.10161  17.71850 -12.81770
  20.15889  21.08535  -9.55560
  19.27603  21.84850  -6.54788
  18.85704  20.35213  -3.77959
  19.08150  17.14988  -0.95143
  19.78480  13.48376   1.75701
  20.71255  10.19173   4.33077
  21.32606   7.64789   6.51548
  21.43081   6.28619   8.93961
  20.87715   6.10663  11.04950
  19.96436   6.03181  12.86012
  19.39574   5.77742  14.44627
  19.45559   4.70003  16.03243
  20.38335   2.69489  18.03758
  21.98447  -0.04348  20.40185
  23.79508  -2.10848  23.33475
  24.82758  -2.01870  26.26765
  24.31881   0.27076  28.63192
  22.20892   3.62264  30.86152
  18.87201   7.01942  32.89659
  14.75697   9.63807  34.39297
  10.25288  10.37130  34.87181
   6.16777   9.08442  34.04880
   3.50422   5.86721  32.05862
   2.93560   1.58757  29.41003
   4.01299  -2.34790  26.58188
   6.30245  -4.65232  24.14279
   8.53205  -5.20598  22.22743
  10.59705  -4.18844  20.94055
  11.86897  -1.85409  20.34200
  11.80911   0.49522  20.20732
  10.31274   3.12884  20.56645
   7.91853   5.10405  21.86830
   5.86850   6.13655  23.64899
   4.82104   6.33108  25.41471
   5.24002   6.27123  26.43225
   7.30502   6.86978  25.63917
  10.47734   7.93221  23.18511
  14.00878   9.63807  19.65366
  16.46284  11.74796  15.97258
  17.31578  13.31916  13.21925
  16.65737  13.25930  11.52834
  14.60733  11.79286  11.33381
  11.42005   8.91981  12.24660
   7.84371   4.67011  13.90758
   4.46190  -0.64203  16.03243
   2.23230  -6.53775  18.45656
   2.53158 -12.37362  20.49163
   5.77872 -17.64086  21.61392
  11.36020 -21.23216  21.74859
  17.76469 -23.19242  21.43435
  23.16661 -23.52162  20.77595
  26.45863 -22.50408  19.60877
  27.49113 -20.63361  18.68102
  26.48856 -18.67336  18.48649
  23.92976 -17.41640  19.08504
  21.10161 -16.27916  19.45913
  18.75230 -14.73789  19.54892
  16.83693 -11.76010  19.18979
  15.89422  -6.88192  18.02261
  16.04386  -1.04605  15.86783
  16.62744   4.16134  13.03968
  16.53766   7.84242  10.63052
  14.47266   9.45851   9.13414
   9.81893   8.91981   9.43341
   2.60640   6.64532  11.10936
  -5.87805   3.80221  13.65320
 -14.51214   1.55764  16.45142
 -21.73964   0.34558  18.42663
 -27.08170  -0.92634  18.53138
 -29.59561  -2.33293  16.69084
 -29.19159  -3.87420  13.33896
 -26.66272  -5.44540   9.26881
 -23.07141  -7.09141   4.89940
 -19.56989  -8.69253   1.08364
 -16.95124  -9.51554  -1.37042
 -16.00852  -8.94692  -1.28064
 -17.11584  -7.34579   1.33802
 -20.15348  -4.78699   5.91693
 -23.61011  -2.73696  11.06446
 -27.06674  -1.94388  15.59848
 -30.19416  -2.54243  17.88794
 -32.70808  -4.26326  18.23211
 -33.57597  -6.04395  17.12479
 -32.40880  -6.76221  15.20943
 -29.49087  -5.34065  12.94990
 -25.67511  -0.58217  10.97468
 -21.78453   6.19641  10.03197
 -18.52243  12.60090  10.63052
 -16.14319  17.16485  12.97983
 -14.42236  19.02035  16.55616
 -13.67417  18.52655  20.14747
 -13.44972  16.94039  23.31978
 -13.44972  15.14474  25.66909
 -13.74899  13.34909  26.83627
 -13.94352  11.05963  26.85123
 -13.67417   7.87235  25.98333
 -12.65664   4.07156  24.68149
 -10.99566   0.36054  23.33475
  -8.43686  -2.87163  22.82598
  -5.26454  -6.73228  22.78109
  -1.79295 -11.07177  22.37707
   1.51404 -15.57586  21.52413
   4.20752 -18.82300  20.02776
   5.76375 -20.55879  17.43903
   7.00574 -20.79821  14.23678
   8.48716 -20.70843  11.19914
  10.07332 -20.07995   9.02939
  11.83904 -18.43394   7.32352
  13.11096 -16.09959   5.40816
  13.82922 -12.70282   2.92418
  14.20331  -9.33597  -0.32296
  14.66719  -6.25344  -3.80951
  15.35552  -3.06616  -8.26871
  16.01393   0.45033 -13.83523
  16.56759   3.26351 -20.44921
  16.98657   4.80478 -26.71903
  17.16614   5.52304 -32.68957
  17.76469   5.59786 -38.04660
  18.73733   4.93945 -43.22406
  20.23371   4.28105 -48.35663
  22.02936   4.53543 -52.86072
  23.73523   5.82232 -56.88597
  25.15679   8.15666 -60.64187
  25.84512  10.10195 -63.78426
  25.83015  10.76036 -66.29818
  25.75534   9.87749 -68.49785
  25.50095   7.81250 -70.81723
  24.63305   4.99931 -73.30122
  22.92719   1.72225 -75.18665
  20.32349  -1.62964 -76.60821
  16.85190  -4.03880 -77.59582
  12.25802  -4.81692 -78.47868
   6.96085  -4.47275 -79.76556
   1.67865  -3.27565 -81.54625
  -3.00501  -1.58475 -83.23715
  -6.17733  -0.14823 -83.91052
  -7.04523   0.70471 -83.23715
  -5.36929   0.95909 -81.02252
  -1.76302   0.65982 -77.19179
   2.53158   0.91420 -71.98441
   6.58676   1.97663 -65.57992
   9.20542   3.08395 -58.89111
   9.53462   3.92192 -52.54648
   7.51451   3.96681 -46.35148
   3.98306   3.45804 -41.12913
  -0.16190   2.62007 -36.72979
  -3.79809   2.63503 -33.61732
  -6.40179   4.01170 -31.58225
  -7.59889   6.58547 -30.56472
  -7.46421  10.11691 -29.95120
  -6.82077  13.79800 -28.94863
  -5.78827  16.82068 -26.94349
  -4.90541  18.63129 -23.65146
  -4.42657  19.72365 -19.22219
  -4.71088  19.94811 -13.88012
  -5.47403  19.12510  -8.56799
  -6.59631  16.94039  -3.83944
  -7.44925  13.90275  -0.06857
  -7.32954  11.10452   2.69972
  -6.13244   8.83003   4.28588
  -3.72327   6.24130   5.19867
  -0.43124   2.54525   5.70744
   3.20495  -2.57235   6.03664
   6.82618  -8.57282   6.73994
   9.37002 -14.09445   7.69762
  10.25288 -17.86532   9.14910
   9.07074 -20.67850  10.92979
   6.04806 -23.26723  13.48859
   1.91807 -25.25741  17.04997
  -2.78056 -26.81365  21.34457
  -6.97041 -27.65162  25.69902
  -9.96316 -28.14542  29.26040
 -11.53435 -28.19031  32.14840
 -10.99566 -27.00817  34.66231
  -8.64635 -24.19499  36.68242
  -5.17476 -20.05003  37.77478
  -1.52360 -15.08206  37.77478
   1.31952 -10.29365  36.80213
   3.27977  -6.40308  35.00648
   3.69875  -3.87420  32.47761
   3.18999  -2.42272  29.72427
   1.85821  -2.09351  27.61438
   0.28702  -2.12344  26.95598
  -1.17943  -1.31540  27.91366
  -2.37653   0.82442  30.20311
  -3.57363   4.25112  33.54003
  -4.87548   7.84242  37.44557
  -6.10251  10.43115  41.82996
  -6.55142  11.34394  46.45376
  -5.62367  10.95489  50.65857
  -3.51378  10.28152  53.84586
  -0.34146   9.74282  56.06049
   3.71372   9.47347  57.03314
   7.75393   9.24902  57.06306
  11.13574   9.05449  56.12035
  13.79929   8.80010  55.07288
  15.17596   8.15666  54.65390
  15.44531   7.36358  54.53419
  14.51755   6.04677  53.95060
  11.97371   3.75732  52.13999
   7.72400   0.70471  49.17716
   2.39691  -2.78185  45.10702
  -2.96012  -6.08884  40.45329
  -7.83831  -8.43815  36.27840
 -11.65407  -9.81481  32.64221
 -14.03330 -10.29365  29.63449
 -15.09573 -10.20387  26.80634
 -15.18551  -9.45568  23.85848
 -14.94609  -7.89945  21.28471
 -14.46725  -5.38554  18.71095
 -14.27272  -1.89898  15.53863
 -14.64682   1.88685  11.30388
 -15.90377   5.74750   5.19867
 -18.23812   9.36873  -2.58248
 -21.66482  12.21184 -11.36621
 -26.03424  13.90275 -19.86563
 -30.49344  14.24691 -27.01831
 -33.95007  12.61586 -32.15088
 -35.46141   9.35376 -35.30823
 -35.01249   5.05916 -37.14877
 -33.60590   0.36054 -38.98931
 -32.09456  -4.77203 -40.71015
 -30.95732  -9.05166 -41.84739
 -30.05949 -11.25134 -42.31127
 -29.07188 -10.98199 -42.11674
 -28.44340  -9.18634 -42.29630
 -27.72514  -7.63011 -43.68793
 -26.52804  -7.43558 -46.11206
 -24.43312  -8.21369 -48.40152
 -21.63489  -9.06663 -49.98768
 -17.87899  -8.90202 -50.61616
 -13.44972  -8.12391 -50.07746
  -8.31715  -6.68739 -48.16210
  -3.39407  -4.23333 -45.16935
   0.78082  -0.62707 -41.33862
   3.60897   3.59272 -36.93928
   5.16520   7.60300 -33.00381
   5.92835  10.40123 -29.83149
   5.98821  11.76293 -27.87124
   5.31484  11.83775 -27.24276
   4.26738  11.67315 -27.43729
   3.35459  11.41876 -27.78146
   2.80093  11.56840 -27.09312
   3.02538  12.01731 -24.77374
   3.66883  12.93010 -20.82331
   5.18017  14.08231 -16.25936
   7.73897  15.33927 -11.33628
  11.16567  16.25206  -6.68256
  14.92157  15.86300  -3.40549
  18.46798  13.27427  -2.34306
  21.26621   8.26141  -3.39053
  23.55566   1.40801  -6.42817
  25.08197  -5.83445 -10.45342
  25.30642 -11.98456 -14.08962
  23.81005 -15.62075 -16.54367
  20.14393 -16.00981 -16.40900
  14.92157 -13.95978 -14.13451
   8.80140 -11.26630 -10.42350
   2.92064  -9.35094  -6.24861
  -1.89769  -8.49800  -2.14854
  -5.48900  -8.75239   1.26320
  -7.74852  -9.69510   2.77454
  -8.76606 -10.75753   1.71211
  -8.09269 -11.34112  -1.17589
  -6.28208 -10.68271  -5.26100
  -4.03751  -8.36333  -9.40596
  -2.75063  -4.86181 -12.20418
  -2.72070  -1.58475 -13.59581
  -3.69334   0.36054 -13.08704
  -6.11747   0.55507 -11.17168
  -9.11023  -0.62707  -8.49317
 -12.29751  -2.67710  -5.75480
 -14.99098  -4.63735  -3.28578
 -17.22058  -6.37315  -2.70219
 -19.34544  -6.88192  -4.00404
 -22.23344  -6.17862  -6.86212
 -26.18388  -5.23590 -10.40853
 -30.89746  -4.59246 -14.26918
 -36.00010  -4.68224 -17.77070
 -41.01296  -5.68482 -19.61124
 -44.94843  -7.12134 -19.04262
 -46.63934  -8.70750 -14.74802
 -44.94843 -10.15898  -8.25375
 -39.26220 -11.05681  -0.75691
 -30.73286 -11.02688   6.59030
