********************************************************************************
              CENTRO DE INSTRUMENTACION Y REGISTRO SISMICO  A.C.

    Anaxagoras 814, Col. Narvarte, Benito Juarez, C.P. 03020 Mexico, D.F.
           Tels. 5687 45 42/ 5687 45  82             Fax. 5669 25 12
********************************************************************************
ARCHIVO ESTANDAR DE ACELERACION:
VERSION DEL FORMATO                    : 2.0
NOMBRE DEL ARCHIVO                     : FJ7420170919181440
FECHA Y HORA DE CREACION               : 25/SEP/17, 11:17
REF. CATALOGO ACELEROGRAMAS, SMIS 1996 : REGISTRO No.     /PAG.


================================================================================
DATOS DE LA ESTACION:
NOMBRE DE LA ESTACION                  : FUNDACIÓN JAVIER BARROS SIERRA
CLAVE DE LA ESTACION                   : FJ74
LOCALIZACION DE LA ESTACION            : Del. Tlalpan, Col. Jardines en la      
                                       : Montaña, Carretera al Ajusco, No.203   
                                       :                                        
                                       :                                        
                                       : 
COORDENADAS DE LA ESTACION             : 19.2990 LAT. N
                                       : 99.2100 LONG. W
ALTITUD (msnm)                         : 2240
TIPO DE SUELO                          : Arenoso, limoso, compacto           
                                       :                           
                                       : 
INSTITUCION RESPONSABLE                : CIRES
                                       : 

================================================================================
DATOS DEL ACELEROGRAFO:
MODELO DEL ACELEROGRAFO                : RADESD
NUMERO DE SERIE DEL ACELEROGRAFO       : 240
NUMERO DE CANALES                      : 3
ORIENTACION C1-C6 (rumbo;orientacion)  : /N00E/+V/N90W
ORIENTACION C7-C12 (rumbo;orientacion) : 
VEL. DE MUESTREO, C1-C6 (muestras/s)   : /100/100/100
VEL. DE MUESTREO, C7-C12 (muestras/s)  : 
ESC. COMPLETA DE SENSORES, C1-C6, (g)  : /0.5/0.5/0.5
ESC. COMPLETA DE SENSORES, C7-C12, (g) : 
FREC. NAT. DE SENSORES, C1-C6, (Hz)    : /30/30/30
FREC. NAT. DE SENSORES, C7-C12, (Hz)   : 
AMORTIGUAMIENTO DE SENSORES, C1-C6     : /0.700/0.700/0.700
AMORTIGUAMIENTO DE SENSORES, C7-C12    : 
INTERVALO DE MUESTREO, C1-C6, (s)      : /0.01/0.01/0.01
INTERVALO DE MUESTREO, C7-C12, (s)     : 
UMBRAL DE DISPARO, C1-C6, (Gal)        : /2.09/4.04/2.09
UMBRAL DE DISPARO, C7-C12, (Gal)       : 
MEMORIA DE PREEVENTO (s)               : 44.0
TIEMPO DE POSEVENTO (s)                : 168.0


================================================================================
DATOS DEL SISMO:
FECHA DEL SISMO (GMT)                  : 19/SEP/17
HORA EPICENTRO (GMT)                   : 18:14:40.0
MAGNITUD(ES)                           : /Mc=7.1
COORDENADAS DEL EPICENTRO              : 18.40 LAT. N
                                       : 98.72 LONG. W
PROFUNDIDAD FOCAL (km)                 : 57
FUENTE DE LOS DATOS EPICENTRALES       : SSN
                                       : INSTITUTO DE GEOFISICA, UNAM

================================================================================
DATOS DE ESTE REGISTRO:
HORA DE LA PRIMERA MUESTRA (GMT)       : 18:15:01.00
EXACTITUD DEL TIEMPO (s)               : 0.01
DURACION DEL REGISTRO (s), C1-C6       : /226.0/226.0/226.0
DURACION DEL REGISTRO (s), C7-C12      : 
NUM. TOTAL DE MUESTRAS, C1-C6          : /22600/22600/22600
NUM. TOTAL DE MUESTRAS, C7-C12         : 
ACEL. MAX. (Gal), C1-C6                : /92.16382/50.05177/91.05649
ACEL. MAX., C1-C6, EN LA MUESTRA       : /6231/6613/6486
ACEL. MAX. (Gal), C7-C12               : 
ACEL. MAX., C7-C12, EN LA MUESTRA      : 
UNIDADES DE LOS DATOS                  : Gal (cm/s/s)
FACTOR DE DECIMACION                   : 1
FORMATO DATOS (FORTRAN,10 campos/dato) : 3F10.5


================================================================================
CALIDAD DEL ACELEROGRAMA:
REGISTRO DIGITAL COMPLETO CON TIEMPO ABSOLUTO CORRECTO.


================================================================================
COMENTARIOS:














================================================================================
DATOS DE ACELERACION:
---------+---------+---------+---------+---------+---------+---------+---------+
   CANAL-1   CANAL-2   CANAL-3   CANAL-4   CANAL-5   CANAL-6   CANAL-7   CANAL-8
      N00E        +V      N90W
---------+---------+---------+---------+---------+---------+---------+---------+
[...]
   8.35180 -11.50513  -9.72845
   5.97256 -10.48759  -8.95033
   2.18673  -8.99121  -8.71091
  -2.39218  -7.18060  -9.24961
  -5.53457  -4.77143 -10.14743
  -6.46233  -2.57176  -9.68356
  -5.80392  -2.03307  -7.40907
  -3.73892  -3.18528  -3.26410
  -0.20747  -4.29259   1.86847
   5.05977  -4.09806   6.62694
  11.82339  -2.70644  11.19089
  18.81147  -1.73379  16.65266
  24.31813  -2.24256  22.57831
  28.47806  -3.29002  27.39664
  30.90218  -3.72397  31.16751
  30.31860  -3.76886  33.50186
  27.04153  -2.15278  32.49928
  21.57976   1.18414  26.87291
  14.33730   3.81776  18.31364
   8.98028   4.85026   9.76933
   5.61343   6.31671   2.82615
   1.72285   6.87037  -1.81262
  -1.59910   6.55613  -4.32653
  -3.31994   6.27182  -6.66088
  -4.90609   7.22950 -10.02772
  -7.15066   8.53135 -12.12265
  -8.70689   8.59120 -11.74856
 -11.02627   6.24189 -10.52153
 -13.73471   3.63820  -9.96787
 -15.17123   1.49838  -9.35435
 -18.26873  -0.86589  -8.30689
 -23.73050  -3.17031  -7.07986
 -28.21963  -3.96339  -4.73055
 -30.98793  -3.02067  -2.48599
 -31.73612  -2.01810  -1.07939
 -30.12003  -2.40716   0.44691
 -26.84297  -3.52944   2.12285
 -24.02978  -3.29002   2.48198
 -22.12938  -1.55423   1.70386
 -21.35127   0.89983   1.32977
 -21.20163   2.29146   1.25495
 -20.79761   1.57320   1.89839
 -19.49576  -1.58415   3.03564
 -16.23366  -5.35502   3.54441
 -10.77189  -8.12332   3.37981
  -3.82870  -9.90400   2.99075
   2.20169 -10.86168   2.72140
   6.57111  -9.85911   2.09292
   7.97770  -6.77658   0.02792
   7.93281  -3.14038  -2.81519
   7.21455  -0.46187  -5.01486
   6.07731   0.70530  -6.88533
   4.89517   0.91479  -8.20214
   3.98238   0.97465  -9.41421
   2.51593   1.36371 -10.10254
   0.45093   1.76773  -9.78830
  -1.32976   2.27650  -8.26200
  -1.41954   3.24914  -6.04736
   0.54071   4.22179  -3.54842
   2.78528   3.63820  -1.40860
   4.05720   1.84255   0.20749
   3.14441  -1.12028   0.49180
  -0.14762  -5.11560  -0.06186
  -4.93602  -9.48502  -1.09436
  -9.48500 -12.11864  -2.72541
 -13.27084 -11.05621  -6.16707
 -17.19134  -7.61455 -11.16497
 -20.13920  -3.33491 -16.68660
 -21.62061   0.28632 -20.93630
 -20.75272   2.62066 -22.02866
 -18.01435   4.43128 -19.76913
 -14.57268   5.89773 -15.50446
 -12.64236   6.06233 -11.47921
 -11.99892   4.10208  -8.15725
 -12.19345   0.70530  -5.11961
 -11.78942  -1.15020  -3.09950
 -10.90656  -0.67136  -2.21664
  -9.11091   0.54070  -0.81005
  -6.52218   0.82501   2.73636
  -4.36740   0.57063   7.40506
  -3.26008   1.42356  10.95147
  -1.58414   3.08454  12.01390
   1.22905   4.32653  12.77705
   3.66814   4.61084  14.54277
   3.47361   5.20939  16.80230
   1.93234   7.82805  18.32860
  -0.02791  11.55403  18.97204
  -2.16773  14.50189  18.71766
  -4.33747  15.20519  17.67020
  -5.63932  13.14019  14.94679
  -5.02580   8.35178  12.32813
  -1.71881   3.00972  10.41277
   3.87763   0.64545   8.03354
   8.77078   2.09693   4.93604
   8.99524   2.96483   3.29002
   6.45140   2.89001   3.06557
   6.00249   3.81776   2.60169
   7.60361   3.62324   2.16774
   9.45912   2.15679   2.18270
  11.64383   1.87248   1.06042
  13.08035   2.99476  -1.70787
  11.91317   4.01229  -4.85026
   9.12991   4.23675  -7.37914
   6.61600   4.14697  -9.02515
   6.09227   4.17689  -9.01019
   7.99267   4.25171  -6.97512
  12.21245   3.99733  -2.71044
  16.97092   3.05461   2.67651
  20.96625   2.15679   6.50723
  23.64476   1.07940   7.97368
  24.69222  -1.68890   9.66458
  24.00389  -5.95357  12.32813
  22.56737  -9.36531  14.90190
  21.50494 -10.53248  15.97929
  20.78668 -10.00875  15.78476
  18.93118  -8.51237  14.33328
  15.44462  -6.34263  11.34053
  12.22741  -2.82615   6.58205
  10.50658   0.52574   1.32977
   9.47408   2.39621  -2.81519
   7.67843   2.24657  -5.20939
   4.91013   2.33635  -7.24446
   0.86992   2.93490  -9.92298
  -4.45718   3.96740 -12.94566
  -9.85910   5.26925 -15.33986
 -13.52522   5.73313 -16.02819
 -14.81210   4.65574 -14.18765
 -13.31573   3.15936 -11.44928
 -10.59232   3.23418 -10.80584
  -7.64446   5.02983 -13.17011
  -4.74149   6.70577 -16.44718
  -1.74874   6.94519 -18.39247
   0.01698   5.64334 -17.95852
  -0.89581   2.96483 -16.16287
  -3.52943   0.45092 -14.83109
  -5.78896  -1.22502 -15.35482
  -7.04591  -2.60169 -15.83366
  -7.30030  -2.84111 -15.75884
  -6.44736  -1.80861 -16.05812
  -5.05573  -1.94328 -16.17783
  -4.32251  -3.94843 -15.59424
  -4.83128  -7.70433 -15.05555
  -6.26780 -11.29563 -15.30993
  -8.70689 -14.54277 -15.48950
 -11.29562 -16.42820 -15.77381
 -13.28580 -16.98186 -15.90848
 -13.68982 -17.10157 -14.41211
 -11.37044 -17.56545  -9.96787
  -7.56964 -16.83222  -4.62581
  -2.88599 -13.92926   0.01296
   3.54843 -10.03868   4.23274
  11.12009  -7.09082   9.20071
  18.81147  -6.08824  15.17125
  25.75465  -6.07328  22.09947
  31.39599  -5.62437  27.74081
  35.82526  -4.41230  30.59889
  37.30667  -3.70901  30.07515
  34.97233  -3.39477  26.12472
  30.27371  -2.46701  19.18154
  24.82690  -0.49180  11.83433
  20.74179   1.72284   6.40249
  17.68918   3.48856   3.06557
  14.69643   4.05718   0.80604
  11.19491   3.08454  -0.04690
   7.07988   1.09436  -0.30128
   4.13202  -0.97064  -1.21407
   3.69807  -1.86846  -3.02468
   3.98238  -0.89582  -6.15211
   3.48858   0.73523 -11.41935
   1.63307   2.65059 -18.19794
  -1.44947   3.56338 -25.48529
  -4.71157   2.71045 -32.44344
  -7.56964  -0.08778 -37.48622
  -9.36529  -3.91850 -40.08992
 -10.18830  -7.37513 -40.67350
  -9.97881  -8.61712 -40.76329
  -9.87406  -7.42002 -40.85307
 -10.09852  -4.63676 -39.86546
 -10.06859  -1.55423 -36.73804
  -7.98863   0.25639 -30.31858
  -3.96338   1.91737 -22.76188
   1.43854   4.86523 -16.25265
   7.67843   7.55870 -10.71606
  14.12781   7.54374  -4.71559
  21.34034   5.01487   2.91593
  28.97186   2.27650  11.14600
  35.91504   0.95969  17.77494
  41.36185   1.12429  21.08193
  45.61156   2.53088  20.16914
  48.39482   4.71559  15.06650
  49.12804   7.61856   7.18060
  48.24518  11.22483  -1.70787
  46.91341  14.53182  -9.30946
  43.96555  16.28258 -14.03801
  38.30925  15.72892 -15.63913
  30.70766  14.42707 -14.86102
  21.38523  13.36464 -13.99312
  11.28469  10.65620 -15.10044
   2.50097   6.69081 -18.40743
  -4.99588   2.91994 -23.42029
 -12.13359  -0.29727 -29.43572
 -19.03188  -5.04078 -33.98470
 -23.61079 -10.96643 -36.24423
 -25.52616 -17.07165 -37.21688
 -24.95753 -21.65056 -37.05227
 -21.90493 -23.37139 -37.00738
 -17.71507 -22.23414 -37.50119
 -13.83946 -19.61548 -37.63586
  -9.48500 -16.09900 -36.39387
  -5.31012 -11.84929 -33.43104
  -3.29001  -7.36016 -29.18134
  -2.90095  -3.33491 -23.91409
  -3.39475  -0.32720 -17.53953
  -4.45718   1.81262 -10.55146
  -5.41486   4.01229  -5.14954
  -5.65428   5.95758  -1.30385
  -5.39990   6.84044   1.67394
  -5.01084   5.47874   5.05575
  -3.96338   2.89001   8.46748
  -1.22501   0.34617  11.16096
   2.51593  -2.22759  13.70480
   6.24191  -4.63676  17.37092
   8.68100  -6.31270  22.15932
   8.86057  -7.06089  26.94773
   6.64593  -6.73169  31.01787
   2.65061  -5.54955  34.13033
  -2.12283  -4.12799  36.16540
  -7.31526  -2.39220  36.10555
 -12.85185  -0.08778  33.69638
 -19.30123   2.29146  29.91055
 -25.33163   4.49113  25.69077
 -30.53902   5.58349  22.06954
 -35.04311   5.13458  20.03447
 -38.96361   3.63820  19.78009
 -42.70455   1.82758  19.92972
 -44.87430  -0.19252  20.40856
 -44.94912  -1.50933  21.39617
 -44.48524  -2.00314  22.75788
 -45.30825  -2.00314  23.53599
 -46.89441  -2.04803  23.44621
 -49.61781  -3.27506  23.11701
 -53.73284  -6.11817  22.74291
 -58.53621  -9.81422  22.30896
 -63.24980 -12.43288  21.44106
 -67.15534 -13.03143  20.21404
 -69.84881 -12.08871  19.06183
 -71.16562 -11.17592  18.53809
 -70.80649 -10.98139  19.67534
 -68.06813 -11.50513  22.32393
 -62.41183 -11.66973  26.63349
 -54.37629 -10.69708  31.52664
 -44.73962  -9.06603  35.46211
 -33.95075  -6.34263  37.99098
 -23.67065  -2.90096  38.46982
 -15.11138   0.40603  36.73403
  -6.77656   2.90498  34.44457
   2.65061   5.22436  32.72374
  13.27487   6.67584  32.48432
  24.52762   7.24447  33.50186
  34.79276   8.03754  34.86356
  42.39435   9.87809  34.19019
  46.77873  12.63142  30.52407
  48.18533  14.36722  25.12215
  46.85355  14.23254  19.97462
  43.98051  13.02048  15.21614
  41.43667  12.25733  10.92154
  40.32935  12.76609   6.91125
  40.29943  13.22997   3.90354
  40.70345  11.85330   2.25752
  42.08011   8.54631   1.91336
  42.88816   4.89516   1.62905
  42.28961   1.96226   0.68633
  41.12243   0.60056  -0.37610
  39.32678   0.37610  -0.60055
  37.00740  -0.23741   2.01810
  34.98729  -1.82357   8.45252
  33.02704  -4.20281  16.54791
  31.11168  -7.12074  24.16447
  30.12407  -9.63466  30.32954
  29.10653 -11.01132  34.71392
  27.08643 -11.08614  37.99098
  24.49770  -9.88904  41.04359
  22.07357  -8.13828  44.51518
  20.87647  -5.84882  47.94188
  20.59215  -3.30499  50.68025
  19.87389  -1.73379  52.11677
  19.08081  -1.61408  51.44340
  18.81147  -1.46444  48.86964
  19.41002  -0.07281  44.26080
  20.54726   2.17175  38.94866
  22.56737   4.07215  35.10298
  25.03639   4.92508  34.35479
  27.77476   5.52363  35.92598
  30.25874   6.85541  37.70667
  31.54563   8.80070  38.18551
  31.60548  11.06022  36.53950
  30.34853  13.52924  32.82849
  27.55030  15.96834  26.88787
  23.64476  18.31765  19.76512
  20.32281  20.89142  13.40553
  16.38734  23.88417   6.94118
  11.00038  26.30830   0.17756
   4.04223  25.35062  -5.47874
  -3.78381  20.72681  -9.87809
 -11.71460  15.90848 -14.53182
 -20.04942  11.50914 -19.49978
 -27.68094   7.79812 -23.88417
 -35.02814   4.32653 -28.28351
 -42.95894   1.36371 -32.60804
 -50.66527  -1.32977 -36.94753
 -57.90773  -1.13524 -42.73850
 -65.23998  -0.22245 -49.32256
 -71.73425  -1.04546 -54.91900
 -76.37301  -3.09549 -59.67748
 -79.69497  -5.54955 -64.49581
 -83.30123  -7.65944 -69.77802
 -86.75786  -8.79669 -75.43432
 -89.66083  -9.55984 -80.80631
 -91.84554 -11.40038 -84.57718
 -92.12985 -13.49531 -86.80678
 -89.88529 -14.57270 -87.55497
 -85.72536 -14.24349 -86.88160
 -80.50301 -13.86940 -84.39761
 -74.00874 -14.61759 -79.45957
 -66.90095 -17.43078 -71.84302
 -60.40668 -21.45603 -62.04175
 -54.40621 -24.31411 -52.52480
 -48.51049 -25.12215 -44.80350
 -41.53738 -24.94258 -37.92017
 -33.45695 -24.16447 -31.05181
 -24.46373 -22.89255 -24.90170
 -15.00663 -20.81259 -19.45489
  -5.22033 -18.13407 -14.69642
   4.83531 -15.36578 -10.56642
  14.44205 -12.11864  -6.49628
  23.00132  -8.27295  -3.03965
  28.82222  -3.81375  -1.39363
  33.40113  -0.65640   0.01296
  38.12968   0.64545   3.08053
  43.39692  -0.86589   8.79669
  48.99337  -4.05317  16.03915
  54.55989  -7.80908  23.92505
  60.08152 -11.53505  32.51425
  66.08199 -14.42306  41.43265
  72.57626 -15.72491  48.94446
  80.25267 -15.23110  54.84018
  88.45281 -12.95661  59.58369
  92.16382  -9.27553  61.63372
  89.48531  -2.75133  58.17710
  85.60969   5.52363  51.42844
  81.91364  10.71606  43.40786
  75.64383  12.16754  34.41464
  68.44626  14.38218  24.10461
  60.90452  17.62932  15.12636
  49.63681  21.20565   6.26781
  37.48624  25.73967  -0.98961
  26.56269  29.22623  -3.99733
  15.89353  29.92953  -6.61599
   7.81310  28.59775 -10.67117
   2.59075  26.86196 -14.26247
  -3.20023  24.31812 -17.97348
  -9.58975  19.97863 -22.01370
 -13.09127  18.75160 -26.06887
 -13.54018  21.01113 -27.08641
 -15.54533  21.53486 -25.66485
 -19.83993  20.17315 -23.45022
 -21.08192  19.82899 -20.17315
 -19.52569  19.69431 -14.51685
 -17.56544  19.33518  -8.30689
 -15.09641  19.45489  -0.19653
 -12.49272  19.32022  11.65477
 -10.42772  19.45489  25.37653
  -8.75178  19.72424  38.51471
  -6.49225  19.55964  49.93206
  -3.81374  17.91363  58.41652
  -0.44689  15.81870  62.81586
   3.02470  15.33986  61.87314
   5.91270  16.55192  56.90518
   7.43901  17.94355  51.66786
   7.61857  18.18297  46.89442
   7.00506  16.59682  42.15091
   6.63097  12.88580  37.37747
   6.43644   7.37914  32.85841
   5.53861   1.63306  27.39664
   2.71046  -2.15278  19.25636
  -2.30240  -4.33748   8.54230
  -8.22805  -6.53716  -3.86265
 -14.18363  -9.23063 -15.69899
 -18.95706 -12.28324 -25.39551
 -21.42609 -13.83947 -33.58068
 -23.08706 -13.31574 -40.01510
 -24.98746 -11.96900 -43.14253
 -26.12471 -11.71462 -41.64615
 -26.99260 -13.03143 -37.65083
 -28.02510 -14.55773 -32.81753
 -27.87547 -16.53295 -27.11634
 -26.94771 -18.85233 -22.14837
 -26.45391 -21.90494 -17.76399
 -26.42398 -24.68820 -13.66392
 -26.28931 -25.54113 -11.20986
 -26.13967 -24.59842  -9.53392
 -25.54112 -23.28161  -6.61599
 -24.40387 -22.02465  -2.35131
 -23.28159 -21.06697   3.45462
 -23.31152 -19.34614   8.42259
 -24.73308 -16.12893  10.23321
 -25.81047 -10.92154   7.89886
 -25.75061  -5.56451   2.61665
 -24.31409  -1.43452  -3.69805
 -21.32134   1.16918  -8.00762
 -17.56544   3.08454  -8.48646
 -14.70736   4.70063  -7.06490
 -13.70479   4.95501  -5.16450
 -13.91428   2.57577  -1.64802
 -13.80953  -1.34473   2.63162
 -13.85442  -3.75390   5.50466
 -14.28837  -1.26991   4.09807
 -15.44058   5.65831  -1.67795
 -17.19134  12.30222  -9.32443
 -20.25891  15.84863 -17.65924
 -23.05714  16.62674 -27.40065
 -24.04474  15.22015 -37.38148
 -24.17942  12.03287 -42.55894
 -20.88739   8.47149 -42.36441
 -15.12634   9.42917 -42.21477
 -11.95403  11.47921 -40.10488
 -12.08870  10.49160 -32.80257
 -14.01902   8.60617 -23.48014
 -16.48804   7.49885 -15.41468
 -18.55304   5.80794  -8.96530
 -19.33116   3.96740  -4.02726
 -19.51072   2.09693  -0.34617
 -21.51587  -2.57176   1.79365
 -23.64072  -7.67440   3.11046
 -22.45858  -9.76933   3.78383
 -19.73518 -10.08357   4.42727
 -18.04428 -11.08614   4.66669
 -15.99424 -11.29563   3.58930
 -13.58507 -10.68212   1.65897
 -10.50254 -10.84672   1.70386
  -6.07327 -13.12121   5.45977
  -1.61407 -16.71251   9.75437
   0.67539 -18.47824   8.10835
   1.21408 -16.69755  -0.54070
   2.30644 -13.85444 -10.76095
   4.38640 -12.11864 -16.53696
   7.99267  -9.35034 -16.62674
  14.35227  -2.19767 -12.76609
  22.64219   9.65363  -7.75323
  29.12150  23.37540  -6.25686
  30.63284  35.09202 -11.20986
  27.08643  41.87061 -20.71185
  20.93632  43.48669 -30.45326
  10.92556  43.60640 -35.66065
  -0.38704  40.79322 -34.34383
  -6.34261  36.45373 -29.04666
 -11.20584  31.80000 -24.52761
 -17.20630  19.30526 -18.03334
 -21.24652   1.66298  -8.17222
 -21.96478  -9.52991  -3.29403
 -21.41112 -11.55002  -6.24189
 -21.06696  -8.30288 -14.35225
 -19.89978  -5.95357 -21.38522
 -19.91475  -7.52477 -23.92906
 -21.02206 -11.92411 -21.84909
 -21.35127 -13.97415 -18.76656
 -21.62061 -12.86683 -17.13551
 -24.44877 -11.10110 -17.68917
 -26.87289 -10.74197 -18.70670
 -25.51119 -12.74712 -16.94098
 -19.94467 -16.08404 -12.54164
  -7.16562 -17.75998  -6.69081
  10.28212 -18.62788   0.76115
  21.65458 -18.55306   5.19042
  25.79954 -16.89208   4.69662
  27.52037 -11.86426   1.44948
  31.06679  -3.60426  -0.49581
  35.40628   7.09483   0.86589
  38.51874  15.69899   6.88133
  40.64359  21.07098  15.75484
  41.61624  26.09880  23.01226
  41.18229  30.75253  27.35175
  40.49396  32.11424  31.85584
  39.56620  28.28351  37.30265
  38.35414  21.56478  41.56732
  37.68077  15.89352  43.39290
  37.62091  12.61646  44.33562
  38.81801  10.61131  46.08638
  41.60127   9.27954  50.17148
  45.20754   8.65106  57.38402
  47.66160   7.94776  65.18014
  49.33754   6.93023  70.64191
  51.65692   5.55356  73.41020
  54.20076   2.14182  74.66716
  54.81427  -4.83129  74.68212
  53.45257 -11.87922  71.64448
