********************************************************************************
              CENTRO DE INSTRUMENTACION Y REGISTRO SISMICO  A.C.

    Anaxagoras 814, Col. Narvarte, Benito Juarez, C.P. 03020 Mexico, D.F.
           Tels. 5687 45 42/ 5687 45  82             Fax. 5669 25 12
********************************************************************************
ARCHIVO ESTANDAR DE ACELERACION:
VERSION DEL FORMATO                    : 2.0
NOMBRE DEL ARCHIVO                     : GA6220170919181440
FECHA Y HORA DE CREACION               : 25/SEP/17, 14:11
REF. CATALOGO ACELEROGRAMAS, SMIS 1996 : REGISTRO No.     /PAG.


================================================================================
DATOS DE LA ESTACION:
NOMBRE DE LA ESTACION                  : ESC. SEC. TÉC. NO. 2
CLAVE DE LA ESTACION                   : GA62
LOCALIZACION DE LA ESTACION            : Del. Cuauhtémoc, Col.  Guerrero,       
                                       : Calle 2 de Abril entre Pensador        
                                       : Mexicano y Mina.                       
                                       :                                        
                                       : 
COORDENADAS DE LA ESTACION             : 19.4385 LAT. N
                                       : 99.1401 LONG. W
ALTITUD (msnm)                         : 2232
TIPO DE SUELO                          : Arcilloso, zona lago                
                                       :                           
                                       : 
INSTITUCION RESPONSABLE                : CIRES
                                       : 

================================================================================
DATOS DEL ACELEROGRAFO:
MODELO DEL ACELEROGRAFO                : RADESD
NUMERO DE SERIE DEL ACELEROGRAFO       : 231
NUMERO DE CANALES                      : 3
ORIENTACION C1-C6 (rumbo;orientacion)  : /N00E/+V/N90W
ORIENTACION C7-C12 (rumbo;orientacion) : 
VEL. DE MUESTREO, C1-C6 (muestras/s)   : /100/100/100
VEL. DE MUESTREO, C7-C12 (muestras/s)  : 
ESC. COMPLETA DE SENSORES, C1-C6, (g)  : /0.5/0.5/0.5
ESC. COMPLETA DE SENSORES, C7-C12, (g) : 
FREC. NAT. DE SENSORES, C1-C6, (Hz)    : /30/30/33
FREC. NAT. DE SENSORES, C7-C12, (Hz)   : 
AMORTIGUAMIENTO DE SENSORES, C1-C6     : /0.795/0.733/0.790
AMORTIGUAMIENTO DE SENSORES, C7-C12    : 
INTERVALO DE MUESTREO, C1-C6, (s)      : /0.01/0.01/0.01
INTERVALO DE MUESTREO, C7-C12, (s)     : 
UMBRAL DE DISPARO, C1-C6, (Gal)        : /1.8/4.94/2.09
UMBRAL DE DISPARO, C7-C12, (Gal)       : 
MEMORIA DE PREEVENTO (s)               : 44.0
TIEMPO DE POSEVENTO (s)                : 64.0


================================================================================
DATOS DEL SISMO:
FECHA DEL SISMO (GMT)                  : 19/SEP/17
HORA EPICENTRO (GMT)                   : 18:14:40.0
MAGNITUD(ES)                           : /Mc=7.1
COORDENADAS DEL EPICENTRO              : 18.40 LAT. N
                                       : 98.72 LONG. W
PROFUNDIDAD FOCAL (km)                 : 57
FUENTE DE LOS DATOS EPICENTRALES       : SSN
                                       : INSTITUTO DE GEOFISICA, UNAM

================================================================================
DATOS DE ESTE REGISTRO:
HORA DE LA PRIMERA MUESTRA (GMT)       : 18:15:00.00
EXACTITUD DEL TIEMPO (s)               : 0.01
DURACION DEL REGISTRO (s), C1-C6       : /346.2/346.2/346.2
DURACION DEL REGISTRO (s), C7-C12      : 
NUM. TOTAL DE MUESTRAS, C1-C6          : /34620/34620/34620
NUM. TOTAL DE MUESTRAS, C7-C12         : 
ACEL. MAX. (Gal), C1-C6                : /97.06874/33.6615/84.03455
ACEL. MAX., C1-C6, EN LA MUESTRA       : /6808/6597/6391
ACEL. MAX. (Gal), C7-C12               : 
ACEL. MAX., C7-C12, EN LA MUESTRA      : 
UNIDADES DE LOS DATOS                  : Gal (cm/s/s)
FACTOR DE DECIMACION                   : 1
FORMATO DATOS (FORTRAN,10 campos/dato) : 3F10.5


================================================================================
CALIDAD DEL ACELEROGRAMA:
REGISTRO DIGITAL COMPLETO CON TIEMPO ABSOLUTO CORRECTO.


================================================================================
COMENTARIOS:














================================================================================
DATOS DE ACELERACION:
---------+---------+---------+---------+---------+---------+---------+---------+
   CANAL-1   CANAL-2   CANAL-3   CANAL-4   CANAL-5   CANAL-6   CANAL-7   CANAL-8
      N00E        +V      N90W
---------+---------+---------+---------+---------+---------+---------+---------+
[...]
  10.77274  11.53010 -38.56354
  12.02969  10.45271 -34.94231
  13.87024   9.46510 -30.94698
  16.24947   8.08844 -26.86188
  19.40683   6.32271 -23.15086
  22.59411   5.58949 -20.36760
  25.90110   4.48217 -18.24275
  29.26795   2.52192 -17.07558
  32.61983  -0.03689 -16.74637
  36.36077  -3.71797 -17.58434
  40.38602  -6.17203 -19.02087
  44.21674  -7.53373 -20.87637
  48.07739  -8.25199 -22.82166
  51.86322  -8.19213 -24.76695
  55.18518  -6.56109 -26.50275
  58.40239  -4.28659 -27.81956
  61.46996  -0.59054 -28.20861
  64.25322   3.38982 -27.61006
  66.36311   7.86398 -26.12865
  67.53028  11.56003 -23.59978
  67.94927  13.93927 -20.86141
  67.11130  13.78963 -17.79384
  65.18097  12.24836 -14.51677
  62.45757  10.67717 -11.67366
  58.91115   9.92898  -8.95025
  54.58663   9.55488  -6.55605
  49.58873   7.87894  -3.44359
  44.36638   4.25771   0.02800
  38.88964  -0.69529   3.40981
  33.33809  -5.33406   6.86644
  28.10077  -8.74579  10.41285
  23.23755 -10.90058  14.85709
  18.92799 -10.69108  19.40607
  15.03741  -9.47902  24.05980
  10.78770  -7.96768  27.90549
   6.94202  -5.70815  30.38947
   3.30582  -2.04203  31.58657
  -0.01613   2.25257  31.91577
  -3.56254   4.55699  31.58657
  -7.51298   4.93108  31.04788
 -11.44845   3.76391  29.86574
 -15.62334   1.80366  27.87556
 -19.81319   0.66641  25.75071
 -24.09282  -0.35112  23.61089
 -28.17793  -0.17156  21.81524
 -31.81412   1.57920  19.81009
 -34.94155   3.61427  17.65531
 -37.54524   5.26029  14.88702
 -39.92448   6.18804  11.74463
 -41.85481   5.79898   7.97376
 -43.21651   4.70663   3.43974
 -44.35376   3.25514  -1.87240
 -44.71289   1.39964  -7.60352
 -44.75778   0.56166 -13.66384
 -44.71289   0.93576 -19.14058
 -44.48843   2.55185 -23.80927
 -43.48586   4.57195 -27.44546
 -42.43839   7.31032 -29.79477
 -41.27122  10.07862 -30.96195
 -39.98434  11.82938 -30.79734
 -38.93687  12.33814 -29.76485
 -37.78466  12.03887 -27.96919
 -36.96166  11.06622 -25.87427
 -35.83938  10.16840 -23.74941
 -34.41782   8.62713 -21.66945
 -32.68202   7.10083 -19.91869
 -31.09586   4.69166 -17.98837
 -29.67431   2.59674 -15.75877
 -28.26771   1.04051 -12.67623
 -27.57938   0.53174  -8.59112
 -27.45967   0.50181  -2.87497
 -28.26771  -0.18652   3.57441
 -29.52467  -1.53326  10.23329
 -31.35025  -2.76029  16.02426
 -33.87912  -3.28402  20.66303
 -37.00655  -3.74790  23.74556
 -40.02923  -4.75047  25.36165
 -42.85738  -6.24685  25.73574
 -45.49100  -7.65344  25.07734
 -47.70564  -8.79069  24.29922
 -49.84546  -9.49398  23.49118
 -51.59622  -9.95786  22.89263
 -53.31705 -11.30460  22.81781
 -54.99299 -12.71119  22.24919
 -56.60908 -14.32728  20.88748
 -58.43465 -14.92583  18.53817
 -60.37994 -14.11778  15.11147
 -62.41501 -12.65134  11.46031
 -64.53987 -11.84329   7.31535
 -66.99392 -11.24474   2.87112
 -69.32827 -10.82576  -2.00707
 -71.22867 -11.15496  -6.75058
 -72.44073 -12.54659 -11.10504
 -72.96447 -14.05793 -14.60656
 -72.56044 -14.25246 -17.83873
 -71.18378 -12.92068 -20.50228
 -69.40309 -11.05021 -22.58224
 -67.39795  -9.58376 -24.01876
 -65.51251  -8.70090 -24.70709
 -63.70190  -8.56623 -24.48264
 -62.25041  -8.77572 -23.58481
 -60.63433  -9.10492 -22.32786
 -59.25766  -8.65601 -21.02601
 -57.40215  -6.54612 -19.54460
 -55.17255  -3.50848 -18.42232
 -52.49404  -0.71025 -17.65916
 -48.96259   2.19271 -17.34492
 -44.92238   4.39239 -17.40478
 -39.90952   5.75409 -17.55442
 -34.40285   5.69423 -17.68909
 -28.68670   4.42232 -17.82376
 -23.06032   2.73141 -17.46463
 -17.70330   0.86094 -17.04565
 -12.73533  -0.11170 -16.62666
  -8.21627   0.14268 -16.38724
  -4.31073   1.22007 -16.53688
  -0.61468   2.05804 -17.34492
   3.00655   3.07558 -18.81137
   5.93944   4.00333 -21.14572
   8.67781   4.69166 -24.06365
  10.95230   4.28764 -26.69727
  13.55600   2.91098 -28.82213
  16.27940   2.22264 -30.70756
  18.68857   2.95587 -32.03934
  21.32219   3.97340 -32.44336
  23.97077   4.81137 -31.94955
  27.38251   5.38000 -30.93202
  30.73439   6.99608 -29.85463
  33.50269  10.24322 -28.82213
  35.50783  14.22358 -27.53525
  37.03414  17.88970 -26.21843
  37.81225  21.04705 -24.93155
  37.69254  24.63836 -23.58481
  36.63012  28.88806 -21.83405
  35.43301  32.23995 -19.32014
  33.74211  33.66150 -15.95329
  31.97639  32.28484 -11.44920
  30.06102  29.33698  -6.91518
  28.16063  25.25187  -2.42606
  26.72411  21.73539   1.13532
  25.00327  18.33861   3.78391
  23.56675  16.37836   5.35510
  22.84849  15.16630   6.05840
  22.60907  13.78963   5.62445
  22.57914  11.12608   4.81640
  22.35469   8.50742   3.03572
  22.20505   5.88876   0.25246
  22.41454   4.60188  -2.74029
  22.17512   4.06318  -6.19692
  21.39701   4.48217  -9.39917
  20.21487   5.40992 -11.52402
  19.61632   5.94862 -13.00543
  19.54150   6.42746 -13.97808
  20.34954   6.90630 -14.59159
  21.96563   7.77420 -14.63648
  24.70400   7.69938 -14.29232
  28.62450   6.99608 -13.58902
  33.03881   4.70663 -12.78098
  37.16881   1.98322 -11.97293
  41.13421  -0.65040 -11.22475
  44.56091  -3.26906 -10.52145
  47.65841  -5.85779  -8.98018
  49.76830  -8.14724  -6.79547
  51.07014  -9.29945  -4.20674
  52.46177  -9.29945  -2.48591
  54.36217  -8.64105  -0.94464
  56.59177  -8.31185   0.59662
  58.94108  -8.62608   2.37731
  62.11340  -9.61369   4.47224
  65.28572 -10.45166   6.34271
  68.66753 -11.08014   8.19821
  70.97195 -10.81079  10.05372
  72.84242 -11.21481  12.83698
  74.32383 -11.97797  15.84470
  75.31144 -12.62141  18.19401
  75.23662 -12.23235  19.95973
  74.95231 -11.58891  20.43857
  74.72785 -11.09510  19.84002
  74.83260 -12.32213  18.74767
  74.42857 -13.95318  16.98194
  73.96470 -15.19517  14.99176
  74.14426 -15.44956  12.83698
  74.26397 -14.68641  11.10118
  74.05448 -13.50427  10.27818
  73.71031 -12.02286   9.96394
  72.79752  -9.59873   9.81430
  71.67524  -6.17203   9.39532
  70.32850  -3.49351   9.05115
  68.78724  -1.75772   9.12597
  67.11130  -1.32377   9.50006
  65.49521  -1.84750   9.47013
  64.17840  -2.64058   9.96394
  62.59224  -2.85007  11.37053
  61.17068  -3.19424  12.94173
  59.53963  -2.29641  14.75234
  57.62427  -0.53069  16.60785
  54.91583   1.99819  17.74509
  51.74351   5.43985  18.07430
  47.95768   9.09101  17.49071
  43.19921  13.62503  15.94944
  37.27356  18.33861  13.68991
  30.88403  22.31897  11.31068
  24.03063  24.53361   9.81430
  17.34183  25.16209  10.08365
  10.98223  24.71317  11.80448
   4.81716  24.72814  14.46803
  -0.52490  24.98252  17.98451
  -5.35820  24.45879  21.26158
  -9.51812  22.45365  22.90759
 -13.12439  18.03934  22.68313
 -16.82044  12.87684  19.95973
 -19.91793   8.11836  15.15636
 -23.38953   3.89858   8.64713
 -26.74141   0.51677   1.53934
 -30.49731  -2.20663  -5.11953
 -34.16343  -3.61322 -11.37438
 -37.88941  -3.59826 -15.98322
 -41.48071  -3.44862 -18.42232
 -44.90741  -3.58330 -19.03583
 -47.72060  -5.43880 -18.09311
 -49.66589  -6.29174 -16.44710
 -50.54875  -6.26181 -13.93319
 -50.71335  -6.14210 -10.80576
 -49.87538  -7.02496  -7.10971
 -48.64835  -8.80565  -2.45598
 -47.49615  -9.91297   2.81126
 -46.31401  -9.62866   8.07850
 -45.28151  -7.69833  13.80962
 -44.12930  -5.22931  19.86995
 -42.99205  -2.85007  25.63100
 -41.52560  -2.59569  31.58657
 -39.67010  -4.69062  38.14070
 -37.33575  -8.70090  45.23352
 -34.52256 -13.89333  52.31138
 -31.57470 -18.45727  59.34435
 -28.95605 -21.74930  66.33242
 -27.17536 -24.08365  71.89894
 -26.12790 -24.66724  75.75959
 -26.20271 -23.96394  77.48043
 -26.83119 -22.60224  76.91180
 -27.92355 -21.01608  74.48767
 -29.41992 -19.51970  71.46499
 -31.63456 -18.09814  68.00836
 -34.01380 -16.70651  65.19518
 -37.08137 -16.09300  62.81594
 -40.47814 -16.34738  60.16735
 -43.87492 -17.32003  57.44395
 -47.58593 -18.66677  53.70301
 -50.86299 -19.41496  48.98943
 -53.87071 -18.93611  43.24334
 -56.33973 -17.48463  37.12316
 -58.00070 -16.18278  31.27233
 -58.95839 -15.65905  26.40911
 -59.18284 -15.67402  22.83277
 -58.15034 -15.64409  20.73785
 -55.84592 -15.38970  20.55828
 -53.57143 -14.67144  22.41379
 -51.02759 -13.68384  25.27187
 -48.91770 -12.21739  28.62375
 -47.21183 -10.10750  31.13766
 -45.96984  -7.09978  32.27491
 -44.74281  -3.26906  32.11030
 -43.45593   2.28250  31.15262
 -42.00444   8.46253  30.13509
 -40.05916  13.11626  29.83581
 -37.91934  16.01923  30.28472
 -35.59996  17.42582  31.73621
 -32.92144  17.23129  33.54682
 -30.67688  17.44079  35.40233
 -29.09072  17.29115  37.19798
 -27.96844  16.55792  38.48487
 -27.84873  14.91191  38.81407
 -27.86369  12.63742  38.20055
 -28.40239  10.04869  36.16548
 -28.94108   7.99865  33.20266
 -29.15057   6.71177  29.35697
 -29.24036   5.60445  24.94266
 -29.36007   5.15554  20.22908
 -28.95605   5.51467  15.65017
 -28.29764   6.05336  11.46031
 -27.33996   6.39753   8.00369
 -26.63666   7.07090   5.28028
 -26.54688   8.02858   2.76637
 -27.02572   9.64467   0.46195
 -27.95347  11.41039  -1.94721
 -29.43489  12.66735  -5.20931
 -30.93126  13.59510  -9.35428
 -32.32289  14.74731 -13.93319
 -33.63970  16.63274 -18.60188
 -35.22586  18.41343 -22.61217
 -36.54267  18.99702 -25.60492
 -37.45546  18.08423 -27.13122
 -38.60767  16.13894 -28.02905
 -39.34090  13.98416 -28.20861
 -40.04419  11.93412 -28.10387
 -40.88216  10.21329 -27.75970
 -41.57050  10.03373 -27.69985
 -42.27379  11.90420 -28.13380
 -42.55810  14.56774 -29.07651
 -42.57307  16.31850 -30.12398
 -42.21394  16.51303 -31.78495
 -41.57050  15.66010 -33.22147
 -40.44821  14.82213 -34.46347
 -39.46061  13.65496 -34.79267
 -38.63760  12.11369 -33.74521
 -37.73977   9.97387 -31.96452
 -36.72224   7.68441 -29.77981
 -35.03133   6.44242 -28.07394
 -33.49007   7.22054 -27.47539
 -31.09586   8.88152 -28.04401
 -28.56699   9.82423 -29.89952
 -25.78373   9.18079 -33.25140
 -23.03040   7.45996 -37.72557
 -20.03764   4.36246 -42.82821
 -16.85036   1.07043 -47.16770
 -13.04957  -1.39859 -50.14549
  -8.53051  -2.43109 -51.92617
  -3.41291  -2.04203 -51.79150
   2.63245  -1.14420 -50.56447
   8.69278  -0.23141 -48.49947
  14.78303   0.71130 -46.26987
  21.20248   1.77373 -44.20487
  27.47229   1.90840 -42.10995
  33.11363   1.75877 -39.97013
  38.41080   0.36714 -36.96241
  43.43863  -1.83254 -33.83499
  48.21207  -5.09464 -30.42325
  53.23989  -9.44909 -26.92173
  57.77391 -13.45938 -23.34539
  62.15829 -16.19775 -19.85884
  67.06640 -18.09814 -16.38724
  71.25626 -19.54963 -13.69377
  74.53332 -19.31021 -11.41928
  76.64321 -18.63684 -10.29699
  77.64578 -18.33756  -9.99772
  77.87024 -18.48720 -10.11743
  77.90017 -17.96347 -10.76087
  78.39397 -16.99083 -11.32949
  79.32172 -15.50941 -11.95797
  80.92285 -14.25246 -11.65870
  83.01777 -13.29478 -11.04518
  85.69629 -11.46920  -9.93786
  88.91349  -9.92793  -8.92033
  91.71172  -8.01257  -8.47141
  93.68693  -6.26181  -8.96522
  95.79682  -4.00228 -10.37181
  97.06874  -2.93986 -12.19739
  97.06874  -2.79022 -14.87590
  96.02128  -2.61065 -17.88362
  94.61469  -0.96464 -20.95119
  92.44494   0.86094 -23.50999
  90.00585   2.08797 -26.20347
  87.64157   3.91355 -28.53782
  85.18752   6.09826 -30.90209
  82.73346   6.27782 -33.93973
  80.90788   6.27782 -38.11462
  78.87281   6.71177 -42.28951
  76.44868   5.72416 -45.73118
  73.84499   3.06061 -51.64186
  71.72013   1.07043 -57.05874
  68.71242  -0.68033 -60.20113
  65.65981  -3.85264 -63.29863
  63.74445  -7.48884 -66.83008
  61.82909  -9.91297 -69.38888
  59.33014 -11.09510 -70.79548
  57.51953 -11.25971 -72.03747
  56.27753 -10.49655 -73.15975
  55.09540  -9.01514 -73.63859
  53.82348  -7.18956 -73.15975
  52.19243  -6.33663 -72.30682
  50.47159  -5.37895 -71.91776
  48.76573  -2.68547 -71.33417
  46.89526   0.42699 -68.52098
  44.38134   1.41460 -65.57312
  42.82511   1.27993 -62.68512
  41.20903   0.69634 -58.85440
  38.87468   0.56166 -54.78425
  37.03414   0.98065 -50.66922
  35.77718   1.54927 -45.08774
  33.59247   1.87848 -39.88035
  31.82675   1.71387 -34.46347
  30.12088   1.14525 -28.29840
  28.04092   0.24743 -22.52239
  25.49708  -0.48580 -16.88105
  23.11784  -0.45587 -11.50906
  20.14005  -0.85989  -6.34656
  16.66846  -3.91250  -0.98953
  13.48118  -7.56366   3.81383
  10.35375 -10.13742   8.09347
   7.40589 -11.72358  12.73223
   5.34089 -12.96557  17.74509
   3.44050 -13.47434  22.78788
   1.80945 -13.99807  27.42665
  -0.45008 -14.10282  31.36212
  -2.14099 -13.78858  34.11545
  -3.77204 -13.39952  35.38737
  -5.79214 -13.48931  35.95599
  -8.09656 -15.25503  34.66911
 -10.23638 -16.30249  32.05045
 -12.13678 -17.21528  28.87813
 -14.38134 -17.21528  25.04741
 -16.13210 -16.90104  21.80027
 -17.73323 -15.62912  19.97469
 -19.19967 -13.33967  18.86738
 -20.92051 -10.12246  17.23633
 -22.65630  -6.99503  15.36586
 -24.88590  -4.79536  13.54028
 -27.68413  -2.74533  10.95155
 -30.21300  -1.69786   7.95879
 -32.62217  -0.41098   4.56202
 -34.80688   0.98065   1.25503
 -36.84195   2.91098  -1.30377
 -38.18869   4.03326  -2.53080
 -39.67010   4.76648  -2.72533
 -40.83727   5.33510  -1.57312
 -42.15408   6.23293   0.56670
 -43.53075   8.43260   2.88608
 -45.40122  10.36293   4.86130
 -47.73557  12.69727   6.32774
 -50.42904  14.59767   7.28543
 -54.02034  15.69003   7.55477
 -58.19523  16.94698   6.70184
 -62.56465  16.85720   5.63941
 -66.54501  16.03419   5.31021
 -70.03157  13.98416   5.45985
 -72.63526  11.44032   6.22300
 -74.38602   7.78916   7.80916
 -75.52327   4.42232  10.24825
 -76.06196   1.81862  12.59756
 -76.25649   0.03793  15.93448
 -76.67548  -0.54565  19.25643
 -77.19921  -0.06681  22.63824
 -78.26164   0.77116  25.90034
 -79.36895   0.33721  28.92302
 -80.47627   0.44195  32.61907
 -81.61352   0.47188  36.34505
 -82.78069   0.66641  40.29548
 -82.58616   1.07043  44.47037
 -81.59855   2.16279  49.21388
 -79.95254   3.46463  53.94243
 -78.33646   3.32996  57.71330
 -76.43606   2.04308  61.05022
 -74.77508   1.33978  63.98311
 -73.27870   1.17518  66.21271
 -72.24620   1.22007  67.91858
 -71.03414   1.89344  69.17554
 -69.64251   2.55185  69.51970
 -68.41548   3.97340  68.75655
 -66.79940   4.97597  66.87112
 -64.58476   5.06576  64.11779
 -61.86136   5.09568  61.24475
 -58.79378   5.30518  58.20710
 -55.69629   5.11065  54.91507
 -52.80828   4.12304  51.83254
 -49.71078   2.76134  49.34856
 -46.77788   2.82119  47.52298
 -44.27894   3.64420  46.38573
 -41.95955   4.91612  46.01164
 -39.47557   5.87380  45.93682
 -37.33575   6.74170  45.65251
 -35.33061   6.65192  45.33827
 -32.74188   5.79898  44.59008
 -30.09329   3.74895  43.37802
 -26.75637   2.32739  42.55501
 -22.95558   0.75619  41.77689
 -19.05004  -0.53069  41.53747
 -14.90507  -0.72522  41.80682
 -10.96961  -0.03689  42.24077
  -7.67758   1.14525  43.19845
  -5.19359   0.77116  44.33570
  -2.53005  -1.44348  45.17367
  -0.07599  -4.36141  45.83207
   1.74959  -6.92022  46.25106
   3.87444  -8.32681  47.05910
   6.11901  -7.93775  47.76240
   7.86977  -5.94757  48.97446
   9.66542  -2.47598  50.88982
  11.80524   2.07300  53.34388
  13.85527   6.36760  55.43881
  16.17466  10.36293  57.77315
  18.35936  11.90420  59.41917
  20.19991  11.73959  60.55641
  21.47183   9.89905  60.88561
  21.72621   7.26543  60.64619
  21.00795   3.73398  59.94290
  19.66121  -0.26134  58.79069
  17.35679  -3.89754  57.14467
  15.06734  -5.69319  55.07968
  13.28665  -5.94757  53.29899
  12.28408  -5.37895  51.83254
  12.32897  -4.49609  50.48580
  13.10708  -4.00228  49.22885
  14.96259  -4.28659  47.74743
  16.95277  -5.39391  46.28098
  18.76339  -6.69576  44.84446
  20.49918  -8.22206  43.24334
