********************************************************************************
              CENTRO DE INSTRUMENTACION Y REGISTRO SISMICO  A.C.

    Anaxagoras 814, Col. Narvarte, Benito Juarez, C.P. 03020 Mexico, D.F.
           Tels. 5687 45 42/ 5687 45  82             Fax. 5669 25 12
********************************************************************************
ARCHIVO ESTANDAR DE ACELERACION:
VERSION DEL FORMATO                    : 2.0
NOMBRE DEL ARCHIVO                     : GC3820170919181440
FECHA Y HORA DE CREACION               : 25/SEP/17, 11:17
REF. CATALOGO ACELEROGRAMAS, SMIS 1996 : REGISTRO No.     /PAG.


================================================================================
DATOS DE LA ESTACION:
NOMBRE DE LA ESTACION                  : JARDÍN DE NIÑOS "LUZ GARCÍA CAMPILLO"
CLAVE DE LA ESTACION                   : GC38
LOCALIZACION DE LA ESTACION            : Del. Iztapalapa, Col. Culhuacán entre  
                                       : Juana Medina y Guardería.              
                                       :                                        
                                       :                                        
                                       : 
COORDENADAS DE LA ESTACION             : 19.3161 LAT. N
                                       : 99.1059 LONG. W
ALTITUD (msnm)                         : 2233
TIPO DE SUELO                          : Alto riesgo sísmico                 
                                       :                           
                                       : 
INSTITUCION RESPONSABLE                : CIRES
                                       : 

================================================================================
DATOS DEL ACELEROGRAFO:
MODELO DEL ACELEROGRAFO                : RADESD
NUMERO DE SERIE DEL ACELEROGRAFO       : 251
NUMERO DE CANALES                      : 3
ORIENTACION C1-C6 (rumbo;orientacion)  : /N00E/+V/N90W
ORIENTACION C7-C12 (rumbo;orientacion) : 
VEL. DE MUESTREO, C1-C6 (muestras/s)   : /100/100/100
VEL. DE MUESTREO, C7-C12 (muestras/s)  : 
ESC. COMPLETA DE SENSORES, C1-C6, (g)  : /0.5/0.5/0.5
ESC. COMPLETA DE SENSORES, C7-C12, (g) : 
FREC. NAT. DE SENSORES, C1-C6, (Hz)    : /30/30/32
FREC. NAT. DE SENSORES, C7-C12, (Hz)   : 
AMORTIGUAMIENTO DE SENSORES, C1-C6     : /0.788/0.790/0.790
AMORTIGUAMIENTO DE SENSORES, C7-C12    : 
INTERVALO DE MUESTREO, C1-C6, (s)      : /0.01/0.01/0.01
INTERVALO DE MUESTREO, C7-C12, (s)     : 
UMBRAL DE DISPARO, C1-C6, (Gal)        : /1.5/4.49/1.5
UMBRAL DE DISPARO, C7-C12, (Gal)       : 
MEMORIA DE PREEVENTO (s)               : 44.0
TIEMPO DE POSEVENTO (s)                : 39.0


================================================================================
DATOS DEL SISMO:
FECHA DEL SISMO (GMT)                  : 19/SEP/17
HORA EPICENTRO (GMT)                   : 18:14:40.0
MAGNITUD(ES)                           : /Mc=7.1
COORDENADAS DEL EPICENTRO              : 18.40 LAT. N
                                       : 98.72 LONG. W
PROFUNDIDAD FOCAL (km)                 : 57
FUENTE DE LOS DATOS EPICENTRALES       : SSN
                                       : INSTITUTO DE GEOFISICA, UNAM

================================================================================
DATOS DE ESTE REGISTRO:
HORA DE LA PRIMERA MUESTRA (GMT)       : 18:14:59.00
EXACTITUD DEL TIEMPO (s)               : 0.01
DURACION DEL REGISTRO (s), C1-C6       : /356.0/356.0/356.0
DURACION DEL REGISTRO (s), C7-C12      : 
NUM. TOTAL DE MUESTRAS, C1-C6          : /35600/35600/35600
NUM. TOTAL DE MUESTRAS, C7-C12         : 
ACEL. MAX. (Gal), C1-C6                : /125.62416/43.17244/124.19848
ACEL. MAX., C1-C6, EN LA MUESTRA       : /7458/6582/6350
ACEL. MAX. (Gal), C7-C12               : 
ACEL. MAX., C7-C12, EN LA MUESTRA      : 
UNIDADES DE LOS DATOS                  : Gal (cm/s/s)
FACTOR DE DECIMACION                   : 1
FORMATO DATOS (FORTRAN,10 campos/dato) : 3F10.5


================================================================================
CALIDAD DEL ACELEROGRAMA:
REGISTRO DIGITAL COMPLETO CON TIEMPO ABSOLUTO CORRECTO.


================================================================================
COMENTARIOS:














================================================================================
DATOS DE ACELERACION:
---------+---------+---------+---------+---------+---------+---------+---------+
   CANAL-1   CANAL-2   CANAL-3   CANAL-4   CANAL-5   CANAL-6   CANAL-7   CANAL-8
      N00E        +V      N90W
---------+---------+---------+---------+---------+---------+---------+---------+
[...]
   7.20914  12.45184  54.75313
   9.25917  14.75626  60.94813
  11.56359  16.28256  66.57451
  14.16729  18.07821  71.73700
  16.41185  19.43991  76.52541
  18.64145  19.78408  81.20906
  20.87105  20.08335  85.35402
  22.83130  20.39759  89.39424
  24.92623  20.74176  93.52424
  26.79670  21.38520  97.59438
  28.24819  21.90893 100.48239
  29.71463  22.17828 103.10104
  30.50771  21.81915 105.22590
  30.82195  21.05600 106.21351
  30.07376  20.17314 106.07883
  28.54746  18.60194 105.06130
  27.06605  16.46212 103.20579
  25.61456  14.23252 101.35028
  23.68424  11.53905  99.43492
  21.99333   9.11492  97.51956
  19.64402   7.63351  95.12536
  16.80091   6.75064  92.86583
  14.19721   5.94260  91.08514
  11.77308   5.44880  89.37928
   9.72305   4.58090  87.50881
   7.79272   4.37141  85.30913
   5.75765   3.59329  86.25185
   4.30617   5.01485  83.27406
   2.18131   4.86521  80.61051
  -0.03332   5.92764  78.14149
  -2.86147   7.15467  74.17610
  -7.70973   6.67583  70.70450
 -13.32114   6.61597  66.14056
 -19.98001   5.53858  61.47186
 -27.55168   4.44622  56.66850
 -35.64707   3.84767  51.41622
 -42.88953   2.48597  46.13401
 -49.20424   1.18413  40.22332
 -54.66601  -1.70388  33.74401
 -58.78105  -3.97837  27.44427
 -62.55191  -6.26783  20.45620
 -65.54467  -8.72188  12.74986
 -67.96879 -10.15841   4.62454
 -69.88416 -11.69967  -3.51575
 -71.09622 -13.45043 -10.57864
 -71.00644 -15.84463 -16.10027
 -70.12358 -17.89467 -19.99085
 -68.40274 -19.28630 -22.47483
 -66.09832 -20.21405 -24.24056
 -64.52713 -20.19909 -24.92889
 -63.52456 -19.83996 -25.67708
 -63.24025 -20.42354 -26.69461
 -62.68659 -21.36626 -28.26581
 -63.53952 -22.29401 -30.37570
 -64.61691 -23.32651 -33.63780
 -66.06840 -24.14952 -37.16925
 -67.02608 -24.91267 -40.64084
 -67.17571 -24.74807 -44.39674
 -66.63702 -23.98492 -48.09279
 -65.11072 -22.20423 -52.52206
 -63.30010 -19.86989 -57.31047
 -60.87597 -16.98188 -62.20362
 -58.06278 -13.82453 -67.59057
 -55.80326 -11.26572 -72.81292
 -53.46891  -8.57225 -77.52651
 -52.01743  -6.47732 -81.19263
 -50.85025  -5.48971 -83.85618
 -50.05717  -5.29518 -85.09817
 -49.51848  -6.02841 -84.27516
 -48.57576  -6.65689 -81.83607
 -47.03449  -6.83645 -78.22980
 -45.73265  -6.46236 -73.36658
 -43.54794  -5.34007 -67.29130
 -40.19605  -4.41232 -60.78206
 -36.51497  -3.67910 -54.37757
 -31.56197  -3.81377 -47.77855
 -25.78595  -2.93091 -41.32917
 -18.97744  -1.31482 -35.08928
 -12.07915   0.36112 -29.37313
  -5.34546   1.46844 -23.22302
   0.83458   2.32137 -17.83607
   5.24889   2.84510 -12.88306
   8.28653   4.23673  -9.15709
   9.66319   6.54115  -6.95741
  10.12707   8.98024  -5.47600
   9.58838  11.47919  -5.46104
   8.88508  13.12521  -5.86506
   7.79272  13.55916  -6.80778
   6.37117  13.55916  -7.51107
   5.65291  13.48434  -7.88517
   6.01204  12.93068  -8.22933
   7.43359  11.38941  -8.63335
  10.03729   9.51894  -9.78556
  13.50888   6.64590 -11.19216
  18.07283   3.03963 -13.73600
  23.56453  -0.73124 -16.41451
  29.80442  -4.60685 -18.83864
  36.64285  -7.89888 -20.72407
  43.12216 -11.04127 -20.96349
  49.87082 -13.57014 -20.91860
  57.42752 -15.12637 -20.90364
  64.65501 -15.38076 -21.50219
  71.26900 -15.15630 -23.28288
  76.58113 -15.17126 -24.88400
  80.71113 -15.08148 -26.79936
  83.49439 -15.41069 -28.35559
  84.99076 -15.85960 -30.09139
  84.57178 -15.68003 -32.38084
  83.18015 -14.88695 -35.55316
  81.27975 -13.42050 -39.09957
  79.16986 -11.59493 -43.03504
  76.08733  -9.03612 -47.12015
  72.67559  -5.98352 -51.17533
  70.07190  -3.70902 -55.15569
  66.63023  -0.67138 -59.49518
  62.36556   3.02467 -63.75985
  58.04103   5.55354 -67.20151
  54.35995   6.91525 -69.20666
  51.39712   7.70832 -70.79282
  48.40437   8.68097 -72.31912
  45.98024   8.96528 -72.63336
  44.33423   8.92039 -72.10963
  42.64332   9.63865 -70.23916
  40.53343  10.83575 -67.57561
  38.55822  11.76350 -63.98430
  37.27133  12.49673 -60.15358
  35.81985  12.75111 -56.20315
  34.86217  12.16753 -52.04322
  34.11398  10.88064 -48.93076
  34.12894   8.45651 -46.50663
  34.35340   5.41887 -44.50149
  34.84720   2.12684 -42.76569
  35.23626  -0.73124 -41.23939
  36.29869  -2.96084 -39.63827
  37.37608  -4.45721 -37.54334
  38.72282  -5.37000 -35.16410
  39.81517  -5.39993 -31.96186
  40.69803  -4.86123 -27.71215
  41.88017  -4.36743 -22.86389
  42.01484  -3.88859 -17.55176
  41.56593  -3.81377 -12.37429
  40.21919  -3.31997  -6.88259
  38.21405  -1.85352  -1.69017
  36.01438  -0.16261   2.88874
  33.75485   1.96224   7.19830
  31.73474   3.08452  11.16370
  30.41793   3.90753  14.18638
  30.38800   4.62579  16.68533
  30.61246   5.16449  18.49594
  31.73474   5.79296  19.48355
  33.21615   5.70318  20.78540
  34.63771   5.29916  21.84783
  36.31365   4.98492  23.13471
  37.24140   5.32909  24.60116
  37.83996   6.28677  26.02271
  37.86988   6.85539  27.60887
  37.60054   6.28677  29.28481
  37.49579   5.77800  31.15528
  36.55307   5.05974  32.89108
  35.10159   5.44880  35.27032
  32.87199   6.49626  37.44006
  29.83434   7.82803  39.99887
  26.48246   8.29191  42.34818
  22.14297   8.41162  44.68252
  16.63631   7.15467  46.29861
  10.81540   6.37655  47.79499
   4.65033   5.13456  49.17165
  -1.57459   3.35387  50.11437
  -7.97908   1.51333  51.11694
 -14.32371  -0.08779  51.80527
 -20.17454  -1.97323  51.82024
 -25.09762  -3.99334  51.20672
 -30.03566  -5.17547  50.80270
 -33.86638  -5.90870  50.30890
 -36.88906  -7.12076  49.88991
 -39.22341  -8.87152  50.12933
 -41.06395 -10.59235  49.65049
 -42.48551 -12.64239  48.91727
 -43.78736 -15.27601  48.18404
 -45.26877 -17.89467  47.07673
 -47.42355 -19.92974  45.53546
 -50.46119 -21.11188  44.81720
 -54.12732 -21.56079  43.90441
 -58.33213 -21.72539  43.21608
 -62.47709 -21.65057  43.03651
 -66.17314 -21.69546  43.05147
 -69.64474 -21.77028  43.38068
 -72.50281 -21.08195  44.09894
 -74.94191 -20.45347  44.95187
 -76.45325 -19.27134  46.19386
 -77.05180 -17.55050  47.69024
 -77.18647 -14.88695  49.47093
 -77.05180 -11.63982  51.19176
 -76.87223  -7.83902  53.04727
 -76.87223  -4.03823  54.45386
 -77.08172  -0.44692  55.84549
 -77.78502   2.00713  56.65353
 -78.86241   4.25170  56.54879
 -80.10440   6.69079  55.96520
 -81.54092   9.27952  54.85788
 -83.02234  12.04782  53.46625
 -83.90520  14.00807  52.25419
 -84.53368  14.98071  51.38629
 -84.41397  16.35738  50.08444
 -83.96505  17.55448  49.94977
 -83.03730  18.70669  50.48846
 -81.30150  19.69430  52.26915
 -78.99709  19.75415  54.64839
 -76.63281  20.09832  57.41668
 -73.52035  19.88883  60.81346
 -69.80934  19.69430  64.58432
 -66.24796  19.42495  68.10081
 -62.46213  18.76654  71.37787
 -59.09528  18.46727  74.22099
 -55.44413  17.91361  76.30095
 -52.73569  16.95593  77.97689
 -49.99732  16.22270  79.06924
 -47.25895  15.17524  79.12910
 -44.86475  13.30477  78.68019
 -42.85960  11.38941  76.70497
 -40.79461   9.62369  74.08631
 -39.02888   8.42659  70.85414
 -37.93653   7.81307  67.84642
 -36.88906   7.49883  64.83871
 -36.44015   7.60358  62.30983
 -35.69196   7.81307  59.76599
 -35.52736   8.39666  56.23455
 -34.47990   9.30945  53.30165
 -33.19302  10.13245  49.54575
 -30.90356  11.35948  45.64020
 -28.24001  12.07774  41.54013
 -24.90309  12.60147  37.91890
 -21.31179  12.60147  34.41738
 -18.03473  12.72118  31.11039
 -14.81752  13.03542  27.39938
 -12.16893  13.21499  23.76319
 -10.13386  13.31973  19.69304
  -8.35317  12.72118  15.48823
  -6.31810  12.09271  10.61004
  -4.68705  11.10510   5.37273
  -2.71184   9.60872  -0.23869
  -0.31763   7.93278  -5.79024
   2.06160   5.89771 -12.17977
   4.32113   3.41373 -19.21273
   6.59562   0.95967 -25.90153
   9.36392  -2.63163 -32.44070
  12.23696  -6.26783 -38.47109
  15.27460  -9.72446 -43.55877
  18.08779 -12.16355 -47.44935
  21.17033 -14.09387 -50.47203
  23.93862 -16.21873 -52.76148
  26.25800 -17.83481 -55.24547
  28.23322 -18.76257 -57.59478
  29.59492 -19.00199 -60.04884
  30.76210 -18.71768 -62.26347
  31.83949 -18.08920 -63.56532
  33.23112 -18.01438 -64.10401
  35.16144 -17.40087 -64.83724
  37.00198 -16.48808 -65.07666
  39.20166 -15.57529 -65.25622
  42.26923 -13.79460 -65.28615
  45.62111 -11.55003 -65.55550
  49.27227  -9.66460 -65.48068
  53.13292  -7.98866 -65.54054
  56.85889  -6.50725 -66.39347
  60.64473  -5.78899 -67.57561
  64.87947  -5.05576 -69.37126
  69.11421  -4.63678 -71.84028
  73.72305  -4.38239 -74.59361
  78.03262  -3.75392 -77.54147
  82.58160  -3.27508 -81.43205
  86.71160  -2.21265 -85.30766
  90.39268  -1.43453 -89.36284
  93.83435  -0.89584 -93.35817
  96.58768  -0.80605 -97.02429
  99.08663  -0.80605 -99.76266
 100.70271  -0.50678-102.63570
 101.52572  -0.53671-104.20689
 102.33376  -0.68634-104.95508
 102.22902  -0.88087-104.79048
 102.21405  -0.88087-103.27914
 101.86989  -0.86591-101.28896
 101.27134  -0.68634 -98.92468
 100.34358  -1.13526 -95.87208
  99.95452  -1.35971 -92.96911
  99.22130  -0.97066 -90.11103
  98.18880   0.51076 -87.41755
  97.56032   1.85749 -84.67918
  96.51286   3.03963 -82.27002
  95.65993   3.78782 -79.57654
  94.64239   4.37141 -77.58636
  94.35808   4.94003 -75.97028
  93.87924   5.20938 -74.77318
  94.56757   5.89771 -74.93778
  95.18109   5.85282 -75.68596
  96.13877   5.65829 -76.70350
  96.93185   5.91267 -78.34951
  97.15630   6.45137 -80.59408
  96.82710   7.70832 -82.65908
  95.98913   8.33680 -84.46969
  94.76210   8.77075 -85.80147
  92.77192   9.38427 -87.02850
  90.01859   9.96785 -87.55223
  86.80138  11.06021 -87.53726
  83.18015  11.76350 -86.69929
  78.66109  11.68869 -84.94853
  74.21686  12.52666 -82.62915
  69.20400  13.21499 -79.45683
  64.01157  13.91829 -75.02756
  59.26806  14.11281 -69.58075
  54.85375  14.08289 -63.37079
  51.11281  13.45441 -56.83163
  47.31202  13.08031 -49.94830
  43.90028  12.42191 -42.87044
  41.02724  11.35948 -35.79258
  39.00713  10.22224 -28.75961
  36.92717   8.68097 -21.39744
  34.54793   6.87035 -15.03784
  32.24351   4.59586  -8.46875
  29.05623   2.75532  -3.21647
  26.07844   0.63047   1.66171
  21.82873  -2.15279   6.27055
  16.89069  -4.50210  10.62501
  10.95008  -6.83645  14.11156
   4.36602  -8.96130  16.87986
  -2.18810 -10.93652  18.87004
  -8.71230 -12.52268  20.05217
 -14.83248 -14.57271  21.18942
 -19.89023 -16.08405  22.82047
 -24.67864 -17.38590  24.64605
 -28.85352 -17.65525  27.26471
 -33.59704 -17.55050  30.93083
 -38.90917 -17.08663  35.59952
 -44.56547 -16.60779  40.47771
 -50.86522 -15.65011  45.87962
 -58.01789 -14.37819  51.14687
 -65.72423 -12.28326  56.42908
 -73.59517  -9.90402  61.80107
 -80.82266  -7.42004  67.14313
 -87.93045  -4.23276  72.18592
 -95.14298  -0.59656  77.24367
-101.65222   2.94985  81.43352
-107.98189   5.94260  85.02482
-113.45863   8.35177  88.45152
-118.15725  10.56640  90.93551
-121.73359  12.13760  92.56656
-124.27742  13.22995  92.97058
-125.62416  13.55916  93.04540
-125.39971  13.21499  92.10268
-124.24750  12.52666  90.63623
-122.70623  11.29963  89.24460
-121.40438   9.66858  87.70333
-120.56641   7.87293  86.49127
-120.38685   6.15209  84.99489
-120.88065   4.70061  83.87261
-120.92554   2.66554  83.15435
-121.15000  -0.13269  82.30142
-121.37445  -3.45464  82.33134
-120.56641  -7.30033  82.61566
-119.45909 -11.08616  83.94743
-118.33681 -13.97416  86.07228
-116.73569 -16.24866  88.64605
-115.61341 -18.20891  90.57638
-114.28163 -19.10673  92.91072
-113.02468 -19.37608  95.20018
-112.18671 -18.97206  96.84619
-110.86990 -18.64286  97.25021
-108.70015 -18.04431  97.71409
-106.30595 -18.05927  97.23525
-104.94425 -17.40087  96.51699
-102.89421 -16.39829  94.76623
-100.87410 -15.57529  92.86583
 -98.70436 -14.57271  90.59134
 -96.59447 -13.57014  88.61612
 -95.14298 -11.87924  85.14453
 -93.03309 -10.14344  82.16674
 -90.86335  -8.10837  79.27874
 -89.42683  -6.25286  75.70240
 -87.67607  -4.32254  72.48519
 -85.67092  -2.87105  69.28295
 -83.53111  -1.83855  66.84385
 -81.42121  -0.80605  64.13541
 -79.61060   0.30126  61.74121
 -77.51567   1.49836  59.10759
 -75.33096   2.53086  56.32433
 -72.92180   3.56336  53.93013
 -70.37796   4.26666  51.32643
 -66.84651   5.05974  48.85741
 -62.67162   4.94003  46.62781
 -57.88322   3.93746  44.51792
 -52.99007   2.96481  42.87191
 -47.66297   2.21662  41.80948
 -42.59026   1.94728  40.76202
 -38.44529   1.37865  39.78937
 -34.85399   0.76514  38.84666
 -31.24773  -0.44692  36.97619
 -28.46447  -2.30243  35.53967
 -26.65385  -3.79881  34.64184
 -25.48668  -4.93605  33.31007
 -24.51403  -5.45978  31.99325
 -23.07751  -5.59446  30.24249
 -21.32675  -5.35504  29.04539
 -18.84277  -4.71160  27.71362
 -15.28139  -4.78642  26.48659
 -11.58535  -5.22036  24.69094
  -6.64730  -5.34007  22.70076
  -1.09575  -5.34007  20.80036
   5.09925  -4.44225  18.24156
  11.63841  -3.15537  15.59297
  18.53670  -2.22761  12.37576
  25.67442  -0.89584   9.12863
  32.78220   0.12170   5.61215
  39.88999   1.58815   2.05077
  46.86310   2.75532  -1.48068
  52.99824   4.11702  -5.19169
  58.44505   5.10463  -9.02241
  62.75462   5.59843 -12.86810
  66.25614   5.70318 -17.44701
  68.35106   5.05974 -21.87628
  69.80255   4.20680 -25.94643
  70.90987   3.77286 -29.89686
  71.56827   3.06956 -33.48816
  71.88251   2.97978 -37.04954
  71.59820   3.53344 -41.02990
  70.79016   4.20680 -44.32192
  70.23650   5.41887 -48.21250
  69.65291   6.46633 -51.78884
  69.63795   6.73568 -55.23050
  70.79016   6.82546 -59.18094
  72.19675   6.55612 -63.46057
  74.68073   5.70318 -67.24640
  77.07494   4.89514 -71.27166
  79.94798   3.83271 -74.29434
  82.94073   3.05460 -77.22723
  86.33750   2.03706 -79.60647
  90.09341   1.84253 -81.65651
  93.53507   1.22902 -83.85618
  96.51286   0.91478 -86.28031
  99.32605   1.01952 -88.30041
 101.42097   0.37608 -90.84425
 103.35130  -0.37211 -92.92422
 104.60825  -1.10533 -95.28849
 105.14695  -2.45207 -97.56298
 105.55097  -3.97837 -99.55316
 105.38637  -4.95102-101.60320
 105.08709  -6.05833-103.15943
 104.17431  -6.55214-104.88026
 102.67793  -6.62696-106.00254
 101.09177  -6.19301-106.18211
  99.28116  -6.11819-106.25693
  97.24608  -5.86381-105.49378
  95.24094  -6.11819-104.55106
  93.75953  -7.07587-103.35396
  92.21826  -7.68938-101.67802
  90.67699  -8.31786 -99.68784
  89.52478  -8.34779 -97.48816
  88.10323  -8.54232 -94.83958
  86.57692  -8.73685 -91.42784
  85.12544  -8.66203 -87.95625
  83.10533  -8.24304 -84.21531
  81.01040  -7.25544 -79.90575
  78.88555  -6.20797 -74.98267
  76.59609  -4.87620 -69.62564
  74.50117  -4.27765 -64.91206
  71.73287  -3.23018 -60.16855
  68.93465  -2.01812 -56.11337
  66.07657  -0.70131 -52.34250
  63.03893   0.66039 -49.15522
  59.85165   1.45347 -45.66866
  56.73918   2.42612 -43.13979
  53.13292   3.12941 -40.98500
  49.63140   4.64075 -38.94993
  45.80068   6.07727 -36.69041
  41.94003   6.63093 -34.76008
  37.69032   7.16963 -32.79983
  33.62017   8.32184 -30.22606
  28.83177   9.14485 -27.69719
  24.67185  10.22224 -24.70443
  20.22761  10.59633 -21.66679
  15.72352  10.10253 -18.04556
  11.35410   9.84814 -14.46922
   7.20914   9.74340 -10.01002
   3.49813   9.96785  -5.28147
   0.47545  10.19231  -0.28358
  -2.11328  10.47662   5.01359
  -3.37024  10.68611  10.72975
  -4.05857  11.29963  16.31123
  -3.93886  12.00292  21.45877
  -3.44506  12.73615  25.84315
  -3.11586  12.91571  29.91329
  -2.75673  12.22738  33.54949
  -3.13082  11.55401  36.16814
  -3.63959  11.29963  38.36782
  -4.85165  11.67372  39.47514
  -6.48270  11.68869  40.49267
  -7.79951  11.53905  40.55253
