********************************************************************************
              CENTRO DE INSTRUMENTACION Y REGISTRO SISMICO  A.C.

    Anaxagoras 814, Col. Narvarte, Benito Juarez, C.P. 03020 Mexico, D.F.
           Tels. 5687 45 42/ 5687 45  82             Fax. 5669 25 12
********************************************************************************
ARCHIVO ESTANDAR DE ACELERACION:
VERSION DEL FORMATO                    : 2.0
NOMBRE DEL ARCHIVO                     : GR2720170919181440
FECHA Y HORA DE CREACION               : 25/SEP/17, 11:17
REF. CATALOGO ACELEROGRAMAS, SMIS 1996 : REGISTRO No.     /PAG.


================================================================================
DATOS DE LA ESTACION:
NOMBRE DE LA ESTACION                  : GRANJAS
CLAVE DE LA ESTACION                   : GR27
LOCALIZACION DE LA ESTACION            : Del. Azcapotzalco, Col. Sindicato      
                                       : Mexicano de Electricistas, calle       
                                       : Norte 87 esq. calle Aspiros.           
                                       :                                        
                                       : 
COORDENADAS DE LA ESTACION             : 19.4747 LAT. N
                                       : 99.1797 LONG. W
ALTITUD (msnm)                         : 2238
TIPO DE SUELO                          : Terreno estratificado               
                                       : (arcillas, limos, arenas) 
                                       : 
INSTITUCION RESPONSABLE                : CIRES, A. C.
                                       : 

================================================================================
DATOS DEL ACELEROGRAFO:
MODELO DEL ACELEROGRAFO                : RAD_IO14
NUMERO DE SERIE DEL ACELEROGRAFO       : 
NUMERO DE CANALES                      : 3
ORIENTACION C1-C6 (rumbo;orientacion)  : /S00E/+V/N90W
ORIENTACION C7-C12 (rumbo;orientacion) : 
VEL. DE MUESTREO, C1-C6 (muestras/s)   : /100/100/100
VEL. DE MUESTREO, C7-C12 (muestras/s)  : 
ESC. COMPLETA DE SENSORES, C1-C6, (g)  : /2.0/2.0/2.0
ESC. COMPLETA DE SENSORES, C7-C12, (g) : 
FREC. NAT. DE SENSORES, C1-C6, (Hz)    : /53.52/54.77/55.09
FREC. NAT. DE SENSORES, C7-C12, (Hz)   : 
AMORTIGUAMIENTO DE SENSORES, C1-C6     : /0.5966/0.4954/0.5266
AMORTIGUAMIENTO DE SENSORES, C7-C12    : 
INTERVALO DE MUESTREO, C1-C6, (s)      : /0.01/0.01/0.01
INTERVALO DE MUESTREO, C7-C12, (s)     : 
UMBRAL DE DISPARO, C1-C6, (Gal)        : / / /
UMBRAL DE DISPARO, C7-C12, (Gal)       : 
MEMORIA DE PREEVENTO (s)               : 60
TIEMPO DE POSEVENTO (s)                : 90


================================================================================
DATOS DEL SISMO:
FECHA DEL SISMO (GMT)                  : 19/SEP/17
HORA EPICENTRO (GMT)                   : 18:14:40.0
MAGNITUD(ES)                           : /Mc=7.1
COORDENADAS DEL EPICENTRO              : 18.40 LAT. N
                                       : 98.72 LONG. W
PROFUNDIDAD FOCAL (km)                 : 57
FUENTE DE LOS DATOS EPICENTRALES       : SSN
                                       : INSTITUTO DE GEOFISICA, UNAM

================================================================================
DATOS DE ESTE REGISTRO:
HORA DE LA PRIMERA MUESTRA (GMT)       : 13:13:57.00
EXACTITUD DEL TIEMPO (s)               : 
DURACION DEL REGISTRO (s), C1-C6       : /329.01/329.01/329.01
DURACION DEL REGISTRO (s), C7-C12      : 
NUM. TOTAL DE MUESTRAS, C1-C6          : /32901/32901/32901
NUM. TOTAL DE MUESTRAS, C7-C12         : 
ACEL. MAX. (Gal), C1-C6                : /84.67205/44.76974/119.63374
ACEL. MAX., C1-C6, EN LA MUESTRA       : /8622/8806/9745
ACEL. MAX. (Gal), C7-C12               : 
ACEL. MAX., C7-C12, EN LA MUESTRA      : 
UNIDADES DE LOS DATOS                  : Gal (cm/s/s)
FACTOR DE DECIMACION                   : 1
FORMATO DATOS (FORTRAN,10 campos/dato) : 3F10.5


================================================================================
CALIDAD DEL ACELEROGRAMA:
REGISTRO DIGITAL COMPLETO CON TIEMPO ABSOLUTO CORRECTO.


================================================================================
COMENTARIOS:














================================================================================
DATOS DE ACELERACION:
---------+---------+---------+---------+---------+---------+---------+---------+
   CANAL-1   CANAL-2   CANAL-3   CANAL-4   CANAL-5   CANAL-6   CANAL-7   CANAL-8
      N00E        +V      N90W
---------+---------+---------+---------+---------+---------+---------+---------+
[...]
  30.06955  -2.09646  28.98556
  27.91475  -3.77236  32.09806
  26.11915  -4.73006  35.62946
  24.32345  -4.37096  39.63976
  22.34825  -2.93446  43.76976
  20.43295  -0.83956  47.60046
  18.21825   1.55464  51.07196
  15.46495   3.41014  53.94506
  12.59195   4.48754  56.03996
   9.29995   4.78684  57.59616
   5.82835   4.72694  58.07496
   2.17725   4.90654  57.77576
  -1.35425   5.02624  56.51876
  -4.40685   5.44524  54.84286
  -7.04045   5.74454  53.04716
  -8.95575   5.08614  51.25156
 -10.57185   3.41014  49.45596
 -11.40985   0.77654  47.36096
 -11.88865  -2.39576  44.66756
 -12.24775  -5.20896  41.19596
 -12.78645  -7.18416  36.46746
 -13.86385  -7.90236  30.54186
 -15.36025  -7.42356  23.23956
 -17.39525  -5.80746  15.15916
 -19.49015  -3.59286   6.83936
 -21.22595  -1.13876  -1.24104
 -22.78225   1.19554  -9.02214
 -23.62015   3.47004 -15.90544
 -23.50045   5.20584 -22.07054
 -22.42305   6.46274 -27.63694
 -20.50775   7.48024 -31.94654
 -17.63465   8.43794 -35.65754
 -13.92375   9.45544 -38.59044
 -10.09305  10.41314 -41.04444
  -6.32215  10.65254 -42.89994
  -3.20975  10.11394 -44.21674
  -1.29435   8.91684 -45.05474
  -0.45635   6.94154 -45.05474
  -0.57605   4.60724 -44.45614
  -1.53375   2.63204 -43.43864
  -2.85055   1.13564 -42.06194
  -3.86815  -0.06146 -40.14664
  -4.10755  -1.25846 -37.63274
  -3.56885  -3.35346 -34.87944
  -2.07245  -6.46586 -32.66474
  -0.33665 -10.59586 -31.58744
   0.86045 -14.84556 -31.76694
   1.27935 -18.31706 -33.44294
   0.44145 -19.99306 -36.31594
  -1.53375 -20.47186 -39.78754
  -4.10755 -20.53176 -43.01964
  -6.50175 -20.17256 -44.81534
  -8.29735 -19.21496 -45.29414
  -9.25505 -16.52146 -44.15694
  -9.79375 -12.39146 -41.52324
  -9.79375  -7.66296 -37.63274
  -9.67405  -2.69506 -33.44294
  -9.67405   1.67434 -29.31294
  -9.61415   4.78684 -25.18294
  -9.07545   6.76204 -21.47194
  -8.11775   7.71974 -18.12004
  -6.62145   7.77954 -15.54634
  -4.76595   7.06134 -13.51124
  -2.97025   6.04374 -11.83534
  -1.23445   4.06854 -10.09954
   0.02245   1.49484  -7.88494
   1.09985  -1.43806  -5.19144
   1.57865  -4.78996  -2.07904
   1.81805  -8.50096   1.21296
   1.45895 -12.15206   4.20576
   1.15965 -15.38426   6.95906
   1.03995 -17.77846   9.23356
   0.74075 -19.21496  10.84966
  -0.21695 -19.81346  11.74746
  -2.13235 -19.87336  12.28616
  -4.70605 -19.63396  12.82486
  -8.11775 -18.37696  13.78246
 -11.64925 -15.26456  15.63796
 -14.94125 -10.65566  18.27156
 -17.45515  -5.32866  21.38406
 -18.77195   0.41744  24.79576
 -18.95155   5.62474  28.20746
 -17.87415   9.75474  31.49946
 -15.77925  12.86724  34.73166
 -13.08575  15.14164  37.06596
 -10.45215  16.69794  38.50246
  -8.29735  17.47604  38.68206
  -6.80095  17.53584  37.72436
  -5.96305  16.63804  36.16816
  -5.66375  15.20154  34.73166
  -6.02285  13.22634  34.31266
  -6.86085  11.07154  35.39006
  -8.05795   8.37814  37.54486
  -9.55435   5.50504  40.71716
 -10.93095   2.69194  44.24856
 -12.18795   0.83644  47.77996
 -12.84635  -0.54026  50.71286
 -13.32515  -1.49796  52.80776
 -13.50475  -2.09646  53.46616
 -13.32515  -2.75486  52.68806
 -13.26535  -3.53296  50.17416
 -13.20545  -4.37096  46.22376
 -13.32515  -5.20896  40.77696
 -13.14555  -6.16656  34.13306
 -12.54705  -6.70526  27.13006
 -10.93095  -6.34616  20.18696
  -8.29735  -5.08926  13.72266
  -4.58635  -3.29356   8.09626
   0.02245  -1.19866   3.48746
   5.11015   0.95614  -0.22354
  10.25765   3.23064  -3.21624
  15.04595   5.74454  -6.20894
  19.23585   8.67734  -9.14184
  22.76725  11.61024 -11.83534
  25.52055  14.06434 -14.16964
  27.49575  15.50084 -16.14484
  28.63305  15.26144 -17.52154
  29.29145  13.04674 -18.41934
  29.47095   9.15624 -19.01794
  29.65055   3.76924 -19.79604
  29.59065  -2.39576 -20.69384
  29.23155  -8.68046 -21.95074
  28.69285 -14.12726 -24.04574
  27.49575 -18.07766 -26.79904
  25.58045 -19.87336 -30.39034
  22.88695 -20.41206 -34.81954
  19.59495 -20.41206 -40.08674
  15.82415 -20.05286 -46.07224
  11.45475 -19.15506 -52.29714
   6.96555 -16.88056 -58.34244
   2.77575 -13.34916 -63.96884
  -0.87535  -9.15936 -68.69734
  -3.86815  -4.49066 -72.22874
  -5.54405  -0.00156 -73.90474
  -5.66375   3.88904 -73.48574
  -4.52655   6.64234 -70.55284
  -2.19215   8.13864 -65.40534
   1.03995   8.49784 -58.46214
   4.45175   7.89924 -50.08254
   7.56415   6.76204 -41.22404
   9.95835   5.44524 -32.54504
  11.57445   3.41014 -24.04574
  12.23285   0.77654 -16.02514
  12.23285  -2.81476  -8.72284
  11.81385  -6.94466  -1.71984
  11.09555 -11.01486   4.50506
  10.13795 -14.36666  10.13136
   8.82105 -16.40176  15.27886
   7.32475 -16.52146  20.06726
   5.58895 -14.78566  24.25706
   3.67355 -11.49366  27.90826
   1.81805  -7.66296  31.08056
   0.20205  -4.07166  33.95356
  -1.05495  -1.07896  36.40756
  -1.89295   1.25534  38.62226
  -2.25205   3.11084  40.59746
  -2.55135   4.48754  42.51276
  -2.73085   5.68464  44.96686
  -2.85055   6.76204  47.36096
  -2.85055   7.36054  50.05446
  -2.97025   7.95914  52.62826
  -3.08995   8.73724  55.08226
  -3.98785   9.81464  57.71586
  -5.72365  10.89204  60.34946
  -8.59665  12.02924  63.16266
 -12.36745  12.92704  65.79626
 -16.85655  13.34604  68.19046
 -21.46545  12.86724  70.10576
 -25.65525  11.49054  71.12336
 -28.82755   9.51534  71.54236
 -31.04215   7.12114  70.70436
 -32.17935   5.08614  68.78896
 -32.77795   3.58974  65.37726
 -33.73565   2.87144  60.58886
 -34.51375   2.09334  54.96256
 -35.17215   1.01594  48.61796
 -35.59115  -0.24096  42.03396
 -35.53125  -1.19866  35.09076
 -34.99255  -1.61766  27.90826
 -34.03485  -1.67746  20.36656
 -33.19695  -1.79716  12.58536
 -32.41885  -1.61766   4.62476
 -31.64075  -1.01906  -3.21624
 -31.04215  -0.00156 -10.81784
 -30.32395   1.55464 -18.23974
 -29.06695   3.76924 -25.24284
 -27.21145   6.16344 -32.30564
 -24.51795   8.61754 -39.06924
 -21.22595  11.07154 -45.23424
 -17.27555  13.04674 -50.98034
 -13.08575  14.60304 -56.36724
  -9.25505  15.26144 -61.27534
  -6.26225  14.78254 -65.52504
  -4.22725  13.28624 -68.93674
  -3.08995  11.55044 -71.33094
  -2.55135   9.57524 -72.94704
  -2.37175   7.71974 -74.02444
  -2.49145   6.22334 -75.04194
  -2.61115   4.84664 -75.87994
  -2.67105   3.58974 -76.95724
  -2.55135   1.85394 -77.97484
  -2.91045  -0.77966 -78.51354
  -3.56885  -4.55056 -78.27404
  -4.40685  -8.80016 -77.13684
  -5.24475 -12.87036 -75.40104
  -5.72365 -15.98276 -72.82734
  -5.48415 -17.59886 -69.89444
  -4.22725 -17.47916 -66.78194
  -2.43155 -15.80326 -63.60964
   0.38155 -12.93016 -60.49724
   3.73345  -9.27906 -57.20524
   7.20505  -5.56806 -54.21244
  10.49705  -2.27606 -51.15994
  13.60945   0.41744 -47.80804
  16.48255   2.27294 -43.73794
  19.05625   3.05104 -38.94954
  21.86945   2.87144 -33.56264
  24.56285   1.73424 -27.39754
  26.95705  -0.12126 -20.63394
  28.99215  -2.45556 -13.33174
  30.18925  -4.90966  -5.90974
  31.08705  -6.76516   1.75166
  31.56585  -8.20166   8.99416
  32.10455  -9.09946  15.93726
  32.88275  -9.45856  22.16216
  34.13965  -9.27906  27.30966
  35.69585  -8.62066  31.37976
  37.37185  -7.66296  34.43236
  39.22735  -6.82496  37.00616
  40.78355  -6.40606  38.68206
  41.86095  -6.04686  39.63976
  42.22005  -5.62786  40.17846
  41.80105  -4.90966  40.35796
  40.78355  -3.59286  40.47766
  39.34705  -1.73736  40.71716
  37.25205   0.35754  41.25586
  34.67835   2.57224  41.97406
  31.80535   4.72694  42.99156
  28.45345   6.52264  44.12886
  24.92205   8.07884  45.56536
  21.63005   9.21604  47.24126
  18.63725   9.45544  49.27636
  15.88395   9.15624  51.13186
  13.78905   8.37814  52.98736
  12.35255   7.48024  54.18446
  10.79635   6.52264  54.36396
   9.29995   5.86424  53.10706
   7.68385   5.56494  50.29386
   5.46925   5.50504  46.16386
   2.83565   5.80434  41.13606
  -0.21695   5.74454  35.86886
  -3.32945   5.56494  30.60166
  -6.44185   4.78684  25.33446
  -9.31485   3.47004  20.42636
 -12.30765   1.85394  15.63796
 -15.06095   0.29774  10.72986
 -17.81425  -0.83956   5.82186
 -20.74715  -0.95926   0.49476
 -23.73985  -0.06146  -4.89214
 -26.37345   1.49484 -10.39884
 -28.58815   3.29044 -15.72594
 -30.14435   5.08614 -20.63394
 -30.56335   6.34304 -24.40484
 -29.96475   7.30074 -26.79904
 -28.94725   8.13864 -27.39754
 -27.75015   8.49784 -26.61944
 -26.79245   7.89924 -24.52454
 -26.25375   5.86424 -21.83104
 -26.07425   2.27294 -19.31714
 -26.07425  -2.75486 -16.92294
 -26.25375  -7.90236 -15.12734
 -26.43335 -12.63086 -13.93024
 -26.79245 -15.92296 -13.81054
 -27.15165 -17.41926 -14.64854
 -27.75015 -16.94046 -16.20474
 -28.46845 -14.96526 -18.35954
 -29.36625 -12.39146 -20.93324
 -30.20415  -9.75786 -23.98584
 -31.10205  -8.02206 -26.79904
 -31.58085  -6.94466 -29.19324
 -31.64075  -6.16656 -30.92904
 -30.92245  -5.14906 -31.76694
 -28.76765  -3.77236 -31.82684
 -25.59535  -2.33586 -31.04874
 -21.52525  -0.54026 -29.91144
 -16.73685   1.19554 -28.65454
 -11.29005   3.05104 -27.27784
  -5.78345   5.02624 -25.66174
  -0.09725   7.65984 -23.26754
   5.22985  10.23364 -19.79604
  10.13795  12.32854 -15.00764
  14.14815  13.58544  -8.90244
  17.14095  13.46574  -1.30094
  19.29565  11.90954   7.01886
  21.27085   9.63504  15.51826
  23.30595   7.12114  23.77826
  25.87965   4.66714  31.43966
  29.59065   2.87144  38.92146
  34.19955   1.61454  45.98436
  39.04775   0.41744  52.86766
  43.77625  -1.07896  59.33196
  47.96605  -3.05416  65.31746
  51.55735  -5.62786  70.94376
  54.43045  -7.90236  75.55256
  56.52535  -9.33886  79.38326
  58.20125  -9.45856  82.37606
  59.51805  -8.26156  84.29136
  60.23635  -5.86736  85.42866
  60.17645  -2.69506  85.60816
  59.15895   0.41744  84.83006
  57.24355   3.52984  82.79496
  54.55015   5.86424  79.80226
  51.61725   7.36054  75.79196
  48.86395   8.13864  71.06346
  46.46975   8.55764  66.27506
  44.07555   8.85694  61.96556
  41.50175   9.15624  58.31446
  38.44915   9.63504  55.26186
  34.79805  10.05404  52.98736
  30.36885   9.87444  51.01216
  25.04175   9.33574  49.03696
  19.41535   8.49784  46.58286
  13.84885   7.60004  43.59016
   8.34225   6.40294  39.69956
   3.37435   5.20584  34.79146
  -0.87535   3.76924  28.68636
  -4.52655   1.61454  21.86286
  -7.75865  -0.83956  14.44086
 -10.87115  -3.23376   6.65976
 -14.10325  -5.14906  -1.48044
 -17.57485  -6.22646  -9.86014
 -21.04645  -6.40606 -18.06024
 -24.33845  -5.68776 -26.26034
 -27.15165  -4.37096 -34.58014
 -29.06695  -2.99426 -43.07954
 -29.84505  -1.91696 -51.39934
 -29.84505  -1.49796 -59.95854
 -29.48595  -1.97676 -68.75714
 -29.06695  -2.75486 -77.73544
 -28.58815  -3.47316 -86.23474
 -28.46845  -4.01186 -94.13564
 -28.70785  -4.43086-101.37804
 -29.00705  -4.73006-107.78244
 -29.72535  -5.56806-112.87014
 -30.32395  -6.88486-116.46144
 -30.74285  -8.62066-118.85564
 -31.52095 -10.17686-119.63374
 -32.71805 -11.01486-118.79574
 -34.75315 -10.95496-116.82054
 -37.56635  -9.99726-114.00734
 -40.55905  -8.50096-110.83504
 -43.55175  -6.70526-107.78244
 -45.82625  -4.96946-104.72984
 -47.14305  -3.95196-101.91674
 -47.38255  -3.83226 -99.10354
 -47.14305  -4.73006 -96.35024
 -46.36495  -6.04686 -93.11804
 -45.22775  -7.06446 -88.86834
 -44.38975  -7.42356 -84.31944
 -43.37225  -7.12426 -79.95004
 -42.41455  -6.04686 -74.38354
 -41.45685  -4.84976 -67.91924
 -40.19995  -4.13156 -60.79654
 -37.86555  -3.35346 -52.59644
 -34.81305  -2.87456 -43.49844
 -31.52095  -2.51546 -33.98154
 -28.40855  -2.27606 -23.86614
 -25.47565  -2.09646 -13.81054
 -22.54275  -1.91696  -4.35354
 -19.43035  -1.55776   5.04366
 -15.65945  -1.55776  14.26136
 -11.34995  -2.03666  23.47896
  -6.68125  -2.63516  32.87616
  -1.59365  -3.11396  42.39306
   3.61375  -3.11396  51.61066
   8.64155  -1.97676  60.64876
  13.01095   0.23784  69.32766
  16.24305   3.17074  76.86936
  18.27815   6.46274  82.91476
  18.99645   9.03654  87.64326
  18.87665  10.11394  91.53376
  17.85915   9.27594  94.40686
  16.78175   7.48024  96.38206
  15.70435   5.20584  97.69886
  14.86645   2.87144  98.17766
  14.02845   0.59694  97.75866
  13.37005  -1.01906  96.44186
  12.29265  -2.39576  94.58636
  11.39485  -3.83226  92.61116
  10.79635  -4.96946  90.69586
  10.37735  -5.68776  88.54106
  10.37735  -5.50816  86.38626
  11.15545  -4.49066  84.05196
  12.53205  -2.51546  81.77746
  14.26785  -0.60006  79.02416
  16.12335   0.77654  76.15116
  18.09855   1.37514  72.97886
  20.07375   1.49484  68.96856
  22.28845   1.07584  64.18016
  24.38335   0.71674  58.13486
  26.35855   1.13564  50.71286
  28.03445   2.57224  42.27336
  29.35125   4.72694  32.99586
  30.00965   6.94154  23.23956
  29.59065   7.95914  13.30366
  28.33375   7.95914   3.54736
  25.99945   7.06134  -5.96954
  23.06655   5.98394 -15.06744
  19.83435   5.08614 -23.74644
  16.54235   4.54744 -32.60494
  14.14815   4.42774 -41.58314
  12.89125   4.60724 -50.26204
  12.95105   4.84664 -58.52204
  14.26785   4.96634 -65.76444
  16.66205   4.54744 -71.33094
  19.41535   3.94884 -75.87994
  21.98915   2.99114 -79.59094
  23.84465   1.73424 -82.82304
  24.80235   0.41744 -85.57634
  24.62275  -0.71986 -87.85084
  23.42565  -1.19866 -90.00564
  21.39055  -0.77966 -91.92094
  18.51755   0.23784 -92.87864
  15.28545   1.43494 -93.47724
  11.93355   2.69194 -93.77644
   8.64155   3.58974 -93.47724
   5.88825   3.88904 -92.51954
   3.61375   3.94884 -90.96334
   1.87795   3.88904 -89.04794
   0.68085   4.00874 -86.89314
  -0.33665   4.42774 -84.25954
  -1.35425   5.26564 -80.96754
  -2.55135   6.52264 -76.95724
  -4.28705   8.13864 -72.34844
  -6.74115   9.87444 -66.48274
  -9.97325  11.43074 -59.89864
 -14.58215  12.08914 -52.47674
 -19.90915  11.84964 -44.27664
 -25.29615  10.59274 -35.71734
 -30.50345   8.01894 -26.49974
 -34.75315   4.96634 -17.10254
 -37.86555   1.61454  -7.28634
 -39.48165  -1.79716   2.88896
 -39.54155  -4.90966  13.06426
 -38.82325  -7.90236  23.11986
 -37.26705 -10.47616  32.75646
 -35.35165 -12.51116  42.27336
 -33.19695 -13.82796  51.49096
 -31.16185 -14.90536  60.34946
 -29.24655 -15.38426  68.31016
 -27.63045 -15.08496  75.79196
 -26.49315 -14.00756  82.19646
 -25.59535 -12.03236  87.70306
 -24.69755  -9.81776  92.49146
 -23.56035  -7.18416  96.62146
 -22.12385  -4.55056 100.03316
 -20.08875  -1.79716 102.90616
 -17.27555   0.47724 105.12086
 -13.92375   2.39264 107.03616
 -10.45215   3.52984 108.59236
  -6.80095   3.70944 109.60996
  -3.38925   3.29044 110.14866
  -0.39655   2.63204 110.20846
   2.47645   2.27294 110.08876
   4.93055   2.51234 109.90916
   7.26485   3.41014 109.78946
   8.88095   4.90654 109.55006
  10.07805   6.52264 108.71206
  10.55685   7.77954 106.97636
  10.61675   8.31824 103.92376
  10.61675   8.19854  99.73386
  10.85615   7.54014  94.34696
  11.15545   6.34304  87.76296
  11.63425   4.90654  80.16136
  12.23285   3.35034  72.02116
  12.35255   1.73424  62.86336
  12.11315   0.23784  53.28666
  11.45475  -1.25846  43.17116
  11.09555  -2.63516  32.93606
  10.67655  -3.89216  22.46146
  10.25765  -5.02936  12.10656
  10.31745  -6.04686   1.87136
  10.43715  -6.64546  -8.12434
  10.85615  -6.64546 -18.12004
  11.15545  -5.98706 -27.75674
  11.15545  -4.55056 -37.09404
  10.73645  -2.93446 -45.65324
  10.13795  -1.67746 -52.95554
   9.29995  -1.25846 -58.88114
   8.34225  -1.55776 -63.48994
   7.50425  -2.69506 -67.26084
   6.84585  -4.67026 -70.61264
   6.18745  -6.52576 -74.02444
   5.58895  -7.96226 -77.49594
   5.34955  -8.74036 -81.08724
   5.22985  -8.91996 -85.03764
