********************************************************************************
              CENTRO DE INSTRUMENTACION Y REGISTRO SISMICO  A.C.

    Anaxagoras 814, Col. Narvarte, Benito Juarez, C.P. 03020 Mexico, D.F.
           Tels. 5687 45 42/ 5687 45  82             Fax. 5669 25 12
********************************************************************************
ARCHIVO ESTANDAR DE ACELERACION:
VERSION DEL FORMATO                    : 2.0
NOMBRE DEL ARCHIVO                     : HJ7220170919181440
FECHA Y HORA DE CREACION               : 25/SEP/17, 11:17
REF. CATALOGO ACELEROGRAMAS, SMIS 1996 : REGISTRO No.     /PAG.


================================================================================
DATOS DE LA ESTACION:
NOMBRE DE LA ESTACION                  : HOSPITAL JUÁREZ
CLAVE DE LA ESTACION                   : HJ72
LOCALIZACION DE LA ESTACION            : Del. Cuahtemoc. Col. Centro, Hospital  
                                       : Juárez entre Fray Servando             
                                       : y San Pablo.                           
                                       :                                        
                                       : 
COORDENADAS DE LA ESTACION             : 19.4251 LAT. N
                                       : 99.1301 LONG. W
ALTITUD (msnm)                         : 2232
TIPO DE SUELO                          : Alto riesgo sísmico                 
                                       :                           
                                       : 
INSTITUCION RESPONSABLE                : CIRES
                                       : 

================================================================================
DATOS DEL ACELEROGRAFO:
MODELO DEL ACELEROGRAFO                : RADESD
NUMERO DE SERIE DEL ACELEROGRAFO       : 250
NUMERO DE CANALES                      : 3
ORIENTACION C1-C6 (rumbo;orientacion)  : /N00E/+V/N90W
ORIENTACION C7-C12 (rumbo;orientacion) : 
VEL. DE MUESTREO, C1-C6 (muestras/s)   : /100/100/100
VEL. DE MUESTREO, C7-C12 (muestras/s)  : 
ESC. COMPLETA DE SENSORES, C1-C6, (g)  : /0.5/0.5/0.5
ESC. COMPLETA DE SENSORES, C7-C12, (g) : 
FREC. NAT. DE SENSORES, C1-C6, (Hz)    : /32/30/30
FREC. NAT. DE SENSORES, C7-C12, (Hz)   : 
AMORTIGUAMIENTO DE SENSORES, C1-C6     : /0.750/0.766/0.700
AMORTIGUAMIENTO DE SENSORES, C7-C12    : 
INTERVALO DE MUESTREO, C1-C6, (s)      : /0.01/0.01/0.01
INTERVALO DE MUESTREO, C7-C12, (s)     : 
UMBRAL DE DISPARO, C1-C6, (Gal)        : /1.2/4.04/1.2
UMBRAL DE DISPARO, C7-C12, (Gal)       : 
MEMORIA DE PREEVENTO (s)               : 44.0
TIEMPO DE POSEVENTO (s)                : 0.0


================================================================================
DATOS DEL SISMO:
FECHA DEL SISMO (GMT)                  : 19/SEP/17
HORA EPICENTRO (GMT)                   : 18:14:40.0
MAGNITUD(ES)                           : /Mc=7.1
COORDENADAS DEL EPICENTRO              : 18.40 LAT. N
                                       : 98.72 LONG. W
PROFUNDIDAD FOCAL (km)                 : 57
FUENTE DE LOS DATOS EPICENTRALES       : SSN
                                       : INSTITUTO DE GEOFISICA, UNAM

================================================================================
DATOS DE ESTE REGISTRO:
HORA DE LA PRIMERA MUESTRA (GMT)       : 18:15:01.00
EXACTITUD DEL TIEMPO (s)               : 0.01
DURACION DEL REGISTRO (s), C1-C6       : /397.4/397.4/397.4
DURACION DEL REGISTRO (s), C7-C12      : 
NUM. TOTAL DE MUESTRAS, C1-C6          : /39740/39740/39740
NUM. TOTAL DE MUESTRAS, C7-C12         : 
ACEL. MAX. (Gal), C1-C6                : /90.33405/40.60182/96.40245
ACEL. MAX., C1-C6, EN LA MUESTRA       : /7192/7104/7084
ACEL. MAX. (Gal), C7-C12               : 
ACEL. MAX., C7-C12, EN LA MUESTRA      : 
UNIDADES DE LOS DATOS                  : Gal (cm/s/s)
FACTOR DE DECIMACION                   : 1
FORMATO DATOS (FORTRAN,10 campos/dato) : 3F10.5


================================================================================
CALIDAD DEL ACELEROGRAMA:
REGISTRO DIGITAL COMPLETO CON TIEMPO ABSOLUTO CORRECTO.


================================================================================
COMENTARIOS:














================================================================================
DATOS DE ACELERACION:
---------+---------+---------+---------+---------+---------+---------+---------+
   CANAL-1   CANAL-2   CANAL-3   CANAL-4   CANAL-5   CANAL-6   CANAL-7   CANAL-8
      N00E        +V      N90W
---------+---------+---------+---------+---------+---------+---------+---------+
[...]
 -53.41845 -28.66074  32.16618
 -43.91646 -28.64577  36.19143
 -32.49911 -29.61842  40.27654
 -20.61789 -32.04255  43.80798
  -9.15565 -34.93055  47.33943
   0.70547 -37.29483  50.79606
   5.26942 -38.26747  54.71657
   3.29420 -38.04301  60.13345
  -2.33217 -37.30979  66.49305
  -5.25011 -35.31961  71.19167
  -3.54424 -31.51882  74.39391
  -3.49935 -27.31400  77.65601
  -8.28775 -24.36614  78.58376
 -12.19329 -21.32849  77.68594
 -10.42757 -15.86672  75.54612
  -6.76145  -8.39981  73.21177
  -5.41471  -3.10263  70.66793
  -6.79137  -1.69604  67.12152
  -9.17061  -3.08767  63.78460
 -11.40021  -4.19499  61.22580
 -13.77945  -2.11503  59.28051
 -16.47293   4.00515  58.17319
 -20.57300  11.78631  56.31769
 -25.27162  18.16087  52.92091
 -30.23959  21.72224  48.11755
 -34.68382  22.90438  41.72802
 -38.12549  22.66496  34.79980
 -39.47223  22.50036  28.06611
 -38.02074  23.06898  22.18535
 -34.72871  23.87703  17.93564
 -31.67611  24.14637  15.60130
 -29.44651  22.69489  14.35930
 -27.87531  19.67221  13.73083
 -27.29173  16.66449  12.72825
 -27.59100  15.12323  10.57347
 -28.51875  15.64696   7.02706
 -29.64104  16.96377   3.07663
 -31.27209  17.98130  -0.99351
 -33.74111  17.12837  -4.40525
 -36.88350  14.15058  -6.67974
 -39.93610   9.76620  -7.66735
 -42.06096   5.33693  -7.78706
 -43.06353   0.36896  -7.38304
 -42.95878  -4.59901  -6.05127
 -41.89636  -9.64180  -3.46253
 -40.38502 -15.02875   0.26344
 -39.36748 -19.78723   4.57300
 -38.85871 -23.28875   8.73293
 -38.73900 -24.65045  12.05488
 -38.87368 -23.52817  14.83814
 -39.00835 -20.67009  17.29220
 -39.39741 -16.86929  18.66887
 -39.86128 -13.14332  19.13274
 -40.90875 -10.15057  18.93821
 -42.62958  -7.68155  18.51923
 -44.84422  -5.70633  18.38456
 -46.98403  -3.55155  18.59405
 -48.67494  -1.53144  19.22253
 -50.45563  -0.64858  19.67144
 -53.04436  -1.92050  19.22253
 -56.17178  -5.61655  17.29220
 -59.89776  -9.92611  14.28449
 -63.42921 -13.20317  10.22931
 -66.06283 -13.90647   5.93471
 -67.25993 -11.19803   1.90946
 -67.49935  -6.36473  -1.54717
 -67.97819  -0.93289  -4.73445
 -69.36982   3.52631  -7.78706
 -71.06072   6.42928 -10.64514
 -72.48228   8.03040 -13.81746
 -72.87134   8.64392 -17.19927
 -71.55453   9.09283 -20.70079
 -68.09790   9.88591 -23.45412
 -62.42663  11.12790 -25.87825
 -54.78015  12.35493 -27.73375
 -46.01139  13.62685 -29.94839
 -36.43458  15.03344 -32.92618
 -27.06727  16.55975 -36.78683
 -18.44814  17.36779 -40.84201
 -11.01115  17.33786 -44.64280
  -4.98076  15.96120 -47.32132
  -0.50659  13.68670 -48.09943
   3.30916  11.33739 -47.21657
   7.73844  10.23008 -44.02929
  13.31992  10.82863 -40.09382
  20.27807  12.71406 -35.91893
  27.40082  15.16812 -32.62690
  34.55350  17.18822 -31.10060
  42.70875  18.57985 -31.90864
  52.61475  19.05869 -34.42255
  63.20910  19.28315 -36.45763
  70.97529  19.14848 -36.57734
  74.10271  17.60721 -34.37766
  73.62387  14.33015 -31.11556
  72.89065  10.76877 -25.32459
  72.59137   8.71874 -17.00474
  71.34938   8.28479  -8.69985
  69.38913   8.68881  -3.11837
  68.65591   9.70634  -2.25047
  69.85301  11.24761  -5.54250
  71.84319  13.11808 -11.39333
  73.89322  14.76410 -18.45622
  75.46442  15.15315 -25.38444
  76.15275  13.16297 -31.19038
  75.58413   8.19500 -34.97621
  74.16257   1.85037 -36.60726
  71.72348  -4.10521 -36.66712
  68.59605  -7.32241 -35.87404
  64.90000  -7.08299 -34.61708
  60.87475  -4.19499 -33.56962
  56.90935  -0.72340 -33.37509
  53.90164   1.28175 -34.42255
  52.55490   1.10218 -36.83172
  53.28812  -1.11245 -40.27339
  55.65240  -4.16506 -44.38842
  59.31852  -6.76876 -49.25164
  63.98721  -8.68412 -53.71084
  68.55116 -10.18049 -56.50907
  72.57641 -11.27285 -57.03280
  75.19507 -12.20060 -55.31196
  76.60166 -12.70937 -51.39146
  77.06554 -12.15571 -45.86983
  77.54438 -10.80897 -39.91425
  77.69402  -9.53705 -34.67694
  77.21518  -9.40238 -31.51959
  75.07536 -10.41991 -30.75643
  71.63369 -12.72433 -31.89368
  67.51866 -14.95393 -33.92875
  63.55326 -16.33060 -36.29302
  60.29116 -16.16600 -37.78940
  58.13638 -14.41524 -37.87918
  56.86446 -11.10825 -36.42770
  55.95167  -6.17021 -33.86890
  54.90421  -0.63361 -30.39730
  53.10856   5.47160 -26.85089
  50.26544  10.76877 -23.40923
  46.16537  14.13562 -21.17963
  40.29958  15.13819 -20.31173
  32.60821  13.77649 -21.20955
  23.88433  11.21768 -23.21470
  15.50463   9.21254 -25.80343
   8.66619   9.15269 -28.61662
   3.81793  10.03555 -31.22031
   1.10949   9.99066 -33.64444
  -0.05768   7.88077 -35.57476
  -0.38688   3.42157 -37.28063
  -0.50659  -1.81575 -38.67226
  -0.34199  -6.54430 -39.65987
   0.24159  -9.70165 -40.36317
   1.28906 -12.38017 -40.63252
   2.36645 -14.49006 -40.64748
   3.21938 -16.00140 -39.83944
   3.65333 -16.13607 -38.64234
   4.31174 -14.02618 -37.19085
   5.98768 -10.38999 -35.61966
   8.65123  -6.96328 -34.25795
  12.76626  -5.22749 -33.33020
  18.16818  -5.51180 -32.16303
  23.67484  -6.60415 -30.45716
  28.46325  -7.71147 -28.49691
  32.23411  -8.53448 -27.01549
  34.67321 -10.03086 -25.89321
  35.67578 -13.17325 -25.14502
  35.36154 -16.83937 -24.87568
  33.95495 -19.36824 -23.76836
  31.60564 -19.11386 -19.98253
  28.32857 -15.71708 -14.43097
  24.82705 -10.97357  -9.26847
  22.10365  -6.85854  -5.27315
  21.66970  -4.01542  -1.59206
  21.95401  -1.71100   1.92442
  21.11604   0.09961   4.99199
  19.58974   0.80291   6.44347
  18.75177   0.20436   6.09931
  18.81162  -1.62122   5.57558
  18.30285  -3.56651   5.45587
  15.48967  -4.07528   4.66279
  11.47938  -3.19242   3.25619
   8.02275  -1.60626   2.19377
   4.77561  -0.21463   1.69996
   0.92993   0.81787   1.34083
  -3.43949   1.07225  -0.12562
  -8.22789   0.74305  -2.51982
 -13.33054   0.15947  -5.58739
 -17.65506  -1.08253  -8.90934
 -21.69528  -2.41430 -12.32108
 -25.25665  -4.25484 -15.44851
 -28.77314  -5.66144 -17.46861
 -32.24473  -6.31984 -18.38140
 -34.78857  -5.70633 -18.33651
 -35.62654  -4.28477 -18.02227
 -34.84842  -1.92050 -16.97481
 -33.26227  -0.03506 -15.28391
 -31.82574   0.60838 -13.90724
 -31.72100   0.35399 -12.78496
 -32.61882  -0.76829 -11.72253
 -34.48929  -1.98035 -10.31594
 -36.10538  -2.51905  -8.23597
 -36.18020  -2.21977  -5.45271
 -33.89074  -0.94785  -1.47235
 -28.98263   0.27918   3.83978
 -22.11426   0.74305  10.42383
 -14.09369  -0.66354  17.50169
  -6.17786  -4.49426  24.29524
   0.49598  -9.56698  30.53513
   5.22453 -13.42763  36.17647
   7.37931 -14.71451  41.32400
   7.75340 -12.81411  46.23211
   6.61616  -8.83375  50.94570
   3.65333  -4.37455  55.34504
  -0.58141  -1.06756  58.18816
  -5.48953   0.77298  59.47504
  -9.66442   1.52117  59.41519
 -12.79184   2.46388  58.35276
 -14.36304   4.00515  57.39508
 -15.41050   5.87562  57.49983
 -17.05651   7.92566  58.00859
 -19.58539   9.01801  58.47247
 -23.07195   8.61399  58.95131
 -27.41144   7.32711  58.93635
 -32.13998   6.33950  57.85896
 -37.21270   6.33950  54.62678
 -42.04599   8.44939  49.77852
 -46.68476  11.32243  43.94266
 -50.85965  12.93852  38.31628
 -54.16664  11.50200  33.67752
 -56.20171   7.07272  30.84937
 -56.80026   1.58102  29.68219
 -55.91740  -2.77343  29.86176
 -54.06189  -3.74608  31.26835
 -52.07171  -1.77086  33.54284
 -50.14139   0.90765  35.98194
 -49.18371   2.10475  37.95715
 -49.24356   0.30910  39.16922
 -50.03664  -3.19242  39.85755
 -50.82972  -7.21767  40.18675
 -51.35345 -10.01589  40.53092
 -51.51805 -12.00607  41.32400
 -51.42827 -13.56230  41.65320
 -51.24871 -14.47509  41.53349
 -50.59030 -14.89408  40.23165
 -48.89940 -14.68458  37.88234
 -45.81686 -13.83165  34.76987
 -41.17810 -12.81411  31.35814
 -35.07288 -12.36520  28.51502
 -27.75560 -12.36520  26.97375
 -19.85474 -12.15571  27.15332
 -12.13344 -10.65933  27.97633
  -4.44206  -7.68155  29.09861
   1.93250  -4.41945  29.62234
   6.33184  -1.60626  28.96393
   8.20231   0.48867  27.36281
   7.52894   2.17957  25.02847
   4.43145   4.73838  23.03828
  -0.41681   8.20997  21.94593
  -5.63916  11.81623  22.08060
 -10.68195  14.10569  23.30763
 -15.18604  14.80899  25.53723
 -18.41822  14.30022  29.06868
 -20.34854  13.37247  33.52788
 -21.36608  12.69910  38.66045
 -21.51571  12.29508  43.98755
 -21.41097  12.19033  49.25479
 -21.51571  11.65163  53.86363
 -22.51829  11.50200  57.20055
 -24.55336  11.71149  59.19073
 -27.14209  13.05823  59.98381
 -29.97024  14.01591  59.68453
 -32.66372  13.43232  58.83160
 -35.01303  11.05308  57.58961
 -36.62911   7.80595  55.61439
 -37.19773   5.03765  53.45961
 -36.74882   4.02012  51.90338
 -35.08784   4.52888  50.48182
 -32.81335   5.33693  49.44932
 -31.00274   5.33693  48.74603
 -30.00017   4.25954  48.34200
 -29.47643   3.10733  48.85077
 -29.55125   2.76316  49.73363
 -29.97024   3.28689  50.55664
 -30.74835   3.57120  50.79606
 -32.05020   2.80805  50.22744
 -33.63636   0.71312  48.46171
 -34.54915  -1.84568  45.18465
 -34.50426  -3.16249  41.62328
 -32.88817  -2.26466  37.80752
 -29.97024   0.53356  34.85966
 -25.93002   3.52631  33.25853
 -20.93213   5.11247  32.85451
 -16.12876   4.19968  33.48299
 -12.05862   1.29671  35.08411
  -9.33521  -1.77086  36.77502
  -8.27279  -3.52162  37.56810
  -8.75163  -3.19242  36.65531
 -10.75677  -1.21720  33.67752
 -13.51010   1.34160  28.81430
 -16.06891   3.64602  22.99339
 -18.13390   4.48399  16.37941
 -19.13648   5.08254   9.88514
 -19.00180   5.21722   4.10913
 -18.25361   5.95044  -0.32015
 -17.41564   7.77602  -3.58224
 -16.47293  10.63410  -5.75199
 -15.48532  13.74656  -7.51771
 -14.52764  15.52725  -9.44804
 -13.97398  15.09330 -12.02181
 -13.82434  13.35750 -15.40362
 -13.51010  11.41221 -19.62340
 -12.64220  10.14029 -24.27713
 -10.87648   9.55671 -28.63158
  -8.27279   8.07529 -32.71669
  -4.66652   5.09751 -36.41274
  -0.76098   1.11715 -39.30074
   4.26685  -2.05517 -41.60516
  10.02789  -2.57890 -43.31103
  17.04590  -0.05003 -44.20885
  24.91683   4.75334 -44.44827
  32.21915   9.52678 -43.95447
  38.14480  12.54946 -43.23621
  41.76603  12.17536 -42.30846
  42.42443   8.64392 -42.08400
  41.21237   2.80805 -42.57780
  39.71599  -3.65629 -43.44570
  39.49154  -8.63923 -44.37346
  40.94302 -11.18307 -44.77748
  42.72371 -11.13817 -44.88222
  43.65146  -9.94107 -45.63041
  43.44197  -8.74397 -47.26146
  42.96313  -7.60673 -49.59581
  42.18501  -6.25999 -52.72323
  40.97295  -4.15010 -56.17986
  39.50650  -0.91793 -59.41203
  38.45904   3.04747 -61.77631
  37.75574   6.18986 -63.28765
  36.79806   7.35703 -64.39497
  35.16701   6.45921 -65.54718
  32.78777   4.97780 -67.13334
  29.86984   4.51392 -69.22826
  27.25118   5.71102 -71.74217
  25.05151   7.77602 -74.39076
  23.52520   9.60160 -77.48826
  21.95401  10.34979 -80.81021
  20.35289  10.58921 -84.79057
  18.49738   9.84102 -88.59137
  16.47727   8.37457 -92.39216
  14.18782   6.54899 -95.22031
  12.03304   5.20225 -96.40245
  10.13264   4.84312 -95.29513
   8.44173   5.53146 -92.09289
   7.54391   6.35446 -87.03514
   7.42420   5.78584 -81.48358
   7.67858   3.13725 -76.20137
   8.17239  -1.12742 -72.44547
   8.89065  -5.33223 -70.66478
   9.54905  -8.53448 -70.85931
  10.82097 -10.56955 -71.81699
  12.28742 -12.61959 -73.17869
  14.08307 -16.01636 -73.95681
  15.74405 -20.52045 -74.04659
  17.79408 -25.59317 -72.83453
  20.29303 -29.81295 -69.63228
  23.60002 -32.43160 -64.43986
  27.73002 -34.10755 -57.54156
  32.21915 -35.51414 -49.65566
  36.91777 -37.30979 -42.08400
  41.63135 -39.38975 -35.47002
  46.68911 -40.60182 -30.75643
  51.50744 -40.34743 -27.97317
  56.23598 -38.61164 -26.31220
  60.32109 -35.63385 -25.10013
  64.31642 -32.67102 -23.69354
  67.83290 -30.32171 -22.09242
  71.00522 -28.46621 -20.38655
  73.01036 -26.74538 -18.24673
  72.47166 -25.08440 -15.97224
  69.22453 -23.75262 -14.32622
  64.03210 -22.79494 -13.87731
  59.45319 -21.13397 -13.99702
  58.36084 -17.51274 -13.32365
  59.69261 -11.15314 -12.26123
  58.39077  -4.91325 -12.84481
  53.37791  -1.27706 -16.67554
  49.29280   0.38392 -21.73329
  48.51468   1.35657 -26.62644
  48.45483   2.32921 -29.67904
  47.57197   3.04747 -30.12796
  46.59932   4.15479 -28.49691
  46.13545   5.42671 -25.04028
  45.62668   7.13258 -20.26684
  44.07045   8.25486 -14.82003
  40.82331   8.94319  -9.49293
  36.28929   8.44939  -4.53993
  32.00966   8.12019  -0.49971
  28.97201   8.16508   3.33101
  27.84973   8.82348   6.74275
  27.99937   9.66145   9.43623
  29.09172  10.28993  11.53115
  30.73774  10.27497  13.32680
  32.18922   9.37714  15.13742
  33.11698   7.92566  16.40934
  33.64071   6.59388  17.81593
  34.04473   5.29204  18.90829
  33.99984   3.79566  19.67144
  33.58085   2.19454  19.61158
  33.04216   0.36896  18.57908
  32.53339  -1.03764  16.40934
  31.62060  -2.05517  12.95271
  31.12679  -2.18985   7.98474
  30.84248  -1.14238   2.25362
  31.32132   1.55110  -3.65706
  32.53339   4.79823  -9.64257
  33.77538   8.04537 -15.08938
  35.10716  10.73884 -19.21937
  36.10973  13.25276 -21.46394
  37.14223  14.79402 -21.97271
  37.95027  14.73417 -21.50883
  38.26451  12.92355 -20.91028
  37.26194   9.33225 -20.58108
  34.55350   5.81577 -19.95260
  30.12422   3.42157 -19.00988
  24.40807   2.71827 -17.15438
  17.64445   2.67338 -14.58061
  10.07278   2.34417 -10.63018
   2.12703   1.74562  -5.81185
  -5.33989   1.58102   0.08388
 -11.77431   2.35914   6.59311
 -16.86198   4.51392  13.56622
 -19.73503   7.56653  20.73387
 -21.23140  10.84359  27.82669
 -22.17412  13.40239  34.33592
 -23.62560  15.19804  39.57324
 -26.55850  16.45500  44.13719
 -31.34690  17.35283  48.44675
 -37.39226  17.99627  52.72639
 -44.27559  17.87656  57.17062
 -51.15892  17.00866  61.45026
 -57.27910  15.91631  65.55033
 -62.48649  15.19804  69.03688
 -66.19750  15.96120  71.73036
 -68.38221  18.49007  73.79536
 -69.14536  22.60511  75.11217
 -69.23515  27.13913  75.72569
 -69.38478  30.34137  75.23188
 -70.20779  31.32898  74.10960
 -72.06330  30.46108  72.79279
 -74.81663  29.05449  71.80518
 -77.79442  28.11177  71.99971
 -80.56271  27.90228  73.07710
 -82.85217  28.03695  74.42384
 -84.52811  27.91724  75.44137
 -86.14420  26.45079  75.86036
 -87.67050  24.01170  75.27677
 -88.98731  20.83938  73.33148
 -89.82528  18.11598  70.12924
 -90.33405  15.97616  66.53794
 -90.22930  14.44986  63.09627
 -89.95995  12.78888  60.11848
 -89.79535  10.97826  58.30787
 -89.95995   9.09283  57.26040
 -90.21434   7.53660  56.60200
 -90.31908   6.45921  55.64432
 -89.18184   5.99533  53.95341
 -86.96720   5.42671  51.15519
 -84.22883   4.70845  47.17483
 -81.40068   3.55624  41.99737
 -78.91670   2.41899  36.10165
 -76.22322   1.01240  29.51759
 -73.41004  -0.75332  23.48720
 -70.19283  -3.22234  17.93564
 -67.15518  -5.54173  12.78811
 -64.37192  -7.14285   8.73293
 -61.30435  -7.98082   5.66536
 -57.99736  -8.02571   3.77993
 -53.76262  -8.16039   3.25619
 -48.65998  -8.28010   3.52554
 -42.91389  -8.63923   4.84235
 -36.91342  -9.20785   6.66793
 -31.18230 -10.15057   8.73293
 -26.55850 -11.58709  10.25923
 -22.95224 -13.77180  11.32166
 -19.49561 -15.40285  11.45633
 -15.17108 -15.76198  10.96253
 -10.15822 -14.59480   9.97492
  -6.08808 -12.57469   8.92746
  -4.90594 -10.47977   7.31137
  -5.74391  -8.63923   4.67775
  -7.33007  -7.08299   2.16384
  -8.66184  -5.43698   0.74228
 -10.15822  -3.64133   0.65250
 -12.64220  -1.84568   1.95435
 -15.03641  -0.76829   3.70511
 -16.68242  -0.88800   5.48579
 -17.44557  -2.45919   7.05699
 -17.81967  -5.37713   8.20920
 -17.93938  -8.38484   8.49351
 -17.44557 -10.52466   8.16431
