********************************************************************************
              CENTRO DE INSTRUMENTACION Y REGISTRO SISMICO  A.C.

    Anaxagoras 814, Col. Narvarte, Benito Juarez, C.P. 03020 Mexico, D.F.
           Tels. 5687 45 42/ 5687 45  82             Fax. 5669 25 12
********************************************************************************
ARCHIVO ESTANDAR DE ACELERACION:
VERSION DEL FORMATO                    : 2.0
NOMBRE DEL ARCHIVO                     : IB2220170919181440
FECHA Y HORA DE CREACION               : 27/SEP/17, 17:26
REF. CATALOGO ACELEROGRAMAS, SMIS 1996 : REGISTRO No.     /PAG.


================================================================================
DATOS DE LA ESTACION:
NOMBRE DE LA ESTACION                  : ESC. SEC. TÉC. NO. 95
CLAVE DE LA ESTACION                   : IB22
LOCALIZACION DE LA ESTACION            : Del. Coyoacán, Col. Campestre          
                                       : Churubusco entre Cerro del Crestón     
                                       : y Cerro Mezontepec.                    
                                       :                                        
                                       : 
COORDENADAS DE LA ESTACION             : 19.3450 LAT. N
                                       : 99.1297 LONG. W
ALTITUD (msnm)                         : 2234
TIPO DE SUELO                          : Alto riesgo sísmico                 
                                       :                           
                                       : 
INSTITUCION RESPONSABLE                : CIRES
                                       : 

================================================================================
DATOS DEL ACELEROGRAFO:
MODELO DEL ACELEROGRAFO                : RADESD
NUMERO DE SERIE DEL ACELEROGRAFO       : 224
NUMERO DE CANALES                      : 3
ORIENTACION C1-C6 (rumbo;orientacion)  : /N00E/+V/N90W
ORIENTACION C7-C12 (rumbo;orientacion) : 
VEL. DE MUESTREO, C1-C6 (muestras/s)   : /100/100/100
VEL. DE MUESTREO, C7-C12 (muestras/s)  : 
ESC. COMPLETA DE SENSORES, C1-C6, (g)  : /0.5/0.5/0.5
ESC. COMPLETA DE SENSORES, C7-C12, (g) : 
FREC. NAT. DE SENSORES, C1-C6, (Hz)    : /30/30/30
FREC. NAT. DE SENSORES, C7-C12, (Hz)   : 
AMORTIGUAMIENTO DE SENSORES, C1-C6     : /0.700/0.700/0.695
AMORTIGUAMIENTO DE SENSORES, C7-C12    : 
INTERVALO DE MUESTREO, C1-C6, (s)      : /0.01/0.01/0.01
INTERVALO DE MUESTREO, C7-C12, (s)     : 
UMBRAL DE DISPARO, C1-C6, (Gal)        : /1.5/5.69/1.5
UMBRAL DE DISPARO, C7-C12, (Gal)       : 
MEMORIA DE PREEVENTO (s)               : 44.0
TIEMPO DE POSEVENTO (s)                : 28.0


================================================================================
DATOS DEL SISMO:
FECHA DEL SISMO (GMT)                  : 19/SEP/17
HORA EPICENTRO (GMT)                   : 18:14:40.0
MAGNITUD(ES)                           : /Mc=7.1
COORDENADAS DEL EPICENTRO              : 18.40 LAT. N
                                       : 98.72 LONG. W
PROFUNDIDAD FOCAL (km)                 : 57
FUENTE DE LOS DATOS EPICENTRALES       : SSN
                                       : INSTITUTO DE GEOFISICA, UNAM

================================================================================
DATOS DE ESTE REGISTRO:
HORA DE LA PRIMERA MUESTRA (GMT)       : 18:15:00.00
EXACTITUD DEL TIEMPO (s)               : 0.01
DURACION DEL REGISTRO (s), C1-C6       : /364.4/364.4/364.4
DURACION DEL REGISTRO (s), C7-C12      : 
NUM. TOTAL DE MUESTRAS, C1-C6          : /36440/36440/36440
NUM. TOTAL DE MUESTRAS, C7-C12         : 
ACEL. MAX. (Gal), C1-C6                : /119.01291/46.21105/160.88158
ACEL. MAX., C1-C6, EN LA MUESTRA       : /6366/6359/6542
ACEL. MAX. (Gal), C7-C12               : 
ACEL. MAX., C7-C12, EN LA MUESTRA      : 
UNIDADES DE LOS DATOS                  : Gal (cm/s/s)
FACTOR DE DECIMACION                   : 1
FORMATO DATOS (FORTRAN,10 campos/dato) : 3F10.5


================================================================================
CALIDAD DEL ACELEROGRAMA:
REGISTRO DIGITAL COMPLETO CON TIEMPO ABSOLUTO CORRECTO.


================================================================================
COMENTARIOS:














================================================================================
DATOS DE ACELERACION:
---------+---------+---------+---------+---------+---------+---------+---------+
   CANAL-1   CANAL-2   CANAL-3   CANAL-4   CANAL-5   CANAL-6   CANAL-7   CANAL-8
      N00E        +V      N90W
---------+---------+---------+---------+---------+---------+---------+---------+
[...]
  19.92288   9.83415 -21.20984
  22.61636  11.19585 -22.94564
  26.14781  10.98636 -22.18249
  30.44241  10.22321 -19.71347
  34.88664   8.72683 -15.89771
  39.39074   8.03850 -10.91478
  43.52073   8.02353  -5.90192
  46.88758   8.24799  -0.87409
  49.49127   8.69690   2.83692
  50.86794   9.16078   5.23112
  51.18218  10.16335   5.84464
  50.79312  11.98893   5.18623
  50.55370  13.00646   3.58511
  49.43142  13.82947   1.26572
  47.93504  15.05650  -1.27811
  46.03465  16.44813  -2.74456
  44.20907  17.01675  -3.37304
  43.22146  16.25360  -3.01391
  42.51816  14.08386  -1.15840
  41.39588  10.85168   2.19348
  40.30353   6.78154   7.05670
  39.86958   1.30480  11.75532
  39.88454  -4.63581  15.07728
  40.00425  -9.67860  17.24702
  39.43563 -13.28486  17.78572
  38.38816 -15.20022  16.90285
  36.65237 -16.68164  14.95757
  33.98882 -18.37254  11.80021
  30.95118 -19.89884   7.70014
  27.49455 -20.88645   3.74971
  24.38209 -21.05105  -0.29051
  22.04774 -20.45250  -4.10627
  20.32691 -19.24044  -7.38333
  19.11484 -17.48968  -9.56804
  18.83053 -15.31993 -11.06441
  18.84549 -12.71624 -12.32137
  19.23455 -10.05269 -13.83271
  19.35426  -7.25447 -16.09224
  19.30937  -5.27925 -19.24959
  19.18966  -2.94490 -23.34966
  19.36923  -0.95472 -28.49719
  19.63857   0.49676 -34.33306
  20.46158   1.91832 -39.98936
  21.17984   2.78622 -44.40367
  21.91306   3.62419 -46.30407
  22.79593   4.59683 -45.21172
  23.93317   5.16545 -41.59049
  25.27991   4.89611 -35.66484
  26.26752   4.44719 -29.06582
  27.22520   4.38734 -22.49673
  27.46462   4.88114 -17.06488
  26.83614   4.80632 -12.93488
  25.36969   3.95339 -10.01695
  23.12513   2.80118  -8.31108
  20.01267   2.92089  -7.66764
  16.72064   3.59426  -8.25123
  13.78774   4.50705 -10.27133
  11.91727   4.62676 -13.32394
  10.52564   4.17785 -16.60101
   9.44825   3.81872 -19.15981
   7.78727   3.36980 -20.95546
   6.47046   2.33730 -21.82336
   5.93177   0.24238 -22.37702
   6.42557  -2.37628 -23.05039
   6.94930  -4.90516 -23.64894
   7.59275  -6.80555 -24.03799
   8.64021  -8.16726 -24.57669
   9.41832  -9.85816 -24.42705
   9.98695 -11.98302 -24.35223
  10.21140 -14.67649 -23.93325
   9.92709 -16.78638 -23.08031
   9.05919 -18.31269 -22.33213
   7.29347 -19.70432 -21.35948
   4.86934 -21.36529 -20.61129
   2.04119 -23.10109 -20.92553
  -0.68221 -24.19344 -22.67629
  -3.46547 -24.10366 -25.32488
  -5.65018 -23.80439 -29.05085
  -6.72757 -23.55000 -32.40274
  -6.78743 -23.35547 -35.27578
  -6.51808 -21.88902 -36.75719
  -5.73996 -19.00102 -36.41302
  -4.82718 -15.14037 -35.06629
  -3.66000 -11.17497 -32.70201
  -3.76475  -6.86541 -30.20306
  -5.12645  -2.87008 -27.50959
  -7.31116  -0.13172 -25.48948
  -9.88493   1.15517 -23.54419
 -13.52112   1.43948 -22.10767
 -17.81572   0.54165 -20.89560
 -23.33735   0.07778 -19.08499
 -29.59220   0.84093 -16.54115
 -36.16129   3.33988 -13.05459
 -43.46360   7.11074  -7.95195
 -50.13744  11.39038  -1.69710
 -55.98827  16.08900   5.44061
 -60.94128  19.78505  13.35644
 -64.66725  21.74530  20.68869
 -67.31584  21.52084  26.59937
 -69.42573  20.05440  30.26549
 -71.74511  17.95947  31.44763
 -74.84261  15.55030  30.31038
 -77.97004  12.37799  27.19792
 -81.32192   8.39763  22.30477
 -84.23985   4.19281  16.94775
 -87.11289   1.17013  11.90496
 -89.14796  -0.64048   8.62789
 -90.13557  -1.58320   7.95453
 -89.70162  -2.64563   9.70529
 -88.30999  -5.05479  14.16449
 -86.00558  -8.27200  20.91314
 -82.80333 -11.72863  28.60451
 -79.31677 -15.02066  36.96926
 -75.66562 -18.10319  44.87012
 -72.92725 -20.73681  52.12755
 -70.86225 -22.41276  58.21780
 -69.30602 -22.47261  63.76935
 -68.07899 -21.05105  68.84207
 -66.67240 -18.46232  73.67536
 -64.27820 -15.55935  77.80536
 -61.33033 -12.68631  81.47148
 -57.94852  -9.72349  83.34195
 -55.27001  -6.28182  84.10510
 -53.50429  -2.45110  83.08757
 -52.87581   0.75115  79.46634
 -52.68128   3.72893  73.67536
 -52.26230   5.92861  66.07377
 -51.08016   6.78154  58.15794
 -48.41661   5.92861  52.12755
 -44.60085   2.96578  48.85048
 -39.94712  -1.05947  48.89537
 -35.54778  -4.90516  51.66367
 -32.07618  -7.00008  55.67396
 -30.69952  -6.38657  60.77660
 -30.92397  -3.45367  65.80442
 -31.41778   1.02049  69.94938
 -32.62984   5.19538  72.22388
 -33.40796   8.00857  72.29870
 -33.51270  10.01371  70.57786
 -32.76452  11.77944  68.27344
 -31.17836  14.14371  66.83692
 -28.41006  16.34338  66.67232
 -23.90597  17.19632  67.04642
 -17.12739  16.41820  66.47779
  -8.74768  14.35320  64.48761
   0.44007  12.06375  60.89631
   9.46322  10.62723  55.32979
  18.15716   9.56480  47.86287
  26.58176   8.53230  37.98679
  34.10853   7.36513  27.36252
  40.75244   5.28516  18.32441
  46.24414   2.32234  12.30898
  50.53874   0.34712  10.10931
  53.24718  -0.37114  13.35644
  55.20743   0.79604  21.97557
  56.43446   3.68404  34.96411
  57.66149   8.05346  48.86545
  58.72392  13.11121  60.67185
  59.86116  19.06679  69.38076
  61.08819  25.83041  73.52572
  63.87145  33.13272  72.77754
  67.79195  40.15073  67.12123
  73.65775  45.34315  56.97580
  80.87028  46.21105  42.58067
  89.10035  42.17083  26.16542
  97.28553  34.25500   9.42097
 104.27360  23.79534  -4.57014
 109.98976  12.84186 -14.55097
 114.53874   2.05299 -19.77332
 117.65120  -7.95776 -19.66858
 119.01291 -16.45718 -15.82289
 118.98298 -22.59232  -8.98445
 117.35193 -25.49529  -0.88906
 113.38653 -25.51025   6.81728
 107.41599 -24.32812  14.05974
 100.08375 -22.05363  18.74340
  92.25770 -19.70432  19.43173
  84.49151 -17.63932  17.45651
  78.17680 -15.67906  12.30898
  73.49315 -15.06555   4.12380
  69.33322 -14.43707  -5.34826
  65.35286 -13.12026 -13.92249
  61.29768 -11.69870 -21.32955
  57.57171 -10.77095 -25.89350
  53.77091 -10.09758 -28.39245
  49.55113  -9.79831 -30.02350
  44.05943  -8.90048 -31.95382
  37.20603  -8.16726 -34.91665
  29.79897  -8.60121 -39.83973
  22.00285 -10.30707 -47.53110
  13.53336 -11.08519 -58.17033
   5.15365 -10.09758 -71.39830
  -2.02895  -6.55117 -84.55144
  -7.40094  -1.67298 -96.55238
 -10.97728   3.35484-105.87480
 -13.08717   8.15821-111.84534
 -14.26931  12.48273-114.11983
 -15.22699  16.11893-113.71581
 -16.94782  18.39342-111.38146
 -19.23728  17.69012-107.98469
 -22.21506  14.24846-103.61527
 -26.15053   8.74179 -98.75205
 -31.44770   2.36723 -95.65455
 -38.64527  -4.71063 -95.35528
 -46.69578 -11.48921 -98.69219
 -54.76124 -17.14551-104.01929
 -61.30041 -20.69192-109.54092
 -66.49283 -21.49997-113.91034
 -69.39580 -19.58461-116.31950
 -69.50055 -15.33490-116.63374
 -66.67240  -9.55889-113.62603
 -61.77925  -3.88762-107.29636
 -55.55432   1.15517 -98.07868
 -48.85056   5.65926 -88.15771
 -43.50850   8.45748 -80.28677
 -39.57303  10.23817 -75.18413
 -37.49306  12.85683 -72.59540
 -36.40071  17.01675 -71.71253
 -35.68245  22.43363 -71.63772
 -34.63499  27.88044 -70.68004
 -33.06379  31.77102 -68.19605
 -31.94151  33.02798 -64.09598
 -31.62727  31.45678 -58.26011
 -33.01890  28.94287 -51.07751
 -35.99669  26.99758 -42.38356
 -39.63288  24.93258 -32.58230
 -42.88002  21.71537 -21.89818
 -43.58331  17.19632 -11.04945
 -41.14422  11.97397  -1.57739
 -36.22114   7.39505   5.87456
 -30.53492   4.61180  11.45605
 -25.10307   2.95082  15.16706
 -20.82344   1.73875  15.94517
 -17.36681   1.18509  13.67068
 -14.83793   1.05042   8.65782
 -13.38645   0.84093   2.38801
 -12.11453  -0.14668  -4.07634
 -11.18677  -2.10693  -8.59539
 -10.76779  -4.86027 -10.48083
 -10.52837  -7.80813  -9.40344
  -9.79514 -10.35197  -5.81213
  -7.87978 -10.92059  -0.32043
  -4.94689  -8.88552   6.62275
  -1.60997  -4.62084  14.05974
   0.99373  -0.22150  21.58651
   2.57989   2.42709  29.17314
   1.68206   3.07053  37.35831
  -0.83185   2.39716  47.03987
  -5.17134   2.54680  57.90356
  -9.55572   3.57930  69.35083
 -13.25177   5.40487  80.94775
 -15.64597   6.39248  91.36253
 -16.45402   5.95853  98.48528
 -15.88539   4.31252 101.16379
 -14.26931   0.96064  97.61738
 -12.05467  -3.52849  89.76140
  -9.60061  -7.86798  79.25684
  -7.26627 -11.36950  67.60007
  -5.20127 -13.32975  57.17033
  -3.70489 -14.90095  50.04758
  -2.26837 -16.60682  48.22200
  -2.35815 -18.05830  52.60639
  -3.67497 -18.97109  61.71932
  -7.23634 -19.70432  73.86989
 -11.97985 -19.89884  87.71137
 -16.94782 -19.70432 101.61270
 -21.79608 -19.33022 113.17969
 -27.27282 -18.74663 121.27508
 -31.77691 -17.07069 125.58465
 -33.37803 -14.66153 126.36276
 -32.01633 -12.02791 123.23534
 -26.79398  -8.46653 115.70856
 -18.77340  -4.74056 104.59049
  -8.05935  -1.43356  91.07821
   3.80691  -0.50581  78.59844
  13.53336  -2.30146  69.51544
  20.62618  -5.33911  66.46283
  26.16277  -9.36436  68.36323
  29.49969 -14.40714  72.94214
  30.02342 -19.01598  80.36416
  27.41973 -22.75692  90.22528
  23.17002 -24.97156 100.13129
  18.96520 -24.47775 106.79016
  14.53593 -21.55982 108.72049
  10.16651 -16.30754 104.96458
   7.23362 -10.69613  99.27836
   5.37811  -5.41392  93.09832
   5.48286  -1.11933  86.76865
   8.37086   2.66651  80.75322
  13.72789   5.71911  77.31155
  18.54622   8.24799  77.71558
  20.71596   9.81918  79.94518
  20.56633   9.34034  81.66601
  18.99513   7.76915  80.90286
  16.01734   5.18042  75.75532
  11.70778   2.89096  67.37562
   6.18615   1.96321  57.11048
   0.14079   2.32234  46.41139
  -6.77246   3.71397  36.89444
 -13.61090   5.86875  29.54723
 -19.13253   8.47245  25.65665
 -23.29246  11.25570  23.80115
 -26.46477  14.24846  24.05553
 -28.03597  18.19889  24.53437
 -26.80894  22.86758  22.49930
 -22.49938  26.74320  16.48387
 -16.02007  29.09251   4.97674
  -9.27141  29.46660 -12.53086
  -2.52276  27.94030 -36.86194
   4.01641  24.58842 -63.93138
   9.59789  19.54563 -90.73147
  13.93738  13.12617-112.36907
  16.93013   6.09321-125.25287
  16.43633  -0.40106-128.96388
  12.18662  -4.74056-123.30758
   4.86934  -7.70338-109.30150
  -3.61511  -9.43918 -87.00550
 -11.26159 -10.18736 -59.32254
 -18.14492  -8.88552 -33.49509
 -25.29760  -5.71320 -16.55611
 -30.13089  -1.28393  -9.26876
 -31.53749   3.89353 -13.17430
 -29.36774   8.32281 -27.33002
 -25.07314  11.27067 -51.01765
 -19.25224  13.48531 -81.16963
 -13.28170  15.65505-110.36393
 -10.07946  16.97186-134.41069
 -10.01960  16.35835-150.85586
  -9.79514  12.37799-157.97861
  -8.98710   4.52201-156.36253
 -11.03714  -5.09969-149.16496
 -18.01025 -11.77352-136.37094
 -28.23050 -14.82613-119.88088
 -37.94198 -14.94584-102.34335
 -46.54614 -11.77352 -85.82336
 -55.64411  -4.09711 -73.86732
 -62.57233   4.79136 -69.04899
 -64.98149  14.38313 -72.58043
 -64.35301  24.21432 -83.17478
 -60.35769  33.22251 -97.82430
 -51.67871  40.37518-114.19465
 -40.85991  43.66721-128.76935
 -30.90901  44.31065-140.53087
 -23.23260  42.45515-148.98539
 -17.47155  38.22040-154.94097
 -12.06964  30.25968-159.17571
  -6.36844  19.00693-160.88158
  -2.29830   7.15563-159.59470
   0.21561  -4.02229-154.46213
   1.39775 -12.91077-146.47148
   0.81416 -18.52218-138.18156
  -0.42783 -21.88902-130.77450
  -2.98663 -24.32812-123.47218
  -8.26884 -25.76464-117.51661
 -14.31420 -24.46279-112.84791
 -17.63615 -19.80906-110.43875
 -17.47155 -12.49178-107.93980
 -14.37405  -5.87780-104.27368
  -9.39112  -1.46349-100.83201
  -3.76475   2.26248 -98.94658
   1.56235   6.63190 -97.31553
   6.12630  10.34292 -94.60709
  10.72017   9.90897 -91.10557
  16.16698   4.04317 -85.70365
  19.95281  -5.00990 -79.20938
  21.26962 -14.99073 -71.00924
  21.09006 -23.49015 -60.57950
  19.18966 -28.98185 -47.15700
  15.29908 -32.27387 -30.80161
   9.73256 -33.87500 -13.65314
   3.58246 -33.42608   2.59750
  -0.92163 -28.62272  15.75064
  -2.65743 -18.52218  25.49205
  -0.47272  -4.27668  31.53741
   8.47561  10.35788  32.80933
  23.02038  22.56831  28.18553
  40.01921  31.03780  18.59376
  55.77605  35.67656   8.17898
  69.12373  36.11051   0.00877
  80.42137  32.56410  -5.07891
  89.30984  23.95994  -5.70739
  94.93622  11.00132  -0.96388
  96.49245  -4.21682   8.88228
  93.39495 -18.07327  23.20260
  87.05031 -27.91942  42.08686
  79.65822 -32.97717  62.87153
  72.72999 -33.96478  82.41420
  66.44522 -32.54322  96.77941
  60.83381 -28.74243 104.44085
  56.80855 -22.50254 105.80255
  56.10526 -15.15533 102.19629
  59.56189  -8.12236  95.52245
  65.41272  -1.89744  87.47195
  71.32340   3.07053  80.34920
  77.81767   6.42241  76.87761
  85.29955   7.60455  78.41887
  92.07814   6.81147  83.92554
  95.83404   5.12056  91.16800
  96.76179   1.69386  98.56009
  97.15085  -2.78030 104.79998
  95.45995  -6.55117 108.72049
  91.01571  -8.51142 109.96248
  84.80575  -9.16983 108.22668
  77.77278 -10.17240 104.59049
  70.90442 -13.23997  99.83201
  64.48496 -17.54953  94.65455
  58.36478 -20.30287  91.93115
  53.26214 -19.42000  92.81401
  50.55370 -15.12540  97.72212
  49.71573  -9.24465 105.20400
  50.28435  -2.66059 113.20962
  50.71830   3.86361 120.69150
  49.86537  10.59730 127.18577
  47.75548  17.16639 132.31834
  45.06200  22.11939 135.35598
  42.15903  24.73805 135.52058
  39.86958  25.30668 132.61761
  38.11882  24.67820 126.48247
  36.72719  22.85262 117.18998
  35.57498  19.47081 105.53321
  34.18335  15.81965  92.97861
  32.07346  12.46777  81.45652
  28.72158   9.54984  72.28373
  24.81603   7.26038  65.63982
  21.59883   5.74904  60.73171
  19.06995   5.34502  58.24772
  17.21444   5.89868  58.63678
  15.25419   7.41002  60.77660
  11.40850   8.86150  64.42776
   5.33322   9.72940  69.56033
  -2.35815   8.39763  75.48598
 -11.48605   4.98589  80.21452
 -21.76615   1.27488  82.72844
 -34.78462  -1.88248  82.39923
 -48.85056  -3.69309  79.90029
 -62.36283  -5.50371  75.21663
 -74.72290  -7.47892  68.66250
 -85.97565  -9.33443  61.16566
 -95.73202 -10.30707  53.77356
-103.60296 -10.03773  46.63585
-108.88516  -8.73588  40.78502
-110.39650  -6.10226  37.11889
-110.02241  -1.71788  34.78455
-108.67567   3.13038  34.35060
-106.07198   8.26295  34.75462
-103.85734  13.36560  35.69734
-102.22629  18.67773  37.20868
-100.37079  23.28657  37.05904
 -99.29339  27.85052  34.32067
 -99.60763  31.56153  30.05600
-100.07151  33.98566  24.59423
-101.65767  34.52435  17.99521
-102.60039  33.37214  10.76771
-102.70513  31.80095   4.43804
-102.24126  30.13997  -0.73942
-100.28100  27.74577  -4.46540
 -95.32800  23.66066  -6.78478
 -87.90597  18.66277  -8.71510
 -79.25692  12.85683 -11.30383
 -69.23120   5.88371 -15.97253
 -59.05584  -2.04708 -22.67629
 -48.97027 -10.03773 -31.32535
 -39.52814 -17.57946 -41.42588
 -31.77691 -23.93906 -52.60381
 -26.43485 -28.32344 -63.40765
 -23.29246 -30.50815 -72.04174
 -21.91579 -30.62786 -77.51847
 -22.17017 -29.83478 -79.68822
 -23.09793 -28.24862 -78.08710
 -24.60927 -25.71975 -73.88228
 -26.49470 -21.47004 -68.27087
 -29.38271 -14.85606 -62.13573
 -32.67473  -6.64095 -55.74620
 -35.47296   1.09531 -49.94026
 -37.64270   7.66440 -45.19675
 -40.09676  13.33567 -42.74269
 -43.91252  19.15657 -41.90472
 -49.11991  24.85776 -42.39853
 -54.44700  29.22718 -44.07447
 -59.28030  31.47175 -47.11211
 -62.27305  31.62138 -52.31950
 -63.50008  30.85823 -58.27508
 -62.88657  28.88301 -64.70949
 -60.23798  24.66323 -70.68004
 -54.70139  18.46824 -76.33634
 -46.77060  11.98893 -81.04992
 -38.30111   6.06328 -83.89304
 -30.84915   1.61904 -85.19488
 -24.48956  -2.64563 -84.26713
 -19.89568  -7.34425 -81.78315
 -17.54637 -11.81841 -77.35387
 -17.47155 -15.82870 -71.32348
 -19.25224 -19.00102 -64.52993
 -21.43695 -21.36529 -57.84113
 -23.93590 -22.90656 -52.15490
 -25.80637 -23.90913 -48.86287
