********************************************************************************
              CENTRO DE INSTRUMENTACION Y REGISTRO SISMICO  A.C.

    Anaxagoras 814, Col. Narvarte, Benito Juarez, C.P. 03020 Mexico, D.F.
           Tels. 5687 45 42/ 5687 45  82             Fax. 5669 25 12
********************************************************************************
ARCHIVO ESTANDAR DE ACELERACION:
VERSION DEL FORMATO                    : 2.0
NOMBRE DEL ARCHIVO                     : JA4320170919181440
FECHA Y HORA DE CREACION               : 25/SEP/17, 11:25
REF. CATALOGO ACELEROGRAMAS, SMIS 1996 : REGISTRO No.     /PAG.


================================================================================
DATOS DE LA ESTACION:
NOMBRE DE LA ESTACION                  : JAMAICA
CLAVE DE LA ESTACION                   : JA43
LOCALIZACION DE LA ESTACION            : Del. Venustiano Carranza, Col. Jamaica,
                                       : Calzada de la Viga esq. con            
                                       : Calle Guillermo Prieto.                
                                       :                                        
                                       : 
COORDENADAS DE LA ESTACION             : 19.4053 LAT. N
                                       : 99.1250 LONG. W
ALTITUD (msnm)                         : 2234
TIPO DE SUELO                          : Terreno blando, material compresible
                                       : (arcillas)                
                                       : 
INSTITUCION RESPONSABLE                : CIRES
                                       : 

================================================================================
DATOS DEL ACELEROGRAFO:
MODELO DEL ACELEROGRAFO                : RADESD
NUMERO DE SERIE DEL ACELEROGRAFO       : 173
NUMERO DE CANALES                      : 3
ORIENTACION C1-C6 (rumbo;orientacion)  : /S00E/+V/N90W
ORIENTACION C7-C12 (rumbo;orientacion) : 
VEL. DE MUESTREO, C1-C6 (muestras/s)   : /100/100/100
VEL. DE MUESTREO, C7-C12 (muestras/s)  : 
ESC. COMPLETA DE SENSORES, C1-C6, (g)  : /0.5/0.5/0.5
ESC. COMPLETA DE SENSORES, C7-C12, (g) : 
FREC. NAT. DE SENSORES, C1-C6, (Hz)    : /52.47/55.39/55.39
FREC. NAT. DE SENSORES, C7-C12, (Hz)   : 
AMORTIGUAMIENTO DE SENSORES, C1-C6     : /0.5698/0.5589/0.5715
AMORTIGUAMIENTO DE SENSORES, C7-C12    : 
INTERVALO DE MUESTREO, C1-C6, (s)      : /0.01/0.01/0.01
INTERVALO DE MUESTREO, C7-C12, (s)     : 
UMBRAL DE DISPARO, C1-C6, (Gal)        : /1.5/3.5/2.99
UMBRAL DE DISPARO, C7-C12, (Gal)       : 
MEMORIA DE PREEVENTO (s)               : 44.0
TIEMPO DE POSEVENTO (s)                : 82.0


================================================================================
DATOS DEL SISMO:
FECHA DEL SISMO (GMT)                  : 19/SEP/17
HORA EPICENTRO (GMT)                   : 18:14:40.0
MAGNITUD(ES)                           : /Mc=7.1
COORDENADAS DEL EPICENTRO              : 18.40 LAT. N
                                       : 98.72 LONG. W
PROFUNDIDAD FOCAL (km)                 : 57
FUENTE DE LOS DATOS EPICENTRALES       : SSN
                                       : INSTITUTO DE GEOFISICA, UNAM

================================================================================
DATOS DE ESTE REGISTRO:
HORA DE LA PRIMERA MUESTRA (GMT)       : 18:15:00.00
EXACTITUD DEL TIEMPO (s)               : 0.01
DURACION DEL REGISTRO (s), C1-C6       : /399.0/399.0/399.0
DURACION DEL REGISTRO (s), C7-C12      : 
NUM. TOTAL DE MUESTRAS, C1-C6          : /39900/39900/39900
NUM. TOTAL DE MUESTRAS, C7-C12         : 
ACEL. MAX. (Gal), C1-C6                : /82.88423/47.82641/106.28628
ACEL. MAX., C1-C6, EN LA MUESTRA       : /6623/6918/6810
ACEL. MAX. (Gal), C7-C12               : 
ACEL. MAX., C7-C12, EN LA MUESTRA      : 
UNIDADES DE LOS DATOS                  : Gal (cm/s/s)
FACTOR DE DECIMACION                   : 1
FORMATO DATOS (FORTRAN,10 campos/dato) : 3F10.5


================================================================================
CALIDAD DEL ACELEROGRAMA:
REGISTRO DIGITAL COMPLETO CON TIEMPO ABSOLUTO CORRECTO.


================================================================================
COMENTARIOS:














================================================================================
DATOS DE ACELERACION:
---------+---------+---------+---------+---------+---------+---------+---------+
   CANAL-1   CANAL-2   CANAL-3   CANAL-4   CANAL-5   CANAL-6   CANAL-7   CANAL-8
      S00E        +V      N90W
---------+---------+---------+---------+---------+---------+---------+---------+
[...]
  38.80099  -0.04266  15.77049
  35.26954  -0.65617  20.57386
  31.76802  -0.07258  24.58414
  28.67052   1.73803  28.19041
  26.27632   4.44647  31.36273
  24.27118   7.52901  33.83175
  22.35582  10.28234  35.67229
  20.24593  12.70647  36.65990
  18.15100  15.07074  36.74968
  15.90643  16.43244  35.91171
  13.13814  17.64451  34.08613
   9.80122  19.44016  31.34776
   5.76100  22.70226  27.89113
   1.16713  26.86219  23.85092
  -3.29207  29.86990  19.36179
  -6.91330  30.39363  14.91755
  -9.56189  29.09179  10.95216
 -11.38746  26.50306   7.95941
 -12.89880  22.38802   6.49296
 -14.35029  17.27042   7.27107
 -15.26308  12.09295   9.78498
 -14.96380   7.13995  13.43614
 -13.48239   2.48622  17.74570
 -10.95352  -1.74852  22.14505
  -7.85602  -5.51939  25.79621
  -4.33953  -8.57200  28.39990
  -0.91283 -10.75671  29.95613
   2.48394 -12.10345  30.89885
   5.32706 -12.95638  31.96128
   7.48184 -14.27319  33.83175
   8.97821 -16.81703  36.37559
  10.39977 -20.28862  38.93439
  11.58191 -23.26641  40.52055
  12.31513 -24.86753  40.22127
  12.44981 -25.04710  37.79714
  12.07571 -23.28138  33.36787
  11.68665 -19.54044  27.11302
  11.65673 -14.52758  19.91545
  12.18046  -9.76910  12.44853
  13.39252  -5.66903   5.77470
  14.97868  -1.79342   0.43263
  17.01375   2.00738  -3.33823
  19.45285   5.32933  -5.91200
  22.04158   7.88814  -8.20146
  24.61534   9.53415 -10.71537
  27.08436   9.65386 -13.84279
  29.29900   7.94799 -17.98775
  31.48371   5.16473 -22.82105
  33.72827   2.35155 -27.75909
  35.92795   0.76539 -32.18836
  37.84331   0.57086 -35.88441
  39.20501   0.12195 -38.56293
  39.78860  -1.92809 -39.99945
  39.11523  -5.51939 -40.67282
  36.99037  -8.48222 -40.71771
  33.77316  -9.03588 -40.59800
  30.39135  -6.94095 -40.46332
  27.45846  -2.67628 -40.04434
  25.33360   2.27673 -39.20637
  23.92701   6.57133 -37.60524
  22.50545   8.81589 -34.89680
  20.50031   8.44180 -30.72191
  17.91158   5.59868 -25.33496
  15.14328   1.61832 -19.19982
  12.74908  -2.10765 -12.55591
  10.98336  -4.00805  -5.31345
   9.57676  -3.55914   2.21332
   7.97564  -1.97298   9.41089
   5.65626  -0.40179  15.78545
   2.64854   0.16684  21.30708
  -0.70334   0.28655  25.84110
  -4.15997   0.72050  29.23787
  -7.63156   1.64825  31.90142
 -11.07323   2.80046  33.95146
 -14.51489   3.83296  35.38798
 -18.28576   4.34173  35.95660
 -22.75992   3.60850  34.81936
 -28.01220   1.45372  31.58718
 -33.93785  -1.74852  26.40972
 -40.22263  -5.14530  20.34940
 -46.26799  -8.49718  14.39382
 -51.80458 -11.62461   9.09665
 -56.50320 -13.86917   5.31082
 -60.34889 -14.46772   3.57502
 -63.56610 -13.30055   3.32064
 -66.54389 -10.77167   3.50021
 -69.38700  -7.59935   3.08122
 -71.48193  -4.56171   1.40528
 -71.96077  -2.18247  -0.97396
 -69.89577  -0.50653  -3.21852
 -64.82305   1.00481  -4.26599
 -57.01197   2.59097  -3.32327
 -47.59976   3.83296  -0.49512
 -38.14267   3.77310   3.41042
 -30.15202   1.94752   7.15136
 -24.66032  -2.00291   9.56053
 -21.72742  -7.91359   9.99448
 -20.60514 -14.33305   8.87220
 -20.21608 -19.55540   7.06158
 -19.79710 -22.30873   5.86448
 -19.40804 -22.32369   5.65499
 -19.33322 -20.34848   6.64259
 -20.18616 -16.68236   8.58788
 -22.10152 -11.86403  11.20654
 -24.82492  -7.33001  13.78031
 -27.32387  -4.69639  16.29422
 -28.41622  -4.26244  19.16726
 -27.84760  -4.42704  21.84578
 -26.26144  -3.43943  23.31222
 -24.54061  -2.31715  23.53668
 -23.70264  -1.97298  22.87827
 -23.98695  -2.19744  21.53154
 -24.43586  -2.13758  19.60121
 -23.77746  -2.12262  17.20701
 -21.45808  -2.64635  14.57339
 -17.83685  -3.25986  11.98466
 -13.73677  -3.09526   9.57549
 -10.42978  -1.71860   7.19625
  -8.96334   0.19676   3.94912
  -9.53196   2.44133   0.05854
 -11.41739   4.79064  -3.32327
 -13.84152   7.00528  -5.10396
 -16.16090   8.98049  -5.08899
 -17.94159   9.86335  -3.09881
 -18.85438   9.66882   1.18082
 -18.57007   9.53415   7.27107
 -17.73210   9.84839  13.91498
 -17.23829   9.23488  20.03516
 -17.32808   6.78082  25.24255
 -17.67224   3.68332  29.38751
 -17.71714   1.60336  32.60472
 -17.44779   1.58839  35.05878
 -17.20837   2.57600  37.36319
 -17.38793   3.62347  39.03914
 -17.77699   4.11727  39.57783
 -18.18101   4.71582  38.66504
 -18.57007   6.22716  36.51026
 -18.28576   9.07027  33.92153
 -16.71456  13.20027  31.34776
 -13.15319  17.53976  28.84882
  -7.78120  20.90661  25.94585
  -1.60117  23.01650  22.02534
   4.30952  24.10885  16.65335
   9.48698  24.67748  10.54814
  13.73669  24.52784   4.33818
  17.47763  23.71980  -1.22834
  21.54777  22.25335  -6.10653
  26.65041  19.61973 -10.56573
  32.98009  15.37002 -15.53370
  40.04298  10.17759 -21.07029
  47.19566   5.00013 -26.78645
  54.01913   1.36394 -32.54749
  59.98967  -0.37186 -38.32351
  65.18210  -1.35947 -43.69550
  69.58144  -2.52664 -47.91528
  73.62166  -3.91827 -50.38430
  77.36260  -4.98070 -50.87810
  80.34039  -5.10041 -49.60618
  82.25575  -4.38215 -47.18205
  82.88423  -3.63396 -44.57836
  81.77691  -3.88834 -42.49839
  78.55970  -6.22269 -41.57064
  73.05304 -10.15816 -42.31883
  65.15217 -14.27319 -44.35390
  55.47062 -17.38565 -46.71817
  45.17555 -19.01670 -48.66346
  35.43414 -19.40576 -49.60618
  26.75516 -18.83714 -48.76821
  18.92911 -17.23602 -45.96999
  11.52205 -14.88671 -42.04948
   4.05514 -12.46258 -37.35086
  -3.86069 -10.98116 -32.59238
 -11.59696 -10.59211 -27.90873
 -18.36058 -10.56218 -22.91083
 -23.82235 -10.08334 -18.07754
 -28.05709  -9.18551 -13.60337
 -31.43890  -8.37747 -10.05696
 -34.65611  -7.97345  -8.88979
 -37.31966  -7.52454  -9.14417
 -39.38466  -7.03073  -9.63798
 -41.74893  -6.88109 -10.89493
 -45.40009  -7.68914 -14.03732
 -50.29324  -9.38004 -18.87062
 -55.57545 -10.59211 -24.60174
 -59.76530 -10.33772 -30.82666
 -62.36900  -8.73660 -36.93188
 -64.22450  -7.03073 -42.24401
 -65.04751  -5.99823 -46.49372
 -64.22450  -4.78617 -50.07006
 -61.89016  -2.07773 -52.55404
 -58.49338   1.94752 -53.58654
 -54.46813   6.03263 -53.67632
 -49.66476   9.05531 -53.12266
 -43.40991  10.94074 -52.00038
 -35.43423  11.38966 -50.69854
 -26.24648  10.05788 -49.44158
 -16.08609   7.11002 -47.96017
  -4.96801   3.14463 -45.79042
   7.04789  -0.77588 -42.10934
  19.78205  -3.73870 -37.87459
  32.36657  -6.28254 -34.95666
  43.49961  -9.91874 -33.44532
  52.26837 -14.76700 -32.14347
  58.25388 -20.21380 -31.32047
  62.05467 -25.21170 -31.81427
  64.82297 -28.90775 -32.86173
  66.28942 -30.58369 -32.90662
  66.30438 -29.16213 -31.44018
  64.94268 -24.40366 -29.85402
  62.12949 -17.78968 -28.86641
  57.43087 -11.59468 -28.34268
  51.32566  -7.56943 -28.74670
  43.67917  -4.36718 -30.42264
  34.41661   0.31647 -32.75699
  23.92701   7.19980 -35.42054
  12.53959  15.01089 -37.68006
   0.22441  23.16614 -39.28119
 -12.01594  30.28889 -40.73267
 -22.99934  34.20939 -42.21408
 -32.18709  34.29917 -43.17176
 -39.45948  31.84512 -43.91995
 -44.45737  27.86476 -45.32655
 -47.74940  22.82197 -48.03499
 -49.93411  16.77661 -52.00038
 -50.63741  10.56665 -55.89096
 -49.76951   5.98774 -58.71911
 -48.37788   3.74318 -60.94871
 -47.70451   4.28187 -63.10349
 -47.92897   7.76843 -64.76447
 -48.07860  12.57179 -64.82432
 -47.43516  16.19302 -62.77429
 -45.62455  17.03099 -59.15306
 -42.66172  14.89118 -54.60408
 -39.27991  10.62651 -50.15984
 -36.04774   5.47897 -46.68825
 -32.95024   0.31647 -44.24915
 -30.67575  -4.15769 -42.78271
 -29.07463  -7.38986 -40.97209
 -26.96474  -9.66435 -37.85963
 -23.41833 -12.26805 -33.71467
 -18.79453 -15.14109 -29.39014
 -14.02109 -16.75718 -25.46964
  -9.51699 -16.71228 -22.46192
  -5.88080 -15.20094 -20.87576
  -3.72602 -11.68446 -20.95058
  -3.09754  -5.78874 -22.13272
  -3.44171   1.63329 -23.49442
  -4.04026   8.50165 -23.92837
  -4.18990  12.79625 -23.44953
  -3.95048  14.14299 -22.58163
  -3.62127  12.99078 -21.62395
  -3.57638  10.17759 -21.26482
  -3.77091   7.33448 -22.04293
  -4.32457   5.55379 -24.48203
  -5.61145   5.97278 -28.68684
  -7.43703   8.69618 -33.55007
  -9.83123  12.12288 -37.42568
 -12.91377  14.29263 -39.14651
 -16.25069  14.29263 -37.48553
 -19.21351  12.96085 -32.72706
 -20.90442  11.04549 -25.36489
 -21.12887   9.29473 -16.49138
 -20.03652   7.81332  -7.12406
 -18.07627   6.51147   1.37535
 -16.08609   4.86546   7.94444
 -14.79920   2.20191  11.89487
 -14.90395  -1.22479  13.24161
 -16.44522  -4.86099  12.17919
 -19.03395  -8.15301   9.79995
 -21.69750 -11.65453   7.04662
 -23.86724 -16.23344   4.74220
 -25.33369 -22.03938   3.26078
 -26.23151 -27.68072   2.49763
 -27.21912 -30.91289   2.04872
 -28.96988 -30.46398   1.24068
 -31.24437 -26.96246   1.19579
 -33.57872 -22.36859   2.39289
 -35.28459 -18.62765   5.66995
 -36.37694 -16.53272  11.28136
 -36.87075 -15.90424  19.16726
 -36.82586 -15.88928  28.77400
 -36.07767 -15.60497  39.11395
 -34.41669 -13.83924  49.42399
 -31.63343  -9.96363  58.94094
 -27.62314  -6.26758  66.93159
 -22.81978  -5.04055  72.97694
 -17.38793  -6.37233  77.18176
 -11.58199  -8.36251  79.77049
  -5.35707  -9.23040  81.53622
   1.09231  -7.82381  82.43404
   7.04789  -4.12776  82.38915
  12.15053   0.63071  82.07491
  16.65462   4.14720  81.79060
  20.35067   5.79321  81.23694
  23.29853   6.73593  79.97998
  25.24382   7.97792  76.82263
  26.36610   9.75861  71.54042
  27.30882  10.74622  64.98630
  28.20665  10.26738  57.95333
  28.99972   8.29216  51.09993
  29.62820   4.94028  44.51587
  29.47857   0.45115  38.54533
  27.99715  -4.12776  33.11349
  25.03433  -7.52454  28.07070
  21.27842  -9.11069  23.58157
  17.40281  -9.05084  20.16983
  14.14071  -8.73660  18.34426
  11.76147  -9.24537  18.61360
  10.33992  -9.85888  21.39686
   9.59173  -9.73917  26.51447
   9.47202  -8.16798  33.26312
  10.47459  -4.92084  40.52055
  12.68923  -0.11747  46.94000
  16.29549   4.91035  51.69848
  20.73973   8.47172  54.03282
  25.36353   9.20495  53.41931
  29.74791   7.70857  50.80065
  33.12972   5.05999  47.92761
  35.58378   2.66578  46.22174
  37.57396   1.46868  46.05714
  39.81852   2.15702  47.08964
  42.39229   4.61107  48.01739
  44.60693   7.70857  47.83783
  45.63943   9.47430  46.65569
  44.74160   9.07027  45.12939
  41.67403   6.93046  43.99214
  37.05023   4.86546  43.49834
  31.45378   4.17712  43.52826
  25.22886   4.85049  44.47098
  18.48020   6.37680  46.80533
  11.28263   7.66368  49.93275
   4.17485   7.72354  54.10764
  -2.31943   5.64357  58.61173
  -7.66149   2.02234  63.26546
 -11.88127  -2.84088  67.56006
 -15.09848  -8.15301  72.06416
 -17.64232 -12.95638  77.07701
 -20.24601 -16.05388  81.74571
 -23.04423 -15.84439  85.54650
 -25.79757 -12.67207  88.77868
 -27.90746  -7.89863  91.98092
 -28.83521  -2.43686  95.39266
 -28.17680   3.78807  98.84929
 -25.75267  10.50680 102.08146
 -21.50297  16.32770 104.64026
 -15.75688  19.51498 106.15160
  -9.38232  19.23067 106.28628
  -3.21725  16.31273 105.29867
   2.16970  12.61669 103.26360
   6.31466   9.29473 100.57012
   9.42713   6.87060  97.23320
  12.13557   5.55379  93.01342
  15.45752   5.34430  87.80603
  19.85687   5.44904  82.31433
  24.73505   5.74832  76.47846
  28.88001   6.90053  69.78966
  31.57349   8.87575  63.10086
  33.21951  10.70132  57.54931
  33.86295  11.37469  53.14996
  33.86295  11.31484  49.73822
  33.86295  11.04549  47.14949
  34.62610  10.68636  44.45602
  36.36189  10.38709  41.25377
  38.96559   9.98306  37.64751
  42.28754   9.62393  34.05620
  46.70185   9.62393  30.83900
  52.05888  10.01299  27.66668
  57.56554  10.47687  24.35969
  62.35395  11.26995  21.53154
  66.43905  12.94589  19.22712
  70.06028  15.53462  17.02744
  73.02311  18.45255  14.60332
  75.13300  21.25078  12.37371
  76.33010  22.65737  10.26382
  76.85383  21.34056   8.58788
  76.50966  18.46752   7.34589
  75.05818  16.05835   6.46303
  72.66398  14.35248   6.26850
  69.26720  13.18531   7.61524
  65.06239  13.26013  10.75763
  60.60319  14.75650  13.60074
  56.38341  16.13317  14.99237
  52.70232  15.63937  14.51353
  49.50008  12.46705  12.08940
  46.35769   6.99031   7.77984
  42.87113   0.15187   2.64727
  39.24990  -6.35736  -2.64990
  35.61371 -11.37022  -8.30620
  32.18701 -14.82685 -12.90008
  28.67052 -17.16120 -16.14721
  25.45331 -18.53786 -18.64616
  22.13136 -19.39080 -21.69877
  19.07875 -19.43569 -23.97326
  16.63966 -18.65757 -25.75395
  14.76919 -17.14623 -27.29521
  13.58705 -14.88671 -28.16311
  13.21296 -12.67207 -27.05579
  13.99107 -10.72678 -23.31485
  14.97868  -9.06580 -17.35928
  15.78672  -7.67417  -9.24892
  16.16082  -7.10555  -0.07613
  15.57723  -6.74642   8.30357
  13.64691  -6.50700  14.19929
  10.65415  -7.28512  17.23694
   7.46687  -9.91874  17.89534
   3.62119 -13.86917  16.00991
  -0.97269 -17.68493  11.99962
  -5.40196 -21.15652   7.15136
  -9.83123 -23.95474   1.95894
 -15.05359 -25.94492  -3.32327
 -20.85952 -26.45369  -8.85986
 -26.99467 -25.34637 -13.93258
 -32.60608 -23.74525 -18.21221
 -37.54412 -21.85982 -22.35717
 -42.21281 -18.70246 -27.14558
 -46.80669 -13.92903 -33.23583
 -50.39799  -8.76653 -40.85238
 -51.89436  -5.10041 -48.87296
 -51.11625  -3.28979 -57.04317
 -48.72205  -1.65874 -65.55755
 -45.56469   0.30151 -73.81754
 -41.95843   1.99242 -81.08993
 -38.23245   2.45629 -87.53931
 -34.70100   1.75300 -93.33029
 -31.18452   1.58839 -98.44789
 -27.05452   2.54607-102.32351
 -21.48800   3.80303-103.80492
 -14.99373   4.64100-103.02681
  -8.84363   5.38919-100.78224
  -3.24718   5.95781 -97.71467
   1.78064   5.58372 -94.00366
   5.76100   3.93770 -89.60431
   7.93075   1.55847 -84.95058
   8.20010  -0.55142 -80.37167
   7.30227  -2.63139 -75.52341
   5.56648  -5.51939 -70.74997
   3.08249  -9.21544 -66.94918
  -0.65845 -13.45019 -64.10606
  -5.89576 -17.68493 -61.90639
 -12.31522 -21.09667 -60.58958
 -19.13869 -22.99706 -60.82900
 -25.43844 -22.98210 -62.81918
 -30.37648 -20.00431 -65.88675
 -33.81814 -13.55493 -69.31345
 -36.36198  -3.84345 -72.59052
 -39.27991   7.16988 -75.34385
 -42.99093  17.24049 -77.12454
 -47.70451  25.70998 -77.60338
 -52.94183  32.68309 -76.93001
 -57.61052  38.59377 -75.11939
 -61.35146  42.70881 -72.21642
 -63.61099  45.11797 -68.68497
 -64.62852  46.56946 -65.45280
 -64.71831  47.49721 -62.44509
 -64.02997  47.82641 -59.34759
 -63.22193  46.76399 -56.20520
 -62.39892  44.29497 -52.85332
 -61.05219  40.53906 -48.69339
 -58.38864  36.04993 -43.33636
 -54.04915  31.57577 -37.54539
 -48.73701  27.05671 -32.29311
 -43.75408  22.04385 -28.17808
 -40.08796  16.55215 -25.46964
 -37.14010  11.26995 -24.07801
 -35.04517   6.34687 -23.40464
 -33.29441   2.26176 -23.80866
 -31.10970  -1.35947 -25.18532
 -27.42862  -4.84602 -27.34011
 -22.65518  -8.63185 -29.62956
 -17.29815 -11.35526 -32.62231
 -11.70170 -12.17827 -36.46800
  -6.07533 -11.34029 -40.68778
  -0.91283 -10.59211 -45.31158
   3.72593 -10.69685 -49.71093
   7.15263 -10.92131 -53.45187
   8.90339 -10.51729 -55.93585
   9.12785  -8.97602 -57.35741
   8.00557  -7.62928 -57.61179
   5.86575  -7.55446 -56.99828
   2.75329  -8.76653 -55.60665
  -1.82562 -10.77167 -53.88582
  -7.87098 -13.07609 -52.22484
 -15.42768 -15.36555 -50.75839
 -23.88220 -16.84696 -49.53136
 -32.42651 -16.75718 -48.28937
 -39.87846 -15.06627 -47.16709
 -45.34024 -12.19323 -46.58350
 -48.33299  -8.90120 -46.94263
 -48.88665  -5.69896 -47.85542
 -47.80926  -3.69381 -48.78317
 -45.81908  -3.60403 -49.59122
 -43.70919  -5.27997 -50.08502
 -41.77886  -8.03330 -49.68100
 -40.26752 -11.02606 -48.91785
 -39.01057 -13.76442 -48.40908
 -37.76857 -16.26337 -48.39412
