********************************************************************************
              CENTRO DE INSTRUMENTACION Y REGISTRO SISMICO  A.C.

    Anaxagoras 814, Col. Narvarte, Benito Juarez, C.P. 03020 Mexico, D.F.
           Tels. 5687 45 42/ 5687 45  82             Fax. 5669 25 12
********************************************************************************
ARCHIVO ESTANDAR DE ACELERACION:
VERSION DEL FORMATO                    : 2.0
NOMBRE DEL ARCHIVO                     : JC5420170919181440
FECHA Y HORA DE CREACION               : 25/SEP/17, 11:17
REF. CATALOGO ACELEROGRAMAS, SMIS 1996 : REGISTRO No.     /PAG.


================================================================================
DATOS DE LA ESTACION:
NOMBRE DE LA ESTACION                  : PARQUE JARDINES DE COYOACÁN
CLAVE DE LA ESTACION                   : JC54
LOCALIZACION DE LA ESTACION            : Del. Coyoacán, Col. Jardines de        
                                       : Coyoacán, entre calles Dalias e Iris.  
                                       :                                        
                                       :                                        
                                       : 
COORDENADAS DE LA ESTACION             : 19.3130 LAT. N
                                       : 99.1272 LONG. W
ALTITUD (msnm)                         : 2237
TIPO DE SUELO                          : Arcilloso, zona lago                
                                       :                           
                                       : 
INSTITUCION RESPONSABLE                : CIRES
                                       : 

================================================================================
DATOS DEL ACELEROGRAFO:
MODELO DEL ACELEROGRAFO                : RADESD
NUMERO DE SERIE DEL ACELEROGRAFO       : 210
NUMERO DE CANALES                      : 3
ORIENTACION C1-C6 (rumbo;orientacion)  : /N00E/+V/N90W
ORIENTACION C7-C12 (rumbo;orientacion) : 
VEL. DE MUESTREO, C1-C6 (muestras/s)   : /100/100/100
VEL. DE MUESTREO, C7-C12 (muestras/s)  : 
ESC. COMPLETA DE SENSORES, C1-C6, (g)  : /0.5/0.5/0.5
ESC. COMPLETA DE SENSORES, C7-C12, (g) : 
FREC. NAT. DE SENSORES, C1-C6, (Hz)    : /30/30/30
FREC. NAT. DE SENSORES, C7-C12, (Hz)   : 
AMORTIGUAMIENTO DE SENSORES, C1-C6     : /0.733/0.733/0.733
AMORTIGUAMIENTO DE SENSORES, C7-C12    : 
INTERVALO DE MUESTREO, C1-C6, (s)      : /0.01/0.01/0.01
INTERVALO DE MUESTREO, C7-C12, (s)     : 
UMBRAL DE DISPARO, C1-C6, (Gal)        : /1.2/3.44/1.35
UMBRAL DE DISPARO, C7-C12, (Gal)       : 
MEMORIA DE PREEVENTO (s)               : 44.0
TIEMPO DE POSEVENTO (s)                : 41.0


================================================================================
DATOS DEL SISMO:
FECHA DEL SISMO (GMT)                  : 19/SEP/17
HORA EPICENTRO (GMT)                   : 18:14:40.0
MAGNITUD(ES)                           : /Mc=7.1
COORDENADAS DEL EPICENTRO              : 18.40 LAT. N
                                       : 98.72 LONG. W
PROFUNDIDAD FOCAL (km)                 : 57
FUENTE DE LOS DATOS EPICENTRALES       : SSN
                                       : INSTITUTO DE GEOFISICA, UNAM

================================================================================
DATOS DE ESTE REGISTRO:
HORA DE LA PRIMERA MUESTRA (GMT)       : 18:14:58.00
EXACTITUD DEL TIEMPO (s)               : 0.01
DURACION DEL REGISTRO (s), C1-C6       : /353.8/353.8/353.8
DURACION DEL REGISTRO (s), C7-C12      : 
NUM. TOTAL DE MUESTRAS, C1-C6          : /35380/35380/35380
NUM. TOTAL DE MUESTRAS, C7-C12         : 
ACEL. MAX. (Gal), C1-C6                : /220.26671/59.85458/204.10569
ACEL. MAX., C1-C6, EN LA MUESTRA       : /6472/6556/6590
ACEL. MAX. (Gal), C7-C12               : 
ACEL. MAX., C7-C12, EN LA MUESTRA      : 
UNIDADES DE LOS DATOS                  : Gal (cm/s/s)
FACTOR DE DECIMACION                   : 1
FORMATO DATOS (FORTRAN,10 campos/dato) : 3F10.5


================================================================================
CALIDAD DEL ACELEROGRAMA:
REGISTRO DIGITAL COMPLETO CON TIEMPO ABSOLUTO CORRECTO.


================================================================================
COMENTARIOS:














================================================================================
DATOS DE ACELERACION:
---------+---------+---------+---------+---------+---------+---------+---------+
   CANAL-1   CANAL-2   CANAL-3   CANAL-4   CANAL-5   CANAL-6   CANAL-7   CANAL-8
      N00E        +V      N90W
---------+---------+---------+---------+---------+---------+---------+---------+
[...]
  -6.56925   9.12835  14.39513
  -3.38197   7.57212  14.03600
  -1.63121   5.11807  12.16553
  -1.48157   1.72129   9.56184
  -3.02284  -1.54081   6.43441
  -5.05791  -3.68063   3.81576
  -6.79371  -4.18939   1.22702
  -7.43715  -3.08208  -1.24200
  -6.21012  -1.31635  -3.78583
  -3.39693   0.18002  -5.59645
   1.24183   0.64390  -6.76362
   6.74850  -0.49334  -6.62895
  12.71904  -2.91747  -6.32967
  17.80672  -6.00001  -5.53659
  21.83197  -7.15222  -4.57891
  24.51048  -6.37410  -4.51906
  26.36599  -4.89269  -5.05775
  27.50323  -4.30910  -6.80851
  28.20653  -4.77298  -9.06804
  29.11932  -5.17700 -11.80641
  28.16164  -5.11715 -14.23054
  25.85722  -5.13211 -16.40028
  21.80204  -4.74305 -18.39046
  15.81654  -4.47371 -20.56021
   9.80110  -4.18939 -22.37083
   3.42654  -5.02736 -23.40332
  -3.38197  -7.73580 -23.88216
 -10.69925 -11.11761 -23.23872
 -17.22345 -12.77859 -21.63760
 -22.23631 -11.11761 -18.59996
 -25.51337  -7.06244 -13.34768
 -26.57580  -2.46856  -6.71873
 -25.40862   1.30231   0.25438
 -22.37098   4.17535   6.79354
 -17.38805   6.03085  11.74655
 -11.71678   5.13303  15.98129
  -5.71632   2.49941  19.16857
   0.29912  -0.58313  21.86205
   5.98535  -3.23171  24.25625
  10.56426  -4.21932  26.00701
  13.33255  -3.41128  26.90484
  14.26031  -2.39374  26.23147
  13.78146  -1.84008  24.18143
  11.94092  -2.76784  20.63502
   9.26241  -2.42367  15.08347
   5.98535  -2.22914   8.64905
   2.45390  -1.18168   1.37666
  -1.82574  -0.61305  -6.04536
  -6.16523  -0.59809 -13.28782
  -8.66418  -1.40613 -20.08137
  -9.23280  -2.43863 -26.05191
  -7.82621  -2.45360 -29.20926
  -4.60900  -1.88497 -29.67314
   0.10459  -1.16671 -26.97966
   6.61382   0.06031 -21.29343
  13.73657   2.96328 -13.91630
  20.32063   7.15314  -6.50924
  26.60541  10.66962   1.04746
  31.16935  11.47766   8.15525
  33.86283  10.13093  13.81155
  34.98511   7.48234  17.58242
  35.64352   2.90343  20.76970
  35.94279  -1.25650  23.79238
  34.05736  -4.81787  26.50082
  28.92479  -8.24457  29.59831
  21.86190 -10.90812  33.35422
  13.72161 -12.89830  36.99041
   5.70103 -13.69138  40.16273
  -3.38197 -14.43957  42.09305
 -12.85403 -14.48446  41.85363
 -21.45819 -13.60160  39.59411
 -29.10467 -12.38953  35.74842
 -34.37192 -11.05776  31.96259
 -37.84351  -9.59131  28.41618
 -38.92090  -8.25954  26.05190
 -37.97818  -6.23943  24.09165
 -35.49420  -3.68063  22.29600
 -31.12478  -0.32874  20.44049
 -25.28891   3.48702  17.89665
 -18.64500   7.28781  15.11339
 -12.89892  10.69955  12.27028
  -9.69668  13.36310   8.96329
  -9.33755  14.87444   4.92307
 -11.82153  14.67991   0.20949
 -16.52015  12.64484  -4.50410
 -22.16149   9.63712  -8.87351
 -28.59590   6.92868 -12.91373
 -35.03032   4.66915 -16.90905
 -40.89612   4.04067 -21.38322
 -44.74180   3.65162 -25.03437
 -45.93890   3.66658 -26.71032
 -44.54727   3.11292 -26.02198
 -40.91108   1.51180 -23.82231
 -34.95550  -0.52327 -20.94927
 -27.14442  -2.87258 -17.94155
 -18.04645  -5.16204 -14.44003
  -7.55686  -7.04747 -11.11808
   4.74335  -8.64859  -6.70377
  18.15088  -9.54642  -1.51134
  31.61827 -10.01030   4.36941
  43.42467  -9.86066   9.15782
  53.33068  -9.18729  12.46481
  60.70782  -7.13725  13.57213
  65.19695  -4.95255  13.07832
  66.55865  -3.71055  11.16296
  63.93999  -1.91490   9.15782
  58.20887  -0.22400   8.23006
  50.90655   1.52676   8.25999
  41.98815   2.23006   8.40963
  33.27924   2.84357   8.05050
  23.82215   3.09796   6.37456
  15.15813   3.77133   2.87304
   7.57150   3.75636  -1.84055
   1.37651   3.63665  -7.04793
  -3.56153   2.73883 -12.64438
  -6.95831   0.82347 -18.79449
  -7.90102  -1.24153 -24.75006
  -5.85099  -2.55834 -29.05963
  -1.84070  -3.24668 -31.75310
   3.02252  -3.53099 -33.36919
   8.08027  -3.97990 -33.68343
  12.15041  -4.92262 -33.50386
  14.48476  -6.37410 -31.96260
  14.69425  -7.30186 -30.16694
  12.55444  -9.08254 -28.56582
   7.45179 -11.94062 -28.32640
   0.71810 -15.03812 -29.37387
  -6.22508 -16.90859 -32.06734
 -12.06095 -17.52210 -35.25462
 -15.68218 -17.95605 -38.18752
 -16.46030 -18.34511 -39.35469
 -14.03617 -18.39000 -38.27730
  -9.00834 -17.55203 -33.78817
  -2.70860 -16.31004 -26.33622
   2.75317 -15.35236 -16.69956
   6.73353 -14.21511  -6.18004
   9.78614 -11.88077   4.86322
  11.97085  -7.60113  14.88894
  12.85371  -1.24153  21.36825
  12.70407   4.92354  23.11901
  10.93835   9.41266  20.45546
   7.87078  11.95650  15.26303
   3.96524  13.60252   8.67898
  -0.10490  15.12882   2.46902
  -4.53418  16.49052  -2.72341
  -9.83135  17.86719  -7.10779
 -15.17341  20.09679 -10.59435
 -19.78225  24.16693 -12.22540
 -22.71515  28.71592 -12.56956
 -24.94475  31.15501 -12.40496
 -27.03967  30.94552 -12.77905
 -29.74811  28.29693 -14.14076
 -32.05253  24.28664 -16.17583
 -33.26460  20.72527 -18.70470
 -32.33684  17.34346 -21.21862
 -28.91014  13.18353 -24.30115
 -23.44837   7.34767 -27.71289
 -16.22087   0.34463 -30.63082
  -7.79628  -6.58360 -32.48633
   1.46629 -11.68624 -32.33669
  10.59418 -14.82863 -30.63082
  18.21074 -17.07319 -25.90227
  23.52287 -19.42250 -18.48025
  26.51562 -22.02620  -9.02315
  28.11675 -24.39047   1.40659
  29.74780 -26.24598  11.35749
  31.48359 -27.96681  18.95908
  31.84272 -29.50808  23.04419
  30.79526 -29.25369  23.25368
  29.14925 -26.12627  19.60252
  27.75762 -19.63199  13.81155
  26.85979 -11.23732   7.31728
  26.66526  -3.42624   1.51134
  27.81747   3.11292  -3.90554
  28.64048   9.77179  -9.02315
  28.43099  16.28103 -12.82395
  27.39849  21.69791 -15.93641
  24.76486  25.40892 -18.48025
  20.08121  27.33925 -19.64742
  14.70922  28.40168 -19.37807
   9.32226  29.28454 -18.70470
   4.47401  29.94294 -17.53753
   0.01481  30.40682 -16.31050
  -2.57393  30.52653 -15.17326
  -3.59146  29.55389 -13.72177
  -3.06773  27.08487 -12.41992
  -1.36186  23.35889 -11.80641
   0.46372  18.21136 -11.22282
   1.76557  12.59995 -10.05565
   2.63346   7.72176  -8.12533
   3.74078   4.23520  -5.31214
   5.23716   1.97568  -1.82558
   6.91310   0.15010   2.30442
   8.51422  -1.42110   7.73626
   9.68139  -2.63316  14.03600
  10.42958  -3.24668  21.84709
  10.89346  -3.56092  29.52350
  10.54929  -3.81530  36.19733
  10.08542  -4.29414  41.16530
   9.77118  -4.45874  45.22048
   9.62154  -4.18939  47.94388
  10.30987  -3.53099  49.23077
  12.12049  -2.46856  49.00631
  14.58951  -1.72037  47.86907
  17.91146  -1.27146  46.35773
  21.86190  -1.95979  45.45990
  26.74008  -3.62077  44.32265
  32.11207  -5.29671  41.83867
  38.51656  -6.19454  37.14005
  46.02837  -6.20950  29.47860
  55.27597  -5.79052  19.51274
  65.48126  -5.37153   8.40963
  75.58180  -5.41642  -3.15736
  85.30824  -6.46389 -14.18565
  93.55327  -8.37925 -24.86977
  99.92783 -10.68367 -33.60861
 103.92316 -13.00305 -39.74375
 104.55164 -15.26258 -44.09821
 102.09758 -16.56442 -46.56723
  95.67813 -16.74399 -46.86650
  85.92175 -15.47207 -44.62194
  74.41462 -13.97569 -40.88100
  62.66807 -13.28736 -35.61375
  51.40036 -13.48189 -30.98995
  42.24254 -14.14029 -27.02455
  36.10740 -15.42718 -25.30372
  32.75551 -17.02830 -26.23148
  30.81022 -18.04584 -28.73042
  29.23903 -18.36007 -31.25930
  27.56309 -18.24036 -32.38158
  25.09407 -18.41993 -31.54361
  21.36809 -19.31776 -28.53589
  16.57969 -20.05098 -24.37597
  11.13288 -19.94623 -20.50036
   5.56636 -18.64439 -17.95652
  -0.83813 -15.63667 -16.71452
  -8.63425 -11.31214 -17.11855
 -17.58258  -6.07483 -18.34557
 -26.96485  -0.35867 -20.59014
 -37.14021   4.98339 -23.67267
 -48.18347  10.16085 -26.77017
 -59.91506  16.71498 -29.04466
 -72.18534  24.82534 -30.06220
 -84.63519  33.62403 -29.53847
 -97.35438  41.33037 -27.41361
-109.96883  47.57025 -24.01684
-122.26904  52.01449 -19.64742
-133.62654  54.12438 -14.26047
-142.96393  53.82511  -8.81366
-150.44581  50.78746  -4.27964
-156.17693  45.19102  -1.12229
-160.17225  38.00841   0.52373
-162.22228  29.28454   0.68833
-162.65623  19.16904   0.47884
-161.15986   7.75169  -0.01497
-158.48134  -4.66823   0.02992
-154.29149 -16.81881   1.94529
-149.54798 -27.45804   6.40449
-144.19095 -35.94249  13.48234
-138.50472 -42.04771  21.81716
-133.55172 -46.34231  30.85527
-128.94288 -48.60183  39.96820
-124.06470 -49.12557  48.91653
-118.54307 -48.90111  57.68529
-112.03383 -48.90111  66.19967
-105.00087 -48.13796  74.07061
 -98.02775 -45.38463  81.29811
 -91.68312 -39.21956  88.01684
 -86.78997 -30.54058  94.24176
 -83.91693 -21.29297  99.68857
 -83.84211 -13.22750 103.81857
 -86.78997  -6.67338 106.13795
 -92.35649  -1.46599 106.22773
 -99.25478   2.30488 104.82114
-106.70673   5.17792 100.91560
-113.82948   6.97357  95.21440
-118.63285   8.02103  88.80991
-119.38104   7.34767  81.35796
-114.80213   6.44984  72.28992
-104.71655   5.94107  61.87515
 -90.03710   6.77904  51.37059
 -73.92113   9.26303  41.74889
 -57.82013  12.77951  33.59364
 -41.31510  16.71498  26.54571
 -24.25641  20.59059  21.80220
  -7.37729  24.30161  18.21089
   8.27480  26.39653  16.16086
  21.17356  25.70820  13.18307
  30.37627  21.20411   8.81365
  35.98769  13.55763   3.35188
  40.31221   4.47462  -3.20225
  45.20536  -4.54852  -9.80127
  51.23576 -12.34464 -15.20318
  56.32344 -17.31261 -19.09376
  60.03445 -18.04584 -20.42554
  62.87756 -15.12790 -17.98644
  66.40901  -9.84570 -10.95348
  71.33209  -4.20436   0.26934
  78.21542   0.64390  14.87397
  87.19367   4.02571  30.24176
  98.38657   6.15056  43.64929
 111.24044   7.01846  54.70750
 124.94724   6.46480  63.95511
 138.69894   5.01332  70.46434
 152.80976   2.81365  74.72902
 166.11255   0.13513  76.76409
 178.60729  -1.81016  75.71662
 189.62061  -1.70541  72.27496
 197.74593   0.94318  67.24714
 203.35734   6.41991  62.00982
 205.79644  13.81201  58.17910
 205.33256  22.01215  56.56301
 201.90586  29.52396  57.01192
 196.50394  35.82370  58.79261
 189.71040  40.11830  60.52841
 182.46794  41.67453  60.94739
 174.95613  40.95627  59.81015
 167.44432  37.81388  57.77508
 159.51353  33.08533  55.08160
 151.71741  27.75823  51.31073
 144.66948  21.68295  46.73182
 139.11792  14.87444  42.28758
 134.98792   7.78161  37.61889
 132.57876   0.65886  32.56114
 132.32437  -7.57120  26.96469
 133.83571 -17.13305  21.17372
 136.88832 -26.54525  15.44260
 140.47962 -33.96728   9.09796
 142.76908 -38.42648   1.94529
 141.84133 -40.65608  -6.46435
 137.24745 -41.85318 -15.86159
 128.56847 -42.09260 -26.51579
 116.94163 -41.92800 -37.27473
 102.96548 -41.35937 -47.94389
  86.68491 -41.25463 -58.49334
  68.14481 -41.86814 -68.72855
  47.03094 -42.18238 -78.41011
  23.53784 -40.98528 -86.40076
  -2.36443 -38.44144 -92.77532
 -32.51641 -34.65561 -97.75825
 -65.78085 -30.52561-102.23241
-101.12525 -26.30583-105.97335
-135.34737 -22.20576-108.56208
-165.69388 -17.91116-111.40520
-190.89285 -12.70377-114.35306
-208.71469  -5.76059-118.91701
-218.24660   2.67897-124.90251
-220.26671  11.82183-131.96541
-215.61298  20.27635-140.25533
-205.25806  27.80313-149.51790
-188.81289  33.26490-158.96003
-168.38735  37.02080-167.60908
-145.83697  39.78910-174.83658
-122.49350  41.88402-180.67245
 -99.65880  42.28805-183.33600
 -79.50262  41.12087-184.14404
 -62.59357  37.32008-182.73745
 -51.38571  31.24479-179.28082
 -47.39039  25.39396-174.46249
 -49.09626  19.96212-166.68133
 -57.29640  16.26607-157.26912
 -70.61414  15.21860-146.85435
 -86.11660  16.19125-135.28736
-102.15775  18.27121-120.87726
-117.57042  19.51320-102.60651
-131.14255  19.06429 -80.99884
-141.81172  16.81973 -56.95208
-147.91693  13.34813 -33.09984
-149.29360   9.38274 -10.77391
-147.36327   5.28267  10.45967
-142.48508   2.02057  29.17933
-133.73129   1.42202  43.23030
-121.65553   2.85854  52.35819
-106.39249   5.13303  57.79004
 -88.36116   7.28781  59.40613
 -68.74367   9.48748  58.26888
 -47.98894  11.41781  54.99182
 -26.42616  12.01636  50.57751
  -5.97070  11.65723  45.51976
  12.37487  10.07107  40.73135
  27.62294   8.08089  36.34697
  38.05268   6.01589  32.12719
  40.56660   4.62426  27.30886
  36.12236   4.05564  21.96680
  27.95215   3.80125  17.07365
  17.23809   4.53448  12.92869
   5.11745   6.43488   9.93593
  -5.95574   8.91886   9.53191
 -17.41798  11.71708  12.58452
 -27.89261  13.43792  17.34299
 -36.06282  12.33060  22.04162
 -41.56948   7.73672  27.62310
 -43.15564   4.6E-40  34.28197
 -39.87858  -9.80080  41.64414
 -31.63355 -18.74913  49.02128
 -19.69247 -25.67735  56.69768
  -4.66885 -31.61797  64.04489
  13.13802 -35.68811  71.97568
  32.59091 -38.00749  82.45032
  52.88177 -38.89035  93.20926
  71.70618 -37.06478 103.98317
  88.45063 -33.56326 115.68483
 101.97787 -27.98177 124.90250
 109.78895 -19.85645 130.79823
 110.32765  -9.93548 133.61141
 103.30964   1.15267 134.18004
  87.74733  11.55248 133.40192
  65.88528  19.72270 131.89058
  43.42467  25.85784 130.30442
  23.10389  29.97287 128.37410
   4.11488  31.79845 125.06711
 -12.97374  31.58896 119.63526
 -24.55569  29.95791 112.24316
 -28.99993  27.81809 104.04302
 -27.14442  25.36403  94.98995
 -19.43808  24.21182  82.42039
  -7.28751  23.44867  68.24971
   8.33466  21.41360  56.41337
  24.48055  18.37596  48.54244
  39.80344  14.96422  45.65443
  53.65989  10.99882  46.14823
  65.49622   6.74912  48.28805
  74.87850   1.52676  52.59761
  82.68958  -4.15947  58.11924
  88.82472 -10.27964  64.74819
  92.68537 -17.05823  73.63666
  94.64563 -26.09634  83.69231
  95.04965 -37.18449  91.83259
  93.34378 -47.94343  98.61118
  89.10903 -55.90415 102.87585
  83.13849 -59.46552 105.03063
  76.22524 -59.85458 105.95838
  69.07256 -59.04654 104.43208
  62.59325 -58.11879 100.72107
  56.81724 -57.92426  95.37901
  51.59489 -57.04140  88.75006
  45.90866 -54.66216  82.64485
  38.89065 -50.81647  75.89619
  30.43613 -45.19010  69.05775
  20.57501 -37.93267  63.02736
  10.44455 -29.34347  58.20902
   1.15205 -19.70681  54.39327
  -7.28751  -9.41175  53.16624
 -14.67961   0.55412  54.13888
 -20.57533  10.83422  55.06663
 -26.12688  21.24900  54.90203
 -32.06750  30.69113  51.43044
 -38.12782  37.97848  44.35258
 -43.93376  42.07855  34.83563
 -50.26343  42.57236  23.08908
 -57.23654  39.86392   9.96586
 -64.04505  35.65910  -3.80080
 -71.06306  31.06523 -19.96166
 -77.81171  27.09983 -39.84850
 -83.39320  24.42132 -60.48352
 -87.85240  21.63806 -81.97148
 -92.20685  18.61538-104.38720
 -96.29196  16.52045-125.35142
 -98.85076  16.26607-144.04116
 -99.35953  17.71755-159.25931
 -97.56388  18.24128-171.78397
 -93.31417  17.08907-182.70752
 -88.70533  13.73719-190.87773
 -84.47059   8.36520-197.08769
 -80.08620   3.21767-202.28012
 -75.73175  -0.68787-204.10569
 -70.95831  -3.35142-203.13305
 -64.82317  -3.90508-199.42204
 -56.96719  -2.49849-192.29929
 -48.58749   0.79354-181.91444
 -40.97093   5.17792-169.65912
 -34.08760   8.88893-154.60558
 -28.38641  10.83422-138.53450
 -24.19656  10.90904-123.09190
 -21.30855   9.29295-108.86136
 -19.87203   6.70422 -97.45897
 -19.73736   3.68154 -88.52561
 -20.75489   1.33223 -81.25322
 -21.99689   0.43441 -76.86884
 -21.83228   2.24502 -75.71663
 -21.24870   6.43488 -77.55717
 -20.32095  11.31306 -82.12112
 -19.81218  15.30839 -88.83985
 -19.40816  17.31353 -95.51369
 -18.31580  18.18143-100.66122
 -14.66464  19.01940-104.65654
  -7.64664  19.88730-107.21535
   2.12470  21.12929-110.68694
  13.57197  22.82019-113.23078
  26.53059  23.73298-115.65491
  39.86330  24.01729-119.38088
  53.49528  23.94248-122.92729
  66.78310  23.85269-125.53099
  77.90118  25.00490-127.32664
  86.34074  26.77063-127.07226
  89.61780  29.37432-125.20179
