********************************************************************************
              CENTRO DE INSTRUMENTACION Y REGISTRO SISMICO  A.C.

    Anaxagoras 814, Col. Narvarte, Benito Juarez, C.P. 03020 Mexico, D.F.
           Tels. 5687 45 42/ 5687 45  82             Fax. 5669 25 12
********************************************************************************
ARCHIVO ESTANDAR DE ACELERACION:
VERSION DEL FORMATO                    : 2.0
NOMBRE DEL ARCHIVO                     : LI3320170919181440
FECHA Y HORA DE CREACION               : 25/SEP/17, 11:17
REF. CATALOGO ACELEROGRAMAS, SMIS 1996 : REGISTRO No.     /PAG.


================================================================================
DATOS DE LA ESTACION:
NOMBRE DE LA ESTACION                  : LICONSA
CLAVE DE LA ESTACION                   : LI33
LOCALIZACION DE LA ESTACION            : Del Tláhuac, Col. Santa Catarina.      
                                       : Av. Santa Catarina esq. con            
                                       : Eje 10 Sur.                            
                                       :                                        
                                       : 
COORDENADAS DE LA ESTACION             : 19.3064 LAT. N
                                       : 98.9631 LONG. W
ALTITUD (msnm)                         : 2238
TIPO DE SUELO                          : Terreno blando, material compresible
                                       : (arcillas)                
                                       : 
INSTITUCION RESPONSABLE                : CIRES, A. C.
                                       : 

================================================================================
DATOS DEL ACELEROGRAFO:
MODELO DEL ACELEROGRAFO                : RAD_IO14
NUMERO DE SERIE DEL ACELEROGRAFO       : 
NUMERO DE CANALES                      : 3
ORIENTACION C1-C6 (rumbo;orientacion)  : /S00E/+V/N90W
ORIENTACION C7-C12 (rumbo;orientacion) : 
VEL. DE MUESTREO, C1-C6 (muestras/s)   : /100/100/100
VEL. DE MUESTREO, C7-C12 (muestras/s)  : 
ESC. COMPLETA DE SENSORES, C1-C6, (g)  : /2.0/2.0/2.0
ESC. COMPLETA DE SENSORES, C7-C12, (g) : 
FREC. NAT. DE SENSORES, C1-C6, (Hz)    : /53.6/51.39/51.66
FREC. NAT. DE SENSORES, C7-C12, (Hz)   : 
AMORTIGUAMIENTO DE SENSORES, C1-C6     : /0.6805/0.6160/0.5731
AMORTIGUAMIENTO DE SENSORES, C7-C12    : 
INTERVALO DE MUESTREO, C1-C6, (s)      : /0.01/0.01/0.01
INTERVALO DE MUESTREO, C7-C12, (s)     : 
UMBRAL DE DISPARO, C1-C6, (Gal)        : / / /
UMBRAL DE DISPARO, C7-C12, (Gal)       : 
MEMORIA DE PREEVENTO (s)               : 60
TIEMPO DE POSEVENTO (s)                : 90


================================================================================
DATOS DEL SISMO:
FECHA DEL SISMO (GMT)                  : 19/SEP/17
HORA EPICENTRO (GMT)                   : 18:14:40.0
MAGNITUD(ES)                           : /Mc=7.1
COORDENADAS DEL EPICENTRO              : 18.40 LAT. N
                                       : 98.72 LONG. W
PROFUNDIDAD FOCAL (km)                 : 57
FUENTE DE LOS DATOS EPICENTRALES       : SSN
                                       : INSTITUTO DE GEOFISICA, UNAM

================================================================================
DATOS DE ESTE REGISTRO:
HORA DE LA PRIMERA MUESTRA (GMT)       : 13:13:57.00
EXACTITUD DEL TIEMPO (s)               : 
DURACION DEL REGISTRO (s), C1-C6       : /329.01/329.01/329.01
DURACION DEL REGISTRO (s), C7-C12      : 
NUM. TOTAL DE MUESTRAS, C1-C6          : /32901/32901/32901
NUM. TOTAL DE MUESTRAS, C7-C12         : 
ACEL. MAX. (Gal), C1-C6                : /137.93052/65.25584/113.3813
ACEL. MAX., C1-C6, EN LA MUESTRA       : /8652/7939/8472
ACEL. MAX. (Gal), C7-C12               : 
ACEL. MAX., C7-C12, EN LA MUESTRA      : 
UNIDADES DE LOS DATOS                  : Gal (cm/s/s)
FACTOR DE DECIMACION                   : 1
FORMATO DATOS (FORTRAN,10 campos/dato) : 3F10.5


================================================================================
CALIDAD DEL ACELEROGRAMA:
REGISTRO DIGITAL COMPLETO CON TIEMPO ABSOLUTO CORRECTO.


================================================================================
COMENTARIOS:














================================================================================
DATOS DE ACELERACION:
---------+---------+---------+---------+---------+---------+---------+---------+
   CANAL-1   CANAL-2   CANAL-3   CANAL-4   CANAL-5   CANAL-6   CANAL-7   CANAL-8
      N00E        +V      N90W
---------+---------+---------+---------+---------+---------+---------+---------+
[...]
 -69.87572  16.35454  -6.06180
 -66.10482  18.68884  -6.06180
 -62.03472  16.89324  -6.54060
 -58.02452  12.22454  -7.61800
 -53.47552   6.71794  -8.33630
 -47.96892   0.31344  -8.39610
 -42.22282  -6.27056  -8.15670
 -36.95562 -11.65746  -7.67790
 -32.58622 -15.42836  -6.48080
 -29.47372 -17.10426  -4.38590
 -27.67812 -16.68526  -1.51280
 -26.84012 -14.11156   1.71930
 -26.66062  -9.92166   4.59230
 -26.95992  -4.29536   7.22600
 -27.25912   1.63024   9.38070
 -27.37882   7.07704  10.75740
 -27.13942  12.28444  11.71510
 -25.94232  19.34724  12.31360
 -24.26642  23.77654  12.91220
 -22.05182  23.47724  13.45080
 -19.35832  19.82614  14.34870
 -16.06632  14.79834  16.02460
 -12.71442  11.20704  18.47860
  -8.88372   8.87274  21.59110
  -5.17272   6.65804  25.24220
  -1.58142   4.32374  28.89340
   1.77038   2.22884  32.36490
   5.06238  -0.10556  35.11830
   8.77338  -3.15806  37.33290
  12.90338  -6.98876  39.30810
  17.69178 -11.29836  41.10370
  22.65968 -15.54806  42.12130
  27.74738 -19.01966  42.06140
  33.19418 -21.35396  40.98400
  39.41908 -22.61086  39.30810
  46.12278 -22.79046  37.09350
  52.58708 -22.55106  34.16060
  58.39298 -22.43136  30.09050
  63.06168 -23.20946  25.24220
  66.71278 -25.24446  20.39400
  69.58578 -28.05766  15.00710
  71.14208 -30.21246   8.54280
  71.50118 -31.64896   0.88130
  70.84278 -31.46936  -6.72020
  69.94498 -29.19496 -13.54360
  68.98728 -25.84306 -19.46930
  68.50848 -22.73056 -24.43720
  68.56828 -20.87506 -27.72920
  69.34638 -20.57586 -28.56720
  70.84278 -21.29406 -26.89120
  72.51868 -22.13206 -22.34230
  74.13478 -22.07216 -14.26190
  75.09248 -20.69556  -3.72750
  75.27198 -18.00206   7.28580
  74.79318 -14.88966  17.40130
  73.77568 -11.95676  26.43930
  72.33918  -9.86186  34.57960
  70.48368  -9.20346  41.64240
  68.14928  -9.86186  47.68780
  65.45588 -11.35816  52.77540
  62.82228 -12.85456  56.90540
  60.48788 -13.87206  60.19740
  58.45288 -14.11156  62.77110
  56.65718 -13.51296  64.32740
  54.56228 -12.37576  65.10550
  52.40748 -11.17866  64.68650
  50.07318 -10.10126  62.71130
  47.20018  -9.08376  59.17990
  43.78838  -8.12606  54.03240
  39.59858  -6.92896  47.38850
  34.63068  -5.13336  40.08620
  29.06418  -2.43986  32.78390
  23.07868   0.91204  25.90060
  17.03338   4.68284  19.79540
  10.86828   7.97484  14.58810
   4.94268  10.24934  10.21870
  -0.56392  11.56614   6.92670
  -5.41212  12.28444   4.53250
  -9.48232  11.98514   2.91640
 -12.65462  11.26684   1.77920
 -14.80932  10.30924   1.12080
 -16.42542   9.11214   1.12080
 -17.32322   7.79534   2.07840
 -17.50282   6.41864   3.63470
 -17.14372   4.80254   5.72960
 -16.18602   3.30624   8.18360
 -15.10862   2.16894  10.87710
 -14.09112   2.28864  13.15160
 -13.01372   4.56314  14.82750
 -11.93632   8.99244  15.72530
 -11.15822  17.25234  15.54580
 -10.32022  24.97364  14.40850
  -9.36262  27.30794  12.37350
  -8.16552  29.82184   9.44060
  -6.42972  32.45544   5.49020
  -3.91582  33.89194   0.88130
  -0.44422  34.90954  -4.38590
   4.46388  36.34604 -10.19180
  10.50918  38.44094 -16.17730
  17.63188  40.77524 -22.22260
  25.35318  43.10964 -28.20810
  33.43358  45.08484 -33.77450
  41.87308  46.34174 -38.62280
  50.37248  47.23954 -42.57320
  58.33308  48.07754 -45.62580
  65.45588  48.91554 -47.48130
  71.92018  49.87324 -48.07980
  77.72608  51.24984 -47.00240
  82.99328  52.98564 -44.72800
  87.30278  54.78124 -41.49580
  90.41528  55.26014 -37.48550
  92.51018  53.88344 -32.93660
  93.76718  50.65134 -28.02850
  94.36568  45.68334 -22.94080
  94.66498  39.93734 -17.37430
  94.54528  34.07154 -11.62830
  93.88688  28.86414  -6.00190
  92.51018  26.52984  -0.49530
  90.41528  25.51234   5.01130
  87.30278  23.89624  10.39830
  83.29258  19.88594  15.84500
  78.20488  15.27714  21.05240
  71.92018  11.56614  25.84080
  64.31858   8.93254  29.85100
  55.69948   7.01724  33.08320
  46.00308   5.93984  35.35770
  35.64818   5.99964  36.97380
  24.57508   7.25664  37.99130
  13.20268   9.35154  38.76940
   2.12958  11.44644  39.72710
  -8.58442  12.70344  41.04390
 -18.69992  11.86544  42.42050
 -28.33652   9.41134  43.85710
 -37.79362   5.99964  45.53300
 -47.07102   2.10914  47.44830
 -55.57042  -1.30256  49.90240
 -63.17202  -3.69676  52.95500
 -69.63632  -5.13336  56.42650
 -74.78382  -5.85156  59.95800
 -78.73422  -6.33036  63.30980
 -81.54742  -6.56986  65.70400
 -83.04372  -6.80926  66.78140
 -83.46272  -7.04866  66.18290
 -82.98392  -7.10856  63.54930
 -81.72692  -6.80926  58.94040
 -80.35032  -6.68956  52.35640
 -78.79412  -6.80926  44.39570
 -76.93862  -6.86906  35.47740
 -74.90352  -7.34796  26.08020
 -72.68892  -8.30566  16.20420
 -70.05532  -8.42536   6.02890
 -66.76322  -7.52746  -4.08660
 -62.57342  -5.91146 -13.90280
 -56.34852  -3.99606 -23.65910
 -48.44772  -2.37996 -33.35560
 -40.42722  -2.08076 -43.71040
 -33.54392  -2.37996 -54.66380
 -27.25912  -1.06316 -65.91650
 -21.45322   1.69014 -76.27140
 -15.22832   4.50334 -85.01020
  -8.28522   6.11934 -92.19280
  -2.41942   6.05954 -97.99870
   0.75288   4.80254-103.08630
   1.65068   3.36604-107.33600
   0.63318   2.28864-110.44850
  -3.01802   0.31344-112.60320
  -8.10562  -2.43986-113.38130
 -13.67212  -5.13336-112.48350
 -20.55542  -7.76696-109.61050
 -27.61832 -10.58006-105.30100
 -33.78332 -11.83706 -99.19580
 -39.46952 -12.07646 -91.59420
 -44.79662 -12.85456 -83.21460
 -48.92652 -13.27356 -74.71520
 -51.67992 -13.15386 -66.33550
 -53.29592 -14.29106 -58.13540
 -53.77482 -16.38596 -50.59370
 -53.05652 -17.82256 -43.53090
 -52.75722 -18.36116 -37.30600
 -53.83462 -18.89986 -32.75700
 -55.69012 -18.84006 -29.82410
 -57.66532 -17.88236 -27.72920
 -60.05952 -17.40356 -26.41240
 -62.45372 -17.16416 -26.83140
 -64.78802 -16.98456 -28.68690
 -67.12242 -17.40356 -31.55990
 -69.39692 -18.24146 -35.09130
 -71.25242 -17.82256 -38.68260
 -72.86842 -16.02686 -41.97460
 -74.66412 -13.69256 -45.08710
 -76.16042 -11.05896 -47.78060
 -77.59702  -8.42536 -49.57620
 -79.15322  -6.45016 -50.59370
 -81.48752  -5.37276 -51.13240
 -84.42042  -5.07346 -51.31200
 -87.53282  -5.37276 -51.07260
 -90.34602  -6.27056 -50.59370
 -92.44092  -7.16836 -49.93530
 -93.87742  -7.58736 -48.97760
 -94.89502  -7.22826 -48.13970
 -95.43372  -6.15086 -47.48130
 -95.43372  -4.83406 -46.52360
 -94.71542  -3.33766 -45.56590
 -93.03952  -2.20046 -44.24910
 -90.10662  -1.78146 -42.75280
 -86.09632  -1.60186 -41.01700
 -81.30802  -1.24276 -39.52060
 -75.68162  -0.70406 -37.90450
 -69.09762  -0.16536 -35.92930
 -61.67562   0.31344 -33.47530
 -53.89452   0.55284 -30.54240
 -46.05352   0.43314 -27.31020
 -38.33232   0.13394 -23.95840
 -31.26942  -0.64416 -20.36710
 -24.56572  -2.20046 -16.77580
 -18.46052  -4.71436 -12.94510
 -13.07362  -7.82676  -9.41370
  -8.22532 -11.11876  -6.36110
  -3.79612 -14.17136  -3.66760
   0.39378 -16.62546  -1.45300
   4.34418 -18.60066   0.52220
   8.35438 -20.33646   2.31790
  12.24498 -22.31166   4.11350
  16.01588 -25.12476   5.78940
  19.96628 -28.71606   7.52520
  24.33568 -33.14536   9.44060
  29.06418 -37.75416  11.47560
  34.15178 -41.82426  13.39100
  39.29928 -44.81696  15.30630
  44.56658 -46.31336  17.16180
  49.95348 -46.31336  18.95750
  55.28058 -44.93676  20.63340
  60.66748 -42.66226  22.42910
  65.99458 -40.20816  24.40430
  71.02238 -37.63446  26.79850
  75.69098 -35.12056  29.37220
  79.82098 -32.60666  32.42480
  83.47208 -29.97306  35.89640
  86.58458 -27.27956  39.72710
  88.91888 -24.34666  43.85710
  90.35538 -21.05466  48.28630
  90.77438 -17.58306  52.95500
  89.99628 -14.35096  57.86310
  87.72178 -11.05896  63.25000
  84.42978  -8.30566  68.87630
  80.47938  -6.15086  74.56250
  76.16988  -4.17566  80.06920
  71.68078  -1.78146  85.09700
  66.83248   1.45074  89.28680
  61.92438   4.74274  92.45910
  57.01628   6.77774  94.01530
  52.34768   7.49604  94.43430
  48.51698   7.01724  93.53650
  45.40448   5.10184  91.20210
  42.29208   1.98944  87.01230
  39.17958  -1.54206  81.20640
  36.84528  -4.17566  74.98150
  35.58828  -5.25306  68.99600
  35.28908  -5.37276  62.95070
  35.82778  -4.95376  56.78570
  37.68328  -4.11576  50.44110
  40.07748  -3.63696  43.79720
  42.71108  -3.63696  36.73430
  45.70378  -3.21796  29.73130
  49.11548  -2.61946  22.84800
  52.40748  -1.72156  16.38370
  55.87908   0.07404  10.39830
  58.93168   2.52814   4.89160
  61.26598   5.10184  -0.07630
  63.18138   7.43614  -4.38590
  64.43828   9.35154  -7.73770
  65.15658  10.84794 -10.37130
  65.69528  12.46394 -12.16700
  65.93468  15.03774 -13.00490
  66.05438  20.18524 -12.88520
  66.17408  24.61454 -11.56840
  65.75508  25.87144  -9.77280
  64.85728  26.58974  -7.25890
  63.54048  27.06854  -3.72750
  61.80468  27.12844   0.76160
  59.64998  26.70944   5.84930
  56.89658  26.23054  11.41580
  53.42508  25.87144  17.46110
  49.53448  25.63204  23.80570
  45.52418  25.33274  30.50940
  41.87308  25.09334  37.63220
  38.52118  24.13564  44.93440
  35.64818  20.18524  51.81770
  33.25398  14.37934  58.34190
  31.15908  10.66834  64.20770
  29.36348   8.33404  69.83400
  27.86708   6.89744  74.86180
  26.49038   6.29894  79.23120
  25.17358   6.53834  83.24150
  24.03638   7.13694  86.41380
  23.19838   7.49604  88.74810
  22.48018   6.95734  89.64590
  21.82178   5.46094  88.92770
  21.16338   3.36604  86.35390
  20.20568   1.15144  81.92470
  19.18818  -0.16536  76.05890
  18.29028   0.13394  69.41500
  17.75158   2.40834  62.11270
  17.57208   5.64054  53.67320
  17.87128   8.69314  44.09650
  18.82898  11.08734  33.68170
  20.50498  12.70344  22.60860
  22.95898  13.48154  11.77490
  26.01158  14.43914   1.53980
  29.24368  16.89324  -8.21660
  32.59558  21.80134 -17.01520
  36.06718  25.27294 -24.55690
  39.47888  26.76924 -30.54240
  42.65118  29.10364 -35.09130
  46.06288  32.21604 -38.26360
  49.47458  34.13144 -40.47830
  52.52718  34.37084 -41.73520
  54.92138  33.53284 -42.39360
  56.65718  32.45544 -42.15420
  57.43528  31.97664 -40.89730
  56.83678  32.21604 -38.68260
  54.80168  32.69484 -35.98920
  51.21038  32.69484 -32.87670
  46.42208  31.31824 -29.70440
  40.67598  29.04374 -26.47230
  33.97228  27.30794 -23.35980
  26.49038  26.29044 -20.60650
  18.52968  25.87144 -18.09260
  10.03038  25.75174 -15.57870
   1.17188  25.99114 -13.00490
  -8.10562  26.41014 -10.43120
 -17.92182  26.82914  -7.91730
 -28.27672  26.94884  -5.40340
 -39.11042  26.58974  -3.12890
 -50.30322  25.87144  -0.73470
 -61.67562  22.69914   1.30030
 -73.04802  13.78074   2.91640
 -84.12112   7.19674   3.81420
 -94.59572   2.40834   3.93390
-104.41192  -1.42236   3.03610
-113.27042  -3.99606   1.12080
-120.87192  -5.43256  -1.75230
-127.03702  -6.33036  -5.64280
-131.82532  -6.98876 -10.67060
-135.23712  -7.70706 -16.11740
-137.39182  -8.72456 -22.10290
-137.93052  -9.74216 -28.26790
-137.03272 -10.69976 -34.55270
-134.81812 -11.29836 -40.95710
-131.34652 -11.41806 -47.30170
-126.55812 -10.81956 -53.40690
-121.29092  -8.96406 -59.45220
-115.30542  -6.56986 -65.13840
-108.84112  -3.63696 -70.34580
-101.65862  -0.70406 -74.95460
 -93.39862   1.33104 -78.30650
 -84.89922   1.98944 -80.40140
 -76.39992   1.39084 -81.35910
 -68.55892  -0.22526 -81.11960
 -61.43622  -1.78146 -79.98240
 -55.15142  -2.55956 -78.12690
 -49.28572  -2.79896 -75.79260
 -43.41992  -2.97856 -73.03920
 -36.59652  -4.35516 -69.44800
 -27.25912  -7.04866 -64.59970
 -16.54512  -8.54506 -58.91350
  -7.44722  -8.18586 -53.52660
  -2.23982  -6.80926 -49.09740
  -1.34202  -4.71436 -45.50610
  -3.79612  -3.33766 -41.43590
  -7.14792  -1.96106 -34.91180
  -9.48232   0.13394 -27.31020
  -9.48232   3.36604 -19.94810
  -7.32752   5.58064 -13.30420
  -5.41212   5.34124  -8.09690
  -5.35232   3.90474  -4.38590
  -6.96842   2.34854  -0.79460
 -10.20052   0.25364   2.49740
 -14.80932  -2.20046   5.01130
 -19.95682  -4.41506   6.86680
 -24.44602  -5.55226   8.66250
 -26.84012  -4.59466  10.21870
 -27.25912  -2.14056  11.41580
 -26.12192   0.73244  12.37350
 -23.36862   4.20404  13.15160
 -20.67512   7.07704  13.63040
 -19.83712   8.51354  12.91220
 -20.49552   9.89024  11.71510
 -21.93212  11.62604  10.63770
 -23.66782  12.88294   8.72230
 -25.34382  13.42164   5.72960
 -26.66062  13.24214   2.01860
 -27.85772  11.32674  -2.82960
 -29.05482   8.57344  -8.87500
 -29.35402   5.46094 -14.98020
 -28.63582   1.09154 -20.96560
 -27.19932  -3.93626 -26.89120
 -24.98462  -8.18586 -32.09860
 -22.53062 -11.59766 -36.40820
 -20.31602 -14.17136 -40.11910
 -18.22112 -15.96706 -42.81260
 -15.82692 -17.34366 -44.12940
 -13.13342 -19.37876 -44.48850
 -10.61952 -22.73056 -44.90750
  -8.22532 -27.04016 -45.68560
  -6.07052 -31.34966 -47.12210
  -3.97562 -35.18036 -48.97760
  -1.88072 -37.75416 -50.71340
   0.09448 -38.83156 -51.85070
   1.65068 -38.47236 -52.56890
   2.66818 -37.27526 -52.98790
   3.50618 -36.07826 -52.92810
   4.10478 -35.89866 -52.80830
   4.76318 -37.21546 -52.74850
   5.30188 -40.08846 -52.68860
   6.07998 -43.91916 -52.32950
   7.03758 -48.10906 -51.85070
   8.05518 -51.81996 -51.19230
   9.31208 -54.39376 -49.99520
  10.98808 -55.71056 -48.25940
  13.26248 -56.36896 -45.86520
  16.13558 -56.54856 -42.87250
  19.36768 -56.84776 -39.40090
  22.89908 -57.20696 -35.86950
  26.49038 -57.56606 -32.27820
  30.02188 -57.56606 -28.86650
  33.31388 -56.66826 -25.75400
  36.42628 -54.87256 -23.12040
  39.35918 -52.47836 -21.32480
  42.05268 -50.02436 -20.30720
  44.50668 -47.69006 -19.94810
  46.90088 -45.53526 -19.94810
  49.17538 -43.38046 -20.42690
  51.44988 -40.68706 -20.96560
  54.20318 -37.21546 -21.14520
  57.43528 -32.96576 -20.84590
  60.90688 -27.93796 -20.12770
  64.43828 -22.43136 -19.17000
  68.02958 -17.34366 -17.67360
  71.44128 -13.21366 -15.45900
  74.73328 -10.28086 -12.88520
  77.54648  -8.48516  -9.83260
  79.76108  -7.16836  -6.54060
  80.89838  -5.85156  -2.94940
  80.89838  -3.99606   1.12080
  79.76108  -1.36246   5.78940
  77.30708   2.22884  10.99680
  73.71578   6.17924  16.86260
  68.98728  10.12964  23.08750
  63.18138  14.97784  29.61160
  56.17838  20.48454  36.13580
  48.15778  23.89624  42.18110
  39.47888  24.79404  47.86730
  30.32108  24.55464  52.65570
  20.74438  22.87874  56.48640
  11.52668  20.24514  59.59880
   2.72808  18.92834  61.93320
  -6.01072  18.03044  63.30980
 -14.80932  16.71364  63.60910
 -23.18902  15.63624  63.36970
 -31.08982  15.87574  62.77110
 -38.33232  17.97064  61.81350
 -45.03602  20.90354  60.61640
 -51.20102  23.77654  58.94040
 -56.64782  24.91374  56.72580
 -61.61572  25.21304  53.97250
 -65.80562  25.39264  50.68050
 -69.21732  25.39264  47.14910
 -71.67132  25.39264  43.37820
 -73.04802  25.33274  39.48770
 -73.52682  25.45244  35.71680
 -73.34732  25.75174  31.88610
 -72.68892  26.23054  28.29480
 -71.67132  27.00864  24.94300
 -70.35452  27.96634  21.77070
 -68.31952  28.62474  19.37650
 -65.68592  29.10364  18.11950
 -62.63332  29.52254  17.52100
 -59.34132  30.59994  17.52100
 -56.10912  32.99414  18.11950
 -52.75722  36.46574  19.25680
 -49.10612  40.29644  20.99250
 -44.85642  44.00744  23.50640
 -40.36732  46.88044  26.55900
 -35.93812  48.19724  29.43210
 -32.04752  47.89794  31.76640
 -28.51612  46.04244  33.86130
 -25.04452  43.22934  35.77670
 -21.63282  40.35624  37.69200
 -17.86192  37.96214  39.78690
 -13.73202  36.22634  41.82200
  -9.42242  35.02924  43.73730
  -5.05302  34.19124  45.53300
  -0.68362  33.41314  47.20890
   3.44638  32.45544  49.36370
   6.91788  31.07884  51.57830
