********************************************************************************
              CENTRO DE INSTRUMENTACION Y REGISTRO SISMICO  A.C.

    Anaxagoras 814, Col. Narvarte, Benito Juarez, C.P. 03020 Mexico, D.F.
           Tels. 5687 45 42/ 5687 45  82             Fax. 5669 25 12
********************************************************************************
ARCHIVO ESTANDAR DE ACELERACION:
VERSION DEL FORMATO                    : 2.0
NOMBRE DEL ARCHIVO                     : LI5820170919181440
FECHA Y HORA DE CREACION               : 26/SEP/17, 15:16
REF. CATALOGO ACELEROGRAMAS, SMIS 1996 : REGISTRO No.     /PAG.


================================================================================
DATOS DE LA ESTACION:
NOMBRE DE LA ESTACION                  : ESC. SEC. DNA. NO. 23
CLAVE DE LA ESTACION                   : LI58
LOCALIZACION DE LA ESTACION            : Del. Cuauhtémoc, Col. Juárez,          
                                       : Calle Liverpool entre Génova           
                                       : y Amberes.                             
                                       :                                        
                                       : 
COORDENADAS DE LA ESTACION             : 19.4263 LAT. N
                                       : 99.1569 LONG. W
ALTITUD (msnm)                         : 2233
TIPO DE SUELO                          : Alto riesgo sísmico                 
                                       :                           
                                       : 
INSTITUCION RESPONSABLE                : CIRES
                                       : 

================================================================================
DATOS DEL ACELEROGRAFO:
MODELO DEL ACELEROGRAFO                : RADESD
NUMERO DE SERIE DEL ACELEROGRAFO       : 218
NUMERO DE CANALES                      : 3
ORIENTACION C1-C6 (rumbo;orientacion)  : /N00E/+V/N90W
ORIENTACION C7-C12 (rumbo;orientacion) : 
VEL. DE MUESTREO, C1-C6 (muestras/s)   : /100/100/100
VEL. DE MUESTREO, C7-C12 (muestras/s)  : 
ESC. COMPLETA DE SENSORES, C1-C6, (g)  : /0.5/0.5/0.5
ESC. COMPLETA DE SENSORES, C7-C12, (g) : 
FREC. NAT. DE SENSORES, C1-C6, (Hz)    : /30/32/32
FREC. NAT. DE SENSORES, C7-C12, (Hz)   : 
AMORTIGUAMIENTO DE SENSORES, C1-C6     : /0.741/0.795/0.745
AMORTIGUAMIENTO DE SENSORES, C7-C12    : 
INTERVALO DE MUESTREO, C1-C6, (s)      : /0.01/0.01/0.01
INTERVALO DE MUESTREO, C7-C12, (s)     : 
UMBRAL DE DISPARO, C1-C6, (Gal)        : /1.35/4.49/1.35
UMBRAL DE DISPARO, C7-C12, (Gal)       : 
MEMORIA DE PREEVENTO (s)               : 44.0
TIEMPO DE POSEVENTO (s)                : 0.0


================================================================================
DATOS DEL SISMO:
FECHA DEL SISMO (GMT)                  : 19/SEP/17
HORA EPICENTRO (GMT)                   : 18:14:40.0
MAGNITUD(ES)                           : /Mc=7.1
COORDENADAS DEL EPICENTRO              : 18.40 LAT. N
                                       : 98.72 LONG. W
PROFUNDIDAD FOCAL (km)                 : 57
FUENTE DE LOS DATOS EPICENTRALES       : SSN
                                       : INSTITUTO DE GEOFISICA, UNAM

================================================================================
DATOS DE ESTE REGISTRO:
HORA DE LA PRIMERA MUESTRA (GMT)       : 18:14:33.00
EXACTITUD DEL TIEMPO (s)               : 0.01
DURACION DEL REGISTRO (s), C1-C6       : /369.2/369.2/369.2
DURACION DEL REGISTRO (s), C7-C12      : 
NUM. TOTAL DE MUESTRAS, C1-C6          : /36920/36920/36920
NUM. TOTAL DE MUESTRAS, C7-C12         : 
ACEL. MAX. (Gal), C1-C6                : /95.8086/51.12188/89.90518
ACEL. MAX., C1-C6, EN LA MUESTRA       : /6337/7726/7097
ACEL. MAX. (Gal), C7-C12               : 
ACEL. MAX., C7-C12, EN LA MUESTRA      : 
UNIDADES DE LOS DATOS                  : Gal (cm/s/s)
FACTOR DE DECIMACION                   : 1
FORMATO DATOS (FORTRAN,10 campos/dato) : 3F10.5


================================================================================
CALIDAD DEL ACELEROGRAMA:
REGISTRO DIGITAL COMPLETO CON TIEMPO ABSOLUTO CORRECTO.


================================================================================
COMENTARIOS:














================================================================================
DATOS DE ACELERACION:
---------+---------+---------+---------+---------+---------+---------+---------+
   CANAL-1   CANAL-2   CANAL-3   CANAL-4   CANAL-5   CANAL-6   CANAL-7   CANAL-8
      N00E        +V      N90W
---------+---------+---------+---------+---------+---------+---------+---------+
[...]
  12.61881  -7.09849  23.64565
  14.13015  -9.58248  23.24163
  14.68381 -12.36574  22.88250
  14.51921 -13.60773  22.77775
  14.17504 -12.42559  22.65804
  13.72613  -9.70219  22.56826
  13.59145  -7.95143  22.46351
  13.56153  -7.29302  22.44855
  13.27722  -6.51491  22.64308
  12.67867  -4.55465  23.28652
  12.09508  -1.38234  24.04967
  11.10747   1.84984  24.93253
   9.91037   3.36118  25.68072
   8.90780   3.79512  25.87525
   7.57602   5.51596  25.21685
   5.58584   7.99994  23.95989
   3.61063   8.88280  21.83504
   2.29382   7.58096  18.66272
   1.59052   5.78530  14.80207
   1.38103   5.66559  10.95638
   1.63541   7.31161   6.82638
   2.00950   9.52624   2.51682
   2.26389  10.57371  -1.16426
   2.38360  10.15472  -4.54607
   2.27885   9.84048  -7.28444
   1.90476  10.06494  -9.06513
   1.45584  10.12480  -9.94799
   0.75255   9.34668 -10.09763
  -0.07046   7.85030  -9.54397
  -0.71390   6.15940  -8.45162
  -0.81865   4.90244  -7.71839
  -0.45952   4.84259  -7.76328
   0.43831   4.31886  -8.52643
   2.03943   2.83744  -9.76843
   4.23910   1.23632 -11.69875
   5.94497   1.02683 -13.64404
   6.79791   2.56810 -15.31998
   7.09718   4.99223 -16.75650
   6.40885   7.71563 -17.38498
   4.83765   9.07733 -17.16052
   2.98215   8.70324 -16.41234
   1.11168   7.83534 -15.24516
  -0.95332   6.90759 -13.67397
  -3.12307   5.83020 -11.98306
  -5.27785   5.24661  -9.96296
  -7.11839   4.61813  -8.06256
  -9.07864   3.06190  -6.88042
 -10.82940   0.69763  -6.94028
 -11.66737  -1.38234  -7.43408
 -11.98161  -2.65426  -8.15234
 -11.80205  -3.13310  -9.67864
 -10.66480  -3.01339 -11.75861
  -8.88411  -3.41741 -13.71886
  -6.34027  -5.12328 -15.69408
  -2.98839  -7.54741 -17.25031
   0.49816  -9.70219 -17.77404
   3.38617 -10.95914 -17.78900
   5.58584 -11.06389 -17.11563
   6.78294 -10.92922 -16.00831
   6.85776 -10.70476 -14.63165
   6.25921 -11.49784 -13.21009
   4.89751 -12.47048 -12.10277
   2.87740 -13.48802 -11.75861
   0.93211 -14.44570 -12.23745
  -0.26499 -14.81979 -13.07542
  -0.90843 -15.95704 -14.24259
  -0.92339 -17.34867 -16.00831
  -0.17520 -17.24392 -18.53719
   0.19889 -13.78729 -21.18578
   0.37845  -8.35545 -23.68472
   0.52809  -2.78893 -25.85447
   0.76751   0.98194 -27.17128
   0.91715   2.28378 -27.53041
   1.05182   1.92465 -27.36581
   1.27628   1.32610 -26.87200
   1.65037   1.41589 -26.24353
   2.45842   1.77502 -25.73476
   3.47595   1.68523 -25.34570
   4.71794   1.68523 -24.88182
   6.43878   1.59545 -24.67233
   8.51874   1.25129 -24.65737
  10.77827   0.98194 -24.71722
  13.12758   0.95201 -25.04643
  15.46192   1.25129 -25.45045
  17.82620   1.07172 -26.15374
  19.56200   0.74252 -26.90193
  20.98355   0.33850 -27.59026
  21.86641   0.78741 -27.75487
  22.24051   1.77502 -27.03661
  22.21058   3.46592 -25.85447
  21.58210   5.15683 -24.47780
  20.01091   6.18933 -22.90661
  17.57181   6.56342 -21.35038
  14.19001   6.18933 -19.95875
  10.29943   6.45867 -18.80654
   6.37892   8.44885 -17.75907
   2.54820  11.59124 -16.42730
  -0.90843  14.56903 -14.60172
  -4.00593  16.02052 -11.95314
  -7.05853  15.25736  -8.69104
 -10.33560  12.77338  -5.56361
 -13.50792  10.12480  -2.75042
 -16.74009   7.76052   0.09269
 -19.46349   5.44114   2.78617
 -21.55842   3.36118   4.89606
 -23.17450   1.71516   6.45229
 -24.31175   0.06915   7.58954
 -24.95519  -2.08563   7.91874
 -25.25447  -4.28531   7.55961
 -25.08987  -5.90139   6.66178
 -24.22197  -6.18570   5.52454
 -22.39639  -5.48241   3.90845
 -20.10693  -4.74918   2.20258
 -17.27878  -5.16817   0.66131
 -14.54041  -6.33534  -0.82010
 -12.84951  -6.32038  -2.12194
 -12.26592  -4.65940  -2.97488
 -12.77469  -2.42980  -3.25919
 -14.33092  -0.34984  -3.01977
 -16.71016   1.55056  -2.09202
 -19.10436   2.92723  -0.29637
 -21.15440   3.98965   2.06791
 -23.30918   4.90244   5.18037
 -25.38914   5.12690   8.50233
 -26.64610   5.14186  11.45019
 -27.28954   6.35393  13.73964
 -27.09501   8.07476  15.11631
 -25.61360   9.34668  15.01156
 -23.54860   9.81056  13.82942
 -21.33396   9.61603  12.33305
 -19.17918   9.19704  10.49251
 -17.53317   9.31675   8.50233
 -16.30614   9.97516   6.52711
 -15.45320   9.79559   4.68657
 -15.04918   8.80798   3.20515
 -15.01926   8.26929   2.08287
 -15.61781   8.92769   1.82849
 -16.54556  10.58867   2.32229
 -17.66784  12.57885   3.05552
 -18.82005  13.26718   3.93838
 -19.62809  11.41168   4.97088
 -19.41860   7.47621   5.73403
 -18.14668   2.68781   6.10812
 -15.39335  -1.90607   6.43733
 -11.26335  -5.36270   6.16798
  -6.59466  -7.66712   5.33001
  -1.97086 -10.49527   4.02816
   2.15914 -13.81722   2.32229
   5.19679 -16.43588   0.91570
   7.45631 -18.09686   0.28722
   8.74320 -18.24649   0.36204
   9.17715 -17.12421   1.02044
   8.66838 -15.74755   2.02302
   7.09718 -15.17892   3.42961
   4.70298 -15.04425   4.91102
   1.33613 -13.62269   6.66178
  -2.13546 -10.86936   8.42751
  -4.69426  -7.33791   9.75928
  -6.14575  -4.04589  10.76185
  -6.47495  -2.19038  11.70457
  -5.96618  -1.90607  12.15348
  -5.80158  -1.50205  12.37794
  -6.14575  -1.44219  12.37794
  -6.45998  -2.57944  11.36040
  -6.17567  -4.24041   9.10088
  -5.36763  -5.60212   6.31762
  -4.12564  -7.17331   3.56428
  -3.04825  -8.52005   0.99052
  -2.38984  -8.53501  -0.71535
  -2.04567  -7.33791  -1.86756
  -1.89604  -5.31781  -2.92999
  -2.41977  -2.59440  -3.82781
  -3.63183   0.21879  -4.18694
  -4.69426   2.04436  -4.17198
  -5.84647   3.49585  -3.67818
  -6.95379   4.60317  -2.60079
  -7.76183   4.93237  -0.92484
  -8.61477   5.30646   0.79599
  -9.87172   6.78788   2.83106
 -11.48781   8.47878   5.28512
 -13.38821  10.28940   7.26033
 -15.67766  11.24708   9.44504
 -18.23646  10.87298  11.68961
 -20.91498  10.16969  14.00899
 -23.41392  10.39414  15.80464
 -25.52381  11.41168  17.13641
 -26.58624  11.92045  17.63022
 -26.33186  10.94780  17.30102
 -24.76066   8.71820  16.68750
 -21.63324   6.36889  15.92435
 -16.88973   4.81266  15.26594
 -11.09875   3.22650  14.78710
  -4.85886   1.53560  14.51776
   1.14161  -0.15531  14.27834
   6.36396  -1.29255  13.81446
  10.32935  -0.90350  13.56008
  13.35203   0.60784  13.78453
  16.06048   1.52063  14.36812
  18.58935   0.60784  15.50537
  20.74413  -2.36994  16.82218
  22.61460  -5.43752  18.03424
  23.79674  -6.27549  18.61783
  24.32047  -4.86889  18.63279
  24.38033  -2.63929  18.12402
  23.63214  -0.72393  17.16634
  21.64196   1.02683  16.52290
  18.64921   2.59802  16.49297
  15.14769   3.79512  16.85210
  11.18229   4.16922  17.00174
   7.36653   3.51081  16.92692
   4.64313   1.47574  16.11888
   2.75769  -0.61918  14.72725
   1.56059  -2.62433  13.05131
   0.85729  -5.46744  10.68703
   0.64780  -7.86164   7.94867
   0.75255  -9.55255   4.64167
   1.71023 -10.91425   0.25729
   4.02961 -11.85697  -3.27415
   7.08222 -13.30845  -6.07238
  10.56878 -15.64280  -8.66111
  13.87577 -17.28881 -10.62136
  17.00319 -16.67530 -12.08781
  20.32515 -14.49059 -12.43198
  23.21315 -12.20114 -11.48926
  25.51757 -10.76461  -9.97792
  27.55264  -9.71715  -8.67607
  29.30340  -7.44266  -7.32933
  30.35087  -3.94114  -6.11727
  31.14395  -0.91846  -5.44390
  31.89213   0.77244  -5.32419
  32.16148   2.32868  -5.84792
  32.07170   5.03712  -7.10488
  31.48811   9.66092  -8.97535
  30.18626  15.18255 -11.21991
  28.33076  19.55196 -13.50937
  26.41540  21.67682 -15.24516
  24.93399  22.43997 -16.03824
  23.70696  23.84656 -16.24773
  22.97373  26.98895 -16.41234
  22.82409  30.74486 -16.71161
  22.91388  32.10656 -17.16052
  22.58467  29.35323 -17.54958
  21.86641  23.41261 -17.75907
  20.72917  17.75631 -17.71418
  19.47221  12.75842 -16.69665
  18.61928   8.41893 -15.78386
  18.03569   4.97726 -14.78129
  17.19772   1.14654 -13.12031
  15.94077  -2.84879 -10.99545
  14.20497  -6.72440  -9.24469
  12.15493 -10.16606  -7.80817
   9.97022 -12.14128  -6.38662
   8.23443 -13.71248  -4.90520
   7.50120 -14.90958  -3.72307
   7.59099 -15.77747  -2.75042
   8.47385 -16.18150  -1.97231
  10.10490 -15.94208  -1.79274
  12.45421 -14.07161  -2.78035
  15.28236 -11.09382  -4.74060
  18.49957  -8.75947  -7.80817
  21.70181  -6.93389 -11.20495
  24.66464  -6.23059 -14.24259
  27.31322  -6.29045 -16.74154
  29.52786  -6.12585 -18.41748
  31.48811  -4.92875 -19.15070
  33.19398  -3.67179 -18.89632
  34.69036  -3.95610 -17.81893
  35.79768  -4.97364 -15.90357
  36.54586  -5.10831 -13.35973
  37.14441  -3.52215 -10.62136
  37.69807  -0.33487  -8.45162
  38.26670   2.77759  -7.29941
  38.88021   3.39110  -7.22459
  39.92767   1.78998  -8.10745
  40.87039  -0.61918 -10.02281
  41.49887  -2.81886 -12.50679
  41.96274  -4.97364 -15.20027
  42.42662  -7.27806 -18.04339
  43.01021  -8.35545 -20.91643
  44.22227  -7.77186 -23.55005
  45.95807  -6.18570 -25.54023
  48.33731  -3.97107 -27.41070
  51.09064  -1.74147 -29.52059
  53.61951  -0.67904 -31.00200
  55.50495  -0.03560 -31.91479
  56.41774   1.98451 -32.55823
  56.16335   5.47107 -33.09693
  54.78669   9.96019 -33.14182
  52.01839  14.29968 -31.81005
  47.49934  16.24497 -31.16660
  42.09742  15.46686 -30.65784
  36.24659  13.38689 -29.19139
  30.69503  11.41168 -27.33588
  26.29569   8.94266 -25.92929
  23.39272   6.20429 -24.47780
  22.22554   2.67284 -23.14603
  22.42007  -2.01081 -22.44273
  23.55732  -6.67951 -21.97885
  25.38290  -9.74708 -21.51498
  27.25337 -11.84201 -21.11096
  28.64500 -13.90700 -20.52737
  29.16873 -15.86726 -20.30291
  28.94427 -17.43845 -20.16824
  28.34572 -18.21657 -20.03357
  27.08877 -18.39613 -19.50983
  25.03873 -19.05454 -18.40252
  22.28540 -19.92244 -16.62183
  18.40979 -20.17682 -13.59915
  13.66627 -19.48849  -9.69361
   8.32421 -17.88736  -5.57857
   2.38360 -15.80740  -1.80771
  -3.79643 -13.35334   1.14016
  -9.81187  -9.94161   3.10041
 -15.96197  -6.88900   3.96831
 -22.90516  -5.61708   4.14787
 -30.44689  -5.24299   3.84860
 -38.72185  -3.70172   3.48947
 -47.07163  -0.23013   3.45954
 -54.77797   3.48089   4.37233
 -61.48173   4.88748   5.83878
 -66.68912   4.00462   7.49975
 -70.47495   2.46335   9.62461
 -72.76441   1.47574  12.00385
 -74.03633   1.68523  14.06884
 -74.60495   2.29875  15.37069
 -74.51517   3.52578  15.55026
 -74.03633   6.15940  14.78710
 -73.03375   9.37661  13.24584
 -71.53738  12.18979  11.53997
 -69.71180  13.01280  10.16330
 -68.26031  11.39671   9.59468
 -67.30263   8.25433  10.19323
 -67.00336   4.09440  11.82428
 -67.27271  -0.40969  14.11374
 -67.97600  -3.92618  16.67254
 -69.35267  -6.45505  19.24631
 -71.17825  -7.17331  21.20656
 -73.49763  -5.66197  23.13688
 -76.53527  -1.99585  24.70808
 -79.82730   3.45096  25.59094
 -83.10436   9.07733  25.72561
 -86.30661  12.81827  25.05224
 -89.43404  15.25736  23.76536
 -92.09758  17.90595  22.23906
 -94.20748  20.50964  20.83246
 -95.52429  22.38011  19.71018
 -95.80860  22.39508  18.97696
 -95.71881  19.98591  18.60286
 -94.82099  16.36468  18.54301
 -93.30965  13.38689  18.61783
 -91.60378  11.84563  18.66272
 -89.31433  11.12737  18.63279
 -86.32157  10.31932  18.43826
 -82.73027   8.88280  17.77986
 -78.98933   6.93751  17.52547
 -75.86190   4.00462  17.85468
 -73.49763   0.11404  18.18388
 -71.64212  -3.97107  18.88717
 -70.59466  -8.38538  20.11420
 -69.99611 -13.30845  21.89489
 -69.86144 -18.11182  24.49858
 -70.62459 -21.14946  28.07492
 -71.35781 -20.98486  32.04032
 -71.76183 -18.30635  35.88601
 -71.26803 -14.86468  39.07329
 -69.11325 -11.51280  40.74923
 -65.23763  -9.65730  40.47988
 -60.23974  -9.56751  38.31014
 -54.89768 -10.54016  34.37467
 -49.48080 -12.11135  29.09246
 -44.43801 -13.39824  23.21170
 -40.35290 -13.69751  18.00431
 -37.37511 -13.41320  14.30826
 -35.13055 -12.97925  11.83924
 -34.12798 -11.51280  11.52500
 -33.54439  -9.83686  12.76700
 -33.79877  -7.45762  16.43312
 -34.59185  -3.98603  23.12192
 -34.59185  -1.72650  30.05014
 -34.41229   0.53302  37.75648
 -33.88856   3.03197  45.56756
 -31.74874   4.45353  51.49321
 -29.01037   4.75281  56.05716
 -26.54135   4.07944  59.73824
 -24.29679   2.11918  63.01530
 -21.96244  -0.58926  65.64893
 -19.22407  -2.90864  66.75624
 -15.52802  -5.82657  66.36719
 -10.61991  -9.07371  64.37701
  -5.39756 -11.21353  60.65103
  -0.14528 -11.25842  56.55096
   5.40628 -10.16606  52.39103
  11.13740  -6.81418  47.04897
  16.64406  -2.63929  40.61455
  21.50728   0.35346  33.79108
  26.02634   3.07686  26.93768
  30.15634   5.39625  20.95217
  33.86735   6.56342  16.37326
  37.20427   7.10212  13.39547
  40.30177   7.25175  12.37794
  43.63869   6.26415  12.70714
  47.08035   5.15683  14.29330
  50.85122   4.13929  17.01670
  54.30785   3.34621  20.41348
  57.48016   2.85241  23.87011
  60.83205   3.85498  26.80300
  64.82737   5.45610  28.38916
  69.57088   6.45867  28.49391
  74.91294   6.86270  27.40155
  80.10537   6.95248  24.99239
  84.54961   7.99994  21.65547
  87.63214  11.51642  17.86964
  89.14348  16.91834  13.81446
  88.81428  21.94617   9.74432
  86.62957  25.56740   5.61432
  82.60432  28.67986   1.11023
  77.12758  30.46055  -2.84021
  70.51360  29.81710  -5.95267
  63.51056  26.76450  -8.30198
  56.86665  22.15566 -10.20238
  52.27278  17.24755 -11.86335
  49.36981  12.04016 -13.73382
  47.64897   7.58096 -15.66415
  47.05042   4.72288 -17.54958
  47.12524   2.83744 -19.21056
  47.25992   0.56295 -20.91643
  46.46684  -3.17799 -22.87668
  44.53651  -8.63976 -25.42052
  41.70836 -14.04168 -29.17642
  38.19188 -18.90490 -34.06957
  33.94217 -23.57359 -39.39667
  29.46800 -27.76345 -44.75370
  24.97888 -30.92080 -48.95851
  20.87881 -32.76134 -51.17315
  17.13787 -32.71645 -51.21804
  13.69620 -30.11276 -48.67420
  10.80820 -25.35428 -44.18508
   8.23443 -19.00965 -38.67841
   5.39131 -11.88690 -32.45349
   3.10186  -6.41016 -26.88697
   1.68030  -2.51958 -23.14603
   0.84233  -0.06553 -20.40766
   0.82737   1.23632 -18.79157
   2.21900   1.95458 -18.76165
   5.30153   2.46335 -20.24306
   9.76073   3.31628 -22.95150
  14.87834   4.06447 -26.28842
  19.75652   4.33382 -29.64030
  23.84163   3.70534 -31.61552
  27.20848   3.18161 -32.57320
  29.42311   2.79255 -32.84254
  30.35087   3.28636 -31.60055
  30.29101   3.98965 -29.01182
  29.31837   3.94476 -26.00411
  27.49279   3.89987 -22.39784
  25.15844   4.10936 -17.62440
  22.88395   4.43857 -12.53672
  21.02844   5.23165  -7.50890
  19.90616   5.48603  -2.63071
  19.39739   5.11194   1.28979
  19.27768   5.15683   4.58182
  19.14301   4.73784   6.94609
  18.63424   2.77759   8.27787
  17.73642   0.93705   8.92131
  17.16779   0.63777   9.37022
  17.22765   2.29875  10.23812
  17.31743   6.05465  11.71953
  18.12547  11.45657  13.32066
  20.23536  15.18255  15.58018
  23.10841  14.43436  18.07913
  26.37051  11.47153  20.17406
  30.27605   7.41635  21.49087
  34.60057   2.82248  21.40109
  38.98496  -1.12795  20.29377
  42.92043  -4.97364  18.48315
  46.18252  -8.95400  16.22363
  49.23513 -11.96172  14.12870
  51.31509 -13.00918  12.90167
  52.18299 -13.30845  12.72211
  51.76401 -13.44313  13.93417
  50.40231 -13.12889  16.19370
  48.66651 -11.81208  18.54301
  46.21245  -9.08867  20.59304
  42.56129  -5.82657  21.99964
  37.68311  -2.62433  22.64308
  31.74250   0.15893  22.71790
  24.99384   2.50824  22.43359
  17.82620   4.37871  20.92225
  11.13740   6.06962  18.69265
   5.37635   8.28425  17.83971
   0.57298  10.96277  18.61783
  -3.45227  14.06026  19.11163
  -6.71437  17.41215  18.88717
  -9.57245  19.70160  18.27366
 -12.14621  19.52204  16.58276
 -14.13639  18.29501  13.56008
