********************************************************************************
              CENTRO DE INSTRUMENTACION Y REGISTRO SISMICO  A.C.

    Anaxagoras 814, Col. Narvarte, Benito Juarez, C.P. 03020 Mexico, D.F.
           Tels. 5687 45 42/ 5687 45  82             Fax. 5669 25 12
********************************************************************************
ARCHIVO ESTANDAR DE ACELERACION:
VERSION DEL FORMATO                    : 2.0
NOMBRE DEL ARCHIVO                     : LV1720170919181440
FECHA Y HORA DE CREACION               : 25/SEP/17, 11:17
REF. CATALOGO ACELEROGRAMAS, SMIS 1996 : REGISTRO No.     /PAG.


================================================================================
DATOS DE LA ESTACION:
NOMBRE DE LA ESTACION                  : LINDAVISTA
CLAVE DE LA ESTACION                   : LV17
LOCALIZACION DE LA ESTACION            : Del. Gustavo A. Madero, Col. Lindavista
                                       : Av. Lindavista entre calles Matanzas   
                                       : y Lima.                                
                                       :                                        
                                       : 
COORDENADAS DE LA ESTACION             : 19.4931 LAT. N
                                       : 99.1275 LONG. W
ALTITUD (msnm)                         : 2233
TIPO DE SUELO                          : Terreno blando, material compresible
                                       : (arcillas)                
                                       : 
INSTITUCION RESPONSABLE                : CIRES, A. C.
                                       : 

================================================================================
DATOS DEL ACELEROGRAFO:
MODELO DEL ACELEROGRAFO                : RAD_IO14
NUMERO DE SERIE DEL ACELEROGRAFO       : 
NUMERO DE CANALES                      : 3
ORIENTACION C1-C6 (rumbo;orientacion)  : /S00E/+V/N90W
ORIENTACION C7-C12 (rumbo;orientacion) : 
VEL. DE MUESTREO, C1-C6 (muestras/s)   : /100/100/100
VEL. DE MUESTREO, C7-C12 (muestras/s)  : 
ESC. COMPLETA DE SENSORES, C1-C6, (g)  : /2.0/2.0/2.0
ESC. COMPLETA DE SENSORES, C7-C12, (g) : 
FREC. NAT. DE SENSORES, C1-C6, (Hz)    : /52.91/51.46/52.61
FREC. NAT. DE SENSORES, C7-C12, (Hz)   : 
AMORTIGUAMIENTO DE SENSORES, C1-C6     : /0.5928/0.5783/0.5766
AMORTIGUAMIENTO DE SENSORES, C7-C12    : 
INTERVALO DE MUESTREO, C1-C6, (s)      : /0.01/0.01/0.01
INTERVALO DE MUESTREO, C7-C12, (s)     : 
UMBRAL DE DISPARO, C1-C6, (Gal)        : / / /
UMBRAL DE DISPARO, C7-C12, (Gal)       : 
MEMORIA DE PREEVENTO (s)               : 60
TIEMPO DE POSEVENTO (s)                : 90


================================================================================
DATOS DEL SISMO:
FECHA DEL SISMO (GMT)                  : 19/SEP/17
HORA EPICENTRO (GMT)                   : 18:14:40.0
MAGNITUD(ES)                           : /Mc=7.1
COORDENADAS DEL EPICENTRO              : 18.40 LAT. N
                                       : 98.72 LONG. W
PROFUNDIDAD FOCAL (km)                 : 57
FUENTE DE LOS DATOS EPICENTRALES       : SSN
                                       : INSTITUTO DE GEOFISICA, UNAM

================================================================================
DATOS DE ESTE REGISTRO:
HORA DE LA PRIMERA MUESTRA (GMT)       : 13:13:57.00
EXACTITUD DEL TIEMPO (s)               : 
DURACION DEL REGISTRO (s), C1-C6       : /329.01/329.01/329.01
DURACION DEL REGISTRO (s), C7-C12      : 
NUM. TOTAL DE MUESTRAS, C1-C6          : /32901/32901/32901
NUM. TOTAL DE MUESTRAS, C7-C12         : 
ACEL. MAX. (Gal), C1-C6                : /123.01647/25.92726/104.13809
ACEL. MAX., C1-C6, EN LA MUESTRA       : /9103/8662/9433
ACEL. MAX. (Gal), C7-C12               : 
ACEL. MAX., C7-C12, EN LA MUESTRA      : 
UNIDADES DE LOS DATOS                  : Gal (cm/s/s)
FACTOR DE DECIMACION                   : 1
FORMATO DATOS (FORTRAN,10 campos/dato) : 3F10.5


================================================================================
CALIDAD DEL ACELEROGRAMA:
REGISTRO DIGITAL COMPLETO CON TIEMPO ABSOLUTO CORRECTO.


================================================================================
COMENTARIOS:














================================================================================
DATOS DE ACELERACION:
---------+---------+---------+---------+---------+---------+---------+---------+
   CANAL-1   CANAL-2   CANAL-3   CANAL-4   CANAL-5   CANAL-6   CANAL-7   CANAL-8
      N00E        +V      N90W
---------+---------+---------+---------+---------+---------+---------+---------+
[...]
 -33.83287   5.67604  69.72169
 -36.40667   5.07754  69.90119
 -38.14247   3.76064  69.30269
 -38.56147   1.72564  67.44719
 -37.90297  -1.08756  64.15519
 -36.34677  -4.43946  59.66609
 -34.13217  -7.85116  53.80029
 -31.19927 -10.54456  47.03669
 -27.96717 -12.04096  39.91399
 -24.79487 -12.75926  32.91099
 -21.98167 -13.23806  26.20729
 -19.94657 -13.95636  20.04219
 -19.34807 -14.19576  14.47569
 -20.30577 -13.35776   9.38809
 -23.47807 -11.32266   5.19829
 -28.26637  -8.80876   2.14569
 -33.95257  -6.71386   0.34999
 -39.57897  -5.57666  -0.18871
 -44.12787  -5.09786   0.40989
 -47.71917  -4.31966   1.90629
 -50.05357  -2.82336   4.42019
 -51.25067  -0.78826   7.53259
 -51.25067   1.06724  10.76479
 -49.93387   2.62344  13.81729
 -47.36007   3.64094  16.15169
 -43.94837   4.53884  17.40859
 -40.11767   5.73594  17.10939
 -35.98767   6.99284  15.31369
 -31.91757   7.83084  12.56039
 -27.96717   7.65124   9.62749
 -24.13647   6.69354   6.69459
 -20.54517   5.49644   4.06099
 -17.55237   4.53884   1.90629
 -15.45747   4.00014   0.05079
 -14.08087   3.76064  -1.62521
 -13.84137   3.82054  -3.30111
 -14.85897   3.34174  -4.85731
 -16.83417   1.36654  -6.65301
 -20.00647  -1.80576  -8.44861
 -24.13647  -5.09786 -10.48371
 -28.92477  -7.49196 -12.21951
 -33.35407  -8.74896 -13.65601
 -36.70597  -9.22776 -14.73341
 -38.26217  -9.70666 -16.05021
 -37.60377 -10.24536 -17.72611
 -34.43147 -10.54456 -19.16261
 -29.22407  -9.82636 -20.06041
 -22.69987  -7.79126 -20.29991
 -15.63707  -4.97806 -20.00061
  -8.81357  -2.40436 -19.46191
  -2.58877  -0.48896 -18.98311
   2.61863   1.06724 -18.44441
   6.03033   2.80304 -17.42681
   7.22743   4.53884 -15.81081
   6.20993   5.49644 -13.59611
   3.45663   5.25704 -10.96251
  -0.55367   4.41914  -8.14931
  -5.34207   4.29934  -5.15661
 -10.42967   5.07754  -1.98431
 -15.45747   6.15484   0.82889
 -20.36557   6.57384   3.10329
 -24.79487   5.79574   5.25809
 -28.26637   4.41914   7.77199
 -30.84017   2.74314  11.06399
 -32.27667   1.30664  15.31369
 -32.57597   0.76794  20.28169
 -31.31897   0.76794  25.54889
 -28.56567   0.58834  30.33729
 -24.67517   0.04974  34.16799
 -20.18597  -0.78826  36.32269
 -15.75677  -1.86566  36.80159
 -11.74647  -3.00286  35.30519
  -8.57417  -4.14016  32.07299
  -6.29967  -5.51676  27.40439
  -4.56397  -6.89346  21.83789
  -3.42667  -8.09056  15.79259
  -2.64857  -9.34746   9.98659
  -2.10987 -10.24536   5.37779
  -1.63107 -10.18546   2.44489
  -0.97267  -8.86866   1.42739
  -0.07487  -6.65406   2.14569
   1.06243  -4.37956   3.70189
   2.37923  -2.94306   5.25809
   3.39673  -2.34446   6.09609
   4.35443  -2.28466   5.97639
   5.25223  -1.86566   4.77929
   6.09023  -1.08756   2.32519
   6.80843  -0.18976  -0.96681
   7.46683   0.40884  -4.85731
   8.18513   0.94754  -9.10701
   8.84353   1.48624 -13.17711
   8.84353   2.02494 -16.52901
   8.00553   2.08474 -18.74361
   6.44933   1.66574 -19.58161
   4.05513   0.88764 -19.22251
   1.24193  -0.24956 -18.08521
  -1.63107  -1.32696 -16.94801
  -4.50407  -1.98536 -16.34941
  -7.19757  -1.80576 -16.76841
  -9.59177  -0.84816 -18.38451
 -12.04577   0.58834 -20.89841
 -14.55967   1.78544 -23.77141
 -17.73197   2.50374 -27.06341
 -21.44297   2.80304 -30.47521
 -25.93207   3.22204 -33.16861
 -30.66057   3.82054 -34.66501
 -34.91027   4.77824 -34.84461
 -37.90297   5.79574 -33.64751
 -39.15997   6.57384 -31.67231
 -38.80087   6.93294 -29.57731
 -36.94537   6.81324 -27.78171
 -34.01247   6.45414 -26.82401
 -30.18177   5.91544 -26.82401
 -25.75247   5.19724 -27.84161
 -20.78457   4.65854 -29.81681
 -15.51737   4.41914 -32.21091
  -9.71147   4.53884 -34.42561
  -3.66607   4.53884 -36.28111
   2.19963   3.94024 -37.83731
   7.94573   2.32414 -39.27381
  13.21293  -0.48896 -40.53081
  17.82173  -3.90076 -42.02711
  21.29333  -7.13286 -43.52351
  23.68753  -9.28766 -44.78041
  25.18383 -10.42486 -45.79801
  26.14153 -10.42486 -46.21701
  27.57803  -9.52706 -45.79801
  29.97223  -8.03066 -44.42131
  33.80293  -5.93576 -42.32641
  39.13003  -3.60146 -39.69281
  45.35493  -1.14736 -36.87961
  51.81923   0.88764 -34.72481
  57.50543   2.20444 -33.52781
  61.99453   2.92274 -33.52781
  65.28653   3.04244 -34.66501
  67.20193   2.98254 -36.34091
  67.86033   2.74314 -38.07671
  67.80043   2.50374 -39.09421
  67.62093   2.68334 -38.85481
  67.74063   3.22204 -37.17891
  68.39903   3.88044 -34.00661
  69.53623   4.53884 -29.81681
  70.91293   5.01764 -24.72911
  72.40923   5.31694 -19.10281
  73.78593   5.37674 -13.29691
  74.98303   4.47894  -7.79021
  76.06043   3.10224  -3.42081
  76.95823   1.90524  -0.30841
  77.55673   1.42634   1.42739
  77.91593   1.30664   2.32519
  77.91593   0.64824   2.56469
  77.67643  -0.72846   2.26539
  77.43703  -2.64376   1.66679
  77.01803  -4.25986   1.30769
  76.59913  -4.61896   1.42739
  75.82103  -3.84086   2.02599
  74.62393  -2.58396   2.80409
  72.94793  -1.56636   3.52229
  70.43403  -0.96786   3.82159
  67.20193  -0.54886   3.76169
  63.37123  -0.60866   3.10329
  59.42083  -0.84816   2.20549
  55.41053  -1.08756   1.12809
  51.40023  -1.38686  -0.12881
  47.39003  -2.10506  -1.26601
  43.37973  -3.36206  -2.10401
  39.66873  -4.91826  -2.28361
  35.71833  -5.63646  -1.26601
  31.94743  -5.15766   1.00839
  28.17663  -3.66126   4.77929
  24.34593  -2.22476   9.86689
  20.33563  -1.32696  15.61299
  16.32533  -0.90796  21.35899
  12.07573  -0.01016  26.74599
   7.70633   1.72564  31.47449
   2.85803   4.23954  35.54459
  -2.28947   6.99284  38.95629
  -7.61657   8.90824  41.70969
 -12.76407   9.98554  43.80459
 -17.37287  10.40454  45.24109
 -21.56267  10.40454  46.13889
 -25.45327   9.74614  46.79729
 -28.86497   8.30964  47.03669
 -31.37887   6.33444  46.61769
 -32.63577   4.23954  45.66009
 -33.05477   2.62344  44.46299
 -32.81537   2.02494  43.56509
 -32.81537   2.38404  43.26589
 -33.77307   3.10224  43.62499
 -36.10737   3.94024  44.28339
 -40.11767   4.41914  44.94179
 -45.50457   4.29934  45.24109
 -51.66957   3.46144  45.06149
 -57.77477   2.26434  44.34329
 -62.74277   1.18694  43.26589
 -66.27417   0.46864  41.94909
 -68.00997   0.46864  40.39279
 -68.48877   0.82784  38.83659
 -68.42897   1.12704  37.51979
 -68.36907   1.30664  36.80159
 -68.66837   1.00734  36.98109
 -69.56617  -0.01016  38.41759
 -71.12237  -1.56636  40.57239
 -72.73847  -3.42186  43.50529
 -74.11517  -4.31966  46.37829
 -75.01297  -4.49926  48.29369
 -75.61147  -4.49926  49.01189
 -76.03047  -4.79856  48.11409
 -75.85097  -5.57666  45.30089
 -75.01297  -6.65406  41.29069
 -73.09757  -7.55186  36.62199
 -70.16477  -7.61176  32.07299
 -66.51357  -6.83356  27.88319
 -62.68287  -5.57666  24.53129
 -59.51057  -4.37956  22.01739
 -57.11637  -3.54156  19.86269
 -55.56017  -2.58396  18.06699
 -54.72217  -1.02766  16.45099
 -54.18347   0.70814  14.53559
 -54.06377   2.44384  11.84209
 -54.24337   3.58114   8.43039
 -54.78207   4.11984   4.47999
 -55.85947   3.64094  -0.00911
 -57.11637   1.96504  -4.97701
 -58.43317  -0.36926 -10.24431
 -59.33097  -2.58396 -15.69101
 -59.51057  -4.37956 -21.07801
 -58.97187  -5.51676 -26.34521
 -57.47547  -6.17516 -31.61241
 -55.62007  -6.65406 -36.64021
 -53.34557  -7.01316 -41.54831
 -51.19077  -7.07306 -45.79801
 -49.45497  -6.89346 -49.09001
 -48.43747  -6.65406 -50.88561
 -47.77907  -6.59416 -51.30461
 -47.12067  -7.01316 -50.46661
 -46.04327  -8.15036 -48.79071
 -44.12787  -9.76646 -46.33671
 -41.19507 -11.26286 -43.70311
 -37.18477 -11.86136 -40.83001
 -32.27667 -11.62196 -37.89711
 -27.06927 -10.96356 -34.84461
 -21.50287 -10.90376 -31.85181
 -16.23557 -11.08326 -29.03861
 -11.80637 -10.78406 -26.52471
  -8.39467  -9.10806 -24.72911
  -6.35957  -6.41466 -23.71161
  -5.46177  -4.02046 -23.41231
  -5.28217  -2.58396 -23.23271
  -4.92307  -2.34446 -22.81381
  -4.08507  -2.70366 -21.85611
  -2.58877  -2.88316 -20.41961
  -0.85297  -2.40436 -19.04291
   1.12223  -1.50656 -17.96551
   3.09743  -0.42916 -17.48671
   5.07273   0.82784 -17.42681
   7.16763   2.08474 -17.48671
   9.32233   2.80304 -17.00781
  11.53703   3.46144 -15.63121
  13.69173   4.05994 -12.87791
  16.02613   4.35924  -8.86761
  18.71953   3.94024  -4.07921
  22.07143   2.80304   0.52959
  26.08173   1.30664   4.18069
  30.39123  -0.12986   6.33549
  34.70073  -1.62626   7.35299
  39.01033  -3.24236   7.53259
  43.08043  -4.85836   7.17349
  47.15053  -6.17516   6.39539
  51.34043  -7.31246   5.49749
  55.88933  -8.15036   4.42019
  60.61783  -8.38986   3.46249
  65.28653  -7.79126   2.80409
  69.59613  -6.17516   2.68439
  73.36693  -3.84086   3.22309
  76.47943  -1.26706   4.36029
  78.81373   0.88764   5.85669
  80.48963   2.20444   7.47269
  81.92613   2.86284   9.38809
  83.36263   3.58114  11.78229
  84.49993   4.41914  14.89469
  85.15833   5.25704  19.32399
  85.39773   5.79574  25.12989
  85.03863   5.67604  32.01319
  84.73933   4.71834  39.19579
  84.79923   3.16214  45.71989
  85.63713   1.66574  50.50829
  87.07363   0.76794  53.32149
  88.86933   0.94754  54.03969
  90.84453   1.84534  52.72289
  92.64013   3.10224  49.78999
  94.49563   3.76064  45.60019
  96.53073   3.28184  40.75199
  98.62563   2.26434  35.96359
 100.78043   1.48624  31.59419
 102.39653   0.76794  27.88319
 103.11473   0.04974  25.06999
 102.15703  -0.66856  22.97509
  98.92493  -1.08756  21.71819
  93.11903  -1.50656  20.88019
  84.91893  -2.04526  20.46119
  75.10273  -2.58396  20.34149
  65.46613  -3.00286  20.04219
  57.32583  -3.30216  19.08459
  51.87913  -3.84086  17.10939
  49.00603  -4.67886  14.11659
  48.04843  -5.45696  10.16619
  47.98853  -5.75626   6.03619
  47.80893  -5.63646   2.38509
  46.73153  -5.33726  -0.36821
  44.21773  -4.91826  -1.98431
  40.38693  -4.43946  -2.52301
  35.53873  -3.72116  -1.68501
  29.73283  -2.88316   0.46969
  23.50793  -1.62626   3.52229
  16.80423  -0.01016   7.05379
   9.98073   1.96504  10.52529
   3.69603   4.29934  12.91949
  -2.34927   6.57384  13.75749
  -7.67637   8.60894  12.79979
 -12.94357  10.22504  10.16619
 -18.33047  11.24254   6.27559
 -24.25617  11.54184   1.54709
 -30.72047  11.12284  -3.00181
 -37.48407  10.34474  -6.95221
 -44.30747   9.86584 -10.06471
 -50.77177   9.98554 -12.03991
 -56.45797  10.52424 -13.23701
 -61.36607  11.30234 -14.07501
 -65.55587  12.37974 -15.03261
 -69.56617  13.81624 -16.28961
 -73.45677  15.61194 -17.60641
 -77.46697  17.40754 -18.92321
 -81.65687  18.54484 -20.06041
 -85.66707  18.60464 -20.95831
 -89.61747  17.82654 -21.67651
 -93.14897  16.56964 -22.27511
 -96.14167  15.61194 -22.75391
 -98.95487  14.95354 -23.47221
-102.06727  14.65424 -24.60941
-105.53887  14.53454 -26.46491
-109.54917  14.29514 -28.85911
-113.73897  13.63674 -31.61241
-117.56967  12.61914 -34.36571
-120.86167  10.94324 -36.70011
-122.77707   8.78844 -38.37601
-123.01647   6.57384 -39.51321
-121.10107   4.00014 -39.93221
-117.39007   1.30664 -39.99211
-112.36227  -0.78826 -39.57311
-106.19727  -1.92556 -38.67531
 -99.61327  -2.28466 -37.11901
 -93.32847  -2.04526 -35.20371
 -88.12117  -1.86566 -33.22851
 -84.46997  -2.10506 -31.43281
 -82.91377  -3.18246 -29.99631
 -82.97367  -5.21756 -29.09851
 -83.51237  -7.85116 -28.79921
 -83.69187 -10.78406 -28.55981
 -82.25537 -13.89646 -28.55981
 -78.60427 -16.64976 -29.39781
 -73.21727 -18.98416 -30.83431
 -66.21427 -20.54036 -32.98911
 -58.01417 -20.89946 -35.98181
 -49.33527 -20.48046 -39.69281
 -41.25487 -19.04396 -43.76291
 -34.91027 -16.35046 -47.59361
 -30.00217 -13.23806 -50.70611
 -26.71017 -10.36506 -52.44181
 -24.97437  -8.50956 -52.32211
 -24.19627  -7.43216 -49.92801
 -24.07657  -6.47446 -45.67831
 -24.31597  -5.51676 -39.81251
 -24.55537  -4.73866 -33.04891
 -24.37587  -4.31966 -26.46491
 -22.52037  -4.43946 -20.77871
 -18.68967  -4.73866 -16.05021
 -12.94357  -4.49926 -12.27931
  -5.94057  -3.72116  -9.58591
   1.84053  -2.70366  -7.67051
   9.98073  -1.68606  -6.17411
  17.88163  -0.48896  -4.91721
  24.52543   0.88764  -3.60041
  29.43353   1.90524  -2.04421
  32.66573   2.62344  -0.36821
  33.98253   3.28184   1.36759
  33.80293   4.11984   3.04349
  32.60583   4.53884   4.59969
  31.40873   4.17964   5.97639
  31.10953   2.80304   6.99389
  32.30663   0.94754   7.83189
  35.00003  -0.54886   8.49029
  39.13003  -1.26706   9.02899
  43.91843  -1.44666   9.74719
  48.64693  -1.74596  10.40559
  52.65723  -2.10506  10.76479
  55.82953  -2.16496  10.82459
  58.22373  -1.80576  10.52529
  60.13903  -1.02766   9.80709
  61.63543  -0.24956   8.78949
  63.37123   0.64824   7.83189
  65.58583   1.36654   6.87419
  68.69823   1.84534   6.45519
  72.70853   1.84534   6.45519
  77.37723   1.06724   7.17349
  82.58453  -0.12986   8.49029
  88.03133  -1.38686   9.92679
  93.35843  -2.58396  11.12389
  97.96723  -3.66126  11.90199
 101.55853  -4.67886  12.38079
 103.95273  -5.27736  12.44069
 105.08993  -5.27736  12.50049
 104.85053  -4.61896  12.79979
 103.29433  -3.06276  13.57789
 100.36143  -0.72846  14.71519
  95.99203   1.96504  15.49329
  90.12623   4.59864  15.73269
  83.06343   6.51404  15.19399
  75.58153   7.35194  13.93709
  68.57853   7.17244  12.26109
  62.59313   5.97534  10.58519
  58.22373   3.88044   8.96909
  55.35063   0.76794   7.23329
  53.49513  -3.00286   5.25809
  52.29803  -6.59416   3.10329
  50.86153  -9.10806   1.00839
  49.06593 -10.54456  -0.60761
  46.73153 -11.86136  -1.74491
  43.67903 -13.35776  -2.22371
  39.90813 -14.97386  -2.40331
  35.71833 -16.05126  -2.58291
  31.04963 -16.23076  -3.00181
  26.20143 -15.63226  -4.13911
  21.29333 -14.97386  -5.99461
  16.56483 -15.15336  -8.20921
  12.19543 -15.81186 -10.48371
   8.12523 -16.23076 -12.15961
   4.05513 -15.51256 -12.99761
   0.40403 -13.35776 -12.99761
  -2.64857 -10.12566 -12.51871
  -4.68367  -6.59416 -11.62091
  -5.52157  -3.36206 -10.36401
  -5.16247   0.04974  -8.56831
  -4.02527   4.11984  -6.17411
  -3.12737   8.78844  -3.24131
  -3.12737  13.03814  -0.00911
  -4.44427  15.79154   3.58219
  -6.89827  16.92874   6.99389
 -10.36987  16.74914  10.28589
 -14.61957  16.09074  13.57789
 -19.46777  15.19294  16.86989
 -24.43567  14.17544  19.98239
 -28.86497  12.91844  22.61599
 -32.03727  11.42214  24.71089
 -33.89277   9.98554  26.02769
 -34.31177   8.24984  26.62629
 -33.89277   6.81324  26.80579
 -33.05477   5.79574  26.68609
 -32.33657   5.43664  26.92549
 -31.79787   5.97534  27.70359
 -31.43867   6.99284  29.14019
 -31.37887   7.95054  31.23509
 -31.79787   8.36954  33.38979
 -32.27667   8.42934  35.18549
 -32.69567   8.66874  36.14319
 -32.99497   9.32714  36.14319
 -32.51607  10.52424  35.18549
 -31.13947  12.20024  33.44969
 -28.92477  13.69654  31.29489
 -26.11167  14.29514  28.90069
 -23.17877  13.45714  26.32699
 -20.36557  11.72134  23.51379
 -18.09107  10.28484  20.52109
 -16.71447   9.80604  17.52829
 -16.35527  10.04544  15.25389
 -16.83417  10.40454  13.87719
 -18.09107  10.22504  13.81729
 -19.76707   9.44684  15.19399
 -21.74227   8.48924  17.94729
 -23.89697   7.89064  21.83789
 -25.93207   7.71114  26.38679
 -27.84747   7.53154  30.99569
 -29.40367   7.11254  35.18549
 -30.54087   6.51404  38.47749
 -31.25917   5.37674  40.51259
 -31.13947   3.46144  41.41039
 -30.36137   0.82784  41.41039
 -29.10437  -2.04526  40.87169
 -27.36857  -4.91826  40.03369
 -25.15397  -7.67156  39.43519
 -22.22107 -10.48476  39.25559
 -19.04877 -13.35776  39.37529
 -16.11587 -15.87166  39.67459
 -13.78157 -18.08626  39.67459
 -12.40487 -19.70236  39.49499
 -12.28517 -20.77976  38.77679
