********************************************************************************
              CENTRO DE INSTRUMENTACION Y REGISTRO SISMICO  A.C.

    Anaxagoras 814, Col. Narvarte, Benito Juarez, C.P. 03020 Mexico, D.F.
           Tels. 5687 45 42/ 5687 45  82             Fax. 5669 25 12
********************************************************************************
ARCHIVO ESTANDAR DE ACELERACION:
VERSION DEL FORMATO                    : 2.0
NOMBRE DEL ARCHIVO                     : ME5220170919181440
FECHA Y HORA DE CREACION               : 25/SEP/17, 14:12
REF. CATALOGO ACELEROGRAMAS, SMIS 1996 : REGISTRO No.     /PAG.


================================================================================
DATOS DE LA ESTACION:
NOMBRE DE LA ESTACION                  : ESC. SEC. TÉC. "RAFAÉL DONDÉ"
CLAVE DE LA ESTACION                   : ME52
LOCALIZACION DE LA ESTACION            : Del. Miguel Hidalgo, Col. Anáhuac,     
                                       : Calle Lago Alberto entre calles        
                                       : Lago Xochimilco y Lago Muritz.         
                                       :                                        
                                       : 
COORDENADAS DE LA ESTACION             : 19.4383 LAT. N
                                       : 99.1820 LONG. W
ALTITUD (msnm)                         : 2238
TIPO DE SUELO                          : Transición                          
                                       :                           
                                       : 
INSTITUCION RESPONSABLE                : CIRES
                                       : 

================================================================================
DATOS DEL ACELEROGRAFO:
MODELO DEL ACELEROGRAFO                : RADESD
NUMERO DE SERIE DEL ACELEROGRAFO       : 228
NUMERO DE CANALES                      : 3
ORIENTACION C1-C6 (rumbo;orientacion)  : /N00E/+V/N90W
ORIENTACION C7-C12 (rumbo;orientacion) : 
VEL. DE MUESTREO, C1-C6 (muestras/s)   : /100/100/100
VEL. DE MUESTREO, C7-C12 (muestras/s)  : 
ESC. COMPLETA DE SENSORES, C1-C6, (g)  : /0.5/0.5/0.5
ESC. COMPLETA DE SENSORES, C7-C12, (g) : 
FREC. NAT. DE SENSORES, C1-C6, (Hz)    : /30/30/30
FREC. NAT. DE SENSORES, C7-C12, (Hz)   : 
AMORTIGUAMIENTO DE SENSORES, C1-C6     : /0.700/0.700/0.700
AMORTIGUAMIENTO DE SENSORES, C7-C12    : 
INTERVALO DE MUESTREO, C1-C6, (s)      : /0.01/0.01/0.01
INTERVALO DE MUESTREO, C7-C12, (s)     : 
UMBRAL DE DISPARO, C1-C6, (Gal)        : /1.65/5.24/1.8
UMBRAL DE DISPARO, C7-C12, (Gal)       : 
MEMORIA DE PREEVENTO (s)               : 44.0
TIEMPO DE POSEVENTO (s)                : 64.0


================================================================================
DATOS DEL SISMO:
FECHA DEL SISMO (GMT)                  : 19/SEP/17
HORA EPICENTRO (GMT)                   : 18:14:40.0
MAGNITUD(ES)                           : /Mc=7.1
COORDENADAS DEL EPICENTRO              : 18.40 LAT. N
                                       : 98.72 LONG. W
PROFUNDIDAD FOCAL (km)                 : 57
FUENTE DE LOS DATOS EPICENTRALES       : SSN
                                       : INSTITUTO DE GEOFISICA, UNAM

================================================================================
DATOS DE ESTE REGISTRO:
HORA DE LA PRIMERA MUESTRA (GMT)       : 18:15:04.00
EXACTITUD DEL TIEMPO (s)               : 0.01
DURACION DEL REGISTRO (s), C1-C6       : /266.6/266.6/266.6
DURACION DEL REGISTRO (s), C7-C12      : 
NUM. TOTAL DE MUESTRAS, C1-C6          : /26660/26660/26660
NUM. TOTAL DE MUESTRAS, C7-C12         : 
ACEL. MAX. (Gal), C1-C6                : /62.80329/31.70876/72.16362
ACEL. MAX., C1-C6, EN LA MUESTRA       : /6029/6184/6454
ACEL. MAX. (Gal), C7-C12               : 
ACEL. MAX., C7-C12, EN LA MUESTRA      : 
UNIDADES DE LOS DATOS                  : Gal (cm/s/s)
FACTOR DE DECIMACION                   : 1
FORMATO DATOS (FORTRAN,10 campos/dato) : 3F10.5


================================================================================
CALIDAD DEL ACELEROGRAMA:
REGISTRO DIGITAL COMPLETO CON TIEMPO ABSOLUTO CORRECTO.


================================================================================
COMENTARIOS:














================================================================================
DATOS DE ACELERACION:
---------+---------+---------+---------+---------+---------+---------+---------+
   CANAL-1   CANAL-2   CANAL-3   CANAL-4   CANAL-5   CANAL-6   CANAL-7   CANAL-8
      N00E        +V      N90W
---------+---------+---------+---------+---------+---------+---------+---------+
[...]
   9.66620   1.46700  22.15473
   5.76066   1.15276  21.58611
  -0.19492   0.10530  20.67332
  -7.13810  -2.39365  18.65321
 -13.54259  -6.08970  15.36118
 -18.66020 -10.23466  10.97680
 -21.62302 -13.66136   6.29315
 -22.14676 -15.35226   2.28286
 -21.15915 -14.93328   0.06822
 -19.96205 -13.28727  -0.66500
 -19.46824 -11.67118  -0.72486
 -19.27371 -10.20473  -1.32341
 -18.66020  -8.27441  -3.11906
 -17.58281  -5.43129  -6.18663
 -16.52038  -2.31883 -10.34656
 -16.19118   0.56918 -14.53641
 -17.28353   3.33747 -17.94815
 -19.55802   5.71671 -20.94090
 -21.80259   7.61711 -23.88876
 -23.02962   8.73939 -26.83662
 -22.92487   8.78428 -28.94651
 -21.75770   8.03609 -28.49760
 -20.59052   7.25798 -25.51981
 -20.44089   7.39265 -20.38724
 -21.77266   8.03609 -14.44663
 -24.21175   8.18573  -9.70311
 -26.96509   7.24301  -6.60562
 -29.77827   5.29773  -5.37859
 -33.02541   2.49950  -5.13917
 -36.55686  -0.68778  -4.98953
 -39.92370  -4.53347  -4.58551
 -42.72193  -8.79814  -3.68768
 -44.53254 -13.07777  -2.65518
 -45.22087 -16.68404  -1.42816
 -44.27816 -18.65926  -0.27595
 -41.49490 -18.43480   0.60692
 -37.21526 -16.51944   1.62445
 -32.81592 -14.36466   2.98615
 -27.95269 -13.36208   4.73691
 -22.56574 -12.85332   6.51760
 -16.50542 -11.55147   7.92420
  -9.47245  -9.30690   8.89684
  -2.08035  -6.62839   9.19611
   4.15954  -4.11448   9.19611
   8.72348  -2.06444   9.27093
  11.80602   0.25494   9.80963
  13.34728   3.02323  10.66256
  13.99073   6.39008  12.00930
  14.84366  11.04381  13.32611
  15.81630  16.98442  14.49329
  17.26779  22.88014  15.85499
  20.27551  27.32438  17.89006
  23.98652  29.04521  20.88281
  26.91941  27.12985  24.56390
  28.92456  22.29656  28.55922
  30.66035  16.70011  31.98592
  32.60564  12.94421  33.96114
  34.83524  11.64236  34.26041
  36.87032  11.13359  33.78157
  38.23202   9.11348  33.40748
  38.41158   4.84881  34.12574
  37.60354  -0.34361  36.43016
  36.94513  -4.89260  39.39298
  37.19952  -7.67586  41.90689
  38.53129  -8.87296  43.82226
  39.98278  -8.85799  45.52812
  40.34191  -7.75067  47.35370
  38.30684  -5.26669  49.77783
  33.57829  -1.22647  52.69577
  26.59021   3.99588  55.47903
  18.04590   9.60729  56.91555
   9.08261  14.79971  56.19729
   0.46349  19.21402  53.74323
  -7.48227  22.91007  50.72055
 -14.59006  26.08239  48.22160
 -20.18650  29.07514  46.03689
 -24.10701  31.30474  43.59780
 -26.26179  31.70876  40.47037
 -26.36654  29.68865  36.28052
 -25.27418  26.21706  31.08810
 -24.31650  22.61080  25.32705
 -24.34643  19.72279  19.52111
 -25.99244  17.89721  14.26883
 -29.19469  16.23623  10.42314
 -33.20497  14.26102   7.98405
 -36.40722  12.51026   6.59242
 -37.29008  10.78943   5.54496
 -35.80867   8.38026   3.76427
 -32.65132   4.95356   0.66677
 -28.25197   0.38961  -3.88221
 -23.85262  -4.98238  -9.98743
 -20.38103  -9.87553 -16.69119
 -18.18136 -13.67632 -23.06575
 -17.92698 -15.84607 -29.12608
 -19.12408 -15.75629 -34.00426
 -20.78505 -13.69129 -36.78752
 -22.14676 -11.46169 -38.43353
 -22.86502 -10.38430 -39.43611
 -22.41610 -10.51897 -40.70803
 -20.74016 -10.81824 -42.71317
 -17.94194 -10.11495 -45.87052
 -14.81451  -8.12477 -49.04284
 -11.38781  -5.40136 -50.70382
  -7.46731  -2.66300 -50.32972
  -3.20263  -0.83742 -48.92313
   1.24160  -0.47829 -47.63625
   5.86540  -2.55825 -46.88806
   9.96547  -6.71817 -46.82820
  12.53924 -11.53651 -46.99281
  13.85605 -15.08292 -45.87052
  14.29000 -15.98074 -42.80295
  13.01808 -14.60408 -38.01455
  11.26732 -11.86571 -32.43307
   9.35196  -8.91785 -27.15086
   8.25961  -6.47875 -23.42488
   8.67859  -4.89260 -21.09054
   9.36692  -4.18930 -21.09054
   9.69613  -4.03966 -22.87122
   9.02276  -3.99477 -25.22053
   6.88294  -3.60571 -27.49503
   3.71062  -2.96227 -28.78191
  -0.88325  -3.63564 -29.12608
  -6.43481  -5.44625 -28.85673
 -12.43527  -7.36162 -27.98883
 -17.95690  -8.70835 -26.94137
 -22.25150  -9.14230 -26.40267
 -24.73549  -9.09741 -26.70195
 -24.87016  -9.15727 -28.12350
 -22.50589  -8.64850 -30.11368
 -17.89705  -6.17948 -31.92430
 -12.10607  -1.92977 -32.83709
  -7.43738   2.20023 -32.28343
  -4.54937   5.31269 -30.30821
  -2.84350   7.19812 -27.48006
  -1.85590   7.72185 -24.26285
  -0.73361   7.34776 -20.53688
   0.68794   6.55468 -16.67623
   1.90001   6.42001 -12.57616
   2.66316   7.15323  -8.28156
   3.81537   7.54229  -4.15156
   6.85301   6.70432  -1.77232
  11.89580   4.10062  -2.16138
  18.89884   0.76371  -4.79500
  26.39568  -1.31626  -8.19177
  33.36880  -0.76260 -10.06224
  38.81560   2.20023  -9.01478
  41.10506   5.77657  -4.69025
  39.95285   8.17077   2.40257
  35.80789   9.60729  10.96184
  29.23880  10.23577  19.38644
  23.23833  10.31058  25.62632
  19.42257   9.56240  28.05045
  17.64188   7.46747  26.34458
  18.59956   5.23787  21.84049
  20.63464   3.93602  16.19915
  21.51750   2.99331  10.96184
  21.93648   1.19765   6.54753
  21.84670  -1.97466   2.58213
  19.97623  -5.85028  -0.81464
  17.68677  -8.97770  -2.83475
  14.76884 -10.36933  -2.74497
   9.65124 -10.71350  -0.88946
   2.88762 -11.88067   1.93869
  -3.29242 -13.37705   4.60224
  -7.87133 -13.46683   6.39789
 -10.60970 -12.13506   7.99901
 -10.80423  -9.78575   9.55525
  -9.00857  -7.07730  10.36329
  -6.44977  -4.05463   9.42057
  -4.07053  -0.95713   5.84423
  -1.69130   1.75131  -0.33580
   1.82519   3.11302  -8.26659
   6.79316   2.96338 -16.01782
  12.86844   2.84367 -21.15039
  17.95612   4.07070 -21.80880
  20.27551   6.85396 -18.71130
  18.89884  10.01131 -14.25210
  14.91848  11.53761 -11.07978
   9.96547  10.60986 -10.54109
   6.07490   8.14084 -12.48637
   4.60845   5.52218 -15.80833
   5.28182   2.72396 -18.98065
   7.01761  -1.07684 -20.65659
   7.94537  -5.89517 -20.14782
   6.49388 -10.54890 -17.42441
   2.84272 -13.64640 -13.63858
  -1.81101 -14.11027  -9.73304
  -6.09064 -11.67118  -6.11181
  -9.30785  -7.01745  -2.40080
 -11.55241  -1.34618   1.37007
 -13.01886   3.74149   4.51246
 -13.61741   7.24301   6.21833
 -13.15354   8.09595   6.54753
 -11.17832   6.82403   6.86177
  -7.55709   4.34004   7.90923
  -2.84350   1.84110   9.71985
   0.89744  -0.10419  12.18887
   3.11207  -1.00202  14.64292
   4.00990  -0.49325  16.76778
   3.08214   1.10787  18.86270
   0.35874   2.43965  21.00252
  -2.96321   3.38236  22.52883
  -6.24028   3.45718  23.45658
  -9.26296   2.33490  23.89053
 -11.83672   1.04802  23.21716
 -14.72473   0.89838  21.70582
 -17.91201   1.84110  20.25433
 -20.17154   3.23273  20.50872
 -20.17154   4.39990  23.30694
 -17.65763   4.62436  27.60154
 -12.97397   4.08566  30.74393
  -7.67680   3.03820  29.95085
  -3.57673   1.96081  24.35440
  -1.37706   1.55679  15.84002
  -0.55405   2.06555   6.56249
  -0.62887   2.29001  -1.80225
  -0.56901   2.06555  -8.67062
  -0.86829   1.49693 -13.59369
  -1.21245   0.83852 -16.87076
  -1.21245   0.37465 -19.47445
  -0.68872  -0.23887 -22.28764
   0.86751  -1.04691 -25.41506
   3.47120  -1.83999 -28.78191
   8.22968  -1.78013 -30.69727
  13.79620  -0.50821 -30.93669
  18.34518   1.06298 -29.81441
  20.64960   1.55679 -28.04868
  20.33536   0.77867 -25.98369
  17.43239   0.31479 -24.15811
  12.40457   1.19765 -22.06318
   7.30192   3.06812 -20.62666
   2.81280   4.35501 -20.13286
  -1.16756   4.01084 -21.09054
  -4.65412   2.54439 -23.52963
  -8.43995   0.53925 -26.61216
 -12.25571  -1.57064 -29.15600
 -15.11379  -3.45607 -29.90419
 -16.55031  -4.96741 -29.42535
 -17.08900  -6.43386 -27.91401
 -16.89448  -8.06491 -25.51981
 -16.35578  -9.51640 -21.89858
 -16.61016 -10.78832 -16.88572
 -18.04669 -11.40183 -11.52869
 -19.73759 -10.14488  -5.97714
 -20.91973  -6.94263  -0.66500
 -21.32375  -2.58818   3.45003
 -20.80002   1.73635   5.88912
 -19.27371   4.96852   7.01141
 -16.62513   7.10834   6.71213
 -13.67727   8.67954   5.06612
 -10.93890   9.90656   2.95623
  -8.96368  10.93906   1.53467
  -7.57205  11.77703   1.63942
  -6.01582  12.71975   2.73177
  -4.92347  13.18363   3.98873
  -4.23513  12.18105   3.85405
  -3.96579   9.35290   1.74416
  -3.27745   5.49225  -1.47305
  -1.49677   1.54182  -4.12163
   1.01715  -1.98963  -4.28623
   4.57852  -3.91995  -1.72743
   8.37932  -3.71046   2.70184
  12.01551  -2.04948   7.56506
  15.57688   5.5E-40  11.48557
  18.47985   1.19765  14.01445
  20.81420   1.28744  15.01702
  22.93905   1.61664  15.37615
  25.12376   3.44222  15.85499
  26.50043   6.56964  16.97727
  26.79970   9.65218  18.62328
  26.45554  11.19345  20.29922
  26.56028  11.16352  21.31676
  27.95191  10.23577  21.64596
  30.00195   8.81421  21.66093
  32.60564   7.39265  21.73575
  34.64072   5.46233  21.93027
  34.86517   2.40972  21.70582
  32.97974  -1.28633  20.92770
  28.98441  -4.47361  20.22441
  22.95402  -6.37401  20.19448
  15.39732  -6.94263  21.43647
   7.40667  -6.05977  23.77082
   0.37370  -3.59075  26.56904
  -4.36981  -0.01441  28.76871
  -6.37495   3.81631  29.89100
  -6.21035   6.59957  30.48955
  -5.49209   6.79410  30.86364
  -5.92604   4.66925  31.35744
  -8.08082   2.09548  31.80636
 -11.83672   0.26990  31.89614
 -16.25103  -0.82245  31.32752
 -20.56060  -1.95970  30.10049
 -24.31650  -3.41118  28.12527
 -26.93516  -4.56339  24.99785
 -27.84795  -5.22180  20.53865
 -26.81545  -5.50611  14.83745
 -24.51103  -6.17948   8.34318
 -21.27886  -7.21198   2.83652
 -17.13390  -7.67586  -0.44055
 -12.33053  -6.19444  -1.60772
  -7.54213  -2.43854  -1.12888
  -3.06796   2.69403  -0.62011
   0.64305   7.46747  -1.00917
   3.38142  10.19087  -2.53547
   6.04497  10.55001  -5.22895
   8.84319   9.41276  -8.07206
  11.67134   8.23062 -10.18195
  13.96080   8.00617 -11.34913
  15.72652   8.49997 -12.75572
  17.20793   8.60472 -16.22731
  19.60214   7.60214 -22.70662
  23.08869   5.40247 -32.05897
  26.53036   2.73892 -40.97737
  29.34354   0.71881 -46.81324
  30.24137  -0.10419 -49.53664
  28.50557  -0.04434 -49.37204
  24.34565  -1.34618 -47.81581
  19.67695  -4.39879 -46.28951
  15.83127  -8.28937 -45.67599
  12.23997 -12.20987 -45.42161
   9.05268 -14.84350 -46.05009
   5.47635 -14.88839 -47.59136
   1.37628 -12.65879 -48.90817
  -2.73876  -9.56129 -48.36947
  -5.97093  -7.27183 -45.36176
  -7.94615  -6.40394 -39.46603
  -7.85636  -6.11962 -31.26589
  -6.47970  -5.53604 -22.51209
  -5.65669  -3.66557 -13.33931
  -6.68919  -0.52318  -5.27384
  -9.87647   3.71157   1.77409
 -14.97911   8.41019   7.71470
 -21.38360  12.40551  11.84470
 -28.41657  14.11138  14.32868
 -35.67399  12.83946  16.40865
 -40.50729   9.81678  19.52111
 -42.42265   7.09338  24.56390
 -42.01863   5.43240  31.19284
 -39.37004   4.26523  38.39041
 -34.92581   1.93088  44.37592
 -30.03266  -2.13926  48.86504
 -24.51103  -6.64336  52.30671
 -19.51313 -10.04013  55.83816
 -15.36817 -12.00038  60.16268
 -12.65973 -12.09016  64.66677
 -12.19585 -10.68357  68.82670
 -13.31814  -8.55872  71.62492
 -14.97911  -6.58350  72.16362
 -15.62256  -5.99991  70.50264
 -13.88676  -7.28680  66.80659
  -9.51734  -9.95035  62.31746
  -2.93329 -12.73361  58.45681
   3.44127 -13.96063  56.49656
   7.34682 -13.67632  55.92794
   9.35196 -11.85074  54.29689
  10.38446  -8.09484  50.66069
  10.60892  -4.56339  45.58798
  11.53667  -2.27394  39.97657
  13.64656  -0.37354  33.96114
  16.13054   2.06555  28.84353
  19.66199   5.14809  24.74346
  23.88177   7.79667  20.53865
  28.26615   9.66714  16.63310
  33.29398  10.31058  13.84984
  38.74079   9.53247  12.39836
  44.18759   7.90142  11.32097
  48.28766   5.98606  10.09394
  50.24792   4.42983   7.77456
  49.96361   4.22033   3.70441
  48.57198   5.98606  -2.32598
  46.25259   9.27809  -9.22427
  42.55654  11.91171 -15.37438
  37.54368  11.56754 -19.27992
  32.03702   8.47004 -20.86608
  26.26101   3.41229 -21.67412
  21.62224  -2.07941 -23.85883
  18.80906  -6.53861 -28.30307
  17.89627  -9.30690 -33.37578
  18.67438 -10.04013 -37.23643
  19.46746  -8.94777 -39.07698
  18.52475  -6.46379 -37.80506
  16.05572  -3.35133 -33.15133
  12.91334  -0.46332 -26.79173
   9.42678   1.72139 -20.83615
   6.92783   3.05316 -16.52659
   7.25703   3.84624 -14.85065
   9.87569   4.77399 -14.19224
  12.89837   5.67182 -13.20463
  14.37978   6.19555 -11.00496
  13.87102   5.76160  -6.80015
  11.28229   4.08566  -1.32341
   7.58624   2.54439   3.73434
   3.54602   3.12798   7.01141
  -0.50916   5.61196   7.20593
  -3.90593   8.24559   3.49492
  -7.07825   9.68211  -1.89203
 -10.13086   9.78685  -5.70779
 -13.30317   9.27809  -6.27641
 -15.86198   8.41019  -4.78004
 -17.35835   7.66200  -3.14899
 -18.04669   6.83899  -2.28109
 -17.98683   5.94117  -2.70007
 -18.30107   5.44736  -3.98696
 -19.69270   5.17802  -5.19902
 -22.40114   4.48968  -5.15413
 -26.09719   3.20280  -3.74754
 -30.58632   1.81117  -1.66758
 -35.49443   0.26990   0.11311
 -39.29522  -0.94216   1.25036
 -41.95877  -2.67796   2.16315
 -42.34783  -4.93749   2.40257
 -40.95620  -7.60104   1.31021
 -38.14302 -10.60875  -0.62011
 -33.68381 -13.16756  -4.03185
 -29.80820 -15.78621  -8.56587
 -25.99244 -17.37237 -14.59626
 -23.67306 -18.07567 -21.07557
 -23.10444 -18.91364 -26.29792
 -23.38875 -19.87132 -29.97901
 -23.74788 -20.96367 -30.84691
 -23.31393 -22.01114 -29.45528
 -21.33871 -22.34034 -26.65706
 -17.59777 -21.18813 -23.96358
 -13.27325 -18.49465 -21.43470
  -8.63448 -14.87342 -19.50438
  -4.56434 -11.34198 -17.25981
  -1.45187  -8.31930 -14.95539
   0.01457  -6.07473 -13.33931
   0.76276  -4.05463 -13.08492
   1.43613  -2.00459 -14.91050
   2.58834  -0.13412 -18.69633
   3.78544   1.43707 -22.52706
   3.62084   2.61921 -24.35264
   2.63323   3.68164 -23.49970
   1.82519   5.13312 -21.19528
   1.87008   6.47986 -19.35474
   3.53106   6.22548 -19.87847
   6.14972   3.17287 -22.79640
   9.38189  -2.00459 -27.19575
  12.79363  -6.79299 -32.26847
  15.12797  -9.21712 -36.48825
  16.65428  -9.69596 -40.04962
  17.88130 -10.21969 -42.42886
  19.04848 -12.22484 -42.54857
  20.79924 -15.44205 -39.42114
  23.04380 -18.44976 -32.85205
  25.40808 -19.43737 -24.33767
  26.82963 -17.85121 -14.86561
  26.84460 -14.60408  -7.24906
  26.23108 -11.08759  -2.78986
  26.62014  -7.81053  -1.23363
  28.43075  -5.32654  -2.47562
  31.42351  -3.83017  -5.63297
  34.86517  -3.11191  -9.77793
  37.31923  -2.84256 -14.34188
  37.52872  -2.54329 -18.42699
  35.38890  -1.98963 -20.80622
  31.52825  -1.03195 -20.22264
  26.93438  -0.07426 -15.86818
  22.34050   0.52429  -8.31148
  17.62692   0.89838   0.74159
  13.09290   1.10787   9.30086
   9.47167   0.89838  15.49586
   6.98769  -0.20894  18.50357
   5.02743  -3.06702  18.66818
   3.26171  -6.67328  16.46850
   1.67555  -9.06748  12.63778
   0.34378  -8.76821   8.37311
  -1.66137  -6.38897   4.76684
  -4.90850  -3.03709   3.33032
  -8.93376   0.09034   4.96137
 -13.15354   2.21519   9.30086
 -16.98426   3.05316  14.92723
 -19.61788   3.38236  19.83535
 -20.88980   4.22033  23.11241
 -20.78505   5.83642  24.23469
 -19.81241   7.45251  23.44161
 -18.04669   7.91638  20.97259
 -15.59263   6.83899  16.91742
 -12.85426   4.50465  11.38082
  -9.96625   2.00570   5.03619
  -7.13810   0.44947  -0.66500
  -5.37238  -0.41843  -4.75011
  -5.07310  -1.06187  -7.26402
  -5.88115  -2.04948  -8.56587
  -7.22789  -3.89002  -8.76040
  -8.23046  -5.76049  -7.86257
  -8.49981  -6.38897  -5.87239
  -8.11075  -5.25173  -3.01431
  -6.92861  -3.27651  -0.36573
  -5.05814  -1.73524   1.02590
  -2.84350  -1.36115   0.23282
  -0.65880  -1.52575  -2.55044
   1.22664  -1.85495  -6.06692
   2.67812  -2.19912  -8.92500
   3.66573  -2.16919 -10.15203
