********************************************************************************
              CENTRO DE INSTRUMENTACION Y REGISTRO SISMICO  A.C.

    Anaxagoras 814, Col. Narvarte, Benito Juarez, C.P. 03020 Mexico, D.F.
           Tels. 5687 45 42/ 5687 45  82             Fax. 5669 25 12
********************************************************************************
ARCHIVO ESTANDAR DE ACELERACION:
VERSION DEL FORMATO                    : 2.0
NOMBRE DEL ARCHIVO                     : MI1520170919181440
FECHA Y HORA DE CREACION               : 26/SEP/17, 10:58
REF. CATALOGO ACELEROGRAMAS, SMIS 1996 : REGISTRO No.     /PAG.


================================================================================
DATOS DE LA ESTACION:
NOMBRE DE LA ESTACION                  : MIRAMONTES
CLAVE DE LA ESTACION                   : MI15
LOCALIZACION DE LA ESTACION            : Del. Xochimilco, Glorieta Vaqueritos,  
                                       : Col. San Bartolo Chico, Prol. División 
                                       : del Norte y Periférico Sur.            
                                       :                                        
                                       : 
COORDENADAS DE LA ESTACION             : 19.2834 LAT. N
                                       : 99.1253 LONG. W
ALTITUD (msnm)                         : 2237
TIPO DE SUELO                          : Terreno blando, material compresible
                                       : (arcillas)                
                                       : 
INSTITUCION RESPONSABLE                : CIRES
                                       : 

================================================================================
DATOS DEL ACELEROGRAFO:
MODELO DEL ACELEROGRAFO                : RADESD
NUMERO DE SERIE DEL ACELEROGRAFO       : 159
NUMERO DE CANALES                      : 3
ORIENTACION C1-C6 (rumbo;orientacion)  : /S00E/+V/N90W
ORIENTACION C7-C12 (rumbo;orientacion) : 
VEL. DE MUESTREO, C1-C6 (muestras/s)   : /100/100/100
VEL. DE MUESTREO, C7-C12 (muestras/s)  : 
ESC. COMPLETA DE SENSORES, C1-C6, (g)  : /0.5/0.5/0.5
ESC. COMPLETA DE SENSORES, C7-C12, (g) : 
FREC. NAT. DE SENSORES, C1-C6, (Hz)    : /51.79/51.79/51.56
FREC. NAT. DE SENSORES, C7-C12, (Hz)   : 
AMORTIGUAMIENTO DE SENSORES, C1-C6     : /0.5783/0.5630/0.5612
AMORTIGUAMIENTO DE SENSORES, C7-C12    : 
INTERVALO DE MUESTREO, C1-C6, (s)      : /0.01/0.01/0.01
INTERVALO DE MUESTREO, C7-C12, (s)     : 
UMBRAL DE DISPARO, C1-C6, (Gal)        : /2.01/7.48/2.6
UMBRAL DE DISPARO, C7-C12, (Gal)       : 
MEMORIA DE PREEVENTO (s)               : 44.0
TIEMPO DE POSEVENTO (s)                : 64.0


================================================================================
DATOS DEL SISMO:
FECHA DEL SISMO (GMT)                  : 19/SEP/17
HORA EPICENTRO (GMT)                   : 18:14:40.0
MAGNITUD(ES)                           : /Mc=7.1
COORDENADAS DEL EPICENTRO              : 18.40 LAT. N
                                       : 98.72 LONG. W
PROFUNDIDAD FOCAL (km)                 : 57
FUENTE DE LOS DATOS EPICENTRALES       : SSN
                                       : INSTITUTO DE GEOFISICA, UNAM

================================================================================
DATOS DE ESTE REGISTRO:
HORA DE LA PRIMERA MUESTRA (GMT)       : 18:15:00.00
EXACTITUD DEL TIEMPO (s)               : 0.01
DURACION DEL REGISTRO (s), C1-C6       : /328.6/328.6/328.6
DURACION DEL REGISTRO (s), C7-C12      : 
NUM. TOTAL DE MUESTRAS, C1-C6          : /32860/32860/32860
NUM. TOTAL DE MUESTRAS, C7-C12         : 
ACEL. MAX. (Gal), C1-C6                : /207.19345/55.2924/133.42696
ACEL. MAX., C1-C6, EN LA MUESTRA       : /7009/6439/6530
ACEL. MAX. (Gal), C7-C12               : 
ACEL. MAX., C7-C12, EN LA MUESTRA      : 
UNIDADES DE LOS DATOS                  : Gal (cm/s/s)
FACTOR DE DECIMACION                   : 1
FORMATO DATOS (FORTRAN,10 campos/dato) : 3F10.5


================================================================================
CALIDAD DEL ACELEROGRAMA:
REGISTRO DIGITAL COMPLETO CON TIEMPO ABSOLUTO CORRECTO.


================================================================================
COMENTARIOS:














================================================================================
DATOS DE ACELERACION:
---------+---------+---------+---------+---------+---------+---------+---------+
   CANAL-1   CANAL-2   CANAL-3   CANAL-4   CANAL-5   CANAL-6   CANAL-7   CANAL-8
      S00E        +V      N90W
---------+---------+---------+---------+---------+---------+---------+---------+
[...]
 -20.24074  -1.09104   1.21695
 -20.16592   0.62979   4.89804
 -20.65973   3.45794   8.56416
 -21.36303   6.88464  11.42224
 -21.82690  10.08688  12.72408
 -21.64734  12.40627  11.99086
 -20.18089  13.76797   9.16271
 -16.97864  14.35156   4.38927
 -12.39973  14.66580  -1.38674
  -6.77336  14.68076  -7.86605
  -0.71304  14.53112 -13.89645
   5.19765  14.50119 -19.46297
  10.58460  13.94753 -24.49079
  15.25330  12.90007 -29.26423
  19.00920  11.04457 -33.18473
  22.13663   8.93468 -36.59647
  24.84507   7.16895 -39.33484
  27.53854   6.79486 -41.81882
  30.24698   8.18649 -44.28784
  33.03024  10.93982 -47.19081
  35.76861  13.99243 -50.24342
  38.44712  16.37166 -53.37085
  40.61687  17.58373 -55.94461
  42.14317  16.83554 -57.97968
  42.89136  14.14206 -59.20671
  42.71180   9.86243 -59.92497
  41.72419   5.53790 -60.08957
  40.57198   2.41048 -60.26914
  39.95846   0.83928 -60.77791
  40.30263   0.36044 -61.94508
  41.75412   0.00131 -64.12979
  44.14832  -0.35782 -67.43678
  46.88669  -0.62717 -71.56678
  49.56520  -0.38775 -76.20554
  51.79480   0.06117 -80.99395
  53.65031  -0.23811 -85.76739
  54.80251  -1.51003 -90.31637
  55.31128  -3.47028 -94.35659
  55.16164  -5.37068 -97.70847
  54.41346  -7.04662-100.10267
  53.54556  -8.69263-101.26984
  52.90212 -10.56310-101.50926
  52.46817 -12.08941-100.88079
  51.98933 -13.30147 -99.66872
  51.25610 -13.79528 -98.05263
  50.01411 -13.72046 -96.37669
  48.54766 -13.72046 -94.74564
  47.00640 -14.90260 -93.18941
  45.64469 -17.77564 -91.40873
  44.44759 -21.92060 -89.43351
  43.08589 -26.30498 -86.82981
  41.67930 -29.70175 -83.58268
  40.15299 -31.43755 -79.78188
  38.83618 -31.37770 -75.50225
  37.48944 -29.40248 -70.68392
  36.18760 -26.85864 -65.17725
  34.72115 -24.88342 -59.29650
  33.26966 -24.38962 -52.63762
  31.33934 -25.21263 -45.85904
  29.10974 -26.45462 -39.03556
  26.62575 -26.46958 -32.33180
  24.03702 -24.40458 -25.95724
  21.49318 -20.42422 -20.34583
  18.99424 -15.15698 -15.52750
  16.46536  -9.51564 -11.66685
  14.08612  -4.53271  -9.04819
  11.91638  -0.79177  -7.43210
  10.04591   1.46776  -6.59413
   8.63931   2.38055  -6.07040
   7.81631   2.75464  -5.72623
   7.51703   3.02399  -5.53170
   7.65171   3.83203  -5.51674
   8.38493   5.11892  -5.59156
   9.76160   6.76493  -5.86091
  11.60214   8.62044  -5.89083
  13.75692  10.65551  -5.45689
  15.85185  12.55591  -4.25978
  17.81210  13.64826  -2.19479
  19.48804  13.09460   0.85782
  20.83478  10.95478   4.92796
  21.88224   7.30363   9.98572
  22.25634   3.11377  15.86647
  22.24137  -0.89652  22.30089
  21.86728  -3.94912  28.86998
  21.23880  -5.26593  35.21462
  20.64025  -4.62249  40.91581
  20.28112  -2.45275  45.47975
  19.98184   0.39037  48.87653
  19.72746   2.64990  50.94153
  19.11395   4.05649  51.71964
  17.70735   5.08899  51.62986
  15.13359   6.69011  51.03131
  11.39265   8.93468  50.28312
   6.61921  11.40370  49.95392
   1.12751  13.49862  50.25319
  -4.37916  14.50119  51.27073
  -9.67633  14.45630  53.05142
 -14.40488  13.36395  55.55037
 -18.31042  11.49348  58.43837
 -21.28821   8.87482  61.35630
 -22.91926   5.41819  63.87022
 -23.44299   1.25827  66.02500
 -23.08386  -3.20093  67.35677
 -22.36560  -7.86963  67.71590
 -21.55755 -11.70035  67.62612
 -21.18346 -13.85513  67.01261
 -21.69223 -14.43872  65.89032
 -23.27839 -14.25915  64.45380
 -26.13647 -14.21426  62.91254
 -30.70041 -14.58836  61.73040
 -36.86548 -15.24676  60.95228
 -44.64664 -15.29165  60.78768
 -53.68475 -13.92995  60.98221
 -63.30645 -10.98209  61.40120
 -72.85333  -6.83713  61.61069
 -81.51734  -2.34800  61.46105
 -88.83462   1.63236  60.83257
 -94.55078   4.37073  59.78511
 -98.38150   5.89703  58.42341
-100.58117   6.57040  56.82229
-101.11987   6.69011  55.19124
-100.47643   6.52551  53.63500
 -98.71070   5.77732  52.30323
 -96.48110   4.58022  51.13606
 -94.11683   2.97910  50.56743
 -92.02190   1.21337  50.67218
 -90.63027  -0.07351  51.57001
 -90.21129  -0.70199  53.11127
 -90.79487  -0.62717  55.07153
 -92.24636   0.19584  57.13652
 -94.55078   1.55754  58.84239
 -97.12454   3.24845  60.17417
 -99.59356   4.65504  60.75775
-101.68849   5.22366  60.44352
-102.91552   4.50540  59.06685
-103.08012   2.70975  56.22373
-101.92791   0.61482  52.19848
 -99.03991  -1.18083  46.87138
 -94.53581  -1.92901  40.66142
 -88.52038  -1.33046  33.80802
 -81.66698   0.62979  26.67031
 -74.87343   3.27837  19.69720
 -68.90289   5.86710  13.33760
 -64.45866   8.27627   8.19006
 -62.04949  10.49091   4.49402
 -61.51079  11.94239   2.50384
 -62.76775  12.49605   2.11478
 -65.37144  12.36138   2.72829
 -68.72333  12.37634   4.08999
 -72.13506  12.72051   5.37688
 -74.75372  13.43877   5.91557
 -75.74133  14.17199   5.18235
 -74.76869  15.03989   2.71333
 -71.59637  15.96764  -1.61120
 -66.65833  16.52130  -7.62663
 -60.58304  16.95525 -14.98880
 -54.01395  17.32934 -23.62289
 -47.16055  17.74833 -32.97524
 -39.99291  18.19724 -42.74658
 -32.64570  18.54141 -52.38324
 -25.16382  18.21221 -61.36149
 -17.66698  17.04503 -69.26236
 -10.27488  15.14464 -75.57707
  -3.01746  12.78036 -80.02130
   4.15019  10.40112 -82.08630
  11.24301   8.74015 -81.45782
  18.30590   7.81239 -78.40522
  25.27902   7.61786 -73.43725
  32.26709   7.39341 -67.49664
  39.24020   6.66018 -61.58595
  46.22828   5.47805 -56.73769
  53.56052   3.75721 -53.50552
  61.32671   1.00388 -52.14382
  69.61664  -2.60238 -52.80222
  78.16094  -6.40318 -55.10664
  86.70525  -9.57550 -58.59320
  94.71086 -11.52079 -62.70823
 101.87850 -12.41861 -66.91305
 108.04357 -12.65803 -70.59413
 112.86190 -12.28394 -73.52703
 116.25868 -11.37115 -75.39750
 117.97951  -9.45579 -76.23547
 118.05433  -6.73238 -76.10080
 116.57292  -3.12612 -75.12815
 113.58017   0.79439 -73.34747
 109.70455   4.34080 -70.96823
 105.73915   7.34852 -67.84080
 102.43216   9.57812 -63.87541
 100.20256  11.16428 -59.19175
  99.08028  12.34641 -53.68509
  99.33467  13.31906 -47.29556
 100.98068  14.35156 -39.91843
 104.19789  15.20449 -31.97267
 108.74687  15.38406 -24.10173
 114.34332  14.18695 -17.32315
 120.19415  11.67304 -12.14569
 125.80556   7.82736  -8.88359
 130.95309   2.78457  -7.32736
 135.18784  -2.73706  -6.92333
 138.47986  -8.07912  -7.08794
 140.64961 -12.58321  -7.38721
 141.69707 -15.15698  -7.34232
 141.57736 -15.56100  -6.63902
 140.17077 -13.98981  -4.97805
 138.03095 -11.04195  -2.38931
 135.53200  -7.85466   0.88775
 133.04802  -5.31082   4.50898
 130.72863  -3.53014   7.92072
 128.42422  -2.45275  10.97332
 126.05994  -1.97391  13.63687
 122.87266  -2.10858  15.83655
 118.69777  -3.33561  17.76687
 113.34075  -5.87945  19.33807
 107.08589  -9.54557  20.52020
 100.09782 -13.76535  21.23846
  92.36155 -17.70082  21.61256
  84.14645 -20.63372  21.34321
  75.99120 -22.39944  20.55013
  68.00055 -23.07281  19.45778
  60.62342 -23.04288  18.17089
  54.12915 -22.27973  17.33292
  48.66737 -21.11256  17.24314
  44.19321 -19.48151  17.67709
  40.34752 -17.62600  18.63477
  37.13031 -15.80042  19.72712
  34.12260 -13.55586  20.81948
  31.27948 -10.48829  21.82205
  28.52615  -6.29843  22.60017
  25.86260  -1.00126  23.09397
  23.24394   4.75979  22.83959
  20.75996   9.92228  22.43556
  18.23108  14.12710  21.82205
  15.32811  17.20963  21.58263
  11.70688  19.12500  22.37571
   7.20279  19.54398  23.90201
   1.83080  18.33192  26.28125
  -4.25945  15.66837  28.73531
 -11.00810  12.12196  31.20433
 -18.34035   8.32116  33.26933
 -25.89705   4.69993  34.70585
 -33.64827   1.64732  35.66353
 -41.41446  -0.47753  35.70842
 -49.13576  -1.52499  34.96023
 -56.54283  -1.89909  33.44889
 -63.66558  -1.71952  31.44375
 -70.33941  -1.13594  29.30393
 -76.57930  -0.50746  27.02944
 -82.57977  -0.13336  24.62027
 -88.43060  -0.35782  21.76219
 -94.49092  -1.15090  18.14096
-101.00016  -1.77938  13.75658
-107.61414  -1.62974   8.41452
-114.13834  -0.32789   2.39909
-120.12384   1.60243  -3.94555
-125.15167   3.50283 -10.09565
-129.13203   5.20870 -15.31800
-132.00507   6.45069 -19.14873
-134.04014   7.45326 -21.13891
-135.32702   8.03685 -21.13891
-136.19492   7.94707 -19.25347
-136.89822   6.85471 -15.75195
-137.58655   4.81964 -11.21793
-138.54423   2.02142  -6.45946
-139.66652  -1.01623  -2.25464
-140.78880  -3.78452   0.75308
-142.03079  -5.98419   2.06989
-143.46731  -7.88459   1.99507
-144.85894  -9.48571   0.42387
-146.01115 -10.23390  -1.88055
-146.71445 -10.17405  -4.27475
-146.92394  -9.68024  -6.33975
-146.60970  -9.57550  -7.97080
-145.95129 -10.23390  -8.98833
-144.88887 -11.41604  -9.57192
-143.54213 -12.11934  -9.70659
-142.24028 -11.28137  -9.46717
-140.66909  -8.79738  -8.83870
-138.88840  -5.22104  -8.03065
-136.97304  -1.83923  -7.37225
-134.57884   0.56993  -6.81859
-131.61601   1.61740  -6.39960
-128.12946   1.33308  -6.29486
-123.95457   0.15095  -6.72881
-119.21105  -1.07608  -7.77627
-114.13834  -1.92901 -10.08069
-108.81124  -2.25822 -13.08840
-103.30458  -2.06369 -16.36547
 -97.88770  -2.01880 -19.34326
 -92.59053  -2.18340 -21.27358
 -87.59263  -2.99144 -21.69257
 -82.84912  -4.77213 -20.15130
 -78.06071  -7.03166 -16.26072
 -73.24238  -9.27622 -10.20040
 -68.22952 -10.60800  -2.06011
 -62.97724 -10.80252   7.20246
 -57.60525  -9.60542  17.18328
 -52.11355  -7.40575  26.76009
 -46.74156  -4.14365  35.39418
 -41.57907  -0.35782  42.60671
 -36.67095   3.26341  48.21812
 -32.19679   6.24120  52.40798
 -27.88723   8.21641  55.46058
 -23.63752   9.36862  57.61536
 -19.31299   9.59308  59.24641
 -14.50962   9.00949  60.75775
  -9.06281   7.54305  62.37384
  -2.67329   4.99921  64.22935
   4.62903   1.63236  66.21953
  12.66457  -1.91405  68.20971
  21.20887  -5.35572  70.12507
  29.99260  -8.13898  71.56159
  38.37231 -10.24887  72.71380
  46.10857 -12.04452  73.52184
  53.03679 -13.54089  74.21017
  58.79784 -14.57339  74.70398
  63.34682 -14.93252  74.94340
  66.90820 -14.45368  74.77880
  69.72138 -13.36133  74.09046
  72.23530 -11.90984  72.60905
  74.91381  -9.88974  70.06521
  78.16094  -7.27108  66.68340
  82.53036  -4.35314  62.32895
  88.09688  -2.21333  57.16645
  94.66597  -1.56988  51.45030
 102.14785  -2.19836  45.25530
 110.51259  -3.30568  38.85081
 119.40107  -4.09876  32.65581
 128.61874  -4.15862  26.99951
 137.91124  -2.96151  21.91183
 147.02417  -0.61220  17.22818
 155.65826   2.39551  12.55948
 163.49927   5.01417   8.17510
 170.68187   6.74997   4.44912
 177.04147   7.66276   1.41148
 182.45835   7.67772  -1.20718
 187.06719   6.98939  -4.54410
 191.06252   5.76236  -9.48214
 194.35454   3.98167 -15.79684
 197.04802   2.18602 -22.63528
 199.33748   0.59986 -29.05474
 201.19298  -0.79177 -34.41176
 202.67439  -2.18340 -38.96074
 204.08099  -3.45532 -43.06082
 205.32298  -4.59256 -46.95139
 206.40037  -5.49039 -50.75219
 207.08870  -5.89441 -54.08911
 207.19345  -5.53528 -56.63295
 206.32555  -4.48782 -58.44356
 204.42515  -3.17101 -59.79030
 201.47729  -2.07865 -61.25675
 197.73635  -1.04615 -63.38160
 193.12752   0.25569 -66.09004
 187.69567   2.18602 -69.18754
 181.54556   4.75979 -72.41971
 174.73705   7.78247 -75.72670
 167.37488  10.79018 -79.21326
 159.50395  13.12453 -82.77464
 151.52826  14.47127 -86.51558
 143.35805  14.98003 -90.31637
 135.05316  14.99500 -94.35659
 126.91288  14.62090 -98.18731
 118.72770  13.31906-101.82350
 110.72209  11.31391-105.08560
 102.86611   9.08431-107.92872
  95.06999   6.86968-110.12839
  87.27387   4.78971-111.56491
  78.96899   3.11377-112.37295
  70.45461   2.09624-112.59741
  61.44642   1.82689-112.14850
  52.01926   2.38055-110.87658
  42.17310   3.36816-108.78165
  31.90796   4.31087-105.60933
  21.16398   4.62511-101.19502
  10.12073   3.86196 -95.91282
  -1.32655   2.03638 -89.55322
 -13.16289  -0.40271 -82.17608
 -25.13389  -2.60238 -74.15551
 -37.17972  -3.88927 -65.53638
 -49.28540  -3.97905 -56.91726
 -61.58561  -3.03633 -48.44777
 -73.87086  -1.70456 -40.96589
 -86.08129  -0.80673 -34.54644
 -97.90266  -0.64213 -29.59343
-109.23023  -1.45017 -26.00213
-119.95924  -2.66224 -24.02691
-129.80540  -3.84438 -23.18894
-138.51431  -4.69731 -23.44333
-145.96626  -4.74220 -24.52072
-151.92183  -4.33818 -26.04702
-156.39600  -3.44035 -28.02224
-159.73292  -2.15347 -29.65329
-162.23187  -0.49249 -30.70075
-164.40161   1.31812 -30.65586
-166.31697   2.93421 -29.45876
-168.15751   4.16124 -27.18427
-170.22251   4.53533 -23.98202
-172.39226   4.05649 -20.03159
-174.74157   3.51779 -15.58735
-177.31534   3.75721 -10.40989
-179.75443   5.10395  -4.78352
-181.90921   7.43830   1.24688
-183.58515  10.38616   7.00793
-184.69247  13.34898  12.08064
-185.39577  15.66837  16.39020
-185.47059  17.38920  19.86180
-185.03664  18.27206  22.79469
-183.88443  18.64616  25.72759
-182.04388  18.52645  28.58567
-179.75443  17.85308  32.20690
-177.22555  17.28445  35.97777
-174.63682  16.89540  40.28733
-172.33240  16.43152  45.07573
-170.17762  15.53369  50.25319
-168.14255  13.84279  55.72993
-166.09252  11.71793  61.41616
-163.95270   9.60804  67.19217
-161.70813   8.17152  72.96818
-159.22415   7.73757  78.45988
-156.39600   7.60290  83.71216
-152.92441   7.16895  88.51553
-149.43785   6.58536  92.75027
-146.41517   6.18134  96.35654
-143.97608   5.77732  99.13980
-142.10561   5.53790 100.81574
-140.36981   5.29848 101.53400
-138.42452   5.22366 101.30954
-136.61391   5.56783  99.94784
-135.01279   6.46565  97.28429
-132.82808   8.24634  93.28897
-130.52366  10.19163  87.84216
-127.62069  11.67304  81.46760
-123.93960  11.98728  74.74887
-119.51033  10.99967  68.44913
-114.52740   8.81496  62.92750
-109.09555   6.18134  58.61794
-103.48414   3.56269  55.62518
 -97.45375   1.54258  53.93428
 -90.85473   0.03124  53.72479
 -83.67212  -1.25565  54.78721
 -75.87600  -2.58742  56.68761
 -67.61601  -4.32322  59.12670
 -58.74250  -6.98677  61.70047
 -49.46497  -9.91966  64.40891
 -39.57392 -12.97227  67.01261
 -29.30878 -15.78546  69.24221
 -18.80422 -18.03002  71.20246
  -8.19492 -19.84064  72.41452
   2.18993 -21.33701  73.23753
  12.23062 -22.69871  73.43206
  21.79246 -23.68632  73.31235
  30.63604 -23.98560  73.05797
  38.85115 -23.20748  72.83351
  46.51259 -21.57643  72.59409
  53.75505 -19.39172  72.48934
  60.65334 -17.17709  72.26489
  67.52171 -15.62086  71.74115
  74.55468 -14.72303  70.63384
  81.64750 -14.30404  68.71847
  88.88996 -14.24419  65.81551
  96.49155 -14.00477  61.74536
 104.37745 -13.79528  56.55294
 112.74219 -13.60075  50.47765
 121.63067 -13.81024  43.83374
 130.92316 -14.09455  36.86063
 140.42515 -14.21426  30.18679
 149.73261 -13.75039  23.76734
 158.36670 -12.65803  18.24571
 166.22267 -11.20655  13.33760
 173.18082  -9.60542   8.92329
 179.22618  -8.40832   4.91300
 184.17919  -7.31597   0.99250
 188.24933  -6.31340  -2.95794
 191.39172  -5.07140  -7.10290
 193.42679  -3.32064 -11.62195
 194.69871  -0.71695 -16.78445
 194.95309   2.53019 -22.41083
 194.53411   6.01674 -28.35144
 193.98045   9.21899 -34.21723
 193.60636  11.58326 -39.66404
 193.59139  12.72051 -44.25792
 193.92059  12.58583 -47.92404
 194.35454  11.55333 -50.99161
 194.47425   9.84746 -53.62523
 194.59396   8.09670 -55.95958
 194.45929   6.92953 -58.38371
 194.01038   6.72004 -60.86769
 193.20233   6.85471 -63.60606
 191.76581   6.57040 -66.76341
 189.44643   4.95431 -70.38464
 185.70549   1.93164 -74.60442
 180.48314  -1.92901 -79.60232
 173.94397  -5.92434 -84.94438
 167.70409  -9.57550 -90.30141
 161.09010 -12.20912 -96.10735
 153.86261 -13.79528-102.07789
 146.87453 -14.28908-106.79147
