********************************************************************************
              CENTRO DE INSTRUMENTACION Y REGISTRO SISMICO  A.C.

    Anaxagoras 814, Col. Narvarte, Benito Juarez, C.P. 03020 Mexico, D.F.
           Tels. 5687 45 42/ 5687 45  82             Fax. 5669 25 12
********************************************************************************
ARCHIVO ESTANDAR DE ACELERACION:
VERSION DEL FORMATO                    : 2.0
NOMBRE DEL ARCHIVO                     : MT5020170919181440
FECHA Y HORA DE CREACION               : 25/SEP/17, 14:11
REF. CATALOGO ACELEROGRAMAS, SMIS 1996 : REGISTRO No.     /PAG.


================================================================================
DATOS DE LA ESTACION:
NOMBRE DE LA ESTACION                  : MARISCAL TITO
CLAVE DE LA ESTACION                   : MT50
LOCALIZACION DE LA ESTACION            : Del. Miguel Hidalgo, Col. Bosque       
                                       : de Chapultepec, Av. Paseo de la        
                                       : Reforma, entre Rubén Darío             
                                       : y Gandhi.                              
                                       : 
COORDENADAS DE LA ESTACION             : 19.4253 LAT. N
                                       : 99.1900 LONG. W
ALTITUD (msnm)                         : 2234
TIPO DE SUELO                          : Arenoso, limoso, compacto           
                                       :                           
                                       : 
INSTITUCION RESPONSABLE                : CIRES
                                       : 

================================================================================
DATOS DEL ACELEROGRAFO:
MODELO DEL ACELEROGRAFO                : RADESD
NUMERO DE SERIE DEL ACELEROGRAFO       : 226
NUMERO DE CANALES                      : 3
ORIENTACION C1-C6 (rumbo;orientacion)  : /N00E/+V/N90W
ORIENTACION C7-C12 (rumbo;orientacion) : 
VEL. DE MUESTREO, C1-C6 (muestras/s)   : /100/100/100
VEL. DE MUESTREO, C7-C12 (muestras/s)  : 
ESC. COMPLETA DE SENSORES, C1-C6, (g)  : /0.5/0.5/0.5
ESC. COMPLETA DE SENSORES, C7-C12, (g) : 
FREC. NAT. DE SENSORES, C1-C6, (Hz)    : /30/30/30
FREC. NAT. DE SENSORES, C7-C12, (Hz)   : 
AMORTIGUAMIENTO DE SENSORES, C1-C6     : /0.790/0.667/0.733
AMORTIGUAMIENTO DE SENSORES, C7-C12    : 
INTERVALO DE MUESTREO, C1-C6, (s)      : /0.01/0.01/0.01
INTERVALO DE MUESTREO, C7-C12, (s)     : 
UMBRAL DE DISPARO, C1-C6, (Gal)        : /1.35/5.39/1.35
UMBRAL DE DISPARO, C7-C12, (Gal)       : 
MEMORIA DE PREEVENTO (s)               : 44.0
TIEMPO DE POSEVENTO (s)                : 143.0


================================================================================
DATOS DEL SISMO:
FECHA DEL SISMO (GMT)                  : 19/SEP/17
HORA EPICENTRO (GMT)                   : 18:14:40.0
MAGNITUD(ES)                           : /Mc=7.1
COORDENADAS DEL EPICENTRO              : 18.40 LAT. N
                                       : 98.72 LONG. W
PROFUNDIDAD FOCAL (km)                 : 57
FUENTE DE LOS DATOS EPICENTRALES       : SSN
                                       : INSTITUTO DE GEOFISICA, UNAM

================================================================================
DATOS DE ESTE REGISTRO:
HORA DE LA PRIMERA MUESTRA (GMT)       : 18:15:03.00
EXACTITUD DEL TIEMPO (s)               : 0.01
DURACION DEL REGISTRO (s), C1-C6       : /266.8/266.8/266.8
DURACION DEL REGISTRO (s), C7-C12      : 
NUM. TOTAL DE MUESTRAS, C1-C6          : /26680/26680/26680
NUM. TOTAL DE MUESTRAS, C7-C12         : 
ACEL. MAX. (Gal), C1-C6                : /47.05058/29.80158/58.26669
ACEL. MAX., C1-C6, EN LA MUESTRA       : /7224/6542/7007
ACEL. MAX. (Gal), C7-C12               : 
ACEL. MAX., C7-C12, EN LA MUESTRA      : 
UNIDADES DE LOS DATOS                  : Gal (cm/s/s)
FACTOR DE DECIMACION                   : 1
FORMATO DATOS (FORTRAN,10 campos/dato) : 3F10.5


================================================================================
CALIDAD DEL ACELEROGRAMA:
REGISTRO DIGITAL COMPLETO CON TIEMPO ABSOLUTO CORRECTO.


================================================================================
COMENTARIOS:














================================================================================
DATOS DE ACELERACION:
---------+---------+---------+---------+---------+---------+---------+---------+
   CANAL-1   CANAL-2   CANAL-3   CANAL-4   CANAL-5   CANAL-6   CANAL-7   CANAL-8
      N00E        +V      N90W
---------+---------+---------+---------+---------+---------+---------+---------+
[...]
  16.76986 -10.06438 -31.83011
  17.32352  -6.72746 -34.35899
  16.90453  -1.53504 -36.60355
  15.12385   4.91434 -38.84812
  12.72964  12.03709 -40.74851
   9.99128  17.45397 -42.37956
   7.55218  19.84817 -43.38214
   5.89121  18.48647 -43.53177
   5.59193  13.60829 -42.87337
   6.57954   5.72238 -41.73612
   9.04856  -3.48033 -39.65616
  12.55008 -12.23413 -36.64844
  16.44066 -19.20724 -32.68305
  19.94218 -23.33724 -28.22385
  22.03710 -25.13289 -23.52523
  22.06703 -25.50698 -18.66200
  20.16663 -25.32742 -14.11302
  16.78482 -24.99822 -10.59654
  13.11870 -24.19017  -7.70853
   9.60222 -23.26242  -5.94281
   7.17809 -21.87079  -4.68585
   6.16055 -19.59630  -3.92270
   6.10070 -16.51376  -3.77306
   6.53465 -12.05456  -3.86285
   7.13320  -6.11395  -4.13219
   7.08831   0.11097  -4.13219
   6.16055   5.34829  -3.68328
   4.51454   9.10419  -3.12962
   2.86853  11.30387  -2.38143
   1.74624  12.20169  -1.63325
   1.50682  12.14184  -1.04966
   2.07545  11.87249  -0.13687
   3.15284  11.33379   1.19491
   4.61929  10.78014   2.84092
   5.69668  10.13669   4.89095
   6.28026   8.73010   6.53697
   5.66675   5.52786   7.58443
   3.97584   0.30550   7.92860
   1.58164  -6.77236   7.52458
  -1.32133 -14.68818   6.83624
  -4.38890 -21.60144   6.02820
  -8.01013 -26.46466   5.54936
 -11.52661 -28.26031   6.29755
 -15.14784 -27.67673   7.88371
 -18.38001 -25.34238  11.01113
 -20.87896 -21.73612  15.12617
 -22.58483 -17.74079  20.54305
 -23.93157 -13.44619  25.95993
 -25.21845  -8.77750  31.30199
 -26.10131  -3.37558  35.82105
 -26.72979   2.62489  38.88862
 -26.68490   8.87974  40.41492
 -25.81700  14.94006  40.32514
 -23.73704  19.53394  38.84373
 -20.38516  21.88325  36.28492
 -16.04567  22.61647  33.53159
 -10.91310  22.00296  31.19725
  -5.81046  20.53651  29.62605
  -1.17169  18.65107  28.75815
   3.00320  17.18463  28.29428
   6.23537  15.73314  27.92018
   8.92885  13.93749  26.84279
  10.90407  11.07941  24.98728
  11.86175   7.00927  22.38359
  11.27816   1.71210  18.92696
   9.36280  -3.91428  15.57508
   5.63682  -9.16656  12.46262
   0.78856 -12.65311  10.14323
  -4.80788 -13.91007   8.78153
 -10.04520 -13.08706   8.52715
 -14.19016 -10.66293   9.14066
 -17.30262  -7.26616  10.30784
 -19.27784  -3.34565  11.93889
 -20.28041   0.72449  13.59986
 -20.86400   4.57018  15.15609
 -21.26802   8.34104  15.96414
 -21.83664  11.54329  16.05392
 -23.06367  14.31158  15.14113
 -24.93414  16.21198  13.22577
 -27.65755  16.93024  10.47244
 -30.59044  16.49629   7.95853
 -33.53830  14.85028   5.66907
 -35.76790  12.78528   4.50190
 -37.45881  10.76517   4.38219
 -38.58109   8.86477   5.07052
 -39.40410   7.06912   6.59682
 -40.36178   4.54025   8.51218
 -41.57384   1.47268  11.01113
 -42.80087  -2.11863  13.83928
 -43.84833  -5.45554  16.84700
 -44.16257  -7.84975  19.86968
 -43.07022  -9.01692  22.74272
 -39.91286  -8.56801  25.18181
 -34.94490  -7.44572  26.60337
 -28.39077  -5.87453  27.15703
 -21.14831  -4.25844  26.78294
 -14.10038  -2.22337  25.72051
  -7.54625   0.24565  24.34384
  -1.51586   3.44789  22.62301
   3.66161   7.12898  20.33356
   7.83649  11.48343  17.40066
  11.29312  15.76307  14.07870
  14.18113  19.68357  10.89142
  16.38080  22.40698   8.12313
  17.95200  24.06796   5.63914
  19.19399  25.08549   3.96320
  19.68779  25.41469   2.24237
  19.85239  25.39973   0.49161
  19.74765  24.50190  -1.33397
  19.61297  22.00296  -3.54861
  19.58305  17.88792  -5.88295
  19.26881  11.93235  -7.87313
  18.50566   4.71981  -9.47426
  17.18884  -2.88178 -10.74618
  15.15377  -9.49576 -11.44947
  12.71468 -14.44876 -11.37465
  10.06609 -17.62108 -10.71625
   7.34269 -18.66854  -9.56404
   5.45726 -17.33677  -8.14248
   4.97842 -14.61337  -6.24208
   6.10070 -11.39616  -4.26687
   8.18066  -8.19391  -2.06719
  10.78436  -5.05152  -0.16680
  13.68732  -2.38797   1.44929
  15.73736   0.05112   2.18251
  16.57533   2.75956   2.55661
  16.32095   5.10887   2.60150
  15.39319   7.12898   2.67632
  13.89682   9.01441   2.78106
  12.38548  11.01956   3.30480
  11.33801  12.97981   4.45701
  11.20334  14.62582   5.74389
  11.99642  15.83789   7.56947
  13.20848  16.04738   9.46987
  14.61508  14.79042  12.10349
  15.43808  11.49840  14.79696
  15.60269   6.56036  16.77218
  14.67493   0.42521  17.56526
  12.28073  -5.69496  17.04153
   8.70439 -10.18409  15.42544
   4.30505 -12.48851  13.25570
  -0.24394 -12.41369  10.54726
  -4.38890 -10.58811   7.67421
  -7.41158  -7.80485   4.84606
  -9.53643  -5.44058   2.46683
 -10.88317  -4.19859   0.91059
 -12.33465  -4.12377   0.14744
 -14.01060  -5.20116  -0.24162
 -16.10552  -6.77236  -1.24419
 -18.42491  -8.50815  -2.90516
 -20.43005  -9.86985  -5.58368
 -22.03117 -10.90235  -9.17498
 -23.00382 -11.71040 -13.63418
 -23.28813 -12.66808 -18.82661
 -22.53994 -14.10460 -24.42305
 -20.65451 -15.90025 -30.00453
 -17.70664 -17.57619 -34.34403
 -13.89089 -18.21963 -37.60613
  -9.71600 -16.88786 -39.97040
  -5.75060 -13.43123 -41.45181
  -2.50346  -8.89721 -42.55913
  -0.25890  -4.46794 -43.77119
   0.65389  -1.16094 -45.23764
   0.45936   0.70953 -46.88366
  -0.34868   1.33800 -48.24536
  -1.54578   0.84420 -48.33514
  -2.50346  -0.32297 -46.88366
  -2.95238  -2.19344 -43.45696
  -2.59325  -4.24348 -38.86308
  -1.57571  -6.60775 -33.37138
   0.16009  -8.92714 -28.08917
   2.50940 -11.29141 -23.45041
   5.50215 -13.83525 -18.99121
   8.45001 -16.60355 -15.26523
  11.03874 -18.60869 -11.95824
  12.72964 -19.73097  -8.78592
  13.92674 -19.28206  -5.88295
  14.98917 -17.86050  -3.33911
  16.11145 -15.66083  -1.04966
  17.45819 -12.75786   1.25476
  18.56551  -9.37605   3.73874
  19.70276  -5.47051   6.71653
  20.36116  -1.74453  10.23302
  20.60058   2.01137  14.48272
  19.88232   5.42311  18.62769
  18.58047   8.64032  22.44345
  16.51548  11.16919  24.88254
  13.88185  12.83017  25.82526
  10.99385  13.35390  25.43620
   7.73175  13.09952  23.59565
   4.33497  12.15680  20.75254
   1.04295  11.21408  18.11892
  -2.36879  10.34619  15.38055
  -5.76556   9.73267  13.21081
  -8.83313   9.16405  11.35530
 -11.43683   8.29615   9.78410
 -13.74125   6.65014   8.10816
 -15.46208   3.59753   6.61179
 -16.44969  -0.42772   4.78621
 -16.49458  -4.84203   2.76610
 -15.28252  -8.53808   0.94052
 -12.78357 -11.00710  -0.36133
  -9.25212 -11.66550  -0.87009
  -5.19694 -10.37862  -0.54089
  -0.84249  -7.29609   0.32701
   3.24262  -2.88178   1.37447
   6.17552   1.75699   2.70625
   7.85146   5.30340   4.33730
   8.55475   7.50307   6.05813
   8.71936   8.05673   7.58443
   8.70439   8.05673   8.63189
   8.82410   7.98191   9.18555
   9.07849   8.26622   9.38008
   9.49747   8.86477   9.52972
   9.58725   9.32865   9.57461
   9.34783   9.20894   9.76914
   8.25548   7.89213   9.90381
   6.59450   6.51546   9.76914
   4.49958   5.19865   9.15563
   2.34479   4.74974   7.62932
   0.59403   5.67749   4.99570
  -0.78263   7.69760   1.23980
  -1.44104  10.66043  -3.03984
  -1.66549  13.50354  -8.08263
  -1.29140  15.04481 -13.12541
  -0.73774  14.92510 -18.21309
  -0.54321  13.72800 -23.40552
  -1.27644  11.60314 -28.50816
  -2.80274   9.74764 -32.35385
  -5.82542   7.65271 -34.97250
  -9.41672   5.84209 -36.36413
 -13.05292   3.77710 -36.55866
 -15.91099   1.14347 -35.99004
 -17.01831  -1.47518 -34.59841
 -16.30005  -3.89931 -33.20678
 -13.81607  -5.54533 -32.05457
 -10.41929  -7.31105 -31.20164
  -7.12727  -9.51072 -30.40856
  -4.52357 -12.06953 -29.16656
  -3.16187 -15.18199 -27.55048
  -2.69799 -18.06999 -25.20117
  -3.19180 -20.29959 -22.85186
  -4.08962 -21.07771 -20.23320
  -4.70314 -20.37441 -17.95871
  -5.07723 -18.54883 -16.62693
  -4.49364 -15.93018 -15.28019
  -3.44618 -12.65311 -13.82871
  -1.63557  -9.06181 -12.25751
   1.01302  -5.39569 -10.20748
   4.18534  -1.46022  -8.21730
   7.49233   2.13108  -6.18223
  10.41026   5.87202  -4.11723
  12.19095   9.49325  -1.99238
  12.28073  12.77032   0.13248
  10.50004  15.26926   2.21244
   7.04342  16.87039   4.11284
   3.00320  17.34923   5.66907
  -0.90234  17.34923   5.90849
  -3.89509  17.09484   5.23512
  -5.97506  16.31673   3.87342
  -7.26194  14.86524   2.51172
  -8.15977  12.32140   1.76353
  -8.47400   8.99945   2.16755
  -8.17473   5.25851   4.18766
  -7.63603   1.72706   7.59940
  -7.32179  -1.43029  11.98378
  -7.29187  -3.58507  16.42801
  -7.50136  -4.34823  20.52808
  -7.71085  -3.85442  23.93982
  -7.93531  -2.43286  26.52855
  -7.71085  -0.29305  28.23442
  -6.79806   1.53253  29.11728
  -4.94256   2.75956  29.13225
  -2.14433   3.19351  28.57859
   1.53675   2.89423  27.35156
   4.96345   2.80445  25.22670
   7.85146   3.20847  22.26388
   9.99128   3.91177  18.55287
  11.33801   4.77967  14.82689
  11.77196   5.22858  11.43012
  11.71211   4.89938   8.73664
  11.24823   3.70228   6.59682
  10.36537   1.87670   4.78621
   9.42265   0.06608   3.61903
   8.22555  -1.46022   2.12266
   6.84889  -2.43286   0.41679
   5.68171  -2.67228  -1.61828
   5.08316  -2.46279  -3.89277
   4.81381  -2.16352  -6.18223
   4.81381  -1.99892  -7.93299
   4.90360  -1.34051  -8.87571
   4.81381  -0.35290  -9.17498
   4.30505   0.84420  -8.75600
   3.12291   1.78692  -7.48408
   1.31229   2.11612  -5.98770
  -0.81256   1.93655  -3.81795
  -3.08705   1.80188  -1.31901
  -5.48125   2.56503   1.09016
  -7.48640   4.16615   3.52925
  -9.10248   6.36583   5.53440
  -9.85067   8.40090   7.27019
  -9.76089  10.03195   8.40744
  -8.77328  11.09437   9.32023
  -7.02252  11.60314   9.73921
  -4.76299  11.78271   9.87389
  -1.86002  11.52832   9.66439
   1.25244  10.92977   9.00599
   4.48461   9.82246   8.03334
   8.18066   8.26622   6.61179
  12.05627   6.26108   4.45701
  16.12642   4.67492   1.58396
  20.10678   3.52271  -2.66574
  24.04225   2.99898  -7.48408
  27.66348   2.16101 -12.61665
  30.32703   1.26318 -17.58461
  31.88326   0.44018 -22.11863
  32.01793   0.24565 -26.14388
  30.52156   1.12851 -29.24138
  27.09485   3.01394 -31.90493
  22.51594   5.61764 -34.28417
  16.69504   8.01184 -36.31924
  10.61975  10.04691 -37.84555
   4.45468  10.67539 -38.47402
  -1.30636   9.76260 -38.32439
  -6.34915   7.63775 -36.94772
 -10.38937   5.30340 -34.62834
 -13.38212   3.46286 -30.93229
 -16.07559   1.78692 -26.81725
 -18.29023   0.24565 -21.83432
 -20.93882  -1.13102 -16.38751
 -23.90164  -2.52265 -10.62647
 -26.96921  -3.82449  -4.49132
 -30.15649  -5.14131   2.06280
 -33.32881  -5.99424   8.55708
 -35.99236  -5.87453  14.45280
 -38.02743  -4.52779  19.69011
 -38.79058  -1.74453  24.55334
 -38.56613   1.62231  29.41656
 -36.62084   4.95923  34.36956
 -33.17917   8.11659  39.26271
 -28.45062  10.45093  43.78177
 -22.94396  12.29148  47.98658
 -17.15299  13.63821  51.63774
 -11.82589  14.49115  54.75020
  -7.66596  14.88021  56.97980
  -4.70314  15.04481  58.25172
  -2.57828  15.10466  58.26669
  -0.64796  15.07474  57.57835
   1.13273  14.08713  56.12687
   3.37729  11.91738  54.04691
   6.20544   8.87974  51.78738
   9.61718   5.42311  49.67749
  13.05885   2.11612  47.41796
  16.29102  -0.30801  44.81427
  18.90968  -1.59489  41.91130
  20.63051  -2.19344  38.18532
  21.69294  -2.35805  33.69619
  21.93236  -2.92667  28.29428
  21.90243  -4.04895  22.66790
  21.45352  -6.08402  16.95175
  20.63051  -8.49319  11.48997
  19.08924 -11.32134   6.26762
  16.90453 -13.79036   1.19491
  14.57019 -15.64586  -3.48875
  12.11613 -16.55865  -8.26219
   9.96135 -16.51376 -13.00570
   8.21059 -15.57105 -17.83900
   7.05838 -13.65568 -22.26827
   6.34012 -11.36623 -26.71251
   5.75653  -8.55304 -30.12424
   4.84374  -5.39569 -33.04218
   3.30247  -2.64236 -35.30171
   0.89331  -0.68210 -37.30685
  -2.32390   0.09601 -39.07257
  -6.22944  -0.32297 -40.58391
  -9.94045  -1.20584 -41.78101
 -13.29234  -2.11863 -42.30475
 -15.71646  -2.86681 -42.24489
 -16.91357  -2.95660 -41.57152
 -17.19788  -2.77703 -40.13500
 -17.04824  -2.43286 -38.08497
 -16.89860  -2.49272 -35.39149
 -17.09313  -3.52522 -32.00968
 -18.20045  -5.72489 -28.02932
 -20.07092  -8.52312 -23.42048
 -22.61476 -10.97717 -18.36273
 -25.24838 -12.51844 -13.08052
 -27.52287 -13.19181  -7.70853
 -28.86961 -12.80275  -1.84274
 -28.74990 -11.42608   4.24751
 -27.14878 -10.04942  10.20309
 -23.96150  -9.16656  15.78457
 -19.63697  -8.94210  21.02189
 -14.93835  -9.43590  25.88511
 -10.41929  -9.85489  30.17971
  -6.52872  -9.64540  33.93561
  -3.31151  -7.84975  36.94333
  -0.48336  -4.28837  39.17293
   1.73128   0.50003  40.92369
   3.81124   5.70742  42.18065
   5.84631  10.25640  42.92883
   7.88139  13.74296  42.85401
   9.97631  15.95760  42.01604
  12.05627  17.13973  40.04083
  14.12127  16.94521  36.64405
  16.35087  14.99992  32.36442
  18.52062  11.27394  27.21688
  20.64547   7.09905  21.68029
  22.26156   2.95409  16.20356
  23.29406   0.00623  10.99617
  22.86011  -1.35547   6.10302
  20.76518  -1.63979   1.61389
  16.93446  -2.22337  -2.45625
  12.31066  -3.28580  -6.52639
   7.49233  -5.54533 -10.40201
   3.00320  -8.76254 -13.87360
  -0.78263 -12.54837 -17.07585
  -3.85020 -15.69076 -20.17334
  -5.82542 -17.68094 -23.04639
  -6.87288 -18.27949 -26.03914
  -7.62107 -17.62108 -28.52312
  -8.06998 -16.07981 -30.73776
  -8.42911 -14.11956 -32.74290
  -8.54882 -12.56333 -34.16446
  -8.44408 -11.45601 -35.09221
  -8.02509 -10.64797 -35.27178
  -7.51632  -9.85489 -34.65826
  -6.63346  -8.77750 -33.62576
  -4.91263  -7.23623 -32.24910
  -2.48850  -6.02417 -30.46841
   1.17762  -4.73728 -28.04428
   4.84374  -4.24348 -25.00664
   8.53979  -4.63254 -21.83432
  11.84678  -6.14388 -18.54229
  14.54026  -8.44830 -15.57947
  15.82714 -11.30637 -12.55679
  16.08153 -14.31409  -9.05527
  15.25852 -16.63347  -5.71835
  13.67236 -18.01014  -2.26172
  12.17598 -18.45905   1.52411
  10.78436 -17.65101   5.86360
   9.82667 -14.85279  10.78668
   9.76682 -10.16913  16.53276
  10.00624  -4.75225  22.51826
  10.03617   0.30550  28.03989
   9.96135   4.63003  32.90311
   9.61718   7.77242  36.61413
   9.18323  10.55568  39.27768
   8.77921  13.26412  41.13318
   8.28541  15.52365  42.09086
   7.79160  17.55872  41.82152
   7.50729  19.84817  41.02844
   7.04342  21.76354  39.98097
   6.29523  23.42451  38.52949
   5.50215  23.88839  36.46449
   4.88863  23.36466  33.39692
   4.39483  21.86828  29.44649
   3.97584  19.89307  24.53837
   3.19773  17.84303  18.94193
   1.82106  15.49372  13.39037
  -0.03444  12.81521   8.09320
  -1.90491   9.61296   3.17012
  -3.35640   5.64757  -1.60332
  -4.49364   0.96391  -6.46654
  -4.91263  -3.80953 -11.16516
  -5.04730  -7.70011 -15.23530
  -5.45132 -10.46840 -18.55726
  -6.34915 -12.21916 -20.92153
  -7.77071 -13.04217 -22.11863
  -9.83571 -12.72793 -22.19345
 -12.37955 -11.51587 -20.90657
 -15.20770  -9.67532 -18.81164
 -18.02088  -7.04170 -16.83643
 -20.40012  -3.98910 -15.34005
 -21.74686  -0.41276 -14.38237
 -22.28556   2.96905 -13.29001
 -21.83664   6.21619 -12.06299
 -20.86400   8.23630 -11.00056
 -18.90375   9.08923  -9.78849
 -16.70407   8.61039  -8.89067
 -13.81607   8.25126  -8.24723
 -10.92806   7.89213  -7.96292
  -8.15977   7.50307  -7.72350
  -5.91520   6.12641  -7.60379
  -4.14948   4.40557  -7.64868
  -2.54836   1.53253  -7.58882
  -1.41111  -2.19344  -7.85817
  -0.82752  -6.33841  -8.35197
   0.16009 -10.03445  -8.56147
   1.34222 -13.29655  -9.02534
   3.03313 -15.70572  -9.17498
   5.17295 -16.91778  -9.23484
   7.64197 -17.35173  -9.63886
  10.50004 -16.46887  -9.98302
  13.20848 -14.74804 -10.50675
  15.16874 -12.48851 -11.50933
