********************************************************************************
              CENTRO DE INSTRUMENTACION Y REGISTRO SISMICO  A.C.

    Anaxagoras 814, Col. Narvarte, Benito Juarez, C.P. 03020 Mexico, D.F.
           Tels. 5687 45 42/ 5687 45  82             Fax. 5669 25 12
********************************************************************************
ARCHIVO ESTANDAR DE ACELERACION:
VERSION DEL FORMATO                    : 2.0
NOMBRE DEL ARCHIVO                     : MY1920170919181440
FECHA Y HORA DE CREACION               : 25/SEP/17, 11:18
REF. CATALOGO ACELEROGRAMAS, SMIS 1996 : REGISTRO No.     /PAG.


================================================================================
DATOS DE LA ESTACION:
NOMBRE DE LA ESTACION                  : MEYEHUALCO
CLAVE DE LA ESTACION                   : MY19
LOCALIZACION DE LA ESTACION            : Del. Iztapalapa, Col. Unidad Sta. Cruz 
                                       : Meyehualco, Av. Luis Fernández M.,     
                                       : Entre Av. Samuel Gompers               
                                       : y Ermita Iztapalapa,                   
                                       : 
COORDENADAS DE LA ESTACION             : 19.3461 LAT. N
                                       : 99.0433 LONG. W
ALTITUD (msnm)                         : 2237
TIPO DE SUELO                          : Terreno blando, material compresible
                                       : (arcillas)                
                                       : 
INSTITUCION RESPONSABLE                : CIRES
                                       : 

================================================================================
DATOS DEL ACELEROGRAFO:
MODELO DEL ACELEROGRAFO                : RADESD
NUMERO DE SERIE DEL ACELEROGRAFO       : 675
NUMERO DE CANALES                      : 3
ORIENTACION C1-C6 (rumbo;orientacion)  : /S00E/+V/N90W
ORIENTACION C7-C12 (rumbo;orientacion) : 
VEL. DE MUESTREO, C1-C6 (muestras/s)   : /100/100/100
VEL. DE MUESTREO, C7-C12 (muestras/s)  : 
ESC. COMPLETA DE SENSORES, C1-C6, (g)  : /0.5/0.5/0.5
ESC. COMPLETA DE SENSORES, C7-C12, (g) : 
FREC. NAT. DE SENSORES, C1-C6, (Hz)    : /53.84/51.82/50.63
FREC. NAT. DE SENSORES, C7-C12, (Hz)   : 
AMORTIGUAMIENTO DE SENSORES, C1-C6     : /0.5747/0.5698/0.5715
AMORTIGUAMIENTO DE SENSORES, C7-C12    : 
INTERVALO DE MUESTREO, C1-C6, (s)      : /0.01/0.01/0.01
INTERVALO DE MUESTREO, C7-C12, (s)     : 
UMBRAL DE DISPARO, C1-C6, (Gal)        : /0.72/1.92/0.72
UMBRAL DE DISPARO, C7-C12, (Gal)       : 
MEMORIA DE PREEVENTO (s)               : 44.0
TIEMPO DE POSEVENTO (s)                : 0.0


================================================================================
DATOS DEL SISMO:
FECHA DEL SISMO (GMT)                  : 19/SEP/17
HORA EPICENTRO (GMT)                   : 18:14:40.0
MAGNITUD(ES)                           : /Mc=7.1
COORDENADAS DEL EPICENTRO              : 18.40 LAT. N
                                       : 98.72 LONG. W
PROFUNDIDAD FOCAL (km)                 : 57
FUENTE DE LOS DATOS EPICENTRALES       : SSN
                                       : INSTITUTO DE GEOFISICA, UNAM

================================================================================
DATOS DE ESTE REGISTRO:
HORA DE LA PRIMERA MUESTRA (GMT)       : 18:14:58.00
EXACTITUD DEL TIEMPO (s)               : 0.01
DURACION DEL REGISTRO (s), C1-C6       : /457.0/457.0/457.0
DURACION DEL REGISTRO (s), C7-C12      : 
NUM. TOTAL DE MUESTRAS, C1-C6          : /45700/45700/45700
NUM. TOTAL DE MUESTRAS, C7-C12         : 
ACEL. MAX. (Gal), C1-C6                : /119.87724/85.39388/111.64838
ACEL. MAX., C1-C6, EN LA MUESTRA       : /6528/6622/6779
ACEL. MAX. (Gal), C7-C12               : 
ACEL. MAX., C7-C12, EN LA MUESTRA      : 
UNIDADES DE LOS DATOS                  : Gal (cm/s/s)
FACTOR DE DECIMACION                   : 1
FORMATO DATOS (FORTRAN,10 campos/dato) : 3F10.5


================================================================================
CALIDAD DEL ACELEROGRAMA:
REGISTRO DIGITAL COMPLETO CON TIEMPO ABSOLUTO CORRECTO.


================================================================================
COMENTARIOS:














================================================================================
DATOS DE ACELERACION:
---------+---------+---------+---------+---------+---------+---------+---------+
   CANAL-1   CANAL-2   CANAL-3   CANAL-4   CANAL-5   CANAL-6   CANAL-7   CANAL-8
      S00E        +V      N90W
---------+---------+---------+---------+---------+---------+---------+---------+
[...]
 -26.81250  12.66364  23.28737
 -26.21395  19.47216  19.66614
 -25.76504  25.57737  16.11973
 -25.57051  30.73987  13.02223
 -25.42087  35.01950  10.20904
 -25.04678  38.64073   7.72506
 -24.62779  41.34917   5.63013
 -24.22377  43.81819   3.72974
 -24.01428  45.74852   1.87423
 -24.26866  47.18504   0.39282
 -24.85225  48.03797  -1.29809
 -25.88475  48.66645  -3.48280
 -26.93221  49.02558  -5.50290
 -27.90486  48.32229  -7.82229
 -28.18917  45.76348 -10.42598
 -28.63808  41.15464 -13.65815
 -28.99721  35.22899 -16.95018
 -29.07203  28.57012 -19.88308
 -28.59319  22.04592 -21.84333
 -27.38113  16.16516 -22.89079
 -25.37598  11.21216 -23.10029
 -22.62265   7.11209 -22.75612
 -19.51019   3.82006 -23.05540
 -15.88896   1.59046 -23.04043
 -12.95606   0.04919 -22.87583
 -10.98085  -0.32490 -23.17511
  -9.94835   0.22876 -24.07293
  -9.03556   0.91709 -24.97076
  -7.83846   0.88716 -25.37478
  -6.73114  -0.42965 -25.29996
  -5.90813  -3.04830 -24.71637
  -5.26469  -6.96881 -23.90833
  -4.62125 -11.51779 -22.90576
  -3.15480 -15.85728 -22.03786
  -1.02994 -19.64311 -21.03529
   1.70842 -22.80047 -20.13746
   4.83585 -25.10489 -19.26956
   7.84357 -26.90054 -18.44656
  10.31259 -28.03778 -17.42902
  12.33269 -28.08268 -16.65091
  13.90389 -27.00528 -15.60344
  15.59479 -25.08992 -14.43627
  17.13606 -23.14463 -13.32895
  18.69229 -21.85775 -11.57819
  19.97917 -21.63329  -9.73765
  20.96678 -22.23185  -7.77740
  21.92446 -23.38405  -6.17627
  22.40330 -24.65597  -4.63501
  22.40330 -25.79322  -2.73461
  22.08906 -26.43666  -0.86414
  21.77483 -26.40673   1.87423
  21.61022 -26.18228   4.77720
  21.19124 -25.98775   8.41339
  20.69744 -25.89797  11.98973
  19.85946 -25.32934  15.49125
  18.90178 -23.68333  18.96284
  17.98899 -20.78036  22.73371
  17.65979 -16.47080  26.69911
  17.59994 -11.75721  30.93385
  17.57001  -7.08852  34.33063
  17.28570  -3.33262  36.96425
  16.70211  -0.39972  38.35588
  15.74443   1.42586  38.41573
  14.96632   2.63792  37.63762
  14.53237   3.26640  35.88686
  14.63711   3.49086  33.67222
  15.66961   3.38611  31.95139
  17.31563   2.87734  29.61704
  19.26091   2.66785  27.28269
  21.56533   2.42843  24.15527
  23.88472   2.83245  20.77346
  26.36870   3.70035  17.40661
  28.59830   5.84017  14.27919
  30.52863   8.32415  11.57075
  31.57609  10.95778   9.49078
  32.05493  13.38190   7.53053
  31.45638  15.41698   5.61517
  30.25928  17.54183   3.89434
  28.25413  19.44223   2.14358
  25.56066  21.43241   0.94648
  22.16388  22.95871  -0.37033
  18.30323  24.21567  -1.67218
  14.14331  25.23320  -3.19849
   9.90856  25.90657  -5.12881
   5.94317  26.46023  -6.83468
   2.08252  26.75951  -8.30113
  -1.32922  26.38541  -9.60297
  -4.00773  25.23320 -10.26138
  -6.22237  23.67697 -10.71029
  -8.55672  21.35759 -11.24899
 -10.74143  18.60426 -11.96725
 -12.76153  15.23741 -12.88004
 -14.43747  11.34683 -14.30160
 -15.26048   7.53107 -15.73812
 -15.91889   4.31387 -16.72572
 -16.63715   1.59046 -17.45895
 -17.31052  -0.45957 -17.53377
 -18.16345  -2.41983 -16.71076
 -18.83682  -4.67935 -14.94504
 -19.82443  -7.50750 -12.25156
 -20.36312 -10.87435  -8.46573
 -20.63247 -14.42076  -3.85689
 -20.10874 -17.83250   1.70963
 -18.22331 -20.24166   7.91959
 -15.27544 -21.46869  14.54853
 -11.56443 -21.37891  21.44683
  -7.52422 -19.80772  28.19548
  -3.67853 -16.84489  34.33063
  -0.56607 -13.52294  39.49312
   2.05259 -10.48529  43.57823
   3.99788  -7.76189  46.52609
   5.44936  -5.08338  48.09729
   6.33223  -2.43479  49.04000
   6.64646  -0.08548  49.18964
   6.39208   1.93463  48.60605
   5.92820   3.56568  47.46881
   5.41944   4.53832  45.97243
   5.20994   5.15184  44.41620
   5.50922   5.85513  43.03953
   6.52675   6.61828  41.37856
   8.65161   6.76792  39.83729
  11.38998   5.92995  38.05660
  14.26302   3.87992  36.12628
  16.40284   0.78242  34.48026
  17.55505  -2.49465  32.71454
  17.24081  -5.50236  30.61961
  15.81925  -8.52504  28.07577
  14.51740 -11.71232  25.20273
  14.02360 -15.24377  21.77603
  13.97871 -18.11681  17.94531
  13.64950 -20.10699  13.96495
  12.79657 -20.78036  10.02948
  10.97099 -21.15445   6.09401
   8.84614 -21.34898   2.02387
   6.16762 -21.42380  -1.37291
   3.50407 -21.06467  -4.41055
   1.46900 -20.61576  -6.64015
   0.13723 -20.34641  -8.25624
  -0.85038 -20.24166  -9.19895
  -1.61353 -19.62815  -9.30370
  -1.98763 -17.69783  -8.22631
  -2.12230 -13.85214  -6.84964
  -2.30186  -9.16848  -5.39816
  -2.27194  -3.97606  -3.72222
  -2.19712   1.30615  -2.42037
  -1.95770   6.72303  -1.32802
  -1.98763  11.40669  -0.87910
  -2.13726  15.13266  -0.92399
  -2.27194  18.34987  -1.25320
  -1.65842  20.65429  -2.57001
  -0.37154  22.34520  -5.11385
   1.42411  23.51237  -8.00185
   3.35444  24.20070 -11.26395
   5.15009  24.99378 -14.43627
   6.60157  26.22081 -17.18960
   8.26255  27.67230 -19.29949
  10.71661  29.49787 -20.97543
  13.88892  31.21871 -22.56159
  17.76454  32.93954 -23.41453
  21.86461  34.19650 -23.92329
  25.96468  34.31621 -23.87840
  29.31656  33.74758 -23.29482
  31.99507  32.56545 -22.53166
  33.38670  30.99425 -21.63384
  34.04511  29.27342 -20.61630
  34.20971  27.77704 -19.95790
  34.31446  26.13103 -19.07504
  34.67359  24.60472 -18.94036
  35.34696  23.49741 -19.49402
  36.49917  23.46748 -20.76594
  37.80101  24.33538 -22.42692
  38.39956  25.36788 -24.49192
  37.42692  25.65219 -26.07808
  34.43417  24.63465 -27.51460
  30.30417  23.09339 -28.74162
  25.63548  21.53715 -29.37010
  20.74233  19.80136 -29.25039
  15.49005  18.42469 -28.99601
  10.14798  17.21263 -28.95112
   4.98549  16.65897 -28.51717
  -0.44636  16.26991 -27.75402
  -6.50668  15.70129 -27.48467
 -13.34512  14.35455 -28.18797
 -20.63247  12.39430 -29.25039
 -28.02457  10.35922 -30.40260
 -35.49148   8.89278 -31.43510
 -42.92847   7.93510 -32.18329
 -49.91655   6.84274 -32.39278
 -56.09658   5.13687 -31.76430
 -61.16930   2.95216 -30.13325
 -64.68578  -0.16030 -27.63431
 -67.28948  -3.69175 -24.29739
 -69.53404  -7.17830 -20.60134
 -71.61400 -10.93421 -16.66587
 -73.91842 -14.55544 -13.32895
 -76.10313 -17.53322 -11.03950
 -78.60208 -20.58583  -9.51319
 -80.92146 -22.99500  -9.03435
 -83.28574 -23.96764 -10.00700
 -85.44052 -23.38405 -11.98221
 -87.56537 -21.60337 -14.96000
 -88.79240 -19.14931 -18.35677
 -88.67269 -16.62043 -21.58895
 -87.17631 -14.82478 -24.37221
 -84.55766 -14.12149 -26.34742
 -81.66965 -14.21127 -27.02079
 -78.49733 -14.25616 -26.34742
 -75.07063 -14.03170 -24.80616
 -71.20998 -13.65761 -22.23239
 -67.67853 -13.86710 -19.32942
 -64.34161 -14.24120 -16.50127
 -61.90252 -15.00435 -13.77786
 -60.25651 -15.49815 -11.41359
 -58.58057 -15.34852  -9.78254
 -56.79988 -14.66018  -9.07924
 -54.36079 -14.37587  -9.33363
 -51.65235 -15.03428 -10.00700
 -49.25814 -16.69525 -10.74022
 -47.26796 -18.95478 -11.21906
 -45.26282 -21.63329 -11.57819
 -42.24014 -23.90779 -12.23660
 -38.03532 -25.74833 -13.32895
 -33.23196 -26.51148 -15.57352
 -27.97968 -27.05018 -18.28196
 -22.87703 -27.96297 -21.11011
 -18.23827 -28.96554 -23.50431
 -13.22541 -29.84840 -25.24010
  -7.83846 -30.62651 -26.04815
  -2.09237 -30.85097 -26.67663
   3.87817 -30.59659 -27.14050
   9.90856 -29.35460 -27.03576
  15.75939 -27.28960 -26.82626
  21.77483 -24.59612 -26.60181
  27.83515 -20.91503 -26.51202
  33.79073 -16.32116 -26.96094
  39.29739 -10.66486 -28.26278
  44.38507  -4.60454 -30.19311
  48.88916   1.33608 -32.40775
  52.60017   6.51354 -34.57749
  55.87724  10.38915 -36.61256
  58.89992  12.37933 -38.15383
  62.41640  12.54393 -39.39582
  66.23216  11.54136 -39.85970
  70.10777   9.97017 -39.54546
  73.48958   7.54604 -38.81224
  75.76407   4.77774 -37.68995
  76.87139   1.65032 -35.74466
  76.69183  -0.98331 -33.21579
  75.27027  -3.04830 -29.54967
  73.01074  -4.23044 -25.50945
  70.34719  -4.87388 -20.67616
  67.39933  -5.11330 -16.05236
  64.61607  -5.41258 -11.57819
  62.20691  -5.59214  -7.07410
  60.84520  -5.68193  -2.42037
  60.38133  -5.66696   2.35307
  60.86017  -5.39761   7.36593
  61.50361  -5.00856  12.13937
  61.87770  -4.84396  16.76317
  61.44375  -4.81403  20.63878
  60.05213  -5.11330  24.36476
  57.17908  -5.66696  27.86628
  53.06405  -6.05602  31.30795
  47.97637  -6.07098  34.65983
  42.30511  -6.05602  38.07157
  36.18493  -5.93631  41.04935
  29.69066  -5.72682  43.93736
  22.92704  -5.27790  46.58595
  16.34298  -4.45490  48.77065
  11.03085  -2.79392  51.32946
   7.94831  -0.36979  54.32221
   7.17020   3.04195  58.04819
   8.14284   7.65078  62.34279
  10.05820  12.81328  67.81952
  11.97356  18.17031  73.52071
  13.14074  23.07842  79.49125
  13.20059  26.99893  85.10266
  12.42248  29.79715  90.47465
  10.91114  31.33842  94.70940
   9.19030  32.22128  98.48027
   7.25998  32.07164 101.59273
   5.37454  31.21871 103.97197
   3.39933  29.70737 105.67784
   1.45404  27.55259 106.44099
  -0.73067  24.72443 106.66544
  -2.94531  21.10320 106.24646
  -4.96541  16.21006 105.48331
  -6.52164  10.55375 104.51066
  -7.10523   4.50839 102.80479
  -7.03041  -0.81870 100.90440
  -6.38697  -4.78410  98.95911
  -5.50411  -7.50750  97.05871
  -4.90556  -9.09366  94.99371
  -5.17491  -9.90171  92.40498
  -6.55157  -9.79696  88.82864
  -9.26001  -9.36301  84.47419
 -13.46483  -9.13855  79.20694
 -18.92660 -10.12616  73.46086
 -25.39095 -12.58022  67.04141
 -32.61844 -15.96203  60.06829
 -40.86347 -20.01721  52.94554
 -49.13843 -23.83297  45.41877
 -56.71010 -27.03521  37.80222
 -63.36897 -28.81590  30.46998
 -68.86067 -29.01043  23.28737
 -72.96074 -27.25967  16.91281
 -75.74400 -23.93771  11.81017
 -77.07578 -19.80772   8.39843
 -77.31520 -15.36348   6.45314
 -76.28270 -10.76960   5.67502
 -74.18777  -6.57975   6.01919
 -71.56911  -3.27276   7.17140
 -68.23219  -1.26762   9.19151
 -64.52118  -1.04316  11.61564
 -60.28644  -2.35997  14.23430
 -55.19876  -4.52972  16.31426
 -49.21325  -7.35787  17.64603
 -42.01568  -9.61740  17.60114
 -34.09986 -11.03895  17.30187
 -25.43584 -10.90428  16.44893
 -16.44262  -9.21337  15.62593
  -7.50925  -6.77428  14.44379
   1.51389  -4.20051  13.36640
  10.14798  -2.28515  12.18426
  18.43791  -1.17783  11.36125
  26.57819  -0.47454  11.42111
  34.04511  -0.02562  12.40872
  41.51203  -0.02562  14.32408
  48.94901  -0.19023  17.09237
  56.02687  -1.26762  20.18987
  63.11970  -2.64428  23.78117
  69.82346  -4.36512  27.37248
  76.34766  -5.71185  30.94882
  82.15360  -6.48997  34.30070
  87.64530  -5.86149  37.47302
  92.56838  -4.26037  39.89714
  96.89290  -2.07566  41.70776
 100.76852   0.03423  42.00703
 104.12040   2.39850  40.70519
 106.90366   4.64307  38.10149
 109.32779   6.66318  34.54012
 111.82674   8.35408  29.91632
 113.87677  10.34426  23.93081
 115.65746  12.79832  17.10734
 117.27354  15.08777   9.50575
 118.93452  16.74875   1.84430
 119.87724  17.64658  -5.35327
 119.72760  17.69147 -11.74279
 118.27612  16.52429 -17.69837
 115.89688  14.90821 -22.86087
 112.84427  12.84321 -27.54452
 109.11830  10.50886 -31.15079
 105.30254   7.59093 -33.93405
 101.74116   4.79271 -35.81948
  98.52395   2.21894 -36.67242
  96.27939   0.30358 -37.00162
  95.05236  -1.49207 -37.04651
  94.00490  -2.94356 -36.86695
  92.74794  -3.91620 -36.95673
  91.17675  -4.06584 -37.37571
  89.24642  -3.79649 -37.98923
  86.22374  -2.59939 -39.21626
  81.62987  -0.86360 -41.20644
  76.58708   1.44082 -43.34625
  71.85853   3.68539 -46.23426
  67.95299   5.42118 -49.42154
  64.25694   6.78289 -52.10005
  59.27401   8.21941 -54.35958
  52.86952   9.34169 -54.94317
  45.76173   9.83549 -53.47672
  38.44446   9.76067 -50.00513
  30.97754   9.08731 -44.25904
  22.97193   7.50115 -36.97169
  14.33784   5.03213 -29.38507
   5.10520   2.66785 -22.08275
  -4.50154   0.36343 -14.96000
 -14.24295  -2.43479  -8.42084
 -23.98435  -5.77171  -2.30066
 -33.21699  -9.16848   3.55017
 -41.97079 -11.87692   8.39843
 -49.67713 -13.32841  12.58828
 -56.68017 -13.59776  15.74564
 -62.75546 -12.38569  18.09495
 -67.73839  -9.82689  19.74096
 -72.48190  -6.48997  21.29719
 -77.21045  -2.65925  23.01802
 -82.41784   1.29119  24.48447
 -87.90954   5.45111  25.86114
 -93.20671   9.52125  26.39983
 -98.18964  13.47169  26.16041
-101.91562  17.58672  25.14288
-104.23500  21.85139  23.57168
-105.79123  25.51751  21.76107
-107.13797  28.19603  19.92052
-108.33507  29.76722  17.69092
-109.48728  30.99425  15.41643
-109.63692  32.02675  13.71056
-109.30771  32.99939  12.79777
-108.55953  33.47823  11.46600
-107.28761  34.21146   9.11669
-105.59670  35.16914   5.77977
-102.82841  36.44106   2.56256
 -98.92287  37.48852   0.16836
 -95.01732  37.63816  -1.92657
 -91.38113  36.36624  -4.27588
 -88.02925  34.06182  -6.58030
 -84.57262  31.80229  -8.88471
 -81.32548  29.37816 -11.33877
 -78.43748  26.66972 -14.42131
 -76.04328  23.85654 -16.87536
 -74.35237  20.71415 -18.16225
 -73.21512  17.94585 -17.96772
 -73.61915  15.14763 -17.69837
 -74.08302  12.18480 -17.90786
 -73.82864   8.83292 -18.61116
 -71.73371   6.00477 -19.52395
 -67.96284   3.56568 -20.55645
 -63.36897   1.23133 -21.75355
 -58.90977  -1.28258 -23.92329
 -55.25861  -4.32022 -26.97590
 -51.78702  -7.92649 -31.12086
 -48.12090 -10.82946 -36.40307
 -44.14054 -12.53533 -42.17908
 -39.15761 -13.47805 -47.46129
 -33.54620 -13.80725 -51.35187
 -28.44355 -13.28352 -53.55154
 -24.95700 -11.81707 -53.76103
 -22.66754  -9.79696 -52.51904
 -20.99160  -8.48015 -50.28944
 -19.24084  -8.95899 -47.40143
 -16.11342 -12.02656 -44.09444
 -11.80385 -18.13177 -40.57796
  -6.77603 -26.42170 -37.10637
  -1.86792 -35.83390 -33.93405
   2.51647 -46.21875 -31.01612
   6.28733 -56.40907 -28.99601
   9.44469 -66.16545 -27.36496
  12.76664 -74.51522 -26.49706
  16.26816 -80.63540 -26.51202
  19.23099 -84.34641 -27.57445
  21.43066 -85.39388 -30.14822
  23.40588 -84.46612 -33.97894
  25.48584 -81.78761 -38.67756
  27.14682 -77.50798 -44.09444
  28.97239 -72.19584 -49.28687
  30.19942 -66.49465 -53.14752
  30.12460 -60.79346 -55.61654
  30.39395 -55.33168 -55.70632
  31.99507 -50.78270 -52.90810
  34.13489 -46.50306 -49.48140
  35.94551 -42.97162 -46.02477
  36.72362 -40.45771 -42.07433
  36.93312 -38.12336 -38.61771
  37.06779 -35.80398 -35.63992
  37.48677 -33.08057 -33.14097
  38.35467 -29.81847 -30.85151
  39.77623 -25.92789 -28.93615
  41.28757 -20.52598 -27.05072
  42.84380 -13.86710 -25.13536
  44.32521  -7.11845 -23.45942
  45.37268  -0.90849 -21.99297
  45.41757   4.05948 -20.40681
  44.35514   7.38144 -18.62612
  42.94855  10.07491 -17.59362
  41.49706  13.23227 -17.26442
  40.53938  17.07795 -17.41406
  39.97076  20.96853 -17.66844
  39.77623  24.76933 -17.99764
  39.46199  28.33070 -18.88051
  39.44703  32.19135 -20.51156
  39.77623  36.11186 -22.62145
  39.92587  39.23928 -25.29996
  39.52185  42.02254 -28.02336
  37.66634  44.94048 -30.32778
  34.34438  47.51424 -31.92891
  28.91254  49.57924 -32.42271
  22.49309  51.33000 -32.12343
  15.78932  52.30265 -31.09093
   9.16038  52.73659 -29.86391
   2.20223  52.42236 -28.57702
  -4.00773  52.06323 -27.45474
  -9.45454  51.70409 -26.15289
 -13.68929  51.59935 -24.52184
 -16.90649  51.68913 -22.50174
 -19.30070  52.46725 -19.50898
 -21.00656  53.38004 -16.33667
 -23.02667  53.58953 -13.70305
 -25.63037  53.87384 -12.43113
 -29.76036  53.36507 -11.45848
 -34.92286  51.70409 -11.06942
 -40.35471  48.96573 -10.97964
 -45.57706  44.95544 -11.80265
 -50.63481  39.23928 -13.52348
 -55.13890  32.10157 -15.88775
 -58.76013  23.88646 -18.91043
 -61.93245  15.32719 -21.90319
