********************************************************************************
              CENTRO DE INSTRUMENTACION Y REGISTRO SISMICO  A.C.

    Anaxagoras 814, Col. Narvarte, Benito Juarez, C.P. 03020 Mexico, D.F.
           Tels. 5687 45 42/ 5687 45  82             Fax. 5669 25 12
********************************************************************************
ARCHIVO ESTANDAR DE ACELERACION:
VERSION DEL FORMATO                    : 2.0
NOMBRE DEL ARCHIVO                     : NZ2020170919181440
FECHA Y HORA DE CREACION               : 25/SEP/17, 11:18
REF. CATALOGO ACELEROGRAMAS, SMIS 1996 : REGISTRO No.     /PAG.


================================================================================
DATOS DE LA ESTACION:
NOMBRE DE LA ESTACION                  : NEZAHUALCÓYOLT
CLAVE DE LA ESTACION                   : NZ20
LOCALIZACION DE LA ESTACION            : Cd. Nezahualcóyolt, Col. Ampliación    
                                       : Vicente Villada, Av. Carmelo Pérez     
                                       : Esq. con calle la Escondida.           
                                       :                                        
                                       : 
COORDENADAS DE LA ESTACION             : 19.4027 LAT. N
                                       : 99.0000 LONG. W
ALTITUD (msnm)                         : 2232
TIPO DE SUELO                          : Arcilloso, zona lago                
                                       :                           
                                       : 
INSTITUCION RESPONSABLE                : CIRES
                                       : 

================================================================================
DATOS DEL ACELEROGRAFO:
MODELO DEL ACELEROGRAFO                : RADESD
NUMERO DE SERIE DEL ACELEROGRAFO       : 233
NUMERO DE CANALES                      : 3
ORIENTACION C1-C6 (rumbo;orientacion)  : /N00E/+V/N90W
ORIENTACION C7-C12 (rumbo;orientacion) : 
VEL. DE MUESTREO, C1-C6 (muestras/s)   : /100/100/100
VEL. DE MUESTREO, C7-C12 (muestras/s)  : 
ESC. COMPLETA DE SENSORES, C1-C6, (g)  : /0.5/0.5/0.5
ESC. COMPLETA DE SENSORES, C7-C12, (g) : 
FREC. NAT. DE SENSORES, C1-C6, (Hz)    : /30/30/30
FREC. NAT. DE SENSORES, C7-C12, (Hz)   : 
AMORTIGUAMIENTO DE SENSORES, C1-C6     : /0.700/0.700/0.700
AMORTIGUAMIENTO DE SENSORES, C7-C12    : 
INTERVALO DE MUESTREO, C1-C6, (s)      : /0.01/0.01/0.01
INTERVALO DE MUESTREO, C7-C12, (s)     : 
UMBRAL DE DISPARO, C1-C6, (Gal)        : /1.95/5.99/2.84
UMBRAL DE DISPARO, C7-C12, (Gal)       : 
MEMORIA DE PREEVENTO (s)               : 44.0
TIEMPO DE POSEVENTO (s)                : 0.0


================================================================================
DATOS DEL SISMO:
FECHA DEL SISMO (GMT)                  : 19/SEP/17
HORA EPICENTRO (GMT)                   : 18:14:40.0
MAGNITUD(ES)                           : /Mc=7.1
COORDENADAS DEL EPICENTRO              : 18.40 LAT. N
                                       : 98.72 LONG. W
PROFUNDIDAD FOCAL (km)                 : 57
FUENTE DE LOS DATOS EPICENTRALES       : SSN
                                       : INSTITUTO DE GEOFISICA, UNAM

================================================================================
DATOS DE ESTE REGISTRO:
HORA DE LA PRIMERA MUESTRA (GMT)       : 18:14:59.00
EXACTITUD DEL TIEMPO (s)               : 0.01
DURACION DEL REGISTRO (s), C1-C6       : /439.0/439.0/439.0
DURACION DEL REGISTRO (s), C7-C12      : 
NUM. TOTAL DE MUESTRAS, C1-C6          : /43900/43900/43900
NUM. TOTAL DE MUESTRAS, C7-C12         : 
ACEL. MAX. (Gal), C1-C6                : /145.69256/72.29913/142.01055
ACEL. MAX., C1-C6, EN LA MUESTRA       : /6609/7179/6783
ACEL. MAX. (Gal), C7-C12               : 
ACEL. MAX., C7-C12, EN LA MUESTRA      : 
UNIDADES DE LOS DATOS                  : Gal (cm/s/s)
FACTOR DE DECIMACION                   : 1
FORMATO DATOS (FORTRAN,10 campos/dato) : 3F10.5


================================================================================
CALIDAD DEL ACELEROGRAMA:
REGISTRO DIGITAL COMPLETO CON TIEMPO ABSOLUTO CORRECTO.


================================================================================
COMENTARIOS:














================================================================================
DATOS DE ACELERACION:
---------+---------+---------+---------+---------+---------+---------+---------+
   CANAL-1   CANAL-2   CANAL-3   CANAL-4   CANAL-5   CANAL-6   CANAL-7   CANAL-8
      N00E        +V      N90W
---------+---------+---------+---------+---------+---------+---------+---------+
[...]
  28.53050  -5.93486  -9.87162
  29.65278  -7.80533  -7.19311
  30.55061 -10.25938  -4.40985
  30.62543 -12.90797  -1.89594
  29.96702 -15.19742   0.16906
  28.48561 -17.27739   1.68040
  27.07902 -18.80369   2.84757
  25.55271 -19.35735   3.35634
  24.32568 -19.07304   3.88007
  23.42786 -18.32485   4.34395
  22.21579 -17.93579   4.34395
  20.27051 -18.10039   3.80526
  17.81645 -18.57923   2.98225
  15.19779 -19.10297   1.91982
  13.04301 -19.38728   0.40848
  11.41196 -19.34239  -1.35724
  10.27471 -18.83362  -3.85619
  10.21486 -17.14271  -6.14565
  10.96305 -14.01529  -8.13583
  12.42949 -10.58859 -10.17090
  13.71638  -7.92504 -12.52021
  14.77881  -6.23413 -14.66003
  15.85620  -4.60308 -16.47064
  16.75402  -2.55305 -17.36847
  17.26279  -1.11653 -17.50314
  17.09819  -0.68258 -17.02430
  16.39489  -1.08660 -16.26115
  15.31750  -1.99939 -15.18376
  13.76127  -4.12424 -13.68738
  12.05540  -7.25167 -11.96655
  10.81341  -9.96011  -9.63220
   9.49660 -11.83058  -7.44749
   7.94037 -13.04264  -5.68177
   5.69580 -13.83572  -3.91605
   2.56838 -12.98279  -2.38974
  -1.57658 -10.34917  -1.43206
  -6.60441  -6.18924  -0.72876
 -11.69209  -1.61033  -0.30978
 -16.70495   2.96858  -0.35467
 -22.16672   6.84420  -0.69884
 -26.49125  10.63003  -2.44960
 -29.88802  14.10162  -5.62191
 -33.40450  16.04691  -8.82416
 -36.18776  17.01955 -11.60742
 -38.05823  18.96484 -14.46550
 -39.28526  21.68825 -16.50057
 -39.30022  24.75582 -17.42832
 -38.23780  26.49161 -17.72760
 -36.21769  26.80585 -17.53307
 -33.53918  26.77592 -16.81481
 -31.15994  27.10513 -15.84216
 -29.94787  26.53650 -14.51039
 -29.69349  24.47151 -13.10379
 -30.41175  21.49372 -11.38296
 -31.53403  18.69549  -9.01869
 -32.19244  16.34618  -6.16061
 -32.05776  14.22133  -3.10800
 -31.21979  12.62021   0.58805
 -29.64860  12.11144   5.03228
 -27.38907  12.87459   8.75826
 -23.84266  14.17644  11.97547
 -19.32360  14.55053  14.57916
 -14.49031  13.48810  16.73394
 -10.24060  10.91434  18.29018
  -6.67923   7.75698  19.53217
  -3.55180   4.40510  20.45992
  -1.20249   1.11308  21.38767
   0.42856  -1.77493  22.16579
   1.83515  -4.06439  22.24061
   2.77787  -5.56076  21.98622
   3.64577  -6.42866  21.95630
   4.73812  -7.28159  22.30046
   5.96515  -8.32906  22.52492
   7.08743  -9.24185  22.67456
   8.03015  -9.39148  22.95887
   8.97287  -8.52359  23.46764
   9.76595  -7.79036  23.82677
  10.45428  -7.41627  23.63224
  11.41196  -7.49109  23.01872
  13.17768  -7.31152  22.68952
  15.84123  -7.10203  22.49499
  19.34275  -6.93743  22.09097
  22.88916  -7.55094  21.79170
  26.36076  -8.61337  21.85155
  29.26373 -10.19953  21.92637
  32.01706 -12.05503  22.49499
  34.41126 -13.86565  22.82419
  36.46129 -15.25728  22.45010
  38.33176 -15.84087  21.31285
  39.10988 -15.57152  19.90626
  39.72339 -15.21239  17.97594
  40.26209 -15.15253  15.82115
  39.45405 -15.03282  14.32478
  37.82300 -14.80837  12.46927
  36.76057 -15.73612  10.26960
  36.74561 -18.63909   7.62101
  38.87046 -22.96362   3.46109
  42.52162 -26.95894  -0.60905
  47.17535 -28.61992  -3.43720
  52.81668 -28.76955  -5.24782
  57.70983 -27.69216  -7.32778
  61.12157 -25.40271 -10.45521
  63.65045 -22.33514 -14.49542
  65.28150 -18.01061 -17.89220
  66.85269 -13.47659 -19.77763
  69.41149  -9.49623 -19.68785
  72.97287  -6.06953 -19.23894
  77.35725  -2.40341 -18.53564
  81.68178   0.61927 -17.95205
  85.10848   2.63938 -18.14658
  87.80196   4.21057 -18.64039
  90.19616   5.28796 -19.62799
  92.62029   6.45514 -21.06451
  94.77507   7.47267 -22.35140
  96.25648   8.19093 -23.71310
  96.69043   7.65224 -24.80545
  96.06195   6.32046 -25.98759
  95.16413   5.13833 -26.27190
  93.99695   4.97373 -26.06241
  92.84474   5.78177 -25.19451
  90.74982   7.39785 -24.02734
  87.20341   9.17854 -22.75542
  83.67196  10.43550 -21.46854
  80.09562  11.57274 -20.04698
  76.54921  12.85963 -18.80499
  73.18236  14.01184 -18.07176
  69.35164  14.71513 -18.07176
  65.19171  14.31111 -18.17651
  60.53798  13.72753 -18.81995
  56.00397  13.21876 -19.53821
  51.12578  12.60524 -20.12180
  45.57422  12.12640 -20.16669
  39.63361  11.88698 -20.27144
  33.84264  11.78224 -20.58567
  28.12648  10.83952 -20.86999
  21.69206   9.28329 -21.30393
  14.24011   8.43035 -21.85759
   6.77319   8.40043 -22.83024
   0.30885   8.22086 -23.98245
  -5.78140   7.53253 -25.25437
 -11.75194   6.38032 -25.62846
 -17.19875   5.57228 -24.97006
 -22.33132   5.46753 -24.01238
 -27.50878   5.39271 -22.48607
 -32.13258   5.21315 -19.40354
 -35.60418   4.64452 -14.73484
 -38.41736   4.36021  -9.21322
 -41.87399   4.18065  -3.93101
 -46.64743   3.80655   0.28877
 -51.91467   3.16311   4.22424
 -58.96261   3.35764   7.48634
 -69.61680   4.12079  10.10500
 -83.87727   5.21315  13.23242
 -99.23009   6.88909  17.40731
-113.83472   9.80702  21.64206
-125.26703  13.11401  24.18590
-133.46717  16.57064  25.15854
-138.03112  19.26412  25.87680
-139.46764  21.61343  23.70706
-140.90416  23.00506  17.88615
-142.98412  23.31930  13.71126
-143.41807  22.06234  13.17257
-141.48774  20.04223  15.25253
-139.60231  20.49114  15.53684
-139.37785  21.31415  13.69630
-140.03626  21.47875  13.00797
-141.17351  21.92767  11.69116
-141.12861  22.46636   8.29438
-138.97383  21.92767   6.28924
-136.23546  21.76306   5.96004
-135.54713  21.67328   4.55344
-135.74166  21.19444   3.46109
-134.21536  20.10209   3.76036
-131.76130  18.59075   5.19689
-129.90579  16.09180   7.44145
-127.34699  12.17129   9.58127
-124.33927   5.91644  11.46670
-121.72062  -1.81982  13.39703
-119.04210  -9.97507  15.65655
-115.92964 -18.36974  18.43981
-112.71243 -25.77680  21.28293
-109.88428 -31.76231  24.12604
-106.74189 -36.46093  26.93923
-103.01592 -39.61828  29.10897
 -99.48447 -41.50371  29.90205
 -96.52164 -42.64096  29.81227
 -94.20226 -42.62600  29.31847
 -91.95770 -41.68328  28.55531
 -89.81788 -40.48618  27.52282
 -88.23172 -38.75038  26.47535
 -87.03462 -37.19415  25.57753
 -86.27147 -36.40107  24.81437
 -85.71781 -35.62296  23.84173
 -85.16415 -33.84227  22.68952
 -85.02948 -31.10390  21.86651
 -85.02948 -28.12611  20.68438
 -85.05940 -24.83409  19.50224
 -84.93969 -21.37746  18.49967
 -84.58056 -17.51681  17.78141
 -83.74259 -13.62623  16.89855
 -82.93455  -9.69076  15.67152
 -82.12651  -6.26406  14.11529
 -80.73488  -3.82497  12.72366
 -78.75966  -1.84975  11.66123
 -75.60231  -0.41323  11.16743
 -71.36756   1.74155  11.28714
 -66.42952   4.15072  12.02036
 -61.11739   6.48507  13.24739
 -55.10196   8.78948  15.02808
 -48.39819  10.39061  17.37739
 -41.63457  11.07894  20.04094
 -35.02059  11.36325  22.39025
 -28.42157  11.42311  24.35050
 -21.98715  11.63260  26.38557
 -15.85201  12.23115  28.51042
 -10.18075  12.72495  30.41082
  -4.64416  13.06912  32.10173
   0.96725  13.09905  34.48096
   6.89290  13.11401  37.63832
  12.87841  12.85963  41.05005
  19.19311  11.93187  44.64136
  25.62753  10.07637  48.20273
  31.74771   8.59496  51.80900
  37.89782   8.23582  54.92146
  43.80850   9.13365  57.71968
  49.76408  10.42053  60.30841
  55.43534  12.48553  62.19385
  60.29856  15.37354  63.64533
  64.42856  19.18930  64.61798
  67.57095  23.00506  65.24646
  70.15968  26.11752  66.57823
  72.58381  28.12266  67.56584
  73.88566  29.02049  67.56584
  74.75356  29.61904  66.24903
  78.68903  29.27487  65.71033
  82.86391  28.88581  67.70051
  82.02594  27.64382  66.66801
  79.22772  26.26716  66.77276
  80.05073  26.10255  68.53848
  81.29272  25.42919  69.63084
  80.52957  24.08245  70.01989
  79.70656  22.99009  69.66076
  78.80874  20.49114  69.12207
  75.54664  16.00202  70.84290
  69.47135  11.99173  74.19478
  60.56791  10.48039  72.65352
  51.21556  10.21104  65.84501
  42.19241  10.79463  60.03907
  34.57586  11.75231  56.22331
  29.26373  14.08666  51.19548
  23.95159  17.13926  43.74353
  17.74163  19.06959  37.09962
  12.02547  20.56596  31.48821
   7.89548  22.54118  26.44542
   5.59106  24.42661  22.28550
   4.81294  25.14487  18.57449
   4.66330  25.26458  13.87587
   5.11222  25.41422   9.40170
   6.20457  26.20730   7.00750
   8.88308  27.07520   6.37902
  13.25250  27.92813   5.45127
  18.23543  28.34712   2.41363
  22.08112  28.06281  -1.83608
  24.72971  27.52411  -6.07083
  27.40822  26.37190  -9.28804
  30.50572  24.89049 -12.20597
  34.00724  22.57111 -15.90202
  37.20948  19.99734 -20.52582
  40.30698  17.39365 -25.46386
  43.64390  15.07426 -30.28219
  47.05564  13.03919 -34.89103
  50.30277  10.52528 -38.78161
  54.49263   6.96391 -42.40284
  58.26349   2.93865 -46.36823
  60.77740  -1.08660 -50.06428
  61.55552  -5.35127 -52.98222
  60.92704  -8.98746 -55.60087
  59.98433 -12.95286 -56.87279
  60.14893 -16.72373 -56.91768
  61.16646 -19.28253 -57.27681
  62.00443 -21.40738 -57.56113
  62.39349 -23.83151 -57.00747
  62.07925 -26.67463 -58.65348
  60.79237 -30.89441 -59.80569
  60.19382 -34.63535 -60.41920
  60.32849 -39.45368 -63.27728
  58.68248 -44.03259 -64.74373
  56.13864 -46.72607 -65.52185
  56.34813 -48.77610 -66.98830
  57.96422 -49.85349 -66.50945
  57.30581 -49.31480 -62.00536
  62.07925 -48.37208 -57.45638
  70.72831 -46.33701 -56.96258
  76.26490 -42.56614 -57.72573
  79.60182 -38.79527 -57.86040
  82.19055 -36.96970 -58.11479
  81.51718 -36.26640 -56.57352
  78.13537 -36.32625 -53.07200
  75.42693 -36.83502 -49.46573
  72.98783 -37.44854 -46.65254
  69.09726 -38.67556 -44.60251
  63.68037 -39.73799 -43.40541
  58.41313 -40.18690 -42.61233
  53.68458 -39.12448 -41.78932
  49.82393 -37.58321 -40.92142
  46.77132 -35.93720 -40.23309
  43.80850 -34.00687 -39.36519
  40.44165 -31.41814 -38.39255
  36.95510 -28.12611 -37.47976
  33.22912 -26.19579 -36.34251
  29.81738 -25.22314 -34.81621
  27.27355 -24.38517 -32.90085
  25.71731 -23.62202 -30.28219
  24.99905 -21.85630 -26.66096
  24.99905 -18.42960 -22.17183
  25.25344 -14.62880 -16.93452
  25.44797 -10.66340 -10.94901
  24.71474  -6.14435  -5.36753
  22.84427  -1.77493  -0.19007
  21.03366   2.50470   4.32899
  19.23801   6.14090   7.00750
  17.51717   8.50517   7.53123
  16.02080   9.88184   8.17467
  13.95580  11.15376   9.46156
  11.50174  12.24611  11.39188
   8.77834  12.23115  13.62148
   6.65348  10.82456  16.21021
   4.97754   8.56503  18.85880
   3.25671   6.18579  21.23804
   1.07200   5.07847  23.78188
  -1.59155   4.50985  27.10383
  -5.28760   4.86898  30.47068
 -10.37528   4.94380  33.08933
 -17.07904   4.09086  35.18426
 -24.90509   1.98097  36.99488
 -34.51182  -0.42819  39.01498
 -47.47044  -3.24138  40.54129
 -63.55648  -7.56591  41.10991
 -80.67502 -13.34192  41.73839
 -96.95559 -19.14786  43.32455
-111.65001 -22.57456  45.15013
-123.87540 -24.40014  45.85342
-133.09307 -25.04358  44.32712
-139.52749 -25.97133  40.72085
-143.41807 -26.39032  35.15433
-145.27358 -25.92644  28.85459
-145.69256 -23.78662  23.96144
-145.42321 -20.38985  20.40007
-143.91187 -16.69380  18.36499
-140.21582 -14.10507  17.66170
-134.00586 -12.71344  17.28760
-126.64369 -11.62109  16.79380
-118.68297 -10.39406  15.22260
-110.01896  -9.64587  13.65141
-101.96845  -9.60098  12.45431
 -94.93549 -10.04989  12.24482
 -88.87516 -11.08239  12.91819
 -83.62288 -13.49156  13.84594
 -79.41807 -16.61898  14.75873
 -76.18589 -19.46210  15.82115
 -73.34278 -21.94608  17.21278
 -70.70916 -23.75669  18.58945
 -68.73394 -24.95380  20.40007
 -68.64416 -25.31293  22.36032
 -70.18543 -25.01365  23.43771
 -72.50481 -24.04101  23.10851
 -74.49499 -22.91872  21.67199
 -76.06618 -21.18293  19.71173
 -77.77205 -18.68398  17.13797
 -79.32828 -15.52663  13.20250
 -79.80712 -12.27949   8.51884
 -78.59506  -8.34402   3.98482
 -75.54245  -4.18410   0.18403
 -71.81648  -0.33841  -3.64670
 -66.92333   2.84887  -7.55224
 -60.96775   5.96133 -10.97894
 -54.09938   8.98401 -13.89687
 -46.67736  11.82713 -16.33597
 -38.46225  14.40089 -17.81738
 -29.64860  16.39107 -19.47836
 -20.38603  17.49839 -19.89734
 -11.78187  18.41118 -17.54803
  -3.82115  18.93491 -12.63992
   3.55598  19.05462  -7.50735
  10.66377  18.68053  -3.24268
  16.79891  18.23162   0.84243
  21.57235  17.40861   6.39399
  25.83702  16.66042  11.88569
  30.17651  15.95713  15.38721
  34.11198  15.53814  17.60184
  36.85035  15.38850  18.57449
  37.67336  14.83484  18.79894
  36.99999  13.80234  18.43981
  35.57843  12.93445  17.24271
  34.62075  13.26365  15.49195
  34.14191  14.84981  13.29228
  33.48351  17.34876  10.80830
  31.92727  21.02984   8.21956
  30.73017  25.38429   5.40638
  30.87981  30.60665   2.42859
  31.61304  36.41259  -0.41453
  32.57072  41.12617  -3.51202
  33.88753  44.16381  -7.02851
  34.54593  44.77733  -8.95883
  35.26419  44.16381 -10.26068
  34.90506  43.07146 -13.19358
  34.42622  41.26084 -18.55060
  34.93499  40.40791 -24.86531
  35.12952  41.26084 -32.31726
  32.48093  43.56526 -40.12835
  31.98713  44.50798 -40.42762
  32.94481  44.44813 -41.28055
  30.74514  43.37073 -42.88168
  25.29833  47.66533 -40.63711
  20.64460  49.11682 -41.53494
  18.65442  46.69269 -44.90178
  19.46246  49.25149 -42.02874
  23.11362  48.63798 -38.66190
  19.94130  48.99711 -36.22280
   6.69837  52.61834 -35.14541
  -5.16789  51.88511 -34.44212
 -12.18589  50.53838 -34.63665
 -14.58009  49.89493 -37.56954
 -14.23593  49.13178 -40.29295
 -14.20600  48.87740 -43.15102
 -15.05893  48.59309 -46.35327
 -14.13118  46.94707 -48.52301
 -10.68951  43.52037 -49.83983
  -4.56934  39.92907 -50.19896
   4.58848  36.93632 -49.15149
  15.58685  34.82643 -48.16388
  28.26115  33.68918 -48.77740
  41.42926  33.21034 -50.07925
  53.99882  32.85121 -50.33363
  64.89244  32.53697 -50.18399
  73.64624  31.65411 -49.63033
  81.41243  30.57672 -49.13653
  88.68482  29.22998 -48.68762
  94.83492  27.73360 -48.11899
  99.77296  26.23723 -47.13139
 103.43909  24.78574 -46.24852
 106.29716  22.33169 -46.09889
 108.57166  18.84513 -46.51787
 110.03810  14.95455 -48.32849
 110.65162  11.09390 -51.18656
 109.91839   7.99640 -54.77787
 107.77858   5.70695 -58.51881
 104.86064   2.56456 -62.46924
 102.21206  -2.28370 -64.87840
  99.35398  -6.54837 -66.89851
  94.56558  -9.69076 -70.60953
  89.14869 -12.32438 -75.50267
  85.61725 -14.88318 -79.63267
  83.86649 -16.25985 -82.90974
  81.42739 -18.01061 -85.57329
  75.92073 -18.13032 -87.74303
  69.83048 -15.49670 -89.50875
  69.51624 -15.60145 -92.20223
  69.51624 -20.04568 -97.17020
  63.47088 -23.68188-103.15570
  54.53752 -27.61734-105.05610
  48.37245 -27.99144-100.19288
  52.35281 -23.80159 -96.01799
  65.59574 -25.29796-101.30020
  75.90577 -28.33561-110.38320
  75.51671 -29.68234-111.95439
  68.84287 -30.95426-106.47766
  66.25414 -30.22104 -99.01074
  71.74584 -25.65709 -95.16506
  80.94855 -20.35992 -95.20995
  85.84170 -16.21496 -93.83328
  84.79424 -14.50909 -90.03249
  81.92120 -17.39710 -84.42108
  79.76642 -17.17264 -80.27611
  83.47743 -21.06322 -80.02173
  86.12601 -23.29282 -78.80967
  80.97848 -23.00851 -77.88191
  76.81856 -25.17825 -74.93405
  73.96048 -22.38003 -65.16272
  67.49613 -19.71648 -56.64834
  60.50806 -20.09057 -54.23917
  57.73976 -23.14318 -52.92236
  55.33060 -27.48267 -52.26395
  49.07574 -31.98676 -47.75986
  38.60111 -34.05176 -42.37291
  27.22865 -33.18386 -36.31259
  14.79377 -30.78966 -28.27705
   1.01215 -32.22618 -20.94480
 -11.15339 -37.02955 -15.99180
 -17.52795 -42.55118  -9.79680
 -20.92473 -42.47636  -3.48210
 -17.93197 -36.38611   2.60815
  -0.24481 -41.41393   6.30420
   5.20200 -52.77143  13.96565
 -18.18636 -41.60846  21.74680
 -12.23078 -36.61056  20.11575
