********************************************************************************
              CENTRO DE INSTRUMENTACION Y REGISTRO SISMICO  A.C.

    Anaxagoras 814, Col. Narvarte, Benito Juarez, C.P. 03020 Mexico, D.F.
           Tels. 5687 45 42/ 5687 45  82             Fax. 5669 25 12
********************************************************************************
ARCHIVO ESTANDAR DE ACELERACION:
VERSION DEL FORMATO                    : 2.0
NOMBRE DEL ARCHIVO                     : NZ3120170919181440
FECHA Y HORA DE CREACION               : 25/SEP/17, 11:18
REF. CATALOGO ACELEROGRAMAS, SMIS 1996 : REGISTRO No.     /PAG.


================================================================================
DATOS DE LA ESTACION:
NOMBRE DE LA ESTACION                  : NEZAHUALCÓYOLT
CLAVE DE LA ESTACION                   : NZ31
LOCALIZACION DE LA ESTACION            : Cd. Nezahualcóyotl, Col. Tamaulipas    
                                       : Sección El Palmar, calle Azhar         
                                       : Esq. con calle Crisantemo.             
                                       :                                        
                                       : 
COORDENADAS DE LA ESTACION             : 19.4167 LAT. N
                                       : 99.0247 LONG. W
ALTITUD (msnm)                         : 2234
TIPO DE SUELO                          : Terreno blando, material compresible
                                       : (arcillas)                
                                       : 
INSTITUCION RESPONSABLE                : CIRES, A. C.
                                       : 

================================================================================
DATOS DEL ACELEROGRAFO:
MODELO DEL ACELEROGRAFO                : RAD_IO14
NUMERO DE SERIE DEL ACELEROGRAFO       : 
NUMERO DE CANALES                      : 3
ORIENTACION C1-C6 (rumbo;orientacion)  : /S00E/+V/N90W
ORIENTACION C7-C12 (rumbo;orientacion) : 
VEL. DE MUESTREO, C1-C6 (muestras/s)   : /100/100/100
VEL. DE MUESTREO, C7-C12 (muestras/s)  : 
ESC. COMPLETA DE SENSORES, C1-C6, (g)  : /2.0/2.0/2.0
ESC. COMPLETA DE SENSORES, C7-C12, (g) : 
FREC. NAT. DE SENSORES, C1-C6, (Hz)    : /52.51/53.49/52.99
FREC. NAT. DE SENSORES, C7-C12, (Hz)   : 
AMORTIGUAMIENTO DE SENSORES, C1-C6     : /0.5266/0.5731/0.6204
AMORTIGUAMIENTO DE SENSORES, C7-C12    : 
INTERVALO DE MUESTREO, C1-C6, (s)      : /0.01/0.01/0.01
INTERVALO DE MUESTREO, C7-C12, (s)     : 
UMBRAL DE DISPARO, C1-C6, (Gal)        : / / /
UMBRAL DE DISPARO, C7-C12, (Gal)       : 
MEMORIA DE PREEVENTO (s)               : 60
TIEMPO DE POSEVENTO (s)                : 90


================================================================================
DATOS DEL SISMO:
FECHA DEL SISMO (GMT)                  : 19/SEP/17
HORA EPICENTRO (GMT)                   : 18:14:40.0
MAGNITUD(ES)                           : /Mc=7.1
COORDENADAS DEL EPICENTRO              : 18.40 LAT. N
                                       : 98.72 LONG. W
PROFUNDIDAD FOCAL (km)                 : 57
FUENTE DE LOS DATOS EPICENTRALES       : SSN
                                       : INSTITUTO DE GEOFISICA, UNAM

================================================================================
DATOS DE ESTE REGISTRO:
HORA DE LA PRIMERA MUESTRA (GMT)       : 13:13:57.00
EXACTITUD DEL TIEMPO (s)               : 
DURACION DEL REGISTRO (s), C1-C6       : /329.01/329.01/329.01
DURACION DEL REGISTRO (s), C7-C12      : 
NUM. TOTAL DE MUESTRAS, C1-C6          : /32901/32901/32901
NUM. TOTAL DE MUESTRAS, C7-C12         : 
ACEL. MAX. (Gal), C1-C6                : /110.00407/33.63691/97.72776
ACEL. MAX., C1-C6, EN LA MUESTRA       : /8970/8468/10909
ACEL. MAX. (Gal), C7-C12               : 
ACEL. MAX., C7-C12, EN LA MUESTRA      : 
UNIDADES DE LOS DATOS                  : Gal (cm/s/s)
FACTOR DE DECIMACION                   : 1
FORMATO DATOS (FORTRAN,10 campos/dato) : 3F10.5


================================================================================
CALIDAD DEL ACELEROGRAMA:
REGISTRO DIGITAL COMPLETO CON TIEMPO ABSOLUTO CORRECTO.


================================================================================
COMENTARIOS:














================================================================================
DATOS DE ACELERACION:
---------+---------+---------+---------+---------+---------+---------+---------+
   CANAL-1   CANAL-2   CANAL-3   CANAL-4   CANAL-5   CANAL-6   CANAL-7   CANAL-8
      N00E        +V      N90W
---------+---------+---------+---------+---------+---------+---------+---------+
[...]
  25.62673 -16.27901 -14.70926
  23.77123 -17.41621 -12.91356
  21.73623 -18.91261 -12.43476
  19.40183 -20.04981 -13.27276
  16.82813 -19.81041 -15.24796
  14.07483 -18.73301 -18.12096
  11.32143 -17.35641 -21.17356
   8.74773 -15.97971 -23.98666
   6.35353 -14.48331 -26.14146
   4.37833 -12.20891 -27.03926
   3.06153  -8.67741 -26.38086
   2.22353  -4.00881 -24.40566
   1.56513   1.31829 -21.53266
   1.14613   6.34609 -18.36036
   0.48773  11.13449 -15.54716
  -0.23047  16.28199 -13.63186
  -1.00857  16.58129 -12.85376
  -1.78667  11.13449 -13.39246
  -2.56487   5.80739 -15.12816
  -3.04367   0.18109 -17.64206
  -3.34297  -5.32561 -20.63486
  -3.40277  -9.69501 -23.32826
  -3.64217 -12.86731 -25.60276
  -4.18087 -14.90231 -27.03926
  -5.43787 -16.33881 -27.87726
  -7.53277 -17.59581 -28.17656
 -10.22627 -18.73301 -27.99696
 -13.27887 -19.51111 -27.57796
 -16.09197 -20.22941 -27.27876
 -18.54607 -21.12721 -26.56046
 -20.16207 -22.32431 -25.78236
 -20.82047 -23.40171 -25.18376
 -20.88037 -23.88051 -24.88456
 -20.40157 -23.40171 -25.00426
 -19.86287 -21.18711 -25.66266
 -19.68327 -16.93741 -26.91956
 -20.10227 -11.96941 -28.53566
 -21.05997  -8.01901 -30.21156
 -22.43657  -5.68471 -31.58826
 -24.17237  -4.36791 -32.48606
 -25.90817  -3.17081 -32.60576
 -26.98557  -2.15331 -31.82766
 -26.98557  -2.03361 -30.45106
 -25.90817  -3.35041 -28.77506
 -23.51397  -5.62481 -26.97946
 -20.16207  -8.25851 -25.54296
 -16.33137 -10.59281 -24.52536
 -12.56057 -12.26871 -23.62756
  -9.32837 -12.98701 -23.08886
  -7.11377 -12.86731 -22.78966
  -5.85687 -12.14901 -22.78966
  -5.43787 -11.01181 -22.84946
  -5.61737  -9.63511 -22.84946
  -5.73717  -7.95921 -22.55016
  -5.13857  -5.86431 -21.83196
  -3.88167  -2.99121 -20.81436
  -1.72687   0.77959 -19.49756
   1.44543   5.14899 -17.82166
   5.45573  10.29649 -16.02606
  10.00463  17.41919 -14.58956
  14.61353  20.71119 -13.69166
  19.34203  21.07039 -13.21286
  23.89093  20.29229 -13.21286
  28.14063  15.80319 -13.57196
  31.97133   9.75779 -13.87126
  35.14363   6.76509 -13.99096
  37.53783   5.14899 -13.75156
  39.33353   4.25119 -12.79386
  40.77003   3.77229 -11.29746
  42.02693   3.53289  -9.56176
  43.40363   2.93439  -7.52666
  44.60073   2.21609  -5.25216
  46.09703   1.43799  -2.85796
  47.77303   0.42049  -0.46376
  49.80803  -0.83651   1.99024
  51.96283  -2.45251   4.44434
  54.05773  -3.52991   6.83844
  56.33223  -3.41021   9.11294
  58.36733  -1.67441  11.62684
  60.40233   1.73729  14.38014
  61.95863   5.74759  17.67214
  63.03593   9.75779  21.62264
  63.03593  14.48629  26.11174
  61.95863  15.62359  31.01984
  59.80383  11.49359  36.28704
  56.63153   8.20159  41.37464
  52.74093   6.40599  46.34264
  48.91023   5.14899  51.01124
  45.49853   3.65259  55.56024
  42.92473   1.67739  60.04934
  41.24883  -0.53721  64.47864
  40.11163  -2.45251  68.84794
  39.45323  -4.00881  72.97794
  38.79483  -5.80441  76.68894
  37.65753  -7.83951  79.74154
  35.74223  -9.45551  82.07584
  32.98893 -10.11401  83.63214
  29.63703  -9.93441  84.70954
  25.74643  -9.69501  85.30804
  21.91573  -9.81471  85.72704
  18.44423 -10.17381  85.90654
  15.57113 -10.53291  86.08614
  13.77553 -10.47311  86.14604
  12.69813  -9.99421  86.26574
  12.33903  -9.27601  86.56494
  12.45873  -8.61761  86.68474
  12.51853  -8.01901  86.80444
  12.57843  -7.42051  86.62484
  12.27913  -6.88181  86.32554
  11.74043  -6.28321  85.84674
  10.66303  -5.38541  85.00874
   8.98713  -4.06861  84.05104
   6.53313  -2.51241  82.97374
   3.42063  -1.13571  81.77664
  -0.23047  -0.59701  80.45984
  -4.18087  -1.01601  79.20284
  -8.13127  -2.09341  77.94594
 -11.72257  -3.23071  76.80864
 -14.71537  -3.70951  75.97074
 -17.34897  -3.52991  75.07284
 -19.44387  -2.33281  73.99554
 -21.11977  -0.17811  72.67864
 -22.61617   2.57529  71.12244
 -23.93297   5.08919  69.20714
 -24.89067   6.58549  66.99244
 -25.42937   6.46579  64.41874
 -25.42937   5.02929  61.60554
 -25.01037   3.05409  58.55294
 -23.99277   1.67739  55.08144
 -22.85557   1.07889  51.01124
 -21.71837   0.71979  46.22294
 -20.88037  -0.11821  40.65644
 -20.64097  -1.31531  34.37164
 -20.88037  -2.75181  27.60804
 -21.59867  -4.66721  20.72474
 -22.55627  -6.94161  14.08094
 -23.33437  -8.43801   7.97574
 -23.63367  -8.43801   2.76834
 -23.15487  -7.18111  -1.78056
 -21.83807  -5.80441  -5.79086
 -20.10227  -4.78691  -9.62156
 -18.00737  -4.18831 -13.75156
 -15.97227  -3.58981 -18.12096
 -14.05697  -2.51241 -23.14876
 -12.50067  -1.01601 -28.53566
 -11.30357   0.77959 -33.98246
 -10.22627   2.63509 -39.54896
  -9.38827   4.43079 -44.81616
  -8.31087   5.86729 -49.60456
  -6.87437   6.58549 -53.43526
  -4.95897   6.52569 -56.66736
  -2.44507   5.92709 -58.94186
   0.30823   5.32859 -60.31856
   3.42063   4.67019 -61.15646
   6.35353   3.95189 -61.63536
   8.86743   3.23369 -61.87476
  10.84263   2.51539 -62.23386
  11.86013   2.03659 -62.89226
  11.92003   1.79709 -63.67036
  10.66303   2.15629 -64.68796
   8.08933   3.11389 -65.58576
   4.13893   4.78989 -66.12446
  -1.12827   7.06439 -66.06456
  -7.47287   9.75779 -65.10696
 -14.41607  13.10969 -63.19156
 -21.47897  14.78559 -60.37836
 -28.24247  13.64839 -56.84696
 -34.40757  11.91259 -52.83666
 -39.67477  10.29649 -48.82646
 -43.74487   8.14169 -45.05556
 -46.61787   5.32859 -41.34456
 -48.41357   2.09639 -37.87296
 -49.43107  -0.41751 -34.40146
 -49.96977  -1.91391 -30.69046
 -50.20917  -2.99121 -26.85976
 -50.44857  -4.36791 -23.02906
 -50.80777  -5.68471 -19.31806
 -51.16687  -5.68471 -15.84646
 -51.46617  -3.58981 -12.91356
 -51.46617  -0.05841 -10.33986
 -51.22677   3.83219  -8.18506
 -50.50847   7.48329  -6.38946
 -49.49097  12.33159  -4.59376
 -48.11427  18.37689  -2.85796
 -46.49817  20.29229  -1.12216
 -44.58287  18.97549   0.55374
 -42.84707  13.82789   2.22964
 -41.11127   9.15929   3.96544
 -39.37547   6.58549   5.82094
 -37.93897   4.49059   7.79614
 -36.86157   2.21609   9.83124
 -36.20317  -0.11821  11.62684
 -36.26307  -2.21311  13.66194
 -37.28057  -3.58981  15.99624
 -38.95647  -4.06861  18.57004
 -41.11127  -3.35041  21.38314
 -43.50547  -1.91391  24.37594
 -45.66027  -0.23791  27.60804
 -47.39607   0.83949  30.95994
 -48.65297   1.13869  34.13224
 -49.43107   0.83949  37.12494
 -49.85007   0.30079  39.93814
 -50.08947  -0.29781  42.45204
 -50.32887  -1.01601  44.78634
 -50.68807  -1.97371  46.76154
 -51.04717  -3.11091  48.31784
 -51.46617  -3.94891  49.39524
 -51.70557  -4.12851  50.29304
 -51.76537  -3.88911  51.07114
 -51.46617  -2.93141  51.60984
 -50.86757  -1.73431  51.96894
 -50.02967  -1.07591  52.02884
 -48.89237  -1.13571  51.72954
 -47.81497  -1.43501  50.71204
 -46.79747  -1.49491  49.21564
 -45.83977  -1.37521  47.30024
 -45.00187  -1.07591  45.14554
 -44.28357  -0.59701  42.87104
 -43.50547  -0.53721  40.77614
 -42.84707  -1.25541  38.86074
 -42.12877  -2.09341  37.36444
 -41.47037  -1.79411  36.40674
 -40.81197   0.06139  35.98774
 -39.67477   3.23369  36.16734
 -38.29807   6.28619  36.88554
 -36.38277   8.02199  37.60384
 -33.98857   8.44099  38.44174
 -30.69657   7.72279  38.92064
 -26.68627   6.76509  38.74104
 -22.19717   6.22639  37.72354
 -17.46867   6.40599  35.86804
 -12.44087   6.94459  33.11474
  -7.47287   7.24389  29.46354
  -2.14587   7.12419  25.21384
   3.30093   6.82489  20.36564
   8.62803   6.16649  15.21814
  13.95513   5.14899   9.77134
  19.34203   4.13149   4.26474
  24.72893   3.53289  -1.06236
  29.87643   3.65259  -6.26966
  34.84443   4.01179 -11.29746
  39.09403   4.31099 -15.72676
  42.50583   4.43079 -19.67716
  45.13943   4.25119 -22.84946
  47.17443   3.89209 -24.82466
  48.73073   3.77229 -25.78236
  49.68833   4.37089 -25.90206
  49.86793   5.26869 -25.36336
  49.44893   5.74759 -24.28596
  48.43143   5.62779 -23.14876
  46.69563   5.68769 -22.25096
  44.66053   6.28619 -21.41296
  42.50583   6.94459 -20.69466
  40.82983   6.70519 -19.85676
  39.87223   5.38839 -18.83916
  39.63273   3.05409 -17.58226
  40.11163  -0.11821 -15.84646
  41.48823  -4.06861 -13.81136
  43.16423  -8.07891 -11.77636
  45.19923 -11.37091  -9.80116
  47.47373 -13.76511  -8.06536
  49.80803 -15.02201  -6.98796
  52.32193 -15.50091  -6.56896
  55.07533 -15.50091  -6.74856
  58.06803 -15.26151  -7.58656
  61.30013 -14.90231  -8.84346
  64.53233 -14.66291 -10.51936
  67.52503 -14.24391 -11.95586
  70.51783 -13.58551 -13.15296
  73.21123 -12.74761 -13.75156
  75.72513 -11.84971 -13.51216
  78.17923 -10.71251 -12.55446
  80.75293  -9.93441 -11.35736
  83.32673  -9.81471 -10.10046
  85.60123  -9.63511  -9.02306
  87.57643  -8.97671  -8.42446
  89.13263  -8.01901  -8.06536
  89.97063  -7.06141  -7.82596
  90.03043  -6.16351  -7.40696
  89.25233  -5.14601  -6.80836
  87.63623  -3.82921  -5.91056
  85.36183  -2.69201  -4.71346
  82.66833  -2.09341  -3.15726
  79.67563  -2.33281  -1.48136
  76.86243  -2.93141   0.01504
  74.40833  -3.35041   1.57124
  72.43313  -3.23071   2.82824
  71.05653  -3.17081   3.72604
  70.15873  -3.88911   4.08514
  69.50023  -5.38541   3.90564
  68.96163  -7.54021   3.18734
  68.36303 -10.17381   2.46904
  67.46523 -13.16651   1.93044
  66.44773 -15.56071   1.87054
  65.19073 -16.81771   2.76834
  63.51483 -17.23671   4.32454
  61.47973 -17.05711   6.53924
  59.02573 -16.99721   9.05314
  56.09283 -16.69801  11.68674
  52.68113 -15.91991  14.26044
  48.85043 -14.96221  16.59484
  44.60073 -13.70521  18.57004
  40.29113 -12.20891  20.18604
  36.16123 -10.59281  21.50294
  32.45023  -9.21611  22.75984
  29.03843  -8.19861  23.89704
  26.10563  -7.83951  24.73504
  23.29243  -8.19861  25.51314
  20.23983  -9.09641  26.23144
  16.82813 -10.05411  27.24894
  12.93753 -10.95191  28.32634
   8.62803 -11.55051  29.76284
   3.83963 -12.02931  31.31904
  -1.12827 -12.20891  33.35414
  -6.09627 -12.56801  35.56874
 -11.00437 -13.16651  37.84324
 -15.55327 -13.22641  39.99804
 -19.80297 -12.32861  41.79364
 -23.93297 -10.65261  43.11044
 -27.64397  -8.37821  44.06814
 -30.81627  -5.68471  44.72654
 -33.74917  -2.63211  45.02584
 -36.44257   0.54019  45.26524
 -39.19597   3.17379  45.74404
 -41.94927   5.62779  46.46234
 -45.12157   8.44099  47.71924
 -48.89237  13.10969  49.15574
 -53.38147  19.09519  50.71204
 -58.52897  21.01049  52.32804
 -63.91597  21.36959  53.70474
 -69.18317  21.42949  54.84194
 -74.03137  21.36959  55.62014
 -78.46067  21.07039  56.15874
 -82.41107  20.29229  56.09894
 -86.18187  17.11999  55.44054
 -89.77317  12.63079  54.06384
 -93.30457   9.93739  52.32804
 -96.77617   8.80009  50.29304
-100.06817   8.44099  48.13824
-103.18067   8.80009  46.04334
-105.63467   9.63809  44.06814
-107.49017   9.93739  42.03304
-108.68727   9.69799  39.87834
-109.28577   9.09939  37.42424
-109.64497   8.91989  34.73074
-109.82447   9.75779  31.85774
-110.00407  12.57099  28.56574
-109.94427  16.10239  24.97444
-109.76467  17.35939  20.78464
-109.46537  14.90529  16.05614
-108.86687  12.09219  10.90864
-108.14857  10.77539   5.46184
-107.13107  10.83519  -0.10466
-105.87407  11.73299  -5.97046
-104.07847  13.34909 -12.19536
-101.86387  13.22939 -18.71946
 -98.81127  12.15199 -25.30356
 -94.80097  12.63079 -32.12696
 -90.79067  15.62359 -39.24966
 -86.78047  19.69369 -46.25266
 -83.12927  21.30979 -52.35786
 -79.23877  22.02799 -57.56526
 -75.22847  22.56669 -61.69516
 -71.51747  22.74629 -64.98716
 -67.92617  22.56669 -67.74056
 -64.21517  22.26749 -70.37416
 -60.14507  22.14779 -72.88806
 -55.53627  22.38719 -75.76106
 -50.32887  22.98569 -78.75376
 -44.52297  24.06309 -81.86626
 -38.23827  25.08059 -84.79916
 -31.71407  25.08059 -87.61226
 -24.89067  23.46459 -90.12616
 -18.24677  21.90829 -92.28096
 -11.84227  19.21489 -93.71746
  -6.03637  12.57099 -94.25616
  -1.00857   9.15929 -93.71746
   3.24113   8.50089 -92.22106
   6.77253   8.32129 -90.06636
   9.64553   8.14169 -87.37286
  11.97983   7.60309 -84.49986
  13.83533   6.88479 -81.50716
  15.21203   6.16649 -78.75376
  16.05003   5.68769 -76.53916
  16.40913   5.32859 -74.74356
  16.22953   4.78989 -73.54646
  15.51133   4.25119 -72.58876
  14.37403   3.65259 -71.87046
  12.93753   2.57529 -71.63106
  11.32143   1.25839 -71.81066
   9.40613   0.12119 -72.40916
   7.49073  -0.89631 -73.18726
   5.57543  -2.21311 -74.02526
   3.83963  -4.18831 -74.62386
   2.40313  -6.88181 -74.74356
   1.62503  -9.39571 -74.32456
   1.44543 -10.77241 -73.42676
   2.04403 -10.89211 -72.28946
   3.24113 -10.29351 -70.55366
   5.09663  -9.45551 -68.87776
   7.37103  -8.61761 -67.62086
   9.94483  -7.83951 -66.84266
  12.45873  -7.36061 -66.42376
  14.91273  -7.18111 -66.30396
  17.18723  -7.48031 -66.36386
  19.10263  -7.77961 -66.42376
  20.53913  -8.13871 -66.60326
  21.49683  -8.49791 -66.42376
  22.15523  -8.85701 -65.70546
  22.39463  -9.39571 -64.38866
  22.45443  -9.69501 -62.41346
  22.39463  -9.81471 -59.83966
  22.39463  -9.99421 -56.60756
  22.39463 -10.71251 -52.83666
  22.51433 -11.73001 -48.52716
  22.87343 -12.50811 -44.15776
  23.23253 -12.80741 -39.66866
  23.47203 -13.40601 -34.99996
  23.47203 -14.54321 -30.33136
  23.29243 -16.15931 -25.78236
  22.81363 -17.89511 -21.17356
  22.21503 -19.21191 -16.32526
  21.55663 -19.33161 -10.93836
  20.83833 -18.25421  -5.01276
  20.29973 -16.09941   1.51144
  19.94053 -13.22641   8.57424
  20.00043 -10.29351  15.93644
  20.89823  -7.71981  23.41824
  22.63403  -6.04381  30.90004
  25.38733  -5.62481  38.14254
  28.91873  -6.10371  44.78634
  33.16843  -6.40301  50.77184
  37.71743  -6.34311  55.91934
  42.02693  -6.16351  60.34864
  45.97733  -6.10371  64.05964
  49.14963  -6.22341  67.05234
  51.72343  -6.22341  69.50634
  53.69863  -5.26571  71.42174
  55.13513  -3.23071  72.49914
  55.97313  -0.59701  72.91814
  56.81103   2.39569  72.49914
  57.64903   5.38839  71.24214
  58.78633   7.90229  69.92534
  60.34253   9.99719  68.42904
  62.13813  11.31399  66.75304
  63.93383  10.95489  64.89754
  65.49003  10.23669  62.92234
  66.80683  10.59579  60.88734
  67.82433   9.51839  58.43324
  68.72213   9.03959  55.85954
  69.44043   8.91989  53.10624
  69.97913   8.32129  50.17334
  70.51783   7.84249  47.06084
  71.23603   7.66289  43.82874
  72.25363   7.66289  40.59654
  73.33103   7.90229  37.18484
  74.64783   7.72279  33.71324
  75.90473   8.02199  30.72054
  76.98213   9.27899  28.38614
  77.87993  10.47609  26.77014
  78.53833  13.40899  25.93214
  78.83763  16.52139  25.99204
  78.89743  18.79589  26.77014
  78.71793  18.85569  27.90734
  78.47853  18.25719  29.28404
  77.99963  17.35939  30.95994
  77.28143  15.14469  32.51614
  76.08433  12.98999  33.71324
  74.52803   9.99719  34.43154
  72.07403   7.24389  34.67094
  68.90173   5.08919  34.61104
  65.07103   2.87449  34.25194
  60.70163   0.71979  33.77314
  56.03293  -1.19561  33.17454
  51.42413  -2.33281  32.99504
  46.99493  -2.69201  32.81544
  43.16423  -2.75181  32.93514
  39.99193  -2.87151  32.87534
  37.23853  -3.11091  32.81544
  35.08383  -3.70951  32.63584
  33.28813  -4.30801  32.09714
  31.73193  -5.02631  31.19934
  30.29543  -6.10371  30.00224
  28.91873  -7.89931  28.56574
  27.42243 -10.05411  27.12924
  25.80633 -12.08921  25.99204
  24.07053 -13.46581  25.39344
  22.15523 -13.88481  25.45334
  19.94053 -13.46581  25.69274
  17.42663 -12.62781  26.11174
  14.43393 -11.49061  26.59054
  11.08203 -10.65261  27.24894
   7.55063 -10.17381  27.96724
   3.95933 -10.05411  28.74534
   0.30823 -10.23371  29.28404
  -3.46267 -10.47311  29.40374
