********************************************************************************
              CENTRO DE INSTRUMENTACION Y REGISTRO SISMICO  A.C.

    Anaxagoras 814, Col. Narvarte, Benito Juarez, C.P. 03020 Mexico, D.F.
           Tels. 5687 45 42/ 5687 45  82             Fax. 5669 25 12
********************************************************************************
ARCHIVO ESTANDAR DE ACELERACION:
VERSION DEL FORMATO                    : 2.0
NOMBRE DEL ARCHIVO                     : PA3420170919181440
FECHA Y HORA DE CREACION               : 02/OCT/17, 14:14
REF. CATALOGO ACELEROGRAMAS, SMIS 1996 : REGISTRO No.     /PAG.


================================================================================
DATOS DE LA ESTACION:
NOMBRE DE LA ESTACION                  : ESC. PRIM. "ÁLVARO OBREGÓN"
CLAVE DE LA ESTACION                   : PA34
LOCALIZACION DE LA ESTACION            : Del. Milpa Alta, Pueblo de San Pedro   
                                       : Actopan, calle Cuauhtémoc entre        
                                       : Melchor Ocampo y Xicotencalt.          
                                       :                                        
                                       : 
COORDENADAS DE LA ESTACION             : 19.2016 LAT. N
                                       : 99.0491 LONG. W
ALTITUD (msnm)                         : 2240
TIPO DE SUELO                          : Arenoso, limoso, compacto           
                                       :                           
                                       : 
INSTITUCION RESPONSABLE                : CIRES
                                       : 

================================================================================
DATOS DEL ACELEROGRAFO:
MODELO DEL ACELEROGRAFO                : RADESD
NUMERO DE SERIE DEL ACELEROGRAFO       : 212
NUMERO DE CANALES                      : 3
ORIENTACION C1-C6 (rumbo;orientacion)  : /N00E/+V/N90W
ORIENTACION C7-C12 (rumbo;orientacion) : 
VEL. DE MUESTREO, C1-C6 (muestras/s)   : /100/100/100
VEL. DE MUESTREO, C7-C12 (muestras/s)  : 
ESC. COMPLETA DE SENSORES, C1-C6, (g)  : /0.5/0.5/0.5
ESC. COMPLETA DE SENSORES, C7-C12, (g) : 
FREC. NAT. DE SENSORES, C1-C6, (Hz)    : /30/30/30
FREC. NAT. DE SENSORES, C7-C12, (Hz)   : 
AMORTIGUAMIENTO DE SENSORES, C1-C6     : /0.790/0.733/0.785
AMORTIGUAMIENTO DE SENSORES, C7-C12    : 
INTERVALO DE MUESTREO, C1-C6, (s)      : /0.01/0.01/0.01
INTERVALO DE MUESTREO, C7-C12, (s)     : 
UMBRAL DE DISPARO, C1-C6, (Gal)        : /1.95/5.69/1.95
UMBRAL DE DISPARO, C7-C12, (Gal)       : 
MEMORIA DE PREEVENTO (s)               : 44.0
TIEMPO DE POSEVENTO (s)                : 64.0


================================================================================
DATOS DEL SISMO:
FECHA DEL SISMO (GMT)                  : 19/SEP/17
HORA EPICENTRO (GMT)                   : 18:14:40.0
MAGNITUD(ES)                           : /Mc=7.1
COORDENADAS DEL EPICENTRO              : 18.40 LAT. N
                                       : 98.72 LONG. W
PROFUNDIDAD FOCAL (km)                 : 57
FUENTE DE LOS DATOS EPICENTRALES       : SSN
                                       : INSTITUTO DE GEOFISICA, UNAM

================================================================================
DATOS DE ESTE REGISTRO:
HORA DE LA PRIMERA MUESTRA (GMT)       : 18:14:51.00
EXACTITUD DEL TIEMPO (s)               : 0.01
DURACION DEL REGISTRO (s), C1-C6       : /223.6/223.6/223.6
DURACION DEL REGISTRO (s), C7-C12      : 
NUM. TOTAL DE MUESTRAS, C1-C6          : /22360/22360/22360
NUM. TOTAL DE MUESTRAS, C7-C12         : 
ACEL. MAX. (Gal), C1-C6                : /83.24555/59.95931/85.56253
ACEL. MAX., C1-C6, EN LA MUESTRA       : /6322/6066/6080
ACEL. MAX. (Gal), C7-C12               : 
ACEL. MAX., C7-C12, EN LA MUESTRA      : 
UNIDADES DE LOS DATOS                  : Gal (cm/s/s)
FACTOR DE DECIMACION                   : 1
FORMATO DATOS (FORTRAN,10 campos/dato) : 3F10.5


================================================================================
CALIDAD DEL ACELEROGRAMA:
REGISTRO DIGITAL COMPLETO CON TIEMPO ABSOLUTO CORRECTO.


================================================================================
COMENTARIOS:














================================================================================
DATOS DE ACELERACION:
---------+---------+---------+---------+---------+---------+---------+---------+
   CANAL-1   CANAL-2   CANAL-3   CANAL-4   CANAL-5   CANAL-6   CANAL-7   CANAL-8
      N00E        +V      N90W
---------+---------+---------+---------+---------+---------+---------+---------+
[...]
  12.82610   3.32148 -17.40260
  10.19247  -1.46692 -20.14097
   7.87309  -5.68670 -22.63992
   6.31686  -9.63714 -24.66003
   5.61356 -13.18355 -26.39582
   5.04494 -15.42811 -28.17651
   4.17704 -15.99673 -29.65792
   3.44382 -14.97920 -30.64553
   2.96498 -12.07623 -31.39372
   2.63578  -7.55717 -32.53096
   2.51607  -2.31986 -33.02477
   2.38139   2.01963 -31.42365
   2.17190   4.03974 -28.17651
   1.01969   4.42880 -24.52535
  -0.86574   4.00981 -21.12858
  -3.14024   3.47112 -17.22304
  -6.04321   3.39630 -12.35982
  -9.27538   4.02478  -7.19732
 -12.64222   5.64086  -1.69065
 -16.21856   8.37923   3.95068
 -19.49563  11.85082   8.37996
 -21.66537  14.78372  11.17818
 -22.78765  15.80126  12.53988
 -23.46102  14.70890  12.43514
 -23.85008  11.53658  11.17818
 -24.05957   7.12228   9.38253
 -24.37381   2.79775   8.23032
 -24.17928  -0.70377   8.36499
 -23.13182  -2.85855   8.81391
 -21.35113  -3.20272   8.17046
 -19.00182  -1.39210   5.37224
 -15.94922   1.84007   1.04771
 -12.52251   6.20949  -3.45638
  -9.43998  10.60883  -6.89804
  -6.53701  13.57166  -8.33456
  -3.84353  14.15524  -7.76594
  -1.61393  12.49427  -5.07246
   0.01712   9.32195  -0.70305
   1.27407   5.64086   4.32478
   2.65074   2.45358   9.72670
   5.05990  -0.16508  14.20086
   8.51653  -1.69138  17.34325
  12.42207  -1.69138  19.94694
  16.74660  -0.80852  21.66778
  20.81674  -0.09026  21.81741
  23.54015   0.31376  20.41082
  24.06388   0.31376  18.34582
  22.80692  -0.04537  16.38557
  20.51747  -0.68881  14.64977
  17.76414  -1.76620  12.83916
  15.38490  -3.32243  11.26796
  13.58925  -4.98341  10.40006
  12.43704  -6.39000  10.26539
  11.28483  -6.68928  10.40006
   9.63882  -5.43232  10.22050
   7.79827  -3.24761   9.29275
   5.88291  -0.61399   8.03579
   3.60842   2.09445   7.03322
   0.40618   4.30909   6.46460
  -4.00813   5.76057   5.46202
  -9.05092   5.83539   4.05543
 -13.56998   4.27916   2.67876
 -17.61019   2.00467   1.99043
 -21.44092  -0.40450   2.63387
 -24.28403  -3.06805   4.93829
 -26.16946  -5.73159   7.73652
 -27.51620  -7.73674   9.75662
 -28.26439  -8.76924  10.01101
 -28.93776  -8.45500   8.06572
 -28.78812  -7.04841   5.26749
 -27.78555  -5.10312   2.64884
 -25.69062  -3.30747   0.79333
 -22.57816  -2.27497  -0.11946
 -19.13650  -1.87094   2.5E-40
 -16.45798  -1.28736   1.45174
 -14.61744  -0.09026   3.26235
 -12.83675   1.30137   4.57916
 -10.44255   2.90250   5.29742
  -7.50965   4.89268   5.23757
  -4.29245   6.94271   4.01054
  -1.61393   9.03764   1.82583
  -0.23727  10.87818  -0.94247
   0.13683  11.80593  -3.95018
   0.45107  11.49169  -6.88308
   0.63063  10.53401  -9.32217
   0.15179   9.69604 -11.46199
  -1.01538   8.70843 -13.81130
  -2.88585   7.48141 -15.81644
  -5.02567   6.32920 -16.59456
  -6.25270   4.81786 -15.95112
  -6.29759   3.11199 -13.70655
  -5.92350   1.92985 -10.93826
  -4.93589   0.40355  -7.82580
  -3.48440  -1.66145  -4.51880
  -2.07781  -3.63667  -1.30160
  -0.95553  -4.87866   1.93058
  -0.19238  -5.13304   5.07297
   0.24157  -4.56442   7.54199
   0.46603  -3.65163   9.12814
   0.91494  -2.99323   9.75662
   1.90255  -2.99323   9.56209
   3.72813  -3.54689   9.14311
   6.15226  -4.50457   8.39492
   8.87566  -5.49217   7.28760
  11.80856  -6.61446   6.03065
  14.95095  -7.97616   4.54923
  17.89881  -9.38275   3.47184
  20.95142 -10.31051   3.41199
  23.79453  -9.92145   3.56163
  25.78471  -7.90134   3.03789
  26.30844  -4.42975   1.94554
  25.32084  -0.29975   0.62873
  22.82189   3.56090  -1.15196
  19.27548   6.31423  -2.69323
  15.22030   7.54126  -3.51623
  10.62642   7.13724  -4.27938
   5.29932   5.40144  -5.28196
  -0.83582   2.87257  -5.98525
  -7.21038  -0.40450  -6.31446
 -13.00135  -4.16040  -6.26956
 -17.58026  -7.91630  -5.32685
 -20.43834 -11.25322  -3.56112
 -21.51573 -13.51275  -1.72058
 -20.99200 -14.00655  -0.56837
 -19.15146 -13.06384   0.04514
 -15.93425 -11.59739   1.34699
 -11.93893  -9.65210   3.87586
  -8.19799  -7.45243   6.95840
  -4.72639  -5.16297   9.92122
  -1.17998  -3.12790  13.13843
   2.60585  -1.24247  15.98155
   6.13730   0.97217  16.93923
   8.96545   3.86018  16.16111
  10.79102   6.89782  13.99137
  11.68885   8.91793  10.93876
  11.94323   8.57376   6.86862
  11.82352   6.08978   1.64626
  11.47936   1.82510  -3.80054
  11.25490  -3.77134  -8.09514
  10.67131  -8.82909 -11.43206
  10.08773 -12.64485 -13.54195
  10.65635 -15.18869 -14.57445
  12.57171 -16.44565 -14.90365
  15.25023 -16.29601 -14.23029
  17.80903 -14.93431 -13.46713
  19.33533 -12.36054 -13.09304
  19.63461  -9.00866 -12.44960
  18.88642  -5.29765 -11.62659
  17.44990  -1.30232 -10.14518
  16.37251   2.04956  -8.16996
  15.84878   4.59340  -6.53891
  15.54950   6.43394  -5.56627
  14.92102   7.75075  -5.14728
  14.02320   8.15477  -5.32685
  12.94581   7.96025  -6.50898
  11.92827   7.73579  -7.55645
  11.18008   8.06499  -8.03529
  10.07276   8.61865  -8.46924
   8.00777   8.84311  -9.29224
   5.10480   8.30441 -10.22000
   1.70802   7.42155 -11.19264
  -1.43437   6.94271 -12.00068
  -3.20009   6.86789 -12.47953
  -3.54426   6.86789 -13.07808
  -3.72382   6.89782 -13.90108
  -4.27748   6.50876 -15.77155
  -4.18770   5.22188 -18.49496
  -3.15520   3.84521 -20.06615
  -0.35698   2.69300 -18.80920
   4.04237   1.42108 -16.20550
   9.32458   0.79260 -14.18539
  14.08305   1.21159 -14.33503
  17.97363   1.79518 -15.92119
  20.75689   2.13934 -17.98619
  21.52004   2.46855 -20.73952
  19.96381   2.09445 -23.82206
  16.53711   0.58311 -26.00676
  11.62900  -1.97569 -26.81481
   5.88291  -5.38743 -25.21369
   0.06201  -9.75685 -21.59246
  -5.51947 -14.69489 -16.72923
 -11.04110 -18.98949 -11.76126
 -16.41309 -21.78771  -7.61630
 -21.24639 -22.77532  -3.83047
 -25.24171 -21.80267   0.56887
 -28.68338 -19.27380   5.80619
 -31.58634 -15.81717  11.86651
 -33.35207 -12.13608  18.24107
 -34.19004  -9.03859  23.62803
 -33.80098  -7.18308  27.71314
 -31.58634  -7.09330  30.40661
 -28.01001  -9.12837  30.66100
 -23.55081 -12.03134  28.65585
 -19.70512 -13.49779  24.78024
 -17.14632 -12.10616  18.76481
 -15.44045  -8.21558  12.56981
 -13.43530  -3.27754   7.07811
  -9.81407   0.35866   0.64369
  -5.56437   2.24409  -7.04768
  -1.65882   2.84264 -14.15547
   3.03980   2.28898 -19.96141
   9.01034   2.34884 -23.67242
  15.63928   3.96492 -24.46550
  22.98649   5.67079 -23.17861
  30.40851   6.83796 -21.41289
  36.99257   7.42155 -21.59246
  42.42441   7.04746 -22.99905
  47.24275   5.83539 -25.10894
  52.00122   4.29412 -27.69767
  56.28086   2.57329 -30.33129
  59.37835   1.15174 -32.77038
  60.97948   0.67289 -35.05984
  61.11415   1.87000 -37.91792
  60.51560   4.21931 -40.80592
  59.72252   7.01753 -41.89828
  58.30096   9.89057 -40.89571
  55.92173  12.12017 -38.06756
  52.19575  13.15267 -36.06241
  47.37742  13.01800 -35.68832
  41.37695  12.80850 -35.79306
  35.33159  12.59901 -35.31422
  30.12420  11.53658 -32.84520
  25.75479   9.00771 -30.37618
  21.86421   5.98503 -29.91231
  18.09334   3.32148 -29.79260
  14.81628   1.06195 -28.19147
  11.25490  -1.28736 -24.48046
   7.93295  -4.33996 -21.89173
   4.32668  -6.97359 -19.94644
  -0.02777  -9.87656 -17.07340
  -3.88842 -13.90181 -11.29739
  -7.03081 -18.57050  -3.56112
  -8.61697 -22.53590   4.62405
 -10.77175 -23.83774  12.58477
 -14.16853 -23.52351  18.22611
 -19.89965 -21.42858  26.21676
 -26.64830 -18.28619  37.18520
 -32.14000 -15.78724  45.83425
 -36.22511 -14.81460  50.74236
 -42.18069 -14.05145  51.22120
 -50.29105 -11.83681  50.24856
 -56.45611  -9.41268  50.48798
 -57.77293  -8.45500  52.64276
 -56.60575  -6.74913  54.42345
 -54.40608  -3.18776  54.12417
 -51.21880   1.43605  53.69022
 -47.58260   6.29927  54.46834
 -43.75188  11.49169  55.45595
 -39.98101  16.22024  55.72529
 -36.56928  19.28781  54.70776
 -34.75866  21.45756  52.55298
 -34.66888  22.90904  49.00657
 -35.38714  22.83422  44.72693
 -36.29993  21.66705  40.71664
 -37.76638  20.48491  37.23009
 -40.19051  19.67687  34.70121
 -43.43764  18.65933  33.17491
 -47.56764  16.95347  32.44168
 -52.07173  13.93079  32.21723
 -56.51597   9.98035  32.80081
 -61.06495   6.04488  35.50925
 -64.68618   1.67547  40.56701
 -65.76357  -3.36732  46.70215
 -64.74604  -7.72177  52.43327
 -62.36680 -11.38790  56.60816
 -58.11709 -14.97920  59.51113
 -52.92467 -17.58289  62.59366
 -47.56764 -18.43583  66.19993
 -41.49235 -18.12159  69.07297
 -35.23750 -15.65257  68.04047
 -30.11990 -10.02619  62.69841
 -25.67566  -1.88591  53.45080
 -21.96465   6.83796  42.48237
 -17.13135  13.51180  31.57379
 -11.41520  18.83890  22.20647
  -6.16292  21.74187  14.57495
  -0.50661  20.99368   7.30257
   3.99748  18.89875  -1.37641
   5.76320  17.22281 -11.53681
   6.16722  16.07060 -21.26325
   7.16979  15.62169 -27.33854
   7.84316  16.11550 -30.98970
   7.96287  16.53448 -33.57843
   7.46907  16.01075 -35.83796
   7.60374  12.82347 -38.00770
   8.17237   6.79307 -39.51904
   8.00777  -0.92823 -40.25226
   7.64864  -9.32290 -39.18984
   7.90302 -17.50807 -35.70328
   9.17494 -25.82792 -30.46597
  10.86584 -32.30723 -24.36075
  11.76367 -34.86604 -18.00115
  12.40711 -34.25252 -10.27985
  14.09802 -31.75357  -1.52605
  16.83638 -27.66847   7.54199
  20.15834 -22.55086  16.04140
  24.36316 -17.46318  24.24154
  28.44826 -12.37550  31.60371
  31.56072  -7.19804  39.01077
  33.74543  -3.08301  50.14381
  36.28927  -2.34978  62.86301
  39.97036  -5.80641  72.11061
  43.24742 -10.38532  75.91141
  43.71130 -14.23101  74.13072
  41.79594 -17.64275  71.34746
  37.48637 -20.09680  67.68134
  31.05196 -21.63807  64.83822
  25.56026 -22.85014  63.37178
  23.73468 -24.51111  60.06479
  25.84457 -26.00749  55.30631
  29.69025 -24.79543  49.87446
  34.16442 -20.62054  44.51744
  40.89811 -16.40076  39.59436
  48.64934 -11.85177  33.56397
  54.14104  -6.24036  23.56817
  56.58013  -0.71873  10.01101
  56.65495   3.32148  -2.87279
  54.53010   5.40144 -12.71895
  50.71434   6.32920 -18.07597
  45.47702   7.94528 -18.22561
  38.71340  10.95300 -15.99601
  31.80014  14.49941 -14.14050
  25.24602  17.95604 -15.65184
  18.24298  19.43745 -22.62495
  11.92827  15.77133 -35.79306
   4.20697  10.78840 -40.37197
  -5.86364   9.21720 -30.91488
 -10.15824   8.93289 -29.28383
  -7.04578   9.08253 -34.73064
  -2.36212  13.90086 -37.73835
  -2.21248  28.11643 -40.82089
  -5.25013  43.22983 -49.93382
 -12.22324  53.79424 -59.45077
 -22.29385  59.95931 -61.50080
 -29.38667  57.62497 -63.26653
 -28.08482  44.27729 -69.38671
 -22.12925  26.26092 -73.21743
 -17.99925  11.82090 -69.37174
 -14.36306   1.36123 -62.02454
 -10.75679  -7.04841 -58.71754
  -9.63451 -12.18098 -58.25367
 -10.51737 -13.18355 -59.34602
 -11.59476 -11.53753 -62.39863
 -12.80683  -9.05355 -67.83047
 -13.89918  -7.48235 -74.39957
 -15.62001  -6.13562 -80.78909
 -18.17882  -5.14801 -85.09865
 -18.86715  -5.95605 -85.56253
 -17.23610  -8.05098 -82.58474
 -15.76965  -9.47253 -78.49964
 -15.29081 -10.11598 -73.17254
 -14.96161 -10.74445 -66.28921
 -14.24335 -11.41782 -59.00186
 -13.89918 -11.28315 -51.37034
 -14.36306  -9.33786 -43.42458
 -14.34809  -7.19804 -36.85549
 -13.64480  -6.10569 -33.18937
 -13.25574  -5.43232 -30.91488
 -13.80940  -4.48960 -30.09187
 -15.27585  -3.00819 -30.61560
 -17.37077  -1.09283 -29.38857
 -19.04671   0.56815 -24.92937
 -20.07921   1.39116 -19.90155
 -21.17157   1.81014 -16.54967
 -21.41099   2.25905 -14.73905
 -19.64526   3.03717 -13.78137
 -15.85943   4.39887 -13.31750
 -10.72686   6.59854 -12.31492
  -5.25013   9.92050 -11.37221
  -1.06027  14.64905 -11.85105
   1.07954  20.11082 -14.15547
   2.06715  24.70469 -17.40260
   3.06972  26.85948 -19.27307
   4.34164  26.27589 -18.12086
   6.19715  23.55248 -15.03833
   8.44171  20.03600 -11.28242
  10.73117  16.77390  -5.71591
  13.46954  13.70633   2.21489
  16.52215  10.47416  10.54970
  19.90395   7.04746  17.62756
  23.57008   2.97731  21.48821
  26.78728  -1.69138  21.29368
  28.26870  -5.55203  18.06151
  26.98181  -7.09330  12.42017
  24.16863  -6.61446   6.77883
  21.05616  -4.57939   2.85833
  17.76414  -1.15268   0.01521
  13.43961   3.36637  -1.03225
   7.73842   8.00514   0.55391
   1.49853  11.56651   4.07039
  -4.90596  13.75122   8.06572
 -11.90900  14.91839  10.84898
 -20.22885  15.78629  12.89901
 -30.04508  15.87608  14.93408
 -39.93612  14.15524  16.55017
 -48.15123  10.78840  18.25604
 -54.63054   6.49380  20.79988
 -58.94010   1.89992  23.10430
 -61.07992  -2.75381  24.06198
 -61.09488  -6.92870  23.53825
 -58.74557 -10.16087  22.01194
 -53.13416 -12.65982  20.75499
 -43.75188 -15.06898  19.07905
 -31.61627 -16.43068  17.49289
 -17.34084 -16.46061  17.35821
  -3.05045 -15.33833  18.58524
   9.83334 -12.54011  21.27872
  21.41529  -8.66449  25.37879
  30.87239  -5.01333  30.28690
  36.51373  -2.55928  34.65632
  36.66337  -1.30232  38.15784
  30.78261   0.35866  41.21045
  21.49011   3.09702  44.21816
  12.31733   5.61094  47.34559
   5.07487   6.68833  50.66754
  -1.29969   7.55622  52.83729
  -7.79397   8.79822  53.49569
 -13.88422  10.14496  54.64790
 -18.55291   9.96539  57.08700
 -21.24639   6.94271  60.15457
 -22.65298   1.49590  62.90790
 -23.90994  -5.05823  64.50902
 -24.91251 -12.65982  65.67620
 -24.77783 -20.30630  67.44192
 -23.99972 -25.84289  69.17772
 -23.01211 -27.93782  69.32735
 -22.33874 -25.99253  67.54667
 -21.45588 -19.94717  65.54152
 -18.82226 -12.62989  62.21957
 -14.22838  -6.49475  58.10453
 -10.66701  -0.53917  55.68040
  -7.06074   2.51344  46.61236
  -1.26977   4.06967  41.68929
   4.55114   7.76572  42.49733
  13.52939   6.10474  36.79614
  19.60468   5.65583  32.59132
  19.78424  12.32966  35.43444
  20.98135  14.82861  35.09027
  23.54015  14.96329  35.80853
  22.34305  17.19289  36.96074
  18.09334  17.11807  35.10523
  14.60678  14.90343  33.02527
   9.62385  12.50923  28.02737
   4.79056   9.26209  21.69770
   1.99233   7.18213  15.54760
  -1.77853   6.19452   8.61938
  -4.39719   4.36894   3.09775
  -3.55922   2.25905  -0.79283
  -2.48183   1.67547  -6.17978
  -3.03549   3.09702 -13.39231
  -0.82085   2.06452 -17.73181
   2.20183   1.12181 -21.23333
   3.00987   1.95978 -26.68013
   3.65331   1.28641 -34.53611
   3.44382  -0.04537 -43.17020
   1.18429   0.73275 -48.63197
  -4.14281   2.66307 -50.53237
 -10.60715   2.16927 -51.89407
 -15.27585  -1.27239 -54.61747
 -17.25106  -6.07576 -57.64015
 -16.30835 -10.86416 -58.97193
 -13.61487 -14.67992 -58.16389
 -10.51737 -15.62264 -56.11385
  -6.13299 -14.73978 -54.76711
  -0.73107 -13.19851 -54.16856
   3.72813 -11.25322 -54.64740
   6.88548 -10.35540 -56.11385
   9.42932 -11.10358 -57.56534
  11.32972 -12.64485 -59.45077
  12.06294 -14.08137 -60.94715
  11.29979 -14.18612 -60.30370
   9.84831 -12.86931 -57.32592
   8.03769 -10.05612 -53.37548
   5.70335  -5.68670 -49.58965
   3.62338  -1.03297 -45.80382
   1.91751   3.45615 -42.87092
   0.60070   7.70586 -40.65629
   0.61567  11.73111 -37.02009
   2.29161  15.50198 -31.16926
   4.82048  19.28781 -23.80709
   7.12490  23.86672 -15.86134
   8.93552  29.07411  -7.51156
  10.32715  33.05447  -0.04464
  10.95563  35.50853   7.58688
  11.32972  36.57096  15.75709
  12.06294  36.63081  22.99955
  13.82867  35.98737  27.87774
  17.19551  34.92494  30.15223
  22.61240  32.99462  31.00516
  29.58551  30.19639  30.70589
  36.67833  27.69745  29.65842
  42.90325  25.87187  29.73324
  49.20300  23.20832  32.02270
  56.28086  17.61187  34.61143
  62.71527   9.47159  34.74610
  67.60842   0.28384  32.72599
