********************************************************************************
              CENTRO DE INSTRUMENTACION Y REGISTRO SISMICO  A.C.

    Anaxagoras 814, Col. Narvarte, Benito Juarez, C.P. 03020 Mexico, D.F.
           Tels. 5687 45 42/ 5687 45  82             Fax. 5669 25 12
********************************************************************************
ARCHIVO ESTANDAR DE ACELERACION:
VERSION DEL FORMATO                    : 2.0
NOMBRE DEL ARCHIVO                     : PD4220170919181440
FECHA Y HORA DE CREACION               : 25/SEP/17, 11:18
REF. CATALOGO ACELEROGRAMAS, SMIS 1996 : REGISTRO No.     /PAG.


================================================================================
DATOS DE LA ESTACION:
NOMBRE DE LA ESTACION                  : PALACIO DE LOS DEPORTES
CLAVE DE LA ESTACION                   : PD42
LOCALIZACION DE LA ESTACION            : Del.  Iztacalco, Col. Granjas México,  
                                       : Río Churubusco y Añil.                 
                                       :                                        
                                       :                                        
                                       : 
COORDENADAS DE LA ESTACION             : 19.4055 LAT. N
                                       : 99.0997 LONG. W
ALTITUD (msnm)                         : 2234
TIPO DE SUELO                          : Arcilloso, zona lago                
                                       :                           
                                       : 
INSTITUCION RESPONSABLE                : CIRES
                                       : 

================================================================================
DATOS DEL ACELEROGRAFO:
MODELO DEL ACELEROGRAFO                : RADESD
NUMERO DE SERIE DEL ACELEROGRAFO       : 248
NUMERO DE CANALES                      : 3
ORIENTACION C1-C6 (rumbo;orientacion)  : /N00E/+V/N90W
ORIENTACION C7-C12 (rumbo;orientacion) : 
VEL. DE MUESTREO, C1-C6 (muestras/s)   : /100/100/100
VEL. DE MUESTREO, C7-C12 (muestras/s)  : 
ESC. COMPLETA DE SENSORES, C1-C6, (g)  : /0.5/0.5/0.5
ESC. COMPLETA DE SENSORES, C7-C12, (g) : 
FREC. NAT. DE SENSORES, C1-C6, (Hz)    : /30/30/30
FREC. NAT. DE SENSORES, C7-C12, (Hz)   : 
AMORTIGUAMIENTO DE SENSORES, C1-C6     : /0.700/0.700/0.700
AMORTIGUAMIENTO DE SENSORES, C7-C12    : 
INTERVALO DE MUESTREO, C1-C6, (s)      : /0.01/0.01/0.01
INTERVALO DE MUESTREO, C7-C12, (s)     : 
UMBRAL DE DISPARO, C1-C6, (Gal)        : /5.39/25.15/25.15
UMBRAL DE DISPARO, C7-C12, (Gal)       : 
MEMORIA DE PREEVENTO (s)               : 44.0
TIEMPO DE POSEVENTO (s)                : 10.0


================================================================================
DATOS DEL SISMO:
FECHA DEL SISMO (GMT)                  : 19/SEP/17
HORA EPICENTRO (GMT)                   : 18:14:40.0
MAGNITUD(ES)                           : /Mc=7.1
COORDENADAS DEL EPICENTRO              : 18.40 LAT. N
                                       : 98.72 LONG. W
PROFUNDIDAD FOCAL (km)                 : 57
FUENTE DE LOS DATOS EPICENTRALES       : SSN
                                       : INSTITUTO DE GEOFISICA, UNAM

================================================================================
DATOS DE ESTE REGISTRO:
HORA DE LA PRIMERA MUESTRA (GMT)       : 18:15:06.00
EXACTITUD DEL TIEMPO (s)               : 0.01
DURACION DEL REGISTRO (s), C1-C6       : /384.8/384.8/384.8
DURACION DEL REGISTRO (s), C7-C12      : 
NUM. TOTAL DE MUESTRAS, C1-C6          : /38480/38480/38480
NUM. TOTAL DE MUESTRAS, C7-C12         : 
ACEL. MAX. (Gal), C1-C6                : /83.76732/42.37002/96.25877
ACEL. MAX., C1-C6, EN LA MUESTRA       : /6526/6312/6262
ACEL. MAX. (Gal), C7-C12               : 
ACEL. MAX., C7-C12, EN LA MUESTRA      : 
UNIDADES DE LOS DATOS                  : Gal (cm/s/s)
FACTOR DE DECIMACION                   : 1
FORMATO DATOS (FORTRAN,10 campos/dato) : 3F10.5


================================================================================
CALIDAD DEL ACELEROGRAMA:
REGISTRO DIGITAL COMPLETO CON TIEMPO ABSOLUTO CORRECTO.


================================================================================
COMENTARIOS:














================================================================================
DATOS DE ACELERACION:
---------+---------+---------+---------+---------+---------+---------+---------+
   CANAL-1   CANAL-2   CANAL-3   CANAL-4   CANAL-5   CANAL-6   CANAL-7   CANAL-8
      N00E        +V      N90W
---------+---------+---------+---------+---------+---------+---------+---------+
[...]
 -24.22614   0.50142 -43.21844
 -29.56821   3.07518 -47.12398
 -33.96755   3.25475 -50.08681
 -37.42418   0.69595 -51.05945
 -41.04541  -3.76325 -50.74521
 -44.02320  -9.19510 -50.89485
 -47.40501 -14.67184 -52.39122
 -50.83171 -20.02886 -53.27409
 -54.04892 -24.32346 -52.73539
 -57.95446 -25.71509 -51.82260
 -61.57569 -23.42564 -48.69518
 -65.85532 -16.90144 -43.05384
 -71.28717  -8.08778 -35.82634
 -75.02811  -0.39641 -28.20979
 -78.08072   5.87341 -21.31149
 -80.11579   8.28257 -15.08657
 -80.90887   7.59424 -10.08867
 -81.68698   6.56174  -4.59697
 -82.25561   7.42964   1.91226
 -81.61216  10.12311   8.85545
 -80.02601  12.65199  16.26251
 -76.09054  14.05858  23.65461
 -70.13496  13.77427  30.74743
 -63.19177  11.64942  36.70300
 -54.79711   8.01322  42.34434
 -45.78892   4.13761  47.53677
 -36.24204   1.23464  51.65180
 -26.33603   0.84558  54.40513
 -16.07089   3.92812  56.11100
  -7.81090  10.54210  55.58727
  -0.98742  17.32068  52.31021
   3.44185  20.92695  46.93822
   6.22511  19.64007  40.86293
   8.11054  13.10090  34.09931
   9.90619   3.55402  27.33569
  12.36025  -6.09760  20.69178
  14.63474 -12.86122  14.01794
  17.77713 -15.86894   8.28682
  23.23890 -16.01857   3.82762
  30.24194 -14.91126   0.41589
  37.85850 -13.74408  -2.50205
  45.22067 -13.57948  -4.47726
  52.10400 -14.35760  -4.88129
  58.56834 -15.56966  -2.92103
  64.79327 -16.51238  -0.06295
  70.50942 -15.58463   2.43599
  74.29526 -11.52945   4.20172
  75.73178  -4.94539   4.50099
  75.82156   2.40181   3.54331
  73.87627   7.22015   2.31628
  71.28754   6.66649   2.40607
  68.39953   0.18718   4.59077
  64.53888  -9.35970   7.82295
  60.48370 -19.28067  11.21972
  56.56320 -25.20632  14.87088
  52.41824 -24.26361  18.32751
  48.27328 -16.96129  21.32026
  44.51737  -7.07025  23.74439
  41.53958   1.48903  26.04881
  39.72897   5.85844  28.54776
  39.10049   5.85844  31.00181
  38.74136   3.68870  32.88725
  38.21763   1.90801  34.12924
  36.99060   2.77591  33.87485
  34.37194   6.92087  32.34855
  30.49633  12.80163  30.11895
  25.49843  16.87177  27.38058
  19.10891  17.18601  25.10609
  11.67192  14.10348  23.80424
   5.28239   9.12054  22.15823
   0.91297   4.99055  19.03080
  -2.40898   5.27486  14.52671
  -6.29956  11.06583   8.76566
 -11.19271  19.32583   3.16922
 -16.68441  26.05952  -1.79875
 -21.54763  27.85517  -5.50976
 -25.57288  23.81496  -7.55980
 -29.10433  15.79438  -8.60726
 -31.63320   8.35739  -9.57991
 -32.93505   5.15515 -11.28578
 -32.47117   7.16029 -13.75480
 -29.79266  13.43011 -17.51070
 -25.21375  21.92952 -21.76041
 -18.71948  29.84535 -27.14736
 -11.41716  33.54140 -34.53946
  -2.96264  31.32676 -42.15601
   5.11779  25.10184 -48.50065
  12.31536  16.91666 -52.63064
  18.67496   9.34500 -54.36644
  24.10680   4.01790 -55.33909
  30.03245   2.17736 -55.80296
  35.31466   5.34968 -55.81793
  39.26509  12.11330 -55.87778
  43.29034  17.47032 -56.86539
  47.13603  18.78713 -58.61615
  50.24849  16.84184 -60.41180
  51.59523  13.07098 -61.60890
  50.02404   9.28514 -61.78847
  45.93893   7.57928 -61.74358
  39.07056   8.26761 -61.71365
  30.37662   9.91362 -61.27970
  19.19869   9.46471 -60.00778
   6.88351   4.28725 -57.47890
  -1.82539  -6.65126 -54.42630
 -10.68394 -19.34053 -51.92735
 -20.26075 -29.02208 -49.99702
 -27.53313 -33.93020 -48.18641
 -33.41389 -34.42400 -46.69003
 -38.65121 -30.08451 -45.77724
 -43.63414 -22.84205 -46.24112
 -47.68932 -16.34778 -47.87217
 -50.42769 -13.04079 -48.66525
 -53.22591 -12.95100 -47.43822
 -57.07160 -14.46234 -44.35569
 -60.09428 -15.00104 -41.15344
 -61.27641 -13.57948 -38.65449
 -60.37859 -11.69405 -36.23036
 -58.59790 -11.02068 -32.48942
 -56.80225 -13.01086 -26.72838
 -55.18616 -16.49741 -18.84247
 -53.89928 -19.02629  -9.75947
 -52.34305 -19.49017  -2.02321
 -49.49993 -17.94890   3.88748
 -46.79149 -12.56195   8.88537
 -43.88852  -3.83807  13.82341
 -38.08259   4.12265  21.21551
 -33.14454   9.61435  28.11381
 -27.98205  11.05087  31.43576
 -21.62245   9.97348  31.73504
 -18.71948   8.83623  30.47808
 -15.77162   8.16286  28.20359
 -10.62408   8.59681  25.13602
  -6.04517  11.00598  21.84399
  -2.63344  14.44764  18.85124
  -0.76297  16.70717  15.48439
   0.17975  17.47032  11.77338
   1.13743  17.84442   7.32914
   2.84330  17.90427   1.59802
   5.37218  16.18344  -4.97107
   7.78134  12.86148 -10.61241
   9.75656   8.23768 -14.89204
  12.00112   2.68613 -17.82494
  14.60482  -2.71579 -20.80273
  17.02894  -6.66622 -25.95026
  20.38083  -8.08778 -33.67156
  24.57068  -6.72608 -42.94909
  28.99995  -4.15231 -52.06202
  34.43180  -1.60847 -59.37930
  39.19027   0.63609 -65.11042
  41.82390   1.24961 -70.45248
  42.82647  -1.15956 -74.77701
  42.73668  -5.88811 -77.12632
  41.50966 -12.08311 -78.78730
  40.46219 -18.53249 -80.67273
  40.31256 -24.72748 -83.15672
  41.24031 -29.30639 -85.50603
  41.97353 -31.02723 -87.58599
  42.09324 -29.63560 -88.51374
  41.25527 -25.99940 -87.99001
  39.66911 -21.31575 -86.01479
  37.97821 -16.91640 -83.29139
  35.79350 -14.38752 -80.53806
  32.78578 -15.00104 -77.20114
  29.34412 -17.96386 -72.42770
  25.46851 -20.37303 -65.42466
  20.68010 -19.99893 -56.38655
  15.84681 -16.30289 -46.88456
  12.04601 -10.87104 -38.29536
   9.03830  -6.33702 -31.35218
   6.64409  -4.49648 -26.05501
   3.83091  -5.57387 -21.67062
   0.28450  -8.02793 -17.57055
  -3.12724  -9.47941 -13.45552
  -6.74847  -7.99800 -10.89672
 -10.75876  -3.94282 -11.22592
 -14.12560   1.17479 -14.35335
 -16.72930   5.58910 -18.88737
 -18.45013   8.22272 -22.97247
 -18.37531   8.53696 -25.71084
 -18.07604   7.38475 -27.65613
 -19.13846   5.99312 -29.82587
 -19.82680   4.57156 -31.69634
 -20.88922   3.82337 -32.90841
 -22.77466   4.58652 -34.28507
 -22.87940   5.66391 -35.21283
 -20.63484   5.85844 -34.95844
 -17.28296   5.43946 -34.52449
 -13.22778   4.91573 -35.49714
  -7.72112   4.34710 -37.20301
  -1.78050   3.91315 -38.02601
   3.63638   5.81355 -37.35265
   8.18536  11.11072 -35.97598
  12.89895  18.66742 -34.10551
  16.99902  27.72050 -32.63906
  20.35090  35.29216 -31.56167
  23.77760  38.94332 -30.88830
  25.79771  38.19513 -31.23247
  27.08459  32.29941 -33.19272
  28.82039  22.81238 -36.24533
  30.91531  12.00855 -38.59464
  33.36937   1.93794 -38.57967
  35.44933  -4.69101 -36.63439
  37.17017  -7.07025 -32.69892
  40.05817  -7.77354 -27.11743
  44.68197  -9.59912 -20.17425
  51.37077 -12.93604 -12.49784
  58.79280 -16.31785  -5.83897
  65.27211 -18.48759  -0.79618
  69.40211 -18.87665   2.25643
  71.75142 -16.46749   2.78016
  73.17297 -11.36484   1.23889
  74.02591  -5.31949  -1.64911
  74.16058  -0.99496  -4.89625
  73.02334   0.56127  -6.87147
  71.03316  -0.12706  -6.54226
  68.16011  -2.10228  -4.20792
  64.98780  -4.75086  -1.00567
  61.71073  -7.21988   1.88233
  58.58331  -8.64144   4.39625
  56.09932  -8.89582   6.91016
  53.19635  -8.32720   9.69342
  49.35067  -6.77097  13.37450
  44.48744  -4.55633  17.68407
  38.42712  -2.02746  21.90385
  31.87299   0.32185  25.94406
  24.82506   3.37446  29.83464
  17.20851   8.16286  32.63286
   9.30764  13.72938  33.08177
   1.63123  18.32326  31.70511
  -6.04517  19.95431  29.40069
 -12.52448  17.88931  26.36305
 -17.14828  13.07098  22.72685
 -20.64980   7.57928  18.53700
 -23.26846   3.85330  13.91320
 -25.84223   3.77848   9.39414
 -29.16418   6.78620   4.93494
 -32.90512  10.34757   0.56552
 -36.84059  11.36511  -3.10060
 -40.67132   8.89609  -6.85650
 -43.88852   3.19489 -11.48030
 -45.14548  -4.49648 -16.02929
 -45.01081 -11.21521 -18.85744
 -43.88852 -13.78897 -19.97972
 -41.95820 -11.12542 -20.15928
 -38.60632  -4.88554 -19.93483
 -33.36900   1.57881 -19.53081
 -28.77513   6.60663 -19.24650
 -24.36082  10.09319 -19.20160
 -18.62970  11.94869 -19.26146
 -12.61426  12.90637 -18.96218
  -6.55394  14.83670 -18.12421
  -2.31920  18.56268 -16.53805
  -0.37391  23.21641 -13.69494
   1.00276  25.62557  -8.05360
   1.66116  24.54818  -1.48451
   1.84073  19.10137   5.50356
   1.96044  11.45489  13.44932
   1.42174   4.25732  21.96370
   0.68852  -1.65336  30.01420
   0.94290  -5.05014  37.01724
   1.27210  -5.05014  42.44909
   1.43671  -2.50630  47.67144
   1.61627   1.83319  53.26789
   0.67355   5.85844  59.83698
  -2.24438   7.96833  67.36375
  -7.66126   8.17783  74.20219
 -15.02343   6.57670  78.88585
 -22.37064   3.38942  81.10048
 -29.14922  -0.66576  80.69646
 -34.08726  -5.06510  77.73364
 -35.16465  -9.37466  72.73574
 -33.44382 -14.07329  66.33125
 -29.94230 -18.56241  59.76216
 -24.40571 -23.06651  55.03361
 -18.74941 -26.35853  52.59452
 -13.58691 -27.72024  54.21060
 -10.01057 -26.38846  58.62491
  -8.48427 -23.79973  64.28121
  -8.19996 -21.58509  70.53607
  -8.55909 -20.22339  76.64128
  -8.91822 -19.71462  81.44465
  -8.54412 -18.60730  85.24544
  -8.33463 -15.25542  87.99878
  -8.49923  -9.89840  89.18091
  -9.02296  -3.79318  89.04624
  -9.18756   1.30946  88.26812
  -9.15764   3.62884  86.83160
  -9.12771   3.25475  85.67939
  -8.46930   1.53392  84.91624
  -7.39191  -0.71065  84.15309
  -6.07510  -2.91032  83.04577
  -5.76086  -4.54137  81.83371
  -5.70101  -5.37934  80.35229
  -4.17470  -6.36695  77.00041
  -0.47866  -7.35456  72.25690
   3.99551  -8.02793  66.94476
   8.12551  -8.02793  62.03665
  11.92630  -8.26735  57.93658
  15.30811  -8.26735  53.83651
  18.52532  -7.62390  49.43716
  21.83231  -7.05528  44.42430
  24.16666  -7.92318  38.70815
  25.07945  -9.21006  32.24380
  24.98966 -10.61666  24.80682
  24.01702 -12.17289  17.28004
  21.09909 -13.01086  10.14233
  16.90923 -12.03821   3.66302
  12.71938  -9.28488  -1.84364
   8.54449  -6.26220  -6.57219
   4.50428  -4.43662 -10.59744
   0.67355  -4.49648 -13.59019
  -3.26191  -5.27459 -14.71248
  -6.83825  -5.63372 -13.57523
 -11.64162  -4.84065 -12.15367
 -18.48006  -2.62601 -12.93179
 -25.22871  -0.38144 -14.78729
 -32.23175   1.07004 -16.80740
 -38.78588   0.69595 -17.76508
 -44.62175  -2.61105 -17.98954
 -48.48240  -7.35456 -18.10925
 -50.21819 -11.15535 -18.03443
 -50.71200 -11.52945 -18.10925
 -50.87660  -7.16003 -17.28624
 -51.05617  -0.77050 -15.07161
 -50.26309   3.92812 -10.34306
 -48.52729   5.49931  -3.04074
 -46.35754   4.28725   4.87509
 -42.88595   0.42660  11.41425
 -36.96030  -5.43920  15.23001
 -29.97223 -11.12542  17.07055
 -22.02647 -14.80651  18.91109
 -13.31756 -15.03097  21.82903
  -2.90278 -12.14296  26.15355
   7.13790  -6.21731  31.30109
  15.56250   2.04268  36.89753
  22.74510  10.63188  41.98521
  30.04742  17.69478  46.24988
  36.10774  22.57296  50.49959
  39.89357  24.69782  56.32049
  42.81150  23.97956  64.25129
  44.53234  21.13644  73.91788
  44.51737  17.69478  83.59943
  43.54473  14.47757  90.34809
  42.28777  11.42496  93.87953
  40.23774   8.02819  95.30109
  37.18513   4.85587  95.89964
  33.60879   1.89305  96.25877
  31.16970   0.51638  96.06424
  30.33173   0.78573  95.13649
  29.41894   3.06022  93.64011
  28.49118   6.80116  91.91928
  28.02731  10.79648  89.68968
  27.47365  13.99873  85.23048
  26.83021  15.16590  78.27233
  26.21669  14.40275  68.91998
  25.24405  12.54724  57.02379
  23.70278  11.54467  42.91297
  21.75749  12.93630  28.15870
  18.39065  15.48014  15.43950
  14.08108  15.76445   5.99737
  10.23540  12.08337  -2.02321
   6.91344   5.42449  -9.63976
   3.08272  -2.52126 -17.51070
  -2.64840 -10.03307 -24.79805
 -10.13028 -16.13828 -28.77841
 -19.10854 -19.04125 -29.19740
 -29.29886 -17.44013 -27.43167
 -38.87566 -12.51705 -24.96265
 -47.86888  -6.63630 -23.37649
 -55.67997  -3.05996 -23.76555
 -61.21656  -2.80557 -25.20207
 -66.01993  -6.17242 -27.74591
 -68.33931 -12.12800 -31.38211
 -67.48637 -18.05365 -35.90116
 -64.91261 -21.37560 -40.68956
 -61.29138 -20.07375 -44.77467
 -58.14899 -14.92622 -48.20137
 -55.18616  -9.64401 -50.59557
 -52.46276  -7.83340 -50.99960
 -50.03863 -11.15535 -49.74264
 -45.96849 -18.12846 -47.67764
 -40.29722 -24.93698 -46.58529
 -33.84784 -27.04687 -47.24369
 -27.11415 -23.47053 -48.05173
 -22.16114 -15.64448 -47.96195
 -18.92897  -6.95054 -47.75246
 -14.96358  -0.53108 -46.34587
 -10.32481   2.11750 -43.20348
  -5.11742   2.37189 -37.00848
  -1.22684   3.00037 -28.50906
   0.46406   5.76866 -18.51327
   1.48160  11.08080  -7.67951
   1.40678  18.83202   2.12175
   1.48160  27.28655  10.41168
   3.05279  35.06770  16.62164
   4.14515  40.66415  20.60200
   4.19004  42.37002  23.49000
   3.27725  40.09553  26.46779
   2.70863  36.08524  29.87953
   2.57395  31.86546  33.72522
   0.35932  28.42379  36.02964
  -3.05242  25.49090  38.39391
  -7.25724  23.11166  42.68851
 -13.52705  21.92952  45.99550
 -20.64980  21.18133  47.01304
 -26.50063  20.59775  44.39438
 -31.01969  19.25101  37.54098
 -29.95726  17.39550  28.98170
 -25.70756  14.77684  19.97352
 -19.25817  10.96109  12.32704
  -8.37952   6.81612   7.47878
   2.27468   3.29964   4.83019
  11.91134   1.21968   4.59077
  20.72499  -0.50115   5.29407
  27.63825  -2.23695   5.29407
  33.48908  -3.74829   3.61813
  36.72125  -4.72094  -0.69143
  37.58915  -4.43662  -7.12585
  36.70629  -3.59865 -15.41577
  33.83325  -2.68586 -24.64841
  28.64082  -1.71322 -33.70149
  21.98195  -2.32673 -41.72206
  15.71213  -4.67604 -47.69260
   9.15801  -8.29727 -50.65543
   3.62142 -13.04079 -50.40104
  -1.97503 -17.17078 -47.57289
  -9.69633 -19.28067 -41.93156
 -19.25817 -19.74455 -35.24276
 -29.20908 -17.94890 -29.37696
 -39.80342 -13.74408 -25.98019
 -49.08095  -8.23742 -26.69845
 -55.66500  -3.73333 -30.81348
 -60.58808  -0.27670 -35.57196
 -63.40127   1.89305 -39.26801
 -64.08960   2.53649 -42.91916
 -63.10199   1.17479 -46.16630
 -60.42348  -0.98000 -48.27619
 -56.41319  -2.32673 -49.00941
 -51.37040  -2.16213 -48.59043
 -45.38490   0.30689 -46.49550
 -38.30704   4.13761 -42.84435
 -29.70288   7.29496 -37.45739
 -20.33557   8.28257 -31.72627
 -10.20510   7.13036 -26.60867
   0.07500   6.05297 -21.35639
   9.14304   6.50188 -15.17635
  16.77456   9.21033  -9.08610
  23.62796  13.47500  -2.56190
  29.68829  18.50282   2.81009
  34.08763  23.00691   5.36889
  36.36212  25.90988   6.26672
  36.67636  26.08945   8.06237
  35.46430  23.11166  10.86059
  32.93542  17.54514  13.28472
  29.10470   9.61435  14.75117
  25.96231   0.63609  15.45446
  23.83746  -8.01296  15.57417
  22.25130 -13.32510  16.27747
  20.90456 -14.98607  18.31254
  18.67496 -13.98350  21.21551
  15.84681 -11.33492  23.46008
  13.54239  -8.34217  24.49258
  12.50989  -6.14249  24.19330
  12.03105  -5.67862  22.98124
  11.32775  -7.86333  21.60457
   8.73902 -11.73894  20.10819
   5.65649 -16.72187  18.17787
   2.88819 -22.09386  15.90338
  -0.92757 -24.69756  13.10515
  -4.12981 -24.00922   9.13976
  -5.67108 -22.22853   4.12690
  -5.16231 -20.55259  -1.63415
  -4.11485 -18.72702  -8.54741
  -2.94768 -17.18575 -16.11907
  -0.59837 -16.33281 -23.40642
  -0.17938 -15.83901 -29.49667
  -1.28670 -15.59959 -33.59674
  -3.42652 -14.58205 -35.46721
  -6.25467 -12.27763 -36.51468
  -8.31967  -9.15021 -37.47236
  -9.92079  -5.66365 -39.10341
 -10.20510  -2.88039 -41.00380
  -9.05289  -0.99496 -42.67974
  -9.42698   0.12732 -44.11627
  -9.78611  -0.00735 -44.56518
  -7.72112  -0.56101 -45.20862
  -5.38677  -2.67090 -47.27362
  -1.10713  -6.72608 -48.57547
   5.01304 -10.87104 -48.59043
  10.92373 -14.04336 -47.57289
  17.29829 -15.00104 -45.17869
  22.47575 -12.44224 -42.50018
  24.82506  -7.02535 -40.70453
  25.85756  -1.20445 -38.65449
  26.05209   3.52410 -36.06576
  24.97470   6.30736 -32.95330
