********************************************************************************
              CENTRO DE INSTRUMENTACION Y REGISTRO SISMICO  A.C.

    Anaxagoras 814, Col. Narvarte, Benito Juarez, C.P. 03020 Mexico, D.F.
           Tels. 5687 45 42/ 5687 45  82             Fax. 5669 25 12
********************************************************************************
ARCHIVO ESTANDAR DE ACELERACION:
VERSION DEL FORMATO                    : 2.0
NOMBRE DEL ARCHIVO                     : PE1020170919181440
FECHA Y HORA DE CREACION               : 26/SEP/17, 15:16
REF. CATALOGO ACELEROGRAMAS, SMIS 1996 : REGISTRO No.     /PAG.


================================================================================
DATOS DE LA ESTACION:
NOMBRE DE LA ESTACION                  : ESC. PRIM. "PLUTARCO ELÍAS CALLES"
CLAVE DE LA ESTACION                   : PE10
LOCALIZACION DE LA ESTACION            : Del. Iztacalco, Col. Barrio San Pedro, 
                                       : Av. Plutarco Elias Calles,             
                                       : Entre Av. Santiago y Playa Caletilla.  
                                       :                                        
                                       : 
COORDENADAS DE LA ESTACION             : 19.3809 LAT. N
                                       : 99.1318 LONG. W
ALTITUD (msnm)                         : 2232
TIPO DE SUELO                          : Arcilloso, zona lago                
                                       :                           
                                       : 
INSTITUCION RESPONSABLE                : CIRES
                                       : 

================================================================================
DATOS DEL ACELEROGRAFO:
MODELO DEL ACELEROGRAFO                : RADESD
NUMERO DE SERIE DEL ACELEROGRAFO       : 241
NUMERO DE CANALES                      : 3
ORIENTACION C1-C6 (rumbo;orientacion)  : /N00E/+V/N90W
ORIENTACION C7-C12 (rumbo;orientacion) : 
VEL. DE MUESTREO, C1-C6 (muestras/s)   : /100/100/100
VEL. DE MUESTREO, C7-C12 (muestras/s)  : 
ESC. COMPLETA DE SENSORES, C1-C6, (g)  : /0.5/0.5/0.5
ESC. COMPLETA DE SENSORES, C7-C12, (g) : 
FREC. NAT. DE SENSORES, C1-C6, (Hz)    : /30/31/30
FREC. NAT. DE SENSORES, C7-C12, (Hz)   : 
AMORTIGUAMIENTO DE SENSORES, C1-C6     : /0.732/0.733/0.666
AMORTIGUAMIENTO DE SENSORES, C7-C12    : 
INTERVALO DE MUESTREO, C1-C6, (s)      : /0.01/0.01/0.01
INTERVALO DE MUESTREO, C7-C12, (s)     : 
UMBRAL DE DISPARO, C1-C6, (Gal)        : /2.09/7.48/4.19
UMBRAL DE DISPARO, C7-C12, (Gal)       : 
MEMORIA DE PREEVENTO (s)               : 44.0
TIEMPO DE POSEVENTO (s)                : 0.0


================================================================================
DATOS DEL SISMO:
FECHA DEL SISMO (GMT)                  : 19/SEP/17
HORA EPICENTRO (GMT)                   : 18:14:40.0
MAGNITUD(ES)                           : /Mc=7.1
COORDENADAS DEL EPICENTRO              : 18.40 LAT. N
                                       : 98.72 LONG. W
PROFUNDIDAD FOCAL (km)                 : 57
FUENTE DE LOS DATOS EPICENTRALES       : SSN
                                       : INSTITUTO DE GEOFISICA, UNAM

================================================================================
DATOS DE ESTE REGISTRO:
HORA DE LA PRIMERA MUESTRA (GMT)       : 18:14:58.00
EXACTITUD DEL TIEMPO (s)               : 0.01
DURACION DEL REGISTRO (s), C1-C6       : /352.6/352.6/352.6
DURACION DEL REGISTRO (s), C7-C12      : 
NUM. TOTAL DE MUESTRAS, C1-C6          : /35260/35260/35260
NUM. TOTAL DE MUESTRAS, C7-C12         : 
ACEL. MAX. (Gal), C1-C6                : /101.40528/31.14842/124.5604
ACEL. MAX., C1-C6, EN LA MUESTRA       : /6304/6384/7026
ACEL. MAX. (Gal), C7-C12               : 
ACEL. MAX., C7-C12, EN LA MUESTRA      : 
UNIDADES DE LOS DATOS                  : Gal (cm/s/s)
FACTOR DE DECIMACION                   : 1
FORMATO DATOS (FORTRAN,10 campos/dato) : 3F10.5


================================================================================
CALIDAD DEL ACELEROGRAMA:
REGISTRO DIGITAL COMPLETO CON TIEMPO ABSOLUTO CORRECTO.


================================================================================
COMENTARIOS:














================================================================================
DATOS DE ACELERACION:
---------+---------+---------+---------+---------+---------+---------+---------+
   CANAL-1   CANAL-2   CANAL-3   CANAL-4   CANAL-5   CANAL-6   CANAL-7   CANAL-8
      N00E        +V      N90W
---------+---------+---------+---------+---------+---------+---------+---------+
[...]
 -17.54836  -1.11345 -63.95306
 -15.63300  -1.62222 -62.36690
 -13.98699  -1.89156 -61.49900
 -12.61032  -0.78424 -61.40922
 -11.35337   2.62749 -61.79827
  -9.64750   8.64292 -61.46907
  -7.97156  16.03502 -59.85298
  -7.64235  21.90082 -57.33907
  -8.74967  24.35487 -53.71784
 -10.75482  24.38480 -49.61777
 -13.26873  24.26509 -45.63741
 -15.27387  25.07313 -41.98626
 -15.21402  24.41473 -38.90372
 -13.62786  20.55408 -35.10293
 -12.99938  14.71821 -29.92546
 -14.16655   8.73271 -24.47866
 -16.17170   3.28590 -20.70779
 -18.29655  -1.20323 -19.54061
 -19.37394  -4.13613 -21.03699
 -18.47612  -5.48287 -23.76039
 -15.57315  -5.57265 -27.32177
 -10.36576  -5.51279 -32.25981
  -3.57221  -5.96171 -37.88618
   4.29873  -5.90185 -42.61473
  12.79814  -4.70475 -46.05640
  21.95596  -1.98135 -47.73234
  32.19118   0.59242 -48.42067
  43.08479   1.25083 -49.43821
  53.32000   0.20336 -49.67763
  61.28073  -0.57475 -46.95422
  66.00927   0.62235 -41.86654
  68.64290   2.83699 -35.91097
  70.31884   4.15380 -29.98532
  70.91739   3.94430 -24.20931
  69.86992   2.71728 -18.64279
  66.93703   1.16104 -13.28576
  61.81942   0.17344  -8.16816
  54.57696   0.80191  -3.49946
  45.95783   3.49539   0.51082
  36.56059   6.39836   2.66561
  27.76190   7.05677   3.98242
  19.62162   4.36329   3.77292
  12.67843  -0.00613   3.17437
   7.11191  -3.44779   3.68314
   2.38336  -5.06388   5.26930
  -1.08823  -6.56026   8.02263
  -2.31526  -9.58294  12.03292
  -0.72910 -13.08446  16.55198
   3.37097 -15.17938  19.78415
   9.41633 -14.49105  20.59219
  16.00039 -11.37859  18.79654
  22.19538  -6.88946  15.02567
  28.21082  -2.66968  11.01538
  34.52552   0.17344   7.18466
  40.33146   2.23844   3.56343
  44.82059   3.70488   0.66046
  48.23233   4.54285  -2.57171
  51.37472   4.51293  -7.21048
  54.69667   3.52532 -11.78939
  58.07848   2.41800 -15.65004
  61.37051   1.58003 -18.97199
  64.27348   0.86177 -21.33627
  66.42826  -0.66453 -22.80271
  67.56550  -3.17845 -24.71808
  67.38594  -4.79453 -27.56119
  65.50051  -4.25584 -31.15249
  61.49022  -2.25069 -36.24017
  56.31276  -0.27548 -42.52495
  50.95573   0.53257 -48.00169
  45.23957   0.59242 -52.07183
  38.29639   0.44278 -54.85509
  30.69480  -1.08352 -56.97994
  23.33263  -4.52518 -59.37414
  16.98799  -8.47562 -61.55885
  12.61858 -11.16909 -62.99537
  10.31416 -12.27641 -63.92313
   9.11706 -13.23409 -65.41950
   8.06959 -14.13192 -67.54436
   7.05206 -13.59322 -69.01081
   6.48343 -11.07931 -69.04073
   6.63307  -8.26612 -68.11298
   7.83017  -6.65004 -65.80856
  10.07474  -6.14127 -62.60632
  11.93024  -5.18359 -58.89530
  12.34923  -3.35801 -55.75291
  11.75068  -2.07113 -53.62806
  11.54119  -2.90910 -52.46089
  11.75068  -6.08142 -50.99444
  10.97256  -9.97199 -47.52285
   9.23677 -12.15670 -42.10597
   6.66300 -11.13917 -36.18032
   3.25126  -7.39823 -30.43423
  -0.90866  -3.41787 -24.74800
  -5.90656  -1.23316 -19.98953
 -11.71250  -0.93388 -16.54786
 -17.51844  -1.08352 -13.10620
 -22.84554  -1.08352  -9.06598
 -27.63394  -1.47258  -3.97830
 -31.88365  -3.80692   2.90503
 -35.41509  -7.78728  12.06285
 -38.67719 -11.19902  22.26813
 -40.65241 -12.12677  32.17414
 -39.45531 -11.67786  41.45167
 -38.37792 -13.47351  51.56717
 -41.13125 -17.15460  59.64761
 -43.13639 -16.76554  64.40608
 -38.49763 -15.56844  69.76311
 -33.85886 -16.73561  77.24499
 -34.90633 -14.22170  82.00346
 -31.67415  -9.79243  82.06332
 -18.44619 -10.48076  81.79397
  -8.83946 -12.30634  82.15310
  -9.16866  -9.43330  79.99832
  -8.12120  -4.19598  73.92303
  -1.50721   0.44278  67.33898
   2.23373   6.54800  63.77760
   2.71257  12.41379  61.74253
   7.62068  13.22184  59.58775
  14.41423   8.70278  58.33079
  14.77336   4.39322  57.16362
  11.78061   3.91438  53.63217
  12.10981   4.84213  47.10797
  15.40184   3.28590  40.31443
  16.41937  -0.93388  36.24428
  14.80329  -6.26098  34.86762
  15.40184 -10.36105  35.67566
  18.12524 -10.80996  38.45892
  16.80843  -7.24859  40.79327
  11.36162  -2.75946  39.59617
   8.60829  -0.30540  36.33407
  10.19445  -0.24555  33.40117
  10.82293  -1.44265  31.03690
   8.60829  -2.40033  28.34342
   7.02213  -2.16091  25.47038
   8.18930  -0.45504  23.88422
   8.90756   2.38807  23.55502
   7.20170   5.71003  23.25574
   5.43597   8.88234  23.10610
   5.01699  10.25901  23.94407
   3.87974   9.84003  25.17110
   1.57532   9.39111  26.27842
   0.52786   9.98966  27.98429
   0.70742  11.93495  30.13907
   1.09648  14.05981  31.51574
   2.17387  14.74814  30.94711
   4.68778  13.46126  28.52298
   7.29148  11.18676  26.09885
   7.83017   9.30133  24.57255
   5.10677   7.83488  23.16596
   1.33590   5.85967  22.17835
  -1.68678   3.10633  22.86668
  -4.29047  -0.21562  25.17110
  -7.07373  -3.80692  28.10400
 -10.36576  -7.21866  30.13907
 -14.67532  -9.85228  30.40842
 -20.33162 -10.89975  28.43320
 -25.89814 -10.39098  23.46523
 -29.96829  -9.40337  17.89871
 -32.33256  -8.14641  15.02567
 -33.40995  -6.56026  14.84611
 -33.35010  -5.09381  15.26509
 -32.84133  -3.32808  15.47458
 -31.70408  -1.11345  14.96582
 -29.51937   1.16104  13.46944
 -26.07771   2.95670  11.31466
 -21.64843   3.19612   9.87814
 -16.83010   2.14865  10.77596
 -12.64025   0.74206  13.40959
  -8.95917  -0.69446  16.46219
  -5.42772  -2.07113  19.39509
  -2.19555  -3.59743  22.17835
   0.16873  -5.45294  24.33313
   1.87460  -6.88946  25.50030
   2.68264  -7.21866  26.75726
   3.07170  -5.99163  27.95436
   3.37097  -3.86678  27.74487
   3.93960  -1.38279  26.42806
   4.53815   1.66981  25.47038
   4.38851   4.84213  25.29081
   3.37097   7.05677  26.54777
   1.54539   7.38597  28.97190
  -0.81888   6.27865  32.29385
  -3.21308   4.60271  35.85523
  -5.48757   3.07641  39.08740
  -7.49272   2.29829  41.57138
  -9.52779   2.62749  43.54660
 -11.80228   4.15380  45.55174
 -14.55561   6.63778  47.25761
 -17.48851   9.21155  47.94594
 -20.45133  11.36633  47.37732
 -23.47401  12.35394  46.50942
 -26.28720  12.38386  46.29993
 -28.80111  12.02473  47.16783
 -31.07560  11.63568  49.08319
 -33.40995  10.40865  51.32775
 -35.47495   8.88234  53.18326
 -36.73191   8.19401  54.17087
 -37.03118   8.46336  54.02123
 -36.28299   8.88234  52.67449
 -34.39756   8.79256  50.72920
 -31.61430   8.10423  49.32261
 -28.29234   7.35604  49.59196
 -26.19742   6.81735  50.34015
 -25.26966   6.45822  49.44232
 -24.04264   6.33851  46.68899
 -21.01996   5.97938  42.25972
 -16.59068   5.79981  36.18443
 -14.07677   5.26111  28.61277
 -14.13663   4.09394  20.59219
 -12.67018   3.58517  15.35487
 -10.93438   3.70488  13.31980
 -14.40597   3.16619   7.81314
 -21.25938   1.34061  -3.55932
 -25.68865  -0.93388 -14.63250
 -26.19742  -1.95142 -18.73257
 -25.95800  -1.26308 -18.67272
 -28.86097  -0.12584 -21.30634
 -34.27785   0.23329 -29.29699
 -38.55748  -0.36526 -38.63437
 -40.44292  -1.35287 -44.97901
 -40.41299  -1.92149 -47.73234
 -39.18596  -1.44265 -49.16886
 -37.51002  -0.66453 -51.29371
 -35.74430  -0.45504 -54.16676
 -33.58952  -1.05359 -55.66313
 -29.51937  -1.44265 -55.03465
 -23.74336  -1.20323 -54.61567
 -18.35641  -0.90395 -56.05219
 -13.38844  -0.57475 -57.00987
  -7.19344  -0.00613 -54.76531
  -0.19040   0.65228 -50.24625
   4.74764   0.80191 -47.73234
   7.17177   0.59242 -47.88198
   8.60829   0.02380 -47.91190
  10.85285  -0.45504 -45.54763
  14.74343  -0.21562 -41.47749
  19.17270   0.44278 -38.39495
  21.65669   1.72967 -37.70662
  21.02821   3.55525 -38.36503
  19.26249   5.73996 -38.99350
  19.26249   7.56553 -39.35263
  21.35741   8.55314 -39.11321
  23.81147   8.97213 -38.24531
  24.88886   8.91227 -37.07814
  23.72169   9.09184 -36.95843
  20.28002   9.21155 -38.15553
  15.88068   9.72032 -39.80155
  10.97256  10.70792 -41.86654
   5.67539  11.87510 -44.08118
   0.55779  12.59336 -45.78705
  -4.08098  13.37147 -46.80459
  -8.27083  14.23937 -47.79219
 -12.52054  15.01749 -49.13893
 -16.26148  15.01749 -51.05429
 -18.74547  13.55104 -53.68792
 -19.46373  10.52836 -56.86023
 -18.26662   7.14655 -59.73327
 -15.78264   3.79467 -62.33697
 -12.87967   0.53257 -65.23994
  -9.76721  -2.93903 -68.02320
  -6.29562  -6.23105 -69.84878
  -1.89627  -8.92453 -69.69914
   3.49068 -11.37859 -67.75385
   9.59590 -13.35380 -65.09030
  16.03031 -14.70054 -62.78588
  21.86618 -15.32902 -61.37929
  27.04364 -15.98743 -60.87052
  31.32328 -16.73561 -61.58878
  34.82480 -16.70569 -63.14501
  37.66791 -15.20931 -65.12023
  40.12197 -12.84504 -67.21516
  42.06726 -11.19902 -69.66921
  43.05487 -10.39098 -72.78167
  42.66581  -9.73257 -76.19341
  40.48110  -7.96685 -79.42558
  36.62045  -5.42301 -82.74754
  31.95176  -3.77700 -86.15928
  27.22321  -3.83685 -88.43377
  22.28517  -4.61497 -89.51116
  16.68872  -5.39308 -89.60094
  11.15213  -5.96171 -88.94254
   6.15423  -7.96685 -87.65565
   2.11402 -11.79757 -85.88993
  -0.04076 -16.25677 -82.92710
  -0.48968 -19.39916 -78.19856
  -0.72910 -20.47655 -72.69189
  -0.57946 -19.54880 -66.79617
   0.55779 -17.78308 -59.46393
   3.04177 -16.10714 -50.87473
   6.45351 -14.91003 -42.22568
  10.37401 -14.22170 -35.10293
  14.53394 -13.23409 -29.44662
  18.39459 -10.98953 -24.29909
  21.53698  -7.36830 -19.83989
  23.48227  -3.53758 -16.00917
  24.23045  -0.66453 -13.31569
  23.78154   1.58003 -12.53757
  22.07567   4.33336 -13.07627
  20.10046   8.25387 -14.15366
  19.08292  11.69553 -16.00917
  18.36466  12.83278 -19.15156
  17.04785  11.00720 -22.89250
  15.52155   7.02684 -26.54365
  13.72589   2.77713 -29.89554
  11.87039  -0.27548 -33.18756
  10.37401  -2.34048 -36.30003
   9.44626  -3.80692 -38.39495
   9.14698  -5.30330 -38.69423
   9.26669  -7.30844 -38.00589
   9.50611  -8.26612 -36.95843
   9.47619  -7.39823 -35.40220
   8.63822  -5.15366 -33.12771
   7.23162  -2.46019 -30.55394
   5.85496   0.05373 -27.56119
   4.32865   2.59757 -24.32902
   3.25126   5.05162 -20.85743
   3.87974   7.29619 -17.41576
   6.33380   9.18162 -14.21352
   9.80539  10.31887 -10.95142
  13.66604  11.33640  -7.50975
  17.52669  12.26415  -3.85859
  20.90850  12.38386   0.57068
  24.05089  11.12691   5.56858
  28.21082   9.12176  11.34459
  33.32842   7.23633  18.31770
  37.84748   5.65017  25.79958
  40.81030   3.76474  33.37124
  41.88769   1.28075  40.88305
  41.52856  -0.54482  48.36493
  40.72052  -1.62222  56.32565
  39.37378  -1.98135  64.52579
  37.96719  -1.74193  72.39673
  36.62045  -1.50250  79.90854
  34.88465  -0.69446  86.79187
  32.46052   0.26322  92.26860
  29.82690   0.59242  96.87744
  27.52248   0.29315 100.67824
  25.96625  -0.57475 103.91041
  24.79908  -1.62222 106.99294
  23.51219  -2.96895 109.59664
  21.53698  -4.49526 111.78135
  18.42452  -5.18359 113.69671
  15.37191  -4.79453 115.70185
  13.57626  -4.04634 118.75446
  13.21713  -3.56750 121.62750
  13.87553  -3.68721 123.12388
  15.88068  -5.00402 124.11149
  17.52669  -6.62011 124.56040
  17.43691  -7.72743 123.45308
  16.20988  -7.60772 121.59757
  15.91060  -7.75736 119.77199
  16.62886  -9.07417 117.13837
  16.95807 -10.63040 114.05584
  16.44930 -11.52822 111.69156
  15.43176 -10.89975 109.08787
  12.79814  -8.44569 105.19729
   8.72800  -5.81207  99.75048
   4.80749  -4.13613  93.10657
   3.37097  -3.95656  85.89404
   3.52061  -5.09381  78.86107
   2.74249  -5.87192  72.63615
   1.84467  -6.32084  66.50101
   1.00670  -7.03910  60.24616
  -0.34004  -7.81721  53.93145
  -2.52475  -7.66757  48.57442
  -4.52989  -6.67997  43.99551
  -5.99634  -5.81207  39.59617
  -8.06134  -4.82446  35.61581
 -10.45554  -3.80692  32.20407
 -12.25119  -4.40547  29.21132
 -13.83735  -5.99163  26.66748
 -15.15416  -8.05663  23.73458
 -15.15416 -10.66033  21.34038
 -13.92713 -12.60562  20.23306
 -12.67018 -12.39612  18.91625
 -11.08402 -11.31873  16.40234
  -9.07888 -10.51069  13.49937
  -6.65475  -9.49315  11.01538
  -3.93134  -6.67997   9.57886
  -1.56707  -1.08352   9.10002
   0.10887   5.79981   8.65111
   0.61764  11.09698   8.62118
  -0.72910  13.67075   9.87814
  -3.45250  14.68828  11.70372
  -7.49272  15.49633  12.75118
 -12.13148  16.33430  14.03806
 -16.29141  17.41169  15.47458
 -20.27177  19.11756  16.79140
 -24.85068  20.73364  17.24031
 -29.19017  21.00299  17.06074
 -32.30263  19.83582  17.24031
 -35.11582  18.12995  17.44980
 -37.95893  17.17227  17.21038
 -40.47285  16.48393  16.82132
 -42.74734  15.34669  16.76147
 -45.35103  14.59850  17.47973
 -47.80509  14.38901  18.79654
 -49.54088  14.41894  20.50241
 -50.52849  14.77807  21.51994
 -51.09711  14.86785  21.43016
 -51.60588  14.08973  20.50241
 -52.11465  12.71307  19.39509
 -52.38400  11.09698  18.07828
 -52.41393   9.51082  16.13299
 -51.84530   8.04437  13.85850
 -50.22922   7.26626  11.70372
 -47.38610   7.32611   9.96792
 -44.03422   7.59546   8.53140
 -40.89183   6.99691   6.52626
 -38.61734   5.11148   3.68314
 -37.62973   3.04648   0.39111
 -37.98886   1.34061  -2.42207
 -39.12611  -0.33533  -4.45714
 -40.38306  -2.37040  -5.50461
 -41.64002  -3.89671  -6.22287
 -43.49552  -4.10620  -7.06084
 -46.27878  -3.47772  -8.70685
 -50.04965  -2.54997 -12.11859
 -54.26943  -1.83171 -16.36830
 -58.30965  -1.32294 -19.83989
 -61.87102  -0.03606 -21.84503
 -64.89370   2.71728 -22.26402
 -67.25798   5.97938 -21.39612
 -69.05363   8.40350 -19.92967
 -71.14855   9.98966 -19.03185
 -74.05152  11.12691 -18.64279
 -76.95449  12.14444 -18.34351
 -79.22898  12.89263 -18.25373
 -81.23413  12.53350 -17.71504
 -83.26920  11.03713 -16.21866
 -85.45391   9.45097 -13.61497
 -87.39920   8.22394 -10.44265
 -87.90797   6.93706  -7.30026
 -86.65101   5.53046  -4.54693
 -83.86775   4.96184  -2.51186
 -79.58811   5.97938  -1.37461
 -73.66247   7.77503  -1.19504
 -66.24044   8.64292  -2.39215
 -58.39943   8.28379  -6.10316
 -50.70806   7.68524 -10.92149
 -43.01668   7.38597 -15.23105
 -35.14575   7.29619 -18.43330
 -26.82590   7.38597 -20.40851
 -18.17684   6.93706 -21.30634
 -10.45554   5.68010 -21.81511
  -5.72699   4.00416 -23.43119
  -3.42257   2.32822 -27.17213
  -1.20794   0.47271 -31.48170
   1.96438  -1.20323 -35.25256
   5.79510  -2.37040 -38.42488
   9.32655  -2.34048 -41.77676
  12.02003  -1.59229 -45.81698
  14.29452  -2.01127 -50.57545
  16.56901  -4.10620 -55.27407
  19.50191  -6.02156 -58.92523
  23.54212  -6.47047 -61.31943
  28.33053  -5.27337 -63.35450
  32.99922  -3.05874 -65.12023
  37.24893  -0.60468 -67.03559
  41.43878   1.78952 -69.19037
  45.23957   3.19612 -71.16559
  48.14254   2.62749 -72.84153
  50.02798  -0.21562 -74.69704
  51.97327  -4.16605 -75.68464
  54.93609  -6.91939 -74.27805
  59.87413  -8.89460 -71.25537
  65.62022 -11.01946 -69.31008
  67.92464 -12.93482 -70.53711
  65.76985 -15.23924 -74.57733
  62.14862 -18.02250 -77.24087
  60.74203 -20.05757 -76.55254
  61.63986 -19.99771 -74.36783
  62.53768 -18.62105 -73.44008
  60.92160 -17.27431 -74.09848
  56.49232 -15.98743 -74.21819
  50.98566 -14.55090 -72.15320
  45.95783 -12.84504 -68.53197
  42.12711 -11.10924 -63.50414
  39.19422  -8.47562 -57.00987
  36.44088  -4.85439 -49.91705
  32.52038  -0.27548 -42.31546
  27.52248   4.63264 -33.27735
  21.98589   8.97213 -24.29909
  16.92814  12.11452 -16.21866
  13.36676  13.40140  -8.52729
  11.69082  12.80285  -1.40454
  10.82293  12.32401   4.99995
   9.71561  13.85031  10.05770
   8.21923  16.87299  14.90596
   6.03452  19.77596  19.30531
   4.32865  21.81103  23.61487
   4.53815  22.70886  27.59523
   6.00459  22.46944  30.40842
   7.53090  21.63147  32.17414
   8.81778  20.31466  33.43110
   9.86524  17.38176  33.99972
