********************************************************************************
              CENTRO DE INSTRUMENTACION Y REGISTRO SISMICO  A.C.

    Anaxagoras 814, Col. Narvarte, Benito Juarez, C.P. 03020 Mexico, D.F.
           Tels. 5687 45 42/ 5687 45  82             Fax. 5669 25 12
********************************************************************************
ARCHIVO ESTANDAR DE ACELERACION:
VERSION DEL FORMATO                    : 2.0
NOMBRE DEL ARCHIVO                     : RI7620170919181440
FECHA Y HORA DE CREACION               : 29/SEP/17, 09:58
REF. CATALOGO ACELEROGRAMAS, SMIS 1996 : REGISTRO No.     /PAG.


================================================================================
DATOS DE LA ESTACION:
NOMBRE DE LA ESTACION                  : REPÚBLICA DE ITALIA
CLAVE DE LA ESTACION                   : RI76
LOCALIZACION DE LA ESTACION            : Del. Venustiano Carranza,              
                                       : Col. Ampliación Simón Bolivar, calle   
                                       : Carlos Marx y Av. Río Consulado.       
                                       :                                        
                                       : 
COORDENADAS DE LA ESTACION             : 19.4473 LAT. N
                                       : 99.1000 LONG. W
ALTITUD (msnm)                         : 2232
TIPO DE SUELO                          : Arcilloso, zona lago                
                                       :                           
                                       : 
INSTITUCION RESPONSABLE                : CIRES
                                       : 

================================================================================
DATOS DEL ACELEROGRAFO:
MODELO DEL ACELEROGRAFO                : RADESD
NUMERO DE SERIE DEL ACELEROGRAFO       : 217
NUMERO DE CANALES                      : 3
ORIENTACION C1-C6 (rumbo;orientacion)  : /N00E/+V/N90W
ORIENTACION C7-C12 (rumbo;orientacion) : 
VEL. DE MUESTREO, C1-C6 (muestras/s)   : /100/100/100
VEL. DE MUESTREO, C7-C12 (muestras/s)  : 
ESC. COMPLETA DE SENSORES, C1-C6, (g)  : /0.5/0.5/0.5
ESC. COMPLETA DE SENSORES, C7-C12, (g) : 
FREC. NAT. DE SENSORES, C1-C6, (Hz)    : /30/30/30
FREC. NAT. DE SENSORES, C7-C12, (Hz)   : 
AMORTIGUAMIENTO DE SENSORES, C1-C6     : /0.700/0.700/0.700
AMORTIGUAMIENTO DE SENSORES, C7-C12    : 
INTERVALO DE MUESTREO, C1-C6, (s)      : /0.01/0.01/0.01
INTERVALO DE MUESTREO, C7-C12, (s)     : 
UMBRAL DE DISPARO, C1-C6, (Gal)        : /1.5/3.74/1.5
UMBRAL DE DISPARO, C7-C12, (Gal)       : 
MEMORIA DE PREEVENTO (s)               : 44.0
TIEMPO DE POSEVENTO (s)                : 64.0


================================================================================
DATOS DEL SISMO:
FECHA DEL SISMO (GMT)                  : 19/SEP/17
HORA EPICENTRO (GMT)                   : 18:14:40.0
MAGNITUD(ES)                           : /Mc=7.1
COORDENADAS DEL EPICENTRO              : 18.40 LAT. N
                                       : 98.72 LONG. W
PROFUNDIDAD FOCAL (km)                 : 57
FUENTE DE LOS DATOS EPICENTRALES       : SSN
                                       : INSTITUTO DE GEOFISICA, UNAM

================================================================================
DATOS DE ESTE REGISTRO:
HORA DE LA PRIMERA MUESTRA (GMT)       : 18:15:01.00
EXACTITUD DEL TIEMPO (s)               : 0.01
DURACION DEL REGISTRO (s), C1-C6       : /419.2/419.2/419.2
DURACION DEL REGISTRO (s), C7-C12      : 
NUM. TOTAL DE MUESTRAS, C1-C6          : /41920/41920/41920
NUM. TOTAL DE MUESTRAS, C7-C12         : 
ACEL. MAX. (Gal), C1-C6                : /52.38211/24.2405/72.65694
ACEL. MAX., C1-C6, EN LA MUESTRA       : /7171/6656/6926
ACEL. MAX. (Gal), C7-C12               : 
ACEL. MAX., C7-C12, EN LA MUESTRA      : 
UNIDADES DE LOS DATOS                  : Gal (cm/s/s)
FACTOR DE DECIMACION                   : 1
FORMATO DATOS (FORTRAN,10 campos/dato) : 3F10.5


================================================================================
CALIDAD DEL ACELEROGRAMA:
REGISTRO DIGITAL COMPLETO CON TIEMPO ABSOLUTO CORRECTO.


================================================================================
COMENTARIOS:














================================================================================
DATOS DE ACELERACION:
---------+---------+---------+---------+---------+---------+---------+---------+
   CANAL-1   CANAL-2   CANAL-3   CANAL-4   CANAL-5   CANAL-6   CANAL-7   CANAL-8
      N00E        +V      N90W
---------+---------+---------+---------+---------+---------+---------+---------+
[...]
   0.87685   5.89651   2.17682
   3.45062   4.45999   2.65566
   5.62036   0.79387   1.93740
   7.38609  -4.84747   0.63556
   8.01456 -10.59355  -0.65133
   8.13427 -14.37938  -1.86339
   8.68793 -15.62138  -3.44955
   9.79525 -14.05018  -5.24520
  11.02228 -10.02493  -6.32259
  12.18945  -4.93725  -6.29266
  13.77561  -0.01417  -5.93353
  15.48148   4.40014  -6.02332
  16.42420   8.51517  -6.32259
  16.73844  11.62763  -6.47223
  16.87311  12.61524  -6.53208
  17.11253  11.73238  -6.29266
  17.36691  10.90937  -5.58937
  18.01036  11.38821  -4.37730
  19.17753  11.92691  -3.09042
  20.22499  11.67252  -2.20756
  20.41952  11.08894  -1.42944
  19.83593  10.38564  -0.60644
  18.93811   9.38307  -0.12759
  18.20488   8.82941  -0.41191
  17.80086   9.69731  -0.93564
  17.89065  11.46303  -0.98053
  18.42934  12.79481  -0.54658
  19.11767  13.61781   0.44103
  20.00054  14.38096   2.35639
  21.16771  15.32368   4.97505
  22.75387  16.17662   7.53385
  24.62434  16.89488   9.64374
  26.37510  16.70035  11.55910
  27.45249  14.91966  13.13030
  27.63205  11.34332  13.89345
  26.88387   7.12354  14.20769
  25.31267   4.23553  13.87848
  23.98090   3.23296  12.69635
  22.93343   2.76909  11.33465
  21.13778   3.00851  10.30215
  19.28228   4.86401   9.41928
  17.90561   8.96408   8.23715
  17.90561  13.48314   6.77070
  18.77351  16.56567   4.93016
  19.43191  18.36132   2.53595
  19.73119  19.46864  -0.24731
  19.70126  19.25915  -3.25502
  19.14760  16.84998  -6.59194
  18.41438  12.60028 -10.18324
  18.02532   7.49763 -13.01139
  18.30963   3.15814 -14.67237
  19.25235   0.44970 -15.49538
  20.50930  -0.74740 -15.79465
  21.46698  -0.79229 -15.71983
  22.09546   0.25517 -15.49538
  22.52941   1.70666 -15.48041
  22.87358   2.15557 -16.34831
  23.32249   1.39242 -18.60784
  24.07068   0.68912 -21.78016
  25.41742   0.86869 -24.78787
  27.12329   0.97344 -26.86783
  28.38024   0.18036 -28.49888
  28.79923  -1.13646 -29.81570
  28.44010  -2.55801 -30.90805
  27.30285  -4.26388 -32.53910
  25.73166  -6.17924 -35.50192
  23.80133  -8.13949 -39.37754
  21.72137  -9.68076 -43.14841
  19.56659 -10.47384 -46.32072
  17.44173 -11.28188 -48.83463
  14.98768 -12.73337 -50.21130
  12.12960 -14.88815 -50.57043
   9.00217 -17.38710 -50.60036
   5.51562 -19.70648 -50.79489
   2.13381 -21.69666 -50.80985
  -1.36771 -23.32771 -51.21387
  -5.28822 -24.24050 -52.27630
  -8.81967 -23.85144 -53.36865
 -11.21387 -21.06818 -54.26648
 -12.59053 -15.95058 -54.55079
 -12.50075 -11.02750 -54.10188
 -11.67775  -8.75301 -53.05442
 -11.18394  -8.66323 -51.34855
 -11.33358  -9.35156 -49.55290
 -12.29126 -10.27931 -48.56529
 -14.38619 -11.62605 -48.47550
 -17.49865 -12.46402 -48.90945
 -20.77571 -11.29685 -49.62771
 -23.36444  -8.06468 -50.58539
 -25.08527  -4.41352 -51.67775
 -26.01303  -1.94450 -52.41097
 -25.98310  -0.98682 -52.51572
 -25.05535  -1.04667 -52.41097
 -23.66372  -1.48062 -52.33615
 -21.73339  -1.64522 -52.30623
 -19.45890  -2.15399 -52.06681
 -17.43879  -4.00950 -51.45329
 -15.79278  -6.76283 -50.48065
 -14.38619  -8.73805 -48.77478
 -12.80003  -8.93257 -46.47036
 -10.82481  -6.89750 -43.62725
  -8.99923  -2.96203 -40.12573
  -7.23351   1.90119 -36.38479
  -5.51268   6.01622 -32.74859
  -4.70463   8.20093 -29.68102
  -4.65974   8.69474 -27.55617
  -4.83931   7.10858 -25.98497
  -5.63239   3.66691 -24.71305
  -6.56014   0.01575 -23.45610
  -6.94920  -2.10910 -22.40863
  -6.69481  -2.28866 -21.45095
  -4.68967  -1.31602 -20.64291
  -1.32282   0.61430 -19.90969
   2.14877   3.32275 -19.41588
   4.87217   5.56731 -19.73012
   6.72768   5.98629 -21.03197
   7.47587   4.80416 -22.94733
   7.41601   3.09829 -25.08715
   7.07185   1.33257 -27.07733
   6.86235  -0.58280 -28.87298
   7.25141  -2.37845 -30.21972
   8.13427  -2.99196 -30.47410
   9.07699  -2.15399 -29.53138
   9.63065  -1.28609 -27.82552
   9.24159  -2.28866 -25.97001
   7.28134  -5.40113 -23.97983
   3.67507  -8.49863 -21.81008
  -0.54471  -9.92018 -19.87976
  -4.27068  -9.75558 -18.71259
  -7.18862  -8.69315 -16.94686
  -9.32843  -6.65808 -14.13367
 -10.42079  -3.82993 -10.13835
 -10.49561  -1.04667  -5.20031
  -9.79231   0.38985  -0.21738
  -9.10398  -0.46309   4.31664
  -9.76238  -3.54562   8.01269
 -11.22883  -6.77779  10.45178
 -13.00952  -8.96250  12.06787
 -14.37122  -9.80047  12.74124
 -14.95481  -9.36652  13.04051
 -14.79021  -7.58584  13.42957
 -13.41354  -4.66790  13.22008
 -11.73760  -2.19888  12.51678
 -10.25619  -1.95946  11.34961
  -9.56785  -4.00950  10.10762
 -10.43575  -6.05953   9.29957
 -11.66278  -5.67047   8.79081
 -11.84235  -2.76751   8.11744
 -10.74999   1.09315   7.01012
  -8.69996   4.22057   6.47142
  -5.79699   6.24068   6.95026
  -1.87648   8.12611   7.84809
   2.64257   9.65242   9.14994
   6.54812  10.14622  10.10762
   9.21166   9.53271  10.40689
  10.40877   9.08379   9.92805
  10.39380  10.37068   8.14736
  10.16935  11.95684   5.28929
   9.76532  10.78966   1.75784
   9.03210   7.37792  -2.25245
   8.76275   4.66948  -5.60433
   9.40619   3.02347  -7.48977
  10.84271   1.70666  -8.82154
  12.72815   0.19532 -10.00368
  14.62855  -1.15142 -10.87157
  15.84061  -0.73243 -11.67962
  16.25960   1.58695 -12.47270
  16.63369   4.14575 -13.58002
  16.61873   4.74430 -14.89683
  15.30191   2.90376 -15.63005
  13.17706  -0.43316 -15.27092
  11.23177  -3.81497 -14.52273
  10.10949  -5.67047 -13.63987
  10.54344  -5.17667 -12.33802
  12.29420  -2.57298 -10.27302
  14.11978   1.19789  -7.35509
  15.13731   4.50488  -4.43716
  14.86797   6.58485  -2.68640
  13.53619   7.31807  -2.10281
  11.68068   7.21332  -1.87835
  10.07956   7.37792  -0.99549
   9.61569   8.88926   1.18922
  10.34891  11.62763   4.21190
  11.08213  13.52803   7.51889
  10.52848  13.30357  10.81091
   8.49340  12.54042  13.77374
   5.97949  13.54299  15.22522
   3.91449  14.50067  15.62924
   1.38562  14.59046  15.61428
  -1.17319  14.08169  17.12562
  -2.98380  12.63020  20.70196
  -4.25572  11.02908  24.21844
  -4.28565   8.61992  26.95681
  -3.34293   4.87898  29.24627
  -2.53489   1.54206  31.17659
  -1.71188   0.52452  32.83757
  -1.56224   1.46724  34.15438
  -2.78927   2.67930  35.44126
  -4.86923   2.52967  36.77304
  -7.24847   1.25775  37.58108
  -9.41822   0.77891  38.20956
 -10.36093   2.09572  38.53876
  -9.85217   4.08590  38.34423
  -8.55032   5.71695  38.04496
  -7.78717   6.12097  38.71833
  -8.32586   5.29796  40.36434
  -9.74742   3.54720  41.90561
 -10.95948   1.69170  42.86329
 -11.19890   7.9E-40  43.64140
 -10.37590  -1.58537  44.80858
  -8.56528  -2.64779  46.20021
  -5.63239  -3.39598  47.14292
  -2.34036  -4.54819  47.39731
   0.17355  -6.07450  47.15789
   1.92431  -6.89750  45.88597
   3.54040  -6.19421  43.28227
   5.30612  -4.92229  40.13988
   7.25141  -4.98214  37.31173
   9.19670  -6.35881  35.08213
  11.12703  -7.40627  34.30402
  13.44641  -7.24167  35.24673
  15.94536  -5.38616  36.56355
  17.80086  -2.06421  37.23691
  18.80343   1.21286  37.70079
  18.23481   3.60706  38.01503
  16.37931   5.11840  37.97014
  13.71576   5.31293  37.53619
  10.63322   5.17825  36.51865
   7.67040   5.70198  35.38141
   5.54554   6.04615  34.69308
   4.33348   5.01365  34.93250
   3.51047   2.76909  35.97996
   3.07652   0.55445  37.52123
   2.94185  -0.61272  39.00264
   2.65754  -1.31602  39.91543
   1.49036  -1.73501  40.09499
  -0.39507  -0.74740  39.73586
  -2.47503   1.97601  38.92782
  -4.54003   5.05854  38.04496
  -6.38057   6.39032  37.55115
  -7.83206   5.37278  37.91028
  -8.75981   3.62202  38.97271
  -8.72988   2.78405  40.64865
  -8.11637   1.72162  42.33956
  -8.11637  -0.32841  43.76111
  -8.84959  -2.33356  45.13778
 -10.03173  -3.44087  46.42466
 -11.25876  -3.60548  47.32249
 -12.24637  -3.56058  47.41227
 -13.12923  -3.41095  47.21774
 -13.96720  -2.84232  47.69658
 -14.93984  -1.82479  49.20792
 -16.19680  -1.00178  51.22803
 -17.70814  -1.13646  53.15836
 -19.74321  -2.75254  54.89415
 -22.15238  -5.14674  56.39053
 -24.03781  -7.21174  57.33324
 -24.83089  -8.79790  56.95915
 -24.72614  -9.75558  55.10364
 -24.09767  -9.36652  52.17075
 -23.13999  -7.90007  48.38492
 -22.60129  -6.46355  43.80601
 -22.97538  -5.20660  39.00264
 -23.79839  -4.33870  34.67811
 -24.84585  -4.62301  31.35616
 -25.38455  -5.56573  28.73750
 -25.17506  -6.16428  26.52286
 -24.02285  -3.97957  23.82939
 -21.44908   0.32999  20.85160
 -17.81289   4.20561  17.81395
 -13.99713   5.97133  14.95588
 -11.04927   5.23811  12.78613
  -9.40325   2.24535  11.64888
  -9.25362  -1.95946  10.90070
 -10.34597  -6.28399   9.95798
 -12.54564 -10.14464   9.04519
 -14.98474 -12.25453   8.49153
 -16.81031 -12.89797   8.16233
 -17.49865 -13.54141   7.59371
 -17.01981 -14.57391   6.39660
 -15.64314 -14.12500   4.81045
 -13.32376 -11.08736   3.37392
 -11.09416  -7.24167   2.52099
 -10.24122  -4.32374   1.89251
 -11.25876  -2.72261   1.65309
 -14.58071  -1.88464   1.86259
 -19.54868  -1.43573   2.32646
 -24.65133  -1.27113   2.64070
 -28.84118  -1.15142   2.80530
 -31.68429  -0.26856   3.37392
 -32.58212   1.33257   5.12468
 -32.13321   2.14061   7.75831
 -31.32516   0.95847  10.37696
 -30.89121  -1.39084  12.30729
 -31.07078  -3.80000  13.60914
 -31.71422  -6.23910  14.26754
 -32.79161  -9.44134  14.26754
 -34.69201 -12.86804  13.96827
 -36.87672 -14.34946  13.59417
 -37.78951 -13.72098  13.14526
 -36.60737 -12.91293  13.11533
 -33.85404 -13.69105  14.14783
 -30.84632 -15.33706  15.68910
 -28.09299 -15.71116  17.03584
 -25.53419 -14.48413  18.42747
 -23.94803 -12.06000  19.34026
 -23.36444  -9.09718  19.63953
 -22.91553  -5.85004  19.83406
 -21.25455  -2.72261  19.87895
 -18.05231  -0.49301  19.66946
 -13.29383   0.71905  19.66946
  -7.89191   1.21286  20.16326
  -2.29547   1.61688  21.01620
   2.65754   2.21543  22.12352
   6.72768   2.91872  23.05127
   9.60072   3.47238  23.03631
  11.12703   4.25050  22.15344
  11.69565   5.14832  20.29794
  11.23177   6.21075  17.33511
  10.19927   7.88669  13.38468
   9.84014  10.11629   8.91052
  10.76790  11.85209   4.84037
  12.48873  11.82216   1.44360
  14.26942  10.43053  -1.72872
  15.45155   9.56263  -5.14045
  15.82565  10.02651  -8.88139
  15.57126  10.99915 -12.92161
  14.74826  11.59770 -16.94686
  13.23692  11.83713 -20.53816
  11.24674  12.01669 -23.94990
   9.52590  11.95684 -27.25689
   8.29888  11.47799 -30.63870
   7.53572  10.28089 -34.21504
   7.32623   8.50021 -38.00087
   7.68536   6.43521 -41.96627
   8.61311   4.25050 -45.93167
   9.48101   2.46981 -50.12152
  10.10949   1.40738 -54.53583
  10.70804   0.85373 -59.00999
  11.44126   0.04568 -63.27466
  11.97996  -1.45069 -66.89589
  12.80297  -3.32116 -69.40981
  14.31431  -5.52084 -70.81640
  16.34938  -7.79533 -71.53466
  18.29467  -9.36652 -72.02846
  19.73119  -9.51616 -72.49234
  20.52427  -8.31906 -72.65694
  20.94325  -6.32888 -72.40256
  21.30238  -4.75769 -71.28028
  22.11043  -4.96718 -68.93097
  23.32249  -7.30152 -65.17506
  24.63930  -9.93515 -60.10235
  26.27035 -11.55123 -54.44605
  27.82658 -12.56877 -49.44815
  28.29046 -13.33192 -45.55757
  27.46745 -13.01768 -42.95388
  26.27035 -10.68333 -41.57721
  25.23785  -6.55334 -41.44254
  24.63930  -1.95946 -42.59475
  24.68419   1.33257 -44.13601
  25.35756   2.87383 -45.03384
  26.47984   3.47238 -44.97398
  28.24557   3.86144 -43.89659
  30.25071   3.68188 -41.96627
  31.49270   2.73916 -39.90127
  31.71716   1.93112 -38.28518
  31.13357   1.88622 -37.46218
  29.84669   2.60448 -37.89613
  27.99118   3.56217 -39.39250
  26.21050   4.68445 -40.84399
  25.25282   5.94140 -41.51736
  25.34260   6.62974 -41.68196
  26.39006   6.01622 -42.13087
  27.91636   4.17568 -43.20826
  29.08354   2.11068 -44.62982
  29.38281   1.19789 -46.27583
  29.12843   1.60191 -47.95177
  28.48499   2.08075 -49.11895
  27.63205   2.05083 -49.71750
  27.12329   1.90119 -49.58282
  27.00358   2.97858 -49.05909
  27.54227   4.65452 -49.19377
  27.49738   5.02861 -50.27116
  26.13568   4.71438 -52.06681
  24.62434   5.19322 -53.63800
  23.00825   6.88412 -55.22416
  21.87101   9.32321 -57.24427
  21.72137  11.67252 -59.45890
  21.78122  13.06415 -61.14981
  21.52684  12.27107 -61.94289
  20.62901   9.00897 -62.46662
  19.22242   4.83409 -62.40677
  17.93554   1.58695 -61.16477
  17.48662   0.13546 -59.33919
  17.68115   0.04568 -57.04974
  18.18992   0.52452 -54.05699
  18.56401   1.25775 -50.46568
  18.24978   2.02090 -46.84445
  16.94793   3.27785 -43.47761
  14.61358   4.32532 -40.27536
  11.54601   4.31035 -37.02823
   8.26895   3.66691 -34.05044
   5.18641   3.35267 -31.85077
   2.94185   3.60706 -30.07008
   1.26591   3.75669 -28.33428
  -0.54471   3.99611 -26.67331
  -2.43014   4.43006 -25.35649
  -3.97141   4.87898 -24.56342
  -4.89916   4.81912 -23.74041
  -5.40793   4.11582 -22.78273
  -5.58749   3.98115 -21.98965
  -5.28822   5.34285 -21.94476
  -4.94405   7.69216 -22.30389
  -4.95902   9.50278 -22.72287
  -5.48275  10.68492 -23.21668
  -5.64735  11.68749 -22.97726
  -4.68967  12.33093 -22.73784
  -3.11847  13.25868 -22.99222
  -1.26297  15.24886 -23.29150
   0.17355  18.04709 -23.05208
   0.62247  20.72560 -22.43856
   0.05384  21.77306 -21.31628
  -1.21808  20.36647 -19.81990
  -2.63963  16.93977 -17.99432
  -3.61228  12.60028 -15.25596
  -3.65717   8.44035 -11.91904
  -2.56481   5.23811  -8.71679
  -0.79909   3.00851  -5.52951
   1.14620   1.36249  -2.38712
   3.07652   0.27014   0.74030
   4.54297  -0.05906   4.13708
   5.18641   0.68912   7.63860
   5.21634   2.35010  10.99048
   4.52801   3.68188  14.31243
   2.85207   4.17568  18.05337
   0.44290   4.37021  21.95892
  -1.71188   4.80416  25.66993
  -2.90898   5.07351  28.79735
  -3.22322   4.50488  30.99703
  -2.98380   2.93369  32.17916
  -2.86409   1.03329  32.59815
  -3.25315  -0.41819  32.20909
  -4.33054  -1.70508  31.25141
  -6.41050  -3.35109  30.41344
  -9.11894  -4.84747  30.39848
 -12.09673  -5.71537  31.32623
 -14.49093  -6.28399  32.47844
 -15.32890  -7.63073  33.30145
 -15.17926  -8.87272  33.39123
 -14.67050 -10.87786  33.51094
 -13.99713 -13.52645  33.24159
 -13.95224 -14.96297  32.19413
 -14.64057 -15.02282  30.77257
 -15.49350 -15.09764  29.30612
 -16.78039 -15.87576  27.82471
 -18.26180 -17.35717  26.70243
 -19.39905 -19.06304  26.31337
 -19.69832 -19.37728  25.96920
 -18.72568 -18.44953  25.44547
 -16.58586 -18.34478  24.51772
 -14.35626 -19.70648  23.35055
 -12.36608 -21.17293  22.13848
 -10.51057 -20.93351  20.52239
  -8.32586 -19.31742  18.71178
  -5.99152 -18.26996  17.27526
  -3.94148 -18.18018  16.82635
  -2.07101 -18.38967  18.08330
   0.15859 -19.19771  20.85160
   2.68746 -20.85869  23.97902
   5.08167 -22.38499  26.85206
   6.95214 -22.80398  29.06670
   8.37369 -21.98097  30.00942
   9.27152 -20.36489  29.53058
   9.33137 -18.28492  28.48311
   8.37369 -15.60641  28.07909
   6.83243 -12.55380  28.30355
   5.18641 -11.01254  28.57290
   3.19623 -11.05743  28.39333
   0.93670 -11.29685  28.09406
  -0.57463 -10.95268  27.67507
  -0.82902 -10.33917  26.83710
  -0.24543  -9.84536  25.58015
   0.83196  -9.53112  24.63743
   2.02906  -9.66580  24.59254
   2.70243 -10.14464  25.40058
   2.71739 -10.65341  26.10388
   1.50533 -10.56362  26.55279
  -0.51478  -9.42638  27.31594
  -1.89145  -8.00482  28.42326
  -2.43014  -6.89750  29.44080
  -2.60971  -5.19163  30.47329
  -2.62467  -2.01932  31.34119
  -2.93891   2.30521  32.11931
  -3.85170   6.16586  32.97224
  -5.49771   8.05129  34.18431
  -7.74228   8.14108  35.86025
