********************************************************************************
              CENTRO DE INSTRUMENTACION Y REGISTRO SISMICO  A.C.

    Anaxagoras 814, Col. Narvarte, Benito Juarez, C.P. 03020 Mexico, D.F.
           Tels. 5687 45 42/ 5687 45  82             Fax. 5669 25 12
********************************************************************************
ARCHIVO ESTANDAR DE ACELERACION:
VERSION DEL FORMATO                    : 2.0
NOMBRE DEL ARCHIVO                     : RM4820170919181440
FECHA Y HORA DE CREACION               : 25/SEP/17, 14:11
REF. CATALOGO ACELEROGRAMAS, SMIS 1996 : REGISTRO No.     /PAG.


================================================================================
DATOS DE LA ESTACION:
NOMBRE DE LA ESTACION                  : ESC. PRIM. "RODOLFO MENENDEZ"
CLAVE DE LA ESTACION                   : RM48
LOCALIZACION DE LA ESTACION            : Del. Cuauhtémoc, Col. Centro, entre    
                                       : Loreto y San Ildefonso.                
                                       :                                        
                                       :                                        
                                       : 
COORDENADAS DE LA ESTACION             : 19.4359 LAT. N
                                       : 99.1280 LONG. W
ALTITUD (msnm)                         : 2232
TIPO DE SUELO                          : Arcilloso, zona lago                
                                       :                           
                                       : 
INSTITUCION RESPONSABLE                : CIRES
                                       : 

================================================================================
DATOS DEL ACELEROGRAFO:
MODELO DEL ACELEROGRAFO                : RADESD
NUMERO DE SERIE DEL ACELEROGRAFO       : 238
NUMERO DE CANALES                      : 3
ORIENTACION C1-C6 (rumbo;orientacion)  : /N00E/+V/N90W
ORIENTACION C7-C12 (rumbo;orientacion) : 
VEL. DE MUESTREO, C1-C6 (muestras/s)   : /100/100/100
VEL. DE MUESTREO, C7-C12 (muestras/s)  : 
ESC. COMPLETA DE SENSORES, C1-C6, (g)  : /0.5/0.5/0.5
ESC. COMPLETA DE SENSORES, C7-C12, (g) : 
FREC. NAT. DE SENSORES, C1-C6, (Hz)    : /32/33/30
FREC. NAT. DE SENSORES, C7-C12, (Hz)   : 
AMORTIGUAMIENTO DE SENSORES, C1-C6     : /0.800/0.795/0.700
AMORTIGUAMIENTO DE SENSORES, C7-C12    : 
INTERVALO DE MUESTREO, C1-C6, (s)      : /0.01/0.01/0.01
INTERVALO DE MUESTREO, C7-C12, (s)     : 
UMBRAL DE DISPARO, C1-C6, (Gal)        : /4.49/11.97/5.99
UMBRAL DE DISPARO, C7-C12, (Gal)       : 
MEMORIA DE PREEVENTO (s)               : 44.0
TIEMPO DE POSEVENTO (s)                : 139.0


================================================================================
DATOS DEL SISMO:
FECHA DEL SISMO (GMT)                  : 19/SEP/17
HORA EPICENTRO (GMT)                   : 18:14:40.0
MAGNITUD(ES)                           : /Mc=7.1
COORDENADAS DEL EPICENTRO              : 18.40 LAT. N
                                       : 98.72 LONG. W
PROFUNDIDAD FOCAL (km)                 : 57
FUENTE DE LOS DATOS EPICENTRALES       : SSN
                                       : INSTITUTO DE GEOFISICA, UNAM

================================================================================
DATOS DE ESTE REGISTRO:
HORA DE LA PRIMERA MUESTRA (GMT)       : 18:15:03.00
EXACTITUD DEL TIEMPO (s)               : 0.01
DURACION DEL REGISTRO (s), C1-C6       : /271.0/271.0/271.0
DURACION DEL REGISTRO (s), C7-C12      : 
NUM. TOTAL DE MUESTRAS, C1-C6          : /27100/27100/27100
NUM. TOTAL DE MUESTRAS, C7-C12         : 
ACEL. MAX. (Gal), C1-C6                : /61.07271/37.8507/78.01341
ACEL. MAX., C1-C6, EN LA MUESTRA       : /7034/4956/6546
ACEL. MAX. (Gal), C7-C12               : 
ACEL. MAX., C7-C12, EN LA MUESTRA      : 
UNIDADES DE LOS DATOS                  : Gal (cm/s/s)
FACTOR DE DECIMACION                   : 1
FORMATO DATOS (FORTRAN,10 campos/dato) : 3F10.5


================================================================================
CALIDAD DEL ACELEROGRAMA:
REGISTRO DIGITAL COMPLETO CON TIEMPO ABSOLUTO CORRECTO.


================================================================================
COMENTARIOS:














================================================================================
DATOS DE ACELERACION:
---------+---------+---------+---------+---------+---------+---------+---------+
   CANAL-1   CANAL-2   CANAL-3   CANAL-4   CANAL-5   CANAL-6   CANAL-7   CANAL-8
      N00E        +V      N90W
---------+---------+---------+---------+---------+---------+---------+---------+
[...]
 -43.72971   1.20471  28.72279
 -43.01145   1.36931  25.92456
 -41.64975   1.96786  22.21355
 -40.19826   3.77848  17.69449
 -39.13584   6.00808  14.89627
 -38.50736   6.65152  14.38750
 -37.89385   4.72119  15.36015
 -36.06827  -0.42634  17.63464
 -32.71638  -8.97065  20.05877
 -28.73602 -18.60731  20.95659
 -25.20458 -25.11654  19.69964
 -22.75052 -25.78991  17.88902
 -22.16693 -21.27086  17.49996
 -23.78302 -14.49227  18.57736
 -26.92541  -8.67137  20.61243
 -31.27986  -5.36438  21.79456
 -35.20037  -3.67348  22.37815
 -37.44493  -2.34170  22.58764
 -37.86392  -1.15956  23.79971
 -36.38251  -2.46141  27.89978
 -34.37736  -5.57387  33.97506
 -32.86602  -7.05529  39.85582
 -32.34229  -5.58884  44.43473
 -32.83609  -3.49391  46.87383
 -33.94341  -3.20960  47.20303
 -35.51461  -6.32206  47.14317
 -38.25298 -11.81376  47.50230
 -41.90413 -15.77916  48.05596
 -44.74725 -15.10579  48.40013
 -46.48304 -10.39220  48.93883
 -48.00935  -5.00525  50.45017
 -50.34369  -0.99496  52.87429
 -53.14192   0.38170  55.98676
 -56.07481  -0.50116  58.36599
 -57.88543  -2.55119  58.57549
 -57.75076  -5.52898  55.95683
 -56.26934  -8.62648  51.91661
 -54.77297 -10.96083  48.57970
 -53.71054 -12.26267  47.15814
 -52.13935 -12.44224  45.93111
 -50.73275 -12.78641  42.93836
 -49.80500 -14.49227  36.71343
 -49.14659 -15.03097  28.49833
 -48.18891 -12.98093  21.06134
 -46.55786  -7.71369  16.64703
 -44.10381  -1.36906  16.36272
 -41.18587   3.16496  19.84928
 -38.05845   4.70623  25.08659
 -35.05073   3.22482  31.10202
 -32.40215   0.96529  36.30941
 -30.03787  -0.74058  39.69122
 -27.09001  -2.19206  40.82847
 -23.04979  -3.40413  40.37955
 -18.91980  -4.90050  39.70619
 -16.36099  -5.27460  38.16492
 -15.56791  -4.22713  36.41416
 -15.32849  -1.87782  34.73822
 -14.65513   0.68098  35.12727
 -13.14379   1.23464  39.37698
 -10.86929   0.05250  45.10810
  -7.23310  -1.80301  50.64469
  -2.23520  -3.89793  54.47542
   2.89737  -3.71837  56.40574
   8.00001  -1.53366  57.63277
  12.27964   1.84815  58.44081
  15.97569   4.84090  57.82730
  19.37247   6.02304  54.78966
  21.69185   5.99311  49.13335
  22.45500   5.94822  41.77118
  22.88895   6.02304  34.85793
  24.01123   4.64638  30.02463
  25.89667   0.92040  27.39101
  27.67735  -3.64355  26.43333
  28.66496  -8.32721  26.04427
  28.73978 -11.87362  24.45811
  28.33576 -13.29517  21.36061
  27.31822 -12.56195  17.67953
  25.38790 -10.03307  13.84881
  22.99370  -7.75858   9.32975
  20.58453  -6.18739   3.28439
  18.74399  -5.81329  -3.95807
  18.22026  -6.51659 -11.72426
  18.44471  -5.97789 -18.29335
  18.11551  -4.18224 -21.55545
  16.63410  -1.50373 -21.85472
  14.31471   0.77076 -20.02915
  11.53146   2.47663 -17.35063
   9.10733   5.09529 -15.24074
   7.07225   8.79134 -14.19328
   5.77041  14.76188 -15.15096
   5.09704  21.34593 -16.75208
   4.45360  26.32886 -17.88933
   2.64298  29.08220 -18.87694
  -0.03553  28.73803 -20.04411
  -2.78886  27.78035 -23.63541
  -4.61444  26.34383 -28.33403
  -5.19803  23.51568 -33.10747
  -4.52466  20.67256 -37.41704
  -3.32756  18.12872 -40.55943
  -2.33995  17.26083 -42.53464
  -1.57680  18.29332 -43.43247
  -0.55926  18.51778 -43.79160
   0.26374  17.23090 -45.16826
   0.00936  13.44507 -47.21830
  -0.33481   7.95337 -50.79464
   0.08418   3.46424 -56.72029
   2.19407  -0.62087 -62.18206
   5.90508  -3.31435 -63.37916
  10.27450  -5.91804 -57.40862
  13.50667  -9.31481 -49.62746
  14.62895 -10.00315 -45.45258
  15.22750  -9.70387 -42.22040
  17.48703  -7.93815 -39.51196
  21.55717  -4.88554 -35.14254
  25.49264  -4.43663 -28.34900
  28.47043  -3.23953 -25.02704
  31.04420  -1.80301 -23.36606
  32.54057  -2.07235 -23.20146
  33.25884  -1.90775 -24.27885
  33.69278  -3.00011 -23.53067
  34.12673  -1.05482 -23.44088
  34.96470   3.17993 -22.01933
  35.56325   5.73873 -19.44556
  35.06945   8.46213 -17.00647
  33.04934   8.23768 -12.24799
  31.16391   7.68402  -8.16288
  31.37340   8.11797  -4.51173
  33.03438   7.72891  -1.07006
  34.51579   9.19536  -0.83064
  35.72786   9.56945  -1.95292
  36.73043   9.91362  -5.22999
  36.23662  11.84394  -9.18042
  34.23148  14.07354 -12.24799
  32.06173  18.06887 -14.94147
  30.86463  18.56267 -14.52248
  30.28105  14.32793 -12.95129
  29.47300   7.28000 -10.42241
  28.62007  -0.87525  -6.74133
  28.50036  -4.16728  -3.86829
  28.85949  -5.05014  -0.68100
  30.10148  -5.76840   0.99494
  31.31355  -6.89068   1.36903
  30.52047 -10.06300   2.07233
  28.05145 -10.67652  -0.21713
  25.20833  -9.19510  -4.99057
  22.61960  -6.56148  -9.31509
  19.95605  -4.30195 -11.14067
  15.67642  -3.73333 -10.96111
  10.69348  -2.17710  -9.92861
   6.60838  -0.53109  -6.95082
   3.88497   1.59377  -4.13763
   2.88240   4.27228  -2.55147
   3.04700   4.91572  -1.93796
   2.74773   4.13761  -3.01535
   1.67034   1.04011  -4.81100
  -0.15524  -1.48877  -7.75886
  -2.33995  -1.35409 -10.72169
  -5.19803   0.11236 -13.60969
  -8.57984   4.22739 -16.22835
 -12.15618   6.87598 -17.23092
 -14.87958   7.66905 -18.30831
 -16.80991   6.59166 -18.05393
 -18.20154   3.25475 -15.83929
 -18.78512   0.59120 -12.33777
 -18.54570  -2.04243  -6.75629
 -16.97451  -3.37420  -1.51897
 -15.40331  -3.80815   2.74570
 -14.70002  -5.05014   5.02019
 -14.80476  -4.28699   3.65849
 -15.04418  -2.65594   0.84530
 -14.70002   0.36674  -2.85075
 -13.39817   3.89819  -6.23256
 -11.48281   5.00551  -8.37238
  -9.53752   4.30221  -9.85379
  -7.75683   0.36674  -9.92861
  -6.48491  -4.45159  -9.28517
  -5.75169  -7.87829  -8.13296
  -4.70422 -10.09293  -5.75372
  -3.95604  -8.97065  -4.22742
  -3.82136  -5.88811  -2.61133
  -4.89875  -1.69826  -2.34198
  -6.99368   3.55402  -3.88325
  -9.56745   7.63913  -6.27745
 -12.67991  11.08079 -10.04832
 -14.95440  12.06840 -13.32538
 -16.86976   9.13550 -16.25828
 -18.62052   4.15257 -19.10139
 -20.38625  -2.71579 -20.67259
 -21.65817  -7.51916 -20.70252
 -22.78045  -9.37467 -18.14371
 -22.75052  -9.88344 -14.49255
 -21.67313  -9.62905 -11.43995
 -19.62309 -10.01811  -8.05814
 -17.51320  -9.71883  -6.14278
 -15.76244  -7.96807  -6.26249
 -14.93944  -5.28956  -7.71397
 -15.22375  -1.05482  -9.68919
 -16.12157   3.70366 -10.49723
 -18.03694   8.73148  -9.37495
 -21.23918  12.14322  -6.54680
 -24.80055  11.63445  -4.34713
 -28.22726   8.89608  -4.91575
 -30.51671   5.14018  -6.14278
 -30.24736   0.47149  -6.42709
 -28.49660  -3.17967  -6.44205
 -27.32943  -5.15489  -6.44205
 -27.17979  -6.33702  -8.08807
 -26.98526  -6.99543 -11.97864
 -27.32943  -7.07025 -17.73969
 -28.01776  -4.99029 -24.06936
 -27.49403  -1.84790 -30.63845
 -24.48632   0.72587 -37.83602
 -20.25157   0.47149 -42.84888
 -16.63034  -2.88040 -45.42265
 -13.57773  -5.16985 -47.26319
 -11.52770  -5.75344 -47.66721
 -10.30067  -3.94282 -46.32047
  -9.01379  -0.71065 -43.64196
  -6.05096   0.45652 -39.75138
  -2.20528  -1.18949 -37.16265
   2.35867  -4.76583 -35.65131
   6.51860  -7.78851 -35.08269
   9.61609  -8.16260 -35.30715
  12.54899  -6.83083 -34.96298
  15.60160  -4.16728 -33.57135
  17.33739  -2.31177 -29.72566
  16.76877  -1.71322 -24.15914
  15.51182  -0.74058 -18.00904
  14.68881   0.11236 -12.12828
  14.47932   1.21967  -7.25009
  14.89830   2.13246  -3.10513
  15.91584   3.86826  -0.50144
  17.78631   7.69898   1.06976
  20.15058  13.13083   1.50370
  22.48493  19.50539   0.38142
  24.83424  22.70763  -0.39669
  26.62989  20.68753  -0.92042
  26.73464  14.76188  -1.77336
  24.04116   7.71395  -2.53651
  20.24036   4.37703  -3.35952
  17.83120   4.73616  -4.16756
  18.26515   8.82126  -4.69129
  21.07833  14.86662  -4.31720
  23.39772  19.69992  -2.85075
  24.29554  22.45325  -1.60876
  24.47511  20.38825  -1.99781
  26.12112  13.78923  -5.72379
  28.59014   5.85844 -11.69433
  30.29601   1.59377 -16.10864
  30.28105   4.30221 -17.70976
  30.26608  10.67677 -16.18346
  30.40076  16.07869 -12.75676
  28.84453  17.17104  -8.26763
  24.93898  15.13597  -4.00296
  21.15315  12.89141  -2.05767
  20.39000  11.67934  -3.19492
  23.09844  11.43992  -6.56176
  27.04887  10.24282  -8.16288
  29.63761   8.76141  -7.28002
  30.28105   8.68659  -6.44205
  29.71242   9.35996  -7.10046
  28.84453   9.13550 -10.27277
  28.36569   5.42449 -14.47759
  27.69232  -2.55119 -17.82947
  26.95909 -13.02583 -19.56527
  26.83938 -23.56031 -20.13389
  28.33576 -29.65056 -20.95690
  30.95442 -30.47357 -21.21128
  33.12416 -28.27390 -20.40324
  34.02199 -25.34100 -19.13132
  32.85481 -23.26104 -17.57509
  29.83213 -21.34568 -16.40792
  25.85177 -20.37303 -15.34549
  22.24551 -20.56756 -15.22578
  19.92612 -20.94166 -15.80937
  19.52210 -20.40296 -15.33053
  20.30022 -17.44014 -14.16335
  21.72178 -13.47474 -11.70930
  23.18822 -10.67652  -9.22531
  24.66964  -9.26992  -7.65412
  25.29811  -8.44692  -6.35227
  24.43022  -5.64869  -5.42452
  22.82909  -1.26431  -4.42194
  21.30279   1.05507  -2.62629
  19.68670  -1.03985   0.78544
  17.95091  -8.53670   6.00780
  15.55671 -17.72445  10.48196
  13.34207 -23.75484  12.68163
  12.13001 -24.68260  13.36997
  11.99533 -20.74713  13.36997
  11.98037 -15.46492  14.14808
  11.68109 -11.72398  15.09080
  11.27707  -9.67394  15.30029
  10.13983  -7.54909  14.23787
   9.34675  -1.75811  11.11044
   9.97522   7.42963   8.41696
  10.31939  16.04876   9.01551
   9.66099  20.94191  12.71156
   8.85294  20.59774  17.70946
   7.64088  16.03380  21.33069
   6.21932  11.29028  22.07888
   5.78537   8.88112  20.50768
   6.23428   9.33003  17.64960
   7.11715  10.84137  16.03352
   7.50620  13.72938  14.92620
   6.68320  18.45793  13.10062
   5.15689  23.50071  11.81374
   3.25650  27.27158  11.64913
   0.72762  27.54093  12.56192
  -2.41477  23.30618  14.07326
  -5.36263  17.35061  15.95870
  -6.14075  12.81659  18.41275
  -4.25531  11.26036  21.33069
  -1.65162  12.32278  25.13148
  -0.43955  13.51989  30.45858
  -1.72644  13.86405  36.38423
  -4.89875  13.19068  40.51423
  -8.89408  13.16075  41.48687
 -12.59013  12.78666  40.72372
 -15.43324  10.06326  40.21495
 -18.63549   4.73616  41.66644
 -22.93008  -1.90775  45.67673
 -28.06265  -6.14250  50.13593
 -32.59667  -6.96550  52.50020
 -35.12555  -5.64869  50.74944
 -36.06827  -4.72094  46.93368
 -36.90624  -6.51659  43.34238
 -38.31283  -9.71883  41.06789
 -40.76689 -12.54699  41.05292
 -43.49029 -13.13057  42.27995
 -45.74982 -11.30499  43.46209
 -47.63525 -10.33235  44.41977
 -49.28127 -11.46959  45.24278
 -50.67290 -14.59702  46.94865
 -50.91232 -18.12847  49.37277
 -49.10170 -20.20843  51.49763
 -44.83703 -19.95405  52.82940
 -39.31540 -17.08100  53.27832
 -33.35983 -13.28021  54.35571
 -27.92798  -9.91336  56.95940
 -24.50128  -7.20492  60.52078
 -22.79541  -4.66108  64.33653
 -22.31657  -1.53366  67.70338
 -21.46364   2.49159  70.18737
 -20.19172   6.63656  71.98302
 -18.63549  10.00340  74.03305
 -17.52817  11.27532  76.53200
 -17.01940  10.66181  78.01341
 -16.48070   8.98587  77.96852
 -15.70259   6.48692  77.13055
 -14.95440   4.06279  75.27504
 -13.87701   2.44670  73.80860
 -13.53284   2.88065  72.61149
 -14.07154   5.88837  70.45671
 -15.52302   8.55192  66.76066
 -17.39349   9.15047  60.55070
 -20.11690   6.38217  52.66480
 -23.43885   1.75837  44.89861
 -26.70095  -1.36906  38.77843
 -28.45171  -2.91032  36.20467
 -28.06265  -5.18482  36.59372
 -26.74584  -9.79365  38.80836
 -26.02758 -16.33282  41.75622
 -26.59621 -21.22597  43.61173
 -27.77834 -21.57013  43.80626
 -28.39186 -17.58977  42.80368
 -28.40682 -11.81376  40.52919
 -28.27215  -7.27974  37.52148
 -28.13747  -4.61619  33.52615
 -27.89805  -3.10485  28.63300
 -27.55389  -2.16214  23.65007
 -26.83563  -1.15956  19.60986
 -25.80313  -0.02232  17.44011
 -24.68084  -0.14203  17.52989
 -23.40893  -0.65080  17.97881
 -21.58335  -1.54862  18.27808
 -19.06943  -2.56616  17.26054
 -15.26864  -4.13735  15.03094
 -11.31821  -6.21731  12.72653
  -8.57984  -7.59398  11.45461
  -8.38531  -6.74105  11.23015
  -9.11853  -2.86543  12.59185
  -9.02875   2.47663  14.71671
  -7.99625   7.33985  16.13826
  -7.03857  10.87130  15.79410
  -6.67944  13.81916  13.99844
  -6.08089  17.05133  10.51189
  -4.27028  19.44553   5.24465
  -2.20528  19.66999  -1.20474
  -0.20013  17.59003  -7.17528
   1.55063  13.48996 -10.34759
   1.40099   8.79134 -11.58959
   0.63784   5.51427 -11.23046
   0.69769   3.26971  -8.88114
   1.50574   0.11236  -5.33473
   2.85247  -5.21474  -1.95292
   5.15689 -10.64659  -0.03756
   7.47628 -13.95358  -0.42662
  10.15479 -13.29517  -3.04528
  13.10265  -8.52173  -7.42966
  14.86837  -3.58369 -10.72169
  14.62895  -0.83036 -13.44509
  11.87562   0.14228 -17.26085
   6.95254  -2.01250 -21.18136
   1.04186  -5.63373 -26.10443
  -3.10310  -9.07539 -32.89798
  -4.27028 -12.77144 -39.10794
  -2.71404 -14.94119 -42.57953
   0.05425 -14.92622 -41.98098
   3.27146 -12.18786 -38.61414
   6.68320  -7.56405 -33.72099
  10.64859  -3.32931 -29.24682
  14.15011  -0.29167 -26.82269
  16.42460   0.95033 -26.52342
  16.82863   2.41677 -28.12454
  16.51439   5.06536 -31.13226
  16.39468   7.74387 -33.46660
  17.56185  11.78409 -35.96555
  19.53707  15.13597 -37.02798
  20.21044  17.08126 -37.68638
  18.53450  18.89188 -40.30504
  15.12276  18.93677 -43.20801
  10.85809  17.50025 -45.48250
   6.45874  14.13340 -46.21573
   2.40356   9.85376 -46.30551
  -0.70890   6.27743 -46.48507
  -2.14542   3.31460 -47.12852
  -1.39723   3.10511 -50.40558
   2.14918   6.06793 -56.06188
   7.44635   9.22529 -62.57112
  13.83587  10.67677 -68.25735
  19.67174   8.40228 -72.56691
  23.00866   3.92811 -75.09578
  23.33786  -0.95007 -75.05089
  22.00609  -4.72094 -73.40488
  20.40497  -6.11257 -71.54937
  20.16555  -7.68376 -69.72379
  21.78163  -9.28489 -68.25735
  24.80431 -10.04804 -67.01535
  28.87445  -7.81844 -67.03032
  33.55811  -1.38402 -68.00296
  38.27170   5.25989 -68.00296
  41.96774   9.68916 -67.88325
  43.64369   9.80887 -66.89564
  42.88053   7.17525 -65.41423
  40.17209   5.25989 -63.60362
  37.20927   5.00551 -60.98496
  34.66543   5.81355 -58.69550
  32.49568   5.61902 -56.37612
  30.81974   4.90076 -54.40090
  29.35329   5.76866 -53.56293
  28.93431   7.59424 -54.19141
  29.20366   9.44974 -55.32866
  28.51532   9.06068 -55.77757
  26.27076   7.39971 -56.13670
  22.45500   5.69384 -56.63050
  17.83120   3.64380 -56.60058
  13.26725   1.98283 -56.52576
   9.85551  -0.11210 -56.57065
   8.04490  -2.40156 -57.54329
   7.50620  -4.16728 -59.02471
   7.53613  -5.90308 -59.87764
   7.40146  -7.04032 -61.14956
   6.45874  -8.31224 -61.44883
   5.68062 -10.15278 -60.70065
   5.18682 -12.80137 -60.50612
   5.12697 -15.18061 -60.16195
   5.72552 -16.21311 -59.08456
   7.19196 -14.44738 -58.57579
   9.70588 -12.17289 -57.72286
  12.17490 -12.36742 -56.66043
  14.31471 -15.55470 -55.89728
  15.67642 -19.41535 -54.87974
  15.75124 -21.61502 -53.50308
  15.31729 -20.47778 -51.66254
  15.43700 -17.72445 -48.63986
  16.05051 -14.34264 -45.31790
  17.26258 -10.75133 -41.77149
  19.29765  -6.59141 -38.53932
  21.42250  -1.87782 -35.87577
  23.26304   1.44413 -32.23957
  24.53496   2.46167 -28.37892
  25.91163   2.86569 -24.36864
  27.31822   1.62370 -19.23607
  28.14123   0.57623 -15.09111
  28.23101   0.56127 -11.51477
  27.82699   1.15982  -8.19281
  27.31822   1.72844  -5.54423
  26.43536   0.92040  -3.44930
  25.80688   0.78572  -2.07263
  25.05869   0.48645  -0.90546
  24.11598   0.26199  -0.20216
  22.78420   0.23207   0.44128
  20.83891  -0.47123   2.04240
  18.78888  -1.44388   4.79573
  16.55928  -3.83808   8.28229
