**************************************************************************************
                       INSTITUTO DE INGENIERIA, UNAM
                 Grupo de Procesamiento y Analisis Sismico
                   Coordinacion de Ingenieria Sismologica
           Ciudad Universitaria, Coyoacan, Mexico D.F., C.P. 04510
**************************************************************************************
ARCHIVO ESTANDAR DE ACELERACION:
VERSION DEL FORMATO                    : 2.0
NOMBRE DEL ARCHIVO                     : SCT21709.191
FECHA Y HORA DE CREACION               : Tue Sep 19 15:05:44 2017
REF. CATALOGO ACELEROGRAMAS, SMIS 1995 : REGISTRO NO.      /PAG.    


================================================================================
DATOS DE LA ESTACION:
NOMBRE DE LA ESTACION                  : SCT B-2.
CLAVE DE LA ESTACION                   : SCT2
LOCALIZACION DE LA ESTACION            : ESTACIONAMIENTO EN EL EDIFICIO DE SCT, AVENIDA
                                       : UNIVERSIDAD ENTRE CUMBRES DE MALTRATA Y XOLA,
                                       : COL. NARVARTE, MEXICO D.F. 
                                       : 
                                       : 
COORDENADAS DE LA ESTACION             : 19.394694 LAT. N
                                       : 99.148678 LONG. W
ALTITUD (msnm)                         : 2240
TIPO DE SUELO                          : ARCILLA
                                       : 
                                       : 
INSTITUCION RESPONSABLE                : INSTITUTO DE INGENIERIA UNAM 
                                       : 

================================================================================
DATOS DEL ACELEROGRAFO: 
MODELO DEL ACELEROGRAFO                : K2
NUMERO DE SERIE DEL ACELEROGRAFO       : 156
NUMERO DE CANALES                      : 3
ORIENTACION C1-C6 (rumbo;orientacion)  : /N90E/V/N00E
ORIENTACION C7-C12 (rumbo;orientacion) : 
VEL. DE MUESTREO, C1-C6 (muestras/s)   : /100/100/100
VEL. DE MUESTREO, C7-C12 (muestras/s)  : 
ESC. COMPLETA DE SENSORES, C1-C6, (g)  : /2/2/2
ESC. COMPLETA DE SENSORES, C7-C12 (g)  : 
FREC. NAT. DE SENSORES, C1-C6, (Hz)    : /51.6/50.6/51.2
FREC. NAT. DE SENSORES, C7-C12 (Hz)    : 
AMORTIGUAMIENTO DE SENSORES, C1-C6     : /0.65/0.66/0.65
AMORTIGUAMIENTO DE SENSORES, C7-C12    : 
INTERVALO DE MUESTREO, C1-C6 (s)       : /0.01/0.01/0.01
INTERVALO DE MUESTREO, C7-C12 (s)      : 
UMBRAL DE DISPARO, C1-C6 (Gal)         : /2/2/2
UMBRAL DE DISPARO, C7-C12 (Gal)        : 
MEMORIA DE PREEVENTO (s)               : 60
TIEMPO DE POSEVENTO (s)                : 60


================================================================================
DATOS DEL SISMO:
FECHA DEL SISMO [GMT]                  : 2017/09/19
HORA EPICENTRO (GMT)                   : 18:14:40
MAGNITUD(ES)                           : /M=7.1
COORDENADAS DEL EPICENTRO              : 18.3353 LAT. N
                                       : 98.6763 LONG. W
PROFUNDIDAD FOCAL (Km)                 : 38.5
FUENTE DE LOS DATOS EPICENTRALES       : SSN
                                       : INSTITUTO DE GEOFISICA, UNAM
De http://www.ssn.unam.mx, el 15/11/2018. Informacion sujeta a cambios
================================================================================
DATOS DE ESTE REGISTRO:
HORA DE LA PRIMERA MUESTRA (GMT)       : 18:13:59.000
EXACTITUD DEL TIEMPO (s)               : 0.0005
DURACION DEL REGISTRO (s), C1-C6       : /317.00/317.00/317.00
DURACION DEL REGISTRO (s), C7-C12      : 
NUM. TOTAL DE MUESTRAS, C1-C6          : /31700/31700/31700
NUM. TOTAL DE MUESTRAS, C7-C12         : 
ACEL. MAX.(Gal), C1-C6                 : /91.68/-41.77/-90.33
ACEL. MAX., C1-C6, EN LA MUESTRA       : /9145/8615/8466
ACEL. MAX.(Gal), C7-C12                : 
ACEL. MAX., C7-C12,EN LA MUESTRA       : 
UNIDADES DE LOS DATOS                  : Gal (cm/s/s)
FACTOR DE DECIMACION                   : 1
FORMATO DATOS (FORTRAN,10 campos/dato) : 3F10.4


================================================================================
CALIDAD DEL ACELEROGRAMA:
REGISTRO DIGITAL COMPLETO CON TIEMPO ABSOLUTO CORRECTO


================================================================================
COMENTARIOS:














================================================================================
DATOS DE ACELERACION:
---------+---------+---------+---------+---------+---------+---------+---------+
   CANAL-1   CANAL-2   CANAL-3
      N90E         V      N00E
---------+---------+---------+---------+---------+---------+---------+---------+
[...]
   28.8316   -6.1113    4.1101
   32.1870   -2.5519    6.8007
   36.4068    1.5617    5.5494
   38.4753    6.6600    3.8112
   37.3947   12.0203    1.9761
   34.8205   17.0563   -1.1828
   32.7137   20.8762   -4.8062
   32.7328   24.2115   -7.6353
   31.0330   26.4610  -10.4705
   28.3549   26.8806  -12.7289
   26.3875   26.1537  -13.7819
   24.0467   23.9378  -14.1734
   23.2543   21.6887  -11.9328
   23.2557   20.1923   -7.8425
   22.1527   18.3282   -5.2422
   19.3268   17.6107   -2.2652
   14.9732   18.7357    1.0892
    9.5526   20.0815    2.3213
    3.5632   20.6479    1.1725
   -3.1653   19.5632   -3.8772
  -11.8786   17.0493  -11.7433
  -20.6536   15.7484  -18.8849
  -28.9431   15.9131  -25.5676
  -36.7222   15.7358  -32.0215
  -42.0862   15.4608  -37.0225
  -47.5312   14.0701  -40.9074
  -52.3002   12.0029  -42.8641
  -53.0163   11.0852  -42.5643
  -53.3293    9.6706  -41.0515
  -55.0268    7.6975  -37.9492
  -55.7706    6.7919  -32.4514
  -55.4534    6.6703  -25.1910
  -54.4276    6.5290  -16.9960
  -53.2039    5.1715   -7.5595
  -51.1602    2.4420    0.8071
  -46.7907   -0.1995    6.2488
  -42.2270   -1.6318    9.9718
  -39.2777   -1.6271   11.3443
  -35.9771   -0.5990    9.3693
  -32.2728    1.0022    5.6023
  -30.4124    1.6473    1.3844
  -30.8891    0.1041   -3.8169
  -32.3808   -2.3948   -8.9114
  -35.5224   -4.7252  -12.8239
  -40.8593   -6.4813  -14.7741
  -46.6167   -7.2012  -13.9470
  -52.8610   -8.0872  -11.6849
  -57.8775  -10.7699   -8.8085
  -60.3979  -14.8035   -7.2274
  -60.9742  -19.0116   -5.7310
  -60.4526  -22.8942   -2.9024
  -62.2044  -27.4620   -0.4549
  -65.0812  -33.4706    2.1459
  -66.4776  -39.0376    4.9984
  -66.8995  -41.5866    9.1925
  -68.1255  -41.3545   12.2265
  -70.7530  -40.0181   12.4618
  -72.6976  -36.8863   11.2573
  -74.1014  -32.3508    7.8996
  -77.1265  -28.4977    4.7683
  -81.3739  -24.6413    3.2279
  -84.6470  -19.3503    2.7634
  -87.6421  -14.1968    2.3625
  -89.8117   -9.7150    2.8906
  -89.8776   -4.8656    3.9955
  -87.8854    0.2164    4.9806
  -84.0618    4.8619    7.5529
  -80.1717    7.6578    9.7534
  -75.5908    9.5644   11.4930
  -70.9168   10.7025   12.6826
  -67.1301   11.2620   13.2612
  -64.3875   12.6747   13.8113
  -63.6625   13.6051   13.5597
  -63.3804   14.3357   13.4315
  -62.3672   15.6278   11.7227
  -59.4324   18.5841    9.3983
  -54.2892   22.8058    7.8448
  -48.6674   25.2700    5.2884
  -42.0147   26.2355    3.5862
  -35.1950   26.4966    4.0133
  -31.3662   25.6209    5.5794
  -30.1621   24.3598    6.8522
  -30.3759   23.8321    8.1582
  -31.4532   22.9391    9.4900
  -32.0585   20.5258    8.6616
  -32.4351   17.4409    6.7666
  -31.9930   14.0990    5.1729
  -29.5989   10.9518    2.4116
  -26.0653    8.1634   -1.9537
  -21.8628    5.9406   -5.5032
  -17.1359    4.8712   -7.8220
  -12.3375    4.7182  -10.1641
   -8.7763    4.9456  -11.4926
   -7.5096    4.9732  -12.0062
   -7.8637    4.3066  -12.5788
   -9.3376    2.8130  -13.2187
  -11.7359    1.3465  -13.6280
  -14.0449    0.4180  -13.6795
  -14.7709    0.3787  -13.1738
  -13.6744    1.1996  -11.3729
  -11.6021    1.1323   -9.0190
   -8.1916   -0.1925   -7.4403
   -2.7649   -3.1582   -7.1877
    3.2105   -8.4118   -7.5207
    8.0539  -13.5854   -7.5792
   11.6113  -17.1026   -7.5231
   14.0185  -19.2792   -7.2667
   15.6431  -19.4691   -7.1011
   16.8869  -18.5640   -7.5867
   19.5392  -18.0302   -7.5960
   24.0299  -17.8183   -6.6521
   28.0134  -18.5569   -6.3410
   31.2907  -19.2408   -6.6436
   33.8728  -19.1725   -7.7766
   34.8219  -18.8811   -9.5214
   34.8177  -17.2949  -10.0495
   34.6807  -15.1473  -10.3863
   33.8948  -13.7763  -11.3378
   33.0402  -12.5806  -11.3359
   32.7707  -11.7643  -10.0350
   32.9055  -12.3495   -8.4240
   34.6713  -13.2168   -6.5346
   37.2651  -13.9185   -4.2032
   39.6040  -14.9714   -3.2929
   42.6249  -15.3312   -4.9629
   45.9770  -14.1888   -7.3243
   49.0068  -11.4196  -10.5281
   51.6259   -7.2498  -14.8718
   52.1260   -2.2820  -18.8297
   51.1319    2.4813  -21.8838
   50.2277    7.9160  -24.3387
   47.1895   12.5217  -27.1407
   44.6345   16.8388  -26.8755
   43.3799   22.6070  -25.9951
   40.7295   25.8286  -25.9614
   38.9707   28.7966  -20.6896
   37.5341   31.1612  -16.7986
   37.7226   31.6538  -15.4425
   40.3955   34.4600  -11.3387
   40.1242   35.5845   -8.7627
   38.7634   33.2784   -5.8087
   41.4298   31.4658   -0.8703
   44.7253   30.0704    0.7290
   45.9817   26.9059    1.5121
   47.9010   23.1178    4.2794
   51.3813   20.4089    3.3046
   55.4935   18.9059   -0.2351
   58.9850   18.6968   -2.2147
   61.5755   18.0377   -5.6384
   64.5033   17.0245  -10.3054
   68.0613   16.1741  -13.8469
   70.6883   14.6987  -16.7060
   70.8076   12.7023  -18.9153
   69.7752    9.7324  -19.0205
   68.8626    5.8713  -16.5254
   66.6364    1.0958  -13.7337
   63.2544   -3.9997  -10.4556
   60.1642   -7.2161   -5.3601
   56.2274   -8.8258   -0.7950
   51.4589   -9.8296    1.6945
   47.5090   -9.6753    3.0253
   42.2774   -9.3427    3.9511
   35.9357  -10.2413    4.2476
   33.2699  -11.7419    3.8893
   33.5758  -13.7038    3.2339
   33.9757  -16.9048    2.8139
   35.0189  -19.8195    3.7340
   36.6781  -20.5006    5.8413
   38.8996  -18.9213    8.2045
   40.6388  -16.4809   10.7320
   40.7384  -15.5328   12.8426
   39.8042  -16.4342   14.4737
   38.7073  -17.7603   16.6694
   36.4419  -19.8836   19.1384
   32.0939  -22.3483   21.7256
   26.8253  -23.1009   24.5323
   21.0258  -22.2079   26.8516
   16.2025  -19.9752   29.3280
    9.7014  -17.9652   30.5330
    2.4223  -17.3636   30.5877
   -1.5940  -16.8856   30.5376
   -5.2408  -16.5347   28.3966
   -8.5485  -15.6146   26.9142
  -13.8545  -15.4944   25.5142
  -18.3059  -16.0773   21.7219
  -17.9522  -13.7524   17.3688
  -16.6195   -9.0793   12.8023
  -14.6291   -4.0937    9.9199
  -13.8330   -1.6005    8.5339
  -10.8616   -0.7267    7.2063
   -4.5102    1.3395    6.6506
   -0.3839    3.0651    6.9163
    2.7497    5.0083    7.7124
    6.7338    7.7462    8.2672
   11.0677   10.0425    9.0044
   14.0765   11.2035    9.6523
   14.3043   10.8452   10.0308
   12.9786   10.6885   12.5231
   11.0916   11.6811   15.6478
    6.8690   12.1522   16.9024
    2.1748   12.3889   18.9962
   -0.0200   14.0420   21.4230
   -2.2906   15.9566   20.7835
   -3.8436   17.3997   19.5917
   -5.1529   18.1907   18.2024
   -8.5794   17.8431   14.2735
  -11.1456   17.8717   10.8522
  -11.7542   18.0981    9.0419
  -11.0408   17.6537    7.5057
  -10.7779   16.9328    6.3101
  -12.5106   15.4743    4.8450
  -15.0646   13.3361    3.2555
  -17.4685   11.2924    2.3527
  -18.4780   10.0668    1.7202
  -19.0599    9.2749    0.6827
  -21.4517    7.8874   -0.5031
  -24.9806    5.6430   -0.9503
  -26.4078    2.7686   -0.9124
  -25.3211    0.0325   -1.8817
  -24.5652   -2.2909   -1.9378
  -25.1756   -4.3683   -0.4479
  -27.1071   -5.5499    0.1218
  -28.6746   -5.4016    0.7725
  -30.9012   -4.5554    2.5767
  -35.9069   -3.9787    4.6672
  -40.4523   -4.3262    6.5575
  -44.0261   -5.1528    8.3154
  -48.8498   -6.6642    9.7959
  -54.5413   -9.1340   11.6563
  -60.9728  -11.2161   14.3002
  -68.3753  -11.6301   17.3468
  -76.8557  -11.1927   19.6754
  -83.4527  -11.3616   21.8094
  -86.6823  -11.7849   23.6431
  -89.0590  -13.1092   24.4696
  -90.1896  -14.4723   26.7075
  -90.7416  -17.4455   26.7519
  -88.8640  -21.4197   26.8544
  -84.3972  -22.4372   26.0343
  -80.2513  -22.4283   20.4444
  -74.7310  -18.6603   17.8833
  -70.4640  -13.6350   12.6788
  -66.7030  -10.3938    4.2944
  -61.3091   -5.8502   -0.7660
  -57.2053   -1.8755   -5.3254
  -54.4870    1.8526   -8.9872
  -53.5430    4.1508  -10.3788
  -53.2802    6.1394   -9.1668
  -53.6352    9.8708   -7.3977
  -54.9852   13.5251   -5.3877
  -54.9871   17.3431   -1.3928
  -55.4282   20.6278    2.2488
  -57.6997   21.0727    4.9666
  -59.9100   19.5627   10.0284
  -62.0833   17.6462   12.6550
  -62.3709   16.3201   13.1789
  -59.3776   17.1906   15.1861
  -55.7790   17.3679   13.1340
  -50.8304   16.8814    9.5396
  -45.1217   16.6035    5.6711
  -40.4799   15.9589    0.5877
  -34.8988   16.4440   -3.6447
  -29.6424   16.5703   -8.4385
  -27.1356   16.2359  -11.6222
  -26.1959   15.8565  -12.1040
  -25.2430   14.9396  -12.9329
  -24.0492   13.8965  -14.4186
  -22.2988   12.9656  -16.0525
  -21.1340   11.0244  -18.8760
  -19.8682    7.8294  -21.1747
  -18.6838    4.3651  -22.9358
  -18.9070    0.4811  -25.6635
  -16.7374   -1.4087  -26.3572
  -13.6346   -1.6501  -25.7813
  -12.1616   -3.8547  -25.7514
  -11.0422   -7.3630  -25.1017
  -10.6703  -10.7820  -26.2847
   -8.6715  -12.9581  -28.1338
   -5.0041  -13.4521  -26.6322
   -3.7149  -14.3993  -23.7746
   -4.7300  -15.9982  -22.1837
   -4.2608  -16.4856  -20.4262
   -1.9538  -15.7596  -17.8240
    0.2523  -15.2109  -15.5309
    3.0140  -14.9873  -12.8136
    6.1341  -14.0962   -9.7675
    8.5876  -13.2533   -7.5862
    9.9488  -13.5723   -6.9987
   10.6089  -14.3212   -7.6910
   13.1110  -14.0836   -7.7167
   16.7536  -13.4189   -7.0020
   19.1954  -14.0883   -6.2039
   21.3359  -15.9014   -6.6310
   24.4200  -17.2500   -8.6130
   28.8597  -17.4380   -9.6898
   33.7503  -16.8051   -9.7567
   37.8896  -16.1643   -9.9784
   41.4092  -16.4585  -10.9692
   45.1168  -17.1817  -11.7120
   48.7201  -17.5264  -10.6455
   51.6750  -17.0886   -7.8870
   52.5044  -16.2153   -4.5241
   51.8911  -15.1436   -1.8363
   52.5245  -12.4183    0.9035
   52.5259   -8.7491    3.1853
   52.5951   -5.0396    4.5479
   52.7673   -2.2184    4.3992
   53.7884   -0.8974    2.8111
   57.6902    0.6462    2.5271
   60.1142    1.0817    2.3063
   62.3932    0.3628    1.1589
   65.8309    0.9910    0.5891
   68.4869    3.3748    0.4418
   70.0881    6.6333   -0.5228
   70.8567   10.0387   -2.1432
   72.6160   13.3221   -4.2739
   75.3174   16.0834   -5.4115
   78.5035   18.9958   -5.1510
   78.9109   20.9001   -7.1479
   78.0184   22.5144   -7.7995
   77.8214   24.5660   -7.6938
   75.8184   23.8377  -11.4472
   77.4771   22.8998  -12.4955
   81.1698   22.2295  -10.7372
   79.9915   18.3437  -11.1689
   78.8894   13.9840  -10.6487
   81.6179   11.6095   -8.8791
   83.8020   10.5701   -8.4797
   83.2172   10.3306   -7.1900
   83.0755   10.8344   -4.9943
   85.2759   11.9206   -4.8656
   88.1542   13.0611   -5.1163
   89.6281   12.9563   -3.9782
   90.3387   11.0230   -3.2710
   91.6775    9.1598   -2.6390
   91.5147    8.0797   -0.9185
   88.2749    7.1091    0.4044
   83.9910    7.2826    1.1715
   80.7146    8.7931    3.3846
   77.4884    9.1743    5.7178
   73.1502    7.5988    6.0041
   69.0263    4.6640    6.8517
   65.2102    0.2692    8.7589
   60.9651   -4.9329    9.2641
   57.6981   -9.5078    9.0250
   55.1403  -12.1643    9.2440
   51.9529  -13.6500    9.4587
   49.3586  -14.5172    8.9310
   48.3491  -14.9668    8.1087
   48.1634  -16.4164    7.6404
   47.6386  -18.9826    6.4574
   46.3938  -21.0553    4.4432
   44.2809  -21.7696    2.6665
   40.7632  -21.5315    1.7909
   35.2196  -20.2545    1.4358
   30.1685  -18.3904    2.1029
   25.8093  -15.9070    4.4548
   20.5496  -14.8231    6.0640
   17.4309  -15.0491    9.3637
   13.4263  -15.6450   12.2635
    8.8439  -17.6822   14.9920
    6.9335  -17.5606   20.8762
    6.0298  -17.6733   22.1321
    7.1548  -17.2359   24.0229
    5.8703  -14.8709   26.9432
    2.3152  -14.9597   25.1498
    1.5499  -13.8455   22.4021
    1.9845  -11.0075   18.8058
    1.1191   -7.3846   14.9055
   -1.9959   -5.5654    9.2117
   -4.1182   -5.7684    5.5981
   -4.2987   -3.3813    3.8117
   -6.6994   -0.4338   -0.1710
  -11.9492    1.1309   -2.7232
  -16.2023    4.0072   -1.0144
  -20.4235    9.4180    1.4134
  -25.9540   11.9552    2.3948
  -29.6284   13.3913    7.3724
  -34.4587   16.3318   11.0533
  -40.1679   17.9049   12.3140
  -43.7487   20.1278   15.6441
  -48.1580   21.6752   17.6307
  -50.8365   21.8805   19.3180
  -50.4744   21.9016   20.2217
  -50.1213   21.3169   20.3373
  -48.4868   21.5783   21.1886
  -48.6866   20.8065   21.0399
  -50.5268   17.2304   21.4955
  -48.8246   17.3983   22.8825
  -49.4154   18.5369   19.7030
  -53.0533   14.4040   19.0518
  -55.0484   13.2238   23.1126
  -58.6007   11.9136   18.3413
  -61.1005    6.6081   13.7519
  -61.8461    4.5087   16.1900
  -66.5669    0.9662   13.6673
  -70.0593   -5.0854    8.7069
  -68.2069   -6.2666    7.6806
  -66.5964   -4.6200    5.2206
  -68.2177   -5.2192   -0.1822
  -69.0101   -6.7994   -1.9429
  -66.6979   -6.9196   -1.6277
  -65.6009   -7.1932   -4.2159
  -64.7781   -7.4603   -6.3751
  -62.9290   -7.1132   -6.2301
  -62.3999   -7.3064   -5.5172
  -63.6896   -7.0262   -4.6808
  -64.8946   -6.4415   -3.4384
  -65.2104   -5.4812   -2.5351
  -66.9842   -4.6841   -3.5161
  -69.7665   -4.4553   -4.5868
  -74.3381   -5.3413   -5.1547
  -76.4623   -6.4219   -4.6467
  -78.0681   -6.1042   -5.3479
  -83.3054   -7.4150   -7.6330
  -84.6970   -7.0103   -6.2577
  -84.0454   -5.2136   -6.6647
  -80.6381   -3.4898   -8.6752
  -76.9422    0.8030   -9.5153
  -76.3467    2.4453  -11.8542
  -72.4197    2.9786  -13.1326
  -66.7760    5.5167  -14.1052
  -61.0205    7.9632  -15.8467
  -58.4425    8.3281  -18.8601
  -58.8968    6.2376  -21.7182
  -58.3125    5.5490  -23.4771
  -58.5455    6.5814  -25.5629
  -60.3974    7.3116  -26.9461
  -62.5272    7.8748  -27.1210
  -64.7435    7.7537  -27.6024
  -67.4912    5.4054  -28.4327
  -67.6928    2.6530  -27.2338
  -65.5621    0.7875  -25.7449
  -62.5871   -1.1393  -24.9426
  -58.8542   -2.1529  -23.7030
  -55.9137   -2.1188  -22.6229
  -52.9929   -1.2632  -22.1102
  -49.6324   -0.2369  -22.6411
  -45.1661    1.0593  -22.8671
  -40.1810    2.8046  -22.4966
  -36.4369    3.9169  -21.7220
  -34.3305    4.8548  -19.7620
  -32.6025    6.4528  -17.2481
  -29.5269    9.2903  -14.0892
  -27.4355   11.9332  -10.0411
  -27.8289   12.6242   -6.2806
  -28.2237   12.6770   -3.4066
  -28.1250   12.6293   -0.5415
  -28.6227   11.8827    2.3311
  -28.9782   10.8153    4.8225
  -28.0352    9.1860    6.7114
  -25.3857    6.7292    7.8102
  -21.8058    3.3392    7.5847
  -17.5195   -0.5180    5.5883
  -12.0016   -2.9079    3.8790
   -6.8439   -3.8823    1.6196
   -1.4893   -4.2649   -1.3652
    6.0083   -3.6302   -2.2849
   12.7087   -3.4856   -3.4941
   17.2256   -5.0256   -5.6309
   22.5985   -6.8433   -6.2942
   28.1206   -8.0876   -6.1305
   31.4951   -8.5755   -5.6482
   33.4041   -7.6849   -4.4119
   33.6296   -5.7380   -3.1732
   33.2596   -3.4159   -2.1478
   33.8429   -1.5369   -0.7670
   33.6810   -1.1608    0.0989
   33.2446   -1.1982    0.3113
   32.8297   -0.1120    0.0390
   30.5156    1.4476   -1.7320
   27.6907    2.6357   -4.6168
   25.8612    3.1465   -7.4262
   24.4237    2.6460  -10.6193
   23.8937    1.6992  -13.6851
   23.8502    0.7847  -15.1375
   23.8591   -0.3805  -16.5119
   25.5609   -1.3965  -18.6323
