********************************************************************************
              CENTRO DE INSTRUMENTACION Y REGISTRO SISMICO  A.C.

    Anaxagoras 814, Col. Narvarte, Benito Juarez, C.P. 03020 Mexico, D.F.
           Tels. 5687 45 42/ 5687 45  82             Fax. 5669 25 12
********************************************************************************
ARCHIVO ESTANDAR DE ACELERACION:
VERSION DEL FORMATO                    : 2.0
NOMBRE DEL ARCHIVO                     : SI5320170919181440
FECHA Y HORA DE CREACION               : 26/SEP/17, 10:58
REF. CATALOGO ACELEROGRAMAS, SMIS 1996 : REGISTRO No.     /PAG.


================================================================================
DATOS DE LA ESTACION:
NOMBRE DE LA ESTACION                  : SAN SIMÓN
CLAVE DE LA ESTACION                   : SI53
LOCALIZACION DE LA ESTACION            : Del. Benito Juárez, Col. San Simón     
                                       : Ticumac, Av. Lázaro Cárdenas, entre    
                                       : Calles Luis Spota y Eleuterio Méndez.  
                                       :                                        
                                       : 
COORDENADAS DE LA ESTACION             : 19.3753 LAT. N
                                       : 99.1483 LONG. W
ALTITUD (msnm)                         : 2235
TIPO DE SUELO                          : Terreno blando, material compresible
                                       : (arcillas)                
                                       : 
INSTITUCION RESPONSABLE                : CIRES
                                       : 

================================================================================
DATOS DEL ACELEROGRAFO:
MODELO DEL ACELEROGRAFO                : RADESD
NUMERO DE SERIE DEL ACELEROGRAFO       : 178
NUMERO DE CANALES                      : 3
ORIENTACION C1-C6 (rumbo;orientacion)  : /S00E/+V/N90W
ORIENTACION C7-C12 (rumbo;orientacion) : 
VEL. DE MUESTREO, C1-C6 (muestras/s)   : /100/100/100
VEL. DE MUESTREO, C7-C12 (muestras/s)  : 
ESC. COMPLETA DE SENSORES, C1-C6, (g)  : /0.5/0.5/0.5
ESC. COMPLETA DE SENSORES, C7-C12, (g) : 
FREC. NAT. DE SENSORES, C1-C6, (Hz)    : /50.87/52.75/52.75
FREC. NAT. DE SENSORES, C7-C12, (Hz)   : 
AMORTIGUAMIENTO DE SENSORES, C1-C6     : /0.5589/0.5865/0.5698
AMORTIGUAMIENTO DE SENSORES, C7-C12    : 
INTERVALO DE MUESTREO, C1-C6, (s)      : /0.01/0.01/0.01
INTERVALO DE MUESTREO, C7-C12, (s)     : 
UMBRAL DE DISPARO, C1-C6, (Gal)        : /0.75/2.87/0.75
UMBRAL DE DISPARO, C7-C12, (Gal)       : 
MEMORIA DE PREEVENTO (s)               : 44.0
TIEMPO DE POSEVENTO (s)                : 6.0


================================================================================
DATOS DEL SISMO:
FECHA DEL SISMO (GMT)                  : 19/SEP/17
HORA EPICENTRO (GMT)                   : 18:14:40.0
MAGNITUD(ES)                           : /Mc=7.1
COORDENADAS DEL EPICENTRO              : 18.40 LAT. N
                                       : 98.72 LONG. W
PROFUNDIDAD FOCAL (km)                 : 57
FUENTE DE LOS DATOS EPICENTRALES       : SSN
                                       : INSTITUTO DE GEOFISICA, UNAM

================================================================================
DATOS DE ESTE REGISTRO:
HORA DE LA PRIMERA MUESTRA (GMT)       : 18:14:59.00
EXACTITUD DEL TIEMPO (s)               : 0.01
DURACION DEL REGISTRO (s), C1-C6       : /386.6/386.6/386.6
DURACION DEL REGISTRO (s), C7-C12      : 
NUM. TOTAL DE MUESTRAS, C1-C6          : /38660/38660/38660
NUM. TOTAL DE MUESTRAS, C7-C12         : 
ACEL. MAX. (Gal), C1-C6                : /129.02944/56.78383/177.56513
ACEL. MAX., C1-C6, EN LA MUESTRA       : /6510/6639/6551
ACEL. MAX. (Gal), C7-C12               : 
ACEL. MAX., C7-C12, EN LA MUESTRA      : 
UNIDADES DE LOS DATOS                  : Gal (cm/s/s)
FACTOR DE DECIMACION                   : 1
FORMATO DATOS (FORTRAN,10 campos/dato) : 3F10.5


================================================================================
CALIDAD DEL ACELEROGRAMA:
REGISTRO DIGITAL COMPLETO CON TIEMPO ABSOLUTO CORRECTO.


================================================================================
COMENTARIOS:














================================================================================
DATOS DE ACELERACION:
---------+---------+---------+---------+---------+---------+---------+---------+
   CANAL-1   CANAL-2   CANAL-3   CANAL-4   CANAL-5   CANAL-6   CANAL-7   CANAL-8
      S00E        +V      N90W
---------+---------+---------+---------+---------+---------+---------+---------+
[...]
 -20.48233  40.74996   6.53401
 -12.49168  39.29847   9.40705
  -6.80545  35.84184  11.89104
  -3.13933  31.48739  13.07317
  -0.92469  26.42964  13.28267
  -0.08672  21.52153  13.11806
   0.34723  17.18204  13.37245
   0.94578  13.24657  14.64437
   2.27755   8.93700  16.61958
   4.80643   3.84932  18.98386
   8.69701  -1.52267  21.18353
  13.72483  -7.10415  22.99415
  19.35120 -12.73052  24.11643
  24.84290 -18.43171  24.02665
  29.76598 -23.65407  22.60509
  34.25511 -27.33515  20.54009
  38.50482 -28.57714  18.26560
  42.76949 -28.00852  17.17324
  47.03416 -26.81142  18.19078
  50.05684 -25.46468  21.64741
  50.67035 -23.95334  26.98947
  48.56046 -21.49929  33.39396
  43.36804 -17.66856  39.78348
  34.82373 -13.01483  45.60439
  23.82537  -8.48081  50.60228
  12.31824  -3.75227  54.25344
   2.54690   1.00621  56.76735
  -3.58824   6.28842  57.53050
  -5.65324  10.95711  56.28851
  -5.21929  14.44367  52.81692
  -3.43860  16.68823  47.50479
  -1.44842  18.60359  41.54921
   0.48190  20.53392  35.80312
   2.48705  22.37446  30.11690
   3.74400  22.88323  25.68762
   4.20788  20.92298  22.05143
   4.77650  16.80794  19.34299
   6.33273  12.06443  17.71194
   9.50505   7.35084  16.51484
  14.20367   3.07121  15.34766
  19.11178  -0.47520  13.80640
  22.74798  -3.73730  11.84614
  25.14218  -7.07422   8.65886
  26.35424 -10.41114   4.00513
  26.93783 -12.61081  -1.53146
  27.68602 -13.02980  -6.94834
  29.04772 -12.37139 -11.61703
  30.75359 -11.35386 -15.11855
  32.87844 -10.45603 -17.72225
  35.13797  -8.66038 -19.62264
  37.26282  -5.12893 -20.83471
  39.13330  -0.52009 -21.43326
  40.42018   3.28070 -20.83471
  40.91398   5.30081 -19.08395
  39.89645   5.42052 -15.82185
  38.17561   3.86429 -12.39515
  36.35004   1.87411  -9.88124
  34.73395   0.78175  -9.47721
  33.49196   0.75183 -11.15316
  31.75616   0.97628 -13.51743
  29.72109   0.87154 -15.83681
  27.23711   0.19817 -17.66239
  25.09729  -0.44527 -19.06898
  23.90019  -0.43031 -19.98177
  24.04982   0.52737 -20.34090
  25.08232   2.05367 -19.99674
  26.75827   3.71465 -18.85949
  29.16743   5.58512 -17.10873
  31.33718   7.30595 -14.98388
  32.65399   7.91947 -13.47254
  32.10033   7.03661 -12.32033
  29.61634   5.58512 -12.42508
  25.18707   4.92672 -14.14591
  19.20157   5.27088 -17.07880
  12.46787   5.73476 -20.98435
   5.18052   4.92672 -24.21652
  -2.28639   2.59237 -26.49101
  -9.46900   0.33284 -27.04467
 -15.34976  -0.55002 -26.34137
 -19.49472   0.13831 -25.06945
 -21.73928   1.61972 -24.87492
 -22.53236   1.82922 -26.19173
 -22.05352   0.39270 -29.01989
 -20.06334  -1.83690 -32.40170
 -17.35490  -3.27343 -35.51416
 -14.25740  -3.67745 -37.93829
 -11.23472  -3.85701 -38.64158
  -9.22958  -4.32089 -36.57658
  -8.97519  -4.79973 -31.45898
 -10.56135  -5.27857 -23.75264
 -13.68878  -5.95194 -14.96891
 -17.78885  -6.71509  -6.49943
 -22.35280  -7.35853   1.13209
 -26.55761  -7.01437   7.56651
 -29.22116  -5.42821  12.32498
 -29.96935  -3.72234  15.21299
 -28.89196  -2.39056  15.84147
 -26.27330  -1.67230  14.71919
 -22.65207  -0.60988  12.08556
 -18.92610   2.36791   7.98549
 -15.96327   7.51545   2.50876
 -13.98805  13.81519  -3.11762
 -12.91066  18.93280  -8.04069
 -12.47671  20.92298 -11.88638
 -12.46175  19.63609 -14.40029
 -12.19240  16.25428 -15.14848
 -11.12998  12.73780 -14.14591
  -9.36425  10.53813 -11.36265
  -7.25436   8.93700  -7.68156
  -4.62074   6.73733  -4.52421
  -1.13418   3.74458  -2.95301
   3.17538   0.85657  -4.19501
   8.66708  -1.37303  -7.89106
  13.27592  -3.04897 -13.12837
  16.08910  -5.05411 -18.73978
  18.39352  -7.80744 -23.10920
  20.00961 -11.36882 -24.87492
  20.69794 -15.03494 -23.46833
  20.98225 -17.98280 -18.73978
  20.72787 -19.94305 -11.40754
  18.60302 -20.84088  -2.44425
  14.36827 -21.12519   6.44423
   8.69701 -21.14016  13.16296
   4.07320 -21.40950  16.58966
   0.66147 -21.33468  16.49987
  -2.31632 -20.21240  13.32756
  -4.00723 -18.43171   8.19499
  -4.84520 -16.56124   2.65840
  -5.56346 -14.79552  -2.21979
  -5.63828 -13.11958  -5.61656
  -5.08462 -11.02465  -7.57682
  -4.68060  -7.92715  -8.22026
  -5.09958  -4.69498  -7.78631
  -6.80545  -2.01647  -6.14030
 -10.00769   0.00364  -4.18004
 -14.18258   1.99382  -2.32454
 -18.61186   4.77708  -0.60370
 -21.99367   8.41327   1.01238
 -23.93895  12.51334   2.65840
 -23.99881  16.07472   4.21463
 -21.97870  18.06490   5.48655
 -17.89360  17.72073   6.24970
 -12.47671  15.95501   6.74350
  -6.82041  13.99475   7.46176
  -2.39114  12.97722   8.95814
   0.60161  12.18414  11.80125
   1.52937  10.17900  15.93125
   0.84103   6.43806  20.58498
  -0.76009   2.27813  24.74491
  -2.58567  -0.77448  27.24385
  -4.26161  -2.03143  27.45335
  -6.13208  -1.50770  25.28360
  -8.28686   0.28795  21.25835
 -10.06755   2.54748  16.41009
 -11.18983   4.47780  11.18774
 -11.89313   5.95921   6.54897
 -12.77599   6.82711   2.95767
 -14.28733   6.96179   1.01238
 -16.74139   6.48295   0.59340
 -19.88378   5.37563   1.65582
 -23.51997   4.32817   3.64600
 -27.47040   4.53766   5.63618
 -31.69018   6.52784   6.42926
 -36.07456   9.61037   5.26209
 -39.48630  12.43852   2.95767
 -40.62355  14.05461   0.80289
 -39.54616  14.74294  -0.18472
 -35.83514  14.59330   0.51858
 -29.50547  13.53088   2.16459
 -20.69182  10.98704   3.63104
 -10.66610   6.66251   4.52887
  -0.47578   1.39527   5.18727
   8.86161  -3.85701   5.89057
  16.95700  -8.64542   7.22234
  23.13704 -12.96994   9.34720
  26.54877 -17.24958  12.20527
  26.50388 -21.30476  15.01846
  23.54106 -24.35736  16.99368
  18.72273 -25.15044  17.74187
  13.50037 -23.13034  16.96375
   8.39773 -18.13244  14.40495
   4.32759 -11.45860  10.37970
   0.45197  -3.64752   4.94785
  -3.28897   3.93911  -0.84312
  -6.94012   9.77497  -5.97569
 -11.30954  13.30642  -9.38743
 -16.83117  15.76048 -10.30022
 -23.84917  18.21453  -8.78888
 -32.24384  20.45910  -5.27240
 -41.50641  21.65620  -0.06501
 -51.03832  20.81823   6.54897
 -60.16622  17.66088  13.67172
 -68.29154  12.37867  20.46527
 -75.11502   6.94682  25.22375
 -80.38226   3.32559  27.49824
 -84.15313   3.05625  26.94458
 -86.24805   5.01650  24.17628
 -86.15827   6.24353  20.06125
 -83.76407   5.06139  15.13817
 -79.06545   2.50259   9.39209
 -72.52628   0.81168   2.31423
 -64.22140   1.23067  -6.55928
 -54.53984   2.53251 -16.88428
 -44.37945   3.14603 -27.34394
 -34.89243   2.62230 -36.72622
 -26.40798   1.90404 -44.47745
 -18.91113   1.70951 -50.70237
 -12.50664   1.42520 -55.13165
  -7.35911   0.12335 -56.83752
  -3.72291  -2.77962 -55.20647
  -1.23893  -6.80487 -50.86698
   1.09542 -11.05458 -45.89901
   3.74400 -15.22947 -41.64930
   6.72179 -18.83574 -38.67151
   9.31052 -20.96059 -36.39702
  10.94157 -20.51168 -34.16742
  11.37552 -17.59374 -31.26445
  10.86675 -13.26922 -27.79286
  10.47769  -8.34614 -23.70775
  11.00143  -3.45299 -19.35330
  12.28831   0.73686 -15.44775
  13.66497   3.26574 -11.85645
  13.96425   3.90918  -9.04327
  12.63248   3.62487  -6.96330
   9.92403   3.72961  -5.45196
   6.78165   4.55262  -4.91327
   4.32759   5.25592  -4.88334
   3.13049   4.56759  -4.92823
   3.53451   2.53251  -5.16765
   5.40498   0.40766  -5.43700
   8.89154   0.10838  -6.15526
  13.42555   3.10114  -8.22026
  18.07928   8.89211 -12.42508
  22.32899  14.71301 -18.88942
  26.05497  18.18461 -27.04467
  29.30210  18.45395 -35.70869
  32.50435  16.95758 -44.26796
  35.72156  14.98236 -51.91444
  39.08840  13.41117 -57.13679
  42.91913  11.95968 -59.27661
  47.49804   9.34102 -58.22915
  53.30398   4.91175 -53.96447
  61.18988  -0.44527 -46.88662
  70.94625  -4.90448 -37.60908
  81.24132  -8.16657 -27.74797
  90.87798 -11.59328 -18.63504
  99.48214 -16.02255 -11.10826
 106.63482 -21.12519  -5.84102
 111.73746 -25.55446  -2.56396
 114.90978 -28.90635  -1.36686
 116.21162 -30.71696  -1.51649
 115.05942 -30.85164  -2.30957
 111.12395 -29.68446  -2.57892
 104.64464 -27.29026  -1.15736
  97.01312 -24.13291   1.44633
  89.93526 -20.28722   4.67850
  84.39867 -16.14226   7.97053
  80.23874 -12.11701  11.56183
  76.61751  -8.66038  16.20060
  72.50248  -5.21871  22.57516
  68.08817  -0.98397  30.76034
  63.82350   4.59751  40.24736
  60.60629  10.37352  50.43768
  59.25955  14.50352  60.70282
  59.81321  16.70319  70.66869
  61.33952  17.39153  79.69183
  62.97057  17.76562  87.17371
  64.09285  19.92040  92.66541
  64.30234  24.12522  96.13701
  63.31473  28.91362  97.30418
  60.62125  32.41514  95.83773
  56.44637  32.84909  92.09679
  50.73021  30.33518  86.54524
  44.04141  25.99569  79.48234
  37.78656  20.72845  71.77600
  32.86348  15.65573  63.72550
  29.21232  10.83740  55.76478
  26.68345   5.94425  48.05844
  25.30678   0.76679  40.80102
  24.40895  -4.50045  34.68084
  22.95747  -9.51331  30.01215
  20.47349 -14.39150  26.95954
  16.35845 -19.10508  25.41827
  10.37295 -23.56428  25.11900
   2.74143 -27.20048  26.00186
  -6.25179 -29.34030  27.49824
 -15.40961 -29.60964  29.05447
 -24.22327 -28.05341  30.47603
 -32.69275 -25.43475  31.61327
 -41.05750 -23.45954  32.97497
 -49.63173 -22.60660  34.60602
 -58.07129 -22.26244  36.56628
 -66.01705 -21.37958  38.64624
 -73.19965 -19.61385  40.29225
 -79.54429 -16.83059  41.24993
 -84.93124 -13.79295  41.42950
 -89.42037 -10.90494  40.32218
 -93.29598  -8.57060  37.68856
 -97.18656  -6.93955  33.51367
-101.34649  -5.41324  28.77016
-106.03014  -3.07890  24.37081
-111.41710   1.06607  20.98900
-117.50735   6.58769  19.61234
-123.34322  12.07939  20.15103
-127.35350  15.76048  22.35070
-129.02944  18.03497  25.44820
-127.20387  20.18975  29.62309
-120.63477  23.81098  33.43885
-110.10029  28.52457  37.11994
 -96.46830  32.99873  40.24736
 -81.54943  35.90170  42.98573
 -67.70795  36.29076  45.96352
 -56.29060  33.22319  49.80920
 -47.94083  26.80373  54.53775
 -42.49402  18.91783  60.28384
 -39.32170  11.75019  66.67336
 -37.24174   5.98914  73.00303
 -35.31141   1.27556  78.70423
 -32.58801  -2.73473  82.60977
 -28.68247  -6.23625  83.85176
 -23.22069  -8.22643  81.15828
 -16.42715  -8.51074  73.12274
  -8.94527  -7.20889  58.93710
  -2.67545  -5.06908  40.11269
   1.54433  -3.12379  19.17839
   4.71665  -1.71719  -0.96283
   7.03603  -0.22082 -18.65000
   8.20320   2.06864 -32.79075
   8.05356   4.44788 -41.21535
   5.65936   6.46798 -43.95372
   1.20016   8.69758 -41.75405
  -4.21672  11.52573 -36.99557
  -9.40914  14.66812 -32.68601
 -14.30229  16.91269 -30.89036
 -19.16552  18.39410 -32.76083
 -24.22327  19.42660 -38.85108
 -28.27845  19.69595 -49.37060
 -30.44819  18.96272 -63.94530
 -30.23870  17.24189 -81.88685
 -27.36566  14.96740-101.54923
 -22.41265  12.72283-120.86745
 -16.68153  10.53813-138.37505
 -10.81574   8.14392-153.41363
  -5.14447   5.15117-165.02550
   0.40708   1.33541-172.80666
   6.40755  -4.24607-176.81695
  13.63505 -12.23672-177.56513
  22.46367 -21.76863-175.70963
  32.44449 -30.56732-172.14825
  42.85927 -37.51051-167.68905
  52.75032 -42.92739-162.87072
  61.32455 -47.46141-157.64837
  68.43234 -50.87315-151.96214
  74.02878 -52.36952-145.03392
  78.63762 -51.39688-136.41479
  82.84244 -47.44645-125.19197
  86.68813 -41.79014-110.28807
  90.38417 -35.07142 -92.27170
  92.82327 -28.02348 -72.22026
  92.94298 -20.49671 -51.80969
  89.80059 -12.01226 -32.16228
  84.24903  -1.71719 -14.29555
  77.24599   9.99943   1.31166
  68.64183  20.17479  14.13560
  59.03510  27.94098  23.45802
  50.16159  34.68963  28.91979
  42.45525  40.69010  30.10193
  35.91609  45.20916  27.30371
  30.96308  47.82782  21.79704
  28.25464  48.27673  15.31774
  26.75827  46.21173   9.33223
  24.79801  41.99195   4.85807
  22.50856  35.87177   2.79307
  20.27896  27.79134   3.27191
  18.19899  18.07986   6.60883
  16.19385   7.39574  12.81879
  15.34092  -2.16611  20.13607
  16.04421  -7.92715  26.72012
  16.95700  -9.34871  31.71802
  16.70262  -8.34614  35.44399
  14.86208  -6.96947  38.49660
  11.57005  -6.43078  41.23497
   7.48494  -6.53552  43.37479
   2.89107  -6.46071  45.36497
  -1.89734  -6.26618  47.99859
  -7.07480  -6.22129  50.76688
 -13.41943  -6.58042  53.29576
 -20.82649  -7.32860  55.03156
 -28.32334  -8.27132  55.13630
 -34.27891  -9.99215  53.07130
 -37.12203 -13.85280  48.31283
 -35.99975 -19.70363  41.36964
 -31.46573 -25.49461  33.01987
 -24.47765 -29.11584  24.07154
 -16.63664 -29.63957  15.30277
  -9.18469 -27.18551   7.97053
  -3.22911 -22.96573   3.19709
   1.54433 -19.20983   2.43394
   6.33273 -17.30943   6.86321
  11.49523 -17.35432  16.06592
  17.37599 -17.92295  28.77016
  23.58595 -17.21965  43.28500
  29.30210 -14.01741  58.30862
  33.77627  -8.69031  72.32966
  37.30772  -2.83948  84.91419
  40.58478   2.09856  96.36146
  44.13119   5.22599 106.56675
  48.26119   6.97675 115.79939
  53.21419   8.78737 124.17909
  58.24202  11.52573 131.64601
  62.20741  14.75791 137.31727
  64.21256  17.84044 141.19289
  63.49430  20.69852 143.24292
  59.69350  24.33471 143.40753
  53.03463  28.70413 141.71662
  44.55018  32.04105 138.15525
  34.97337  32.44507 132.15478
  25.26189  30.17058 123.77507
  15.90954  26.78877 114.01870
   6.75172  23.64638 103.42436
  -2.24150  21.41678  93.38367
 -11.21976  20.27953  84.49520
 -20.46736  19.83062  77.28267
 -29.72993  18.40906  71.76104
 -38.19942  14.72798  67.96025
 -44.75355   8.17385  65.31166
 -48.59923  -0.10111  62.81271
 -50.46970  -8.69031  60.32873
 -52.44492 -16.81563  58.48819
 -55.75191 -25.18037  57.90460
 -60.46549 -33.96410  57.71007
 -66.36122 -42.58322  57.18634
 -72.46643 -49.94539  54.38811
 -77.52418 -54.83854  48.62707
 -79.96327 -56.78383  39.24479
 -79.12530 -54.65898  27.24385
 -74.36683 -49.40670  13.10310
 -65.58310 -42.58322  -1.80081
 -52.92376 -36.20866 -16.55507
 -37.67569 -30.31294 -30.21699
 -21.18562 -24.46211 -42.56209
  -4.83023 -19.40436 -54.41339
   9.44519 -15.85795 -66.17490
  21.10196 -13.76302 -78.68461
  29.97547 -11.93744 -90.83518
  36.61938 -10.41114-102.80619
  41.25815  -9.43849-114.16368
  43.77206  -9.07936-124.38393
  44.61003  -8.75016-132.94320
  44.28083  -7.40342-138.88381
  43.47279  -4.27600-141.59225
  42.27568   0.85657-140.00610
  41.37786   7.65012-133.75124
  41.07858  15.23675-122.49850
  42.38043  22.00037-107.42999
  46.60021  26.69899 -90.46109
  53.42369  30.03591 -74.15059
  60.39680  33.35786 -60.50364
  65.08046  36.91924 -49.80455
  64.79614  40.40579 -41.72412
  57.55368  43.45840 -36.11271
  43.17351  46.19677 -34.21231
  23.36149  48.68075 -36.59155
   1.67900  49.75814 -43.16064
 -18.11805  48.02235 -52.94694
 -33.53073  43.77264 -64.22961
 -44.94807  38.41561 -75.15316
 -52.75916  32.51989 -84.78982
 -57.30814  25.78620 -92.90018
 -58.52021  17.76562 -99.51416
 -57.68223   8.89211-103.70401
 -56.30557  -0.46024-104.37738
 -55.39278 -10.26150-101.66894
 -55.36285 -19.22479 -96.71594
 -56.11104 -26.48222 -91.43373
 -56.94901 -32.21334 -87.42344
 -56.70959 -36.20866 -85.40333
 -54.31539 -38.96199 -85.46319
 -50.33503 -40.65290 -87.01942
 -45.96561 -41.10181 -88.83004
 -41.16224 -40.15909 -90.98482
 -36.02967 -38.70761 -93.42391
 -31.37594 -38.01928 -96.16228
 -27.81457 -39.14156 -99.08021
 -26.10870 -40.81750-102.11785
 -25.54008 -40.12917-106.33764
 -25.59993 -36.55283-111.17093
 -26.13863 -31.12098-115.77977
 -26.69229 -25.22526-120.14919
 -26.31819 -20.87081-123.65071
 -24.80685 -18.19229-126.05987
 -22.42762 -15.69335-127.45150
 -18.62682 -12.46117-127.78070
 -12.79095  -8.42096-126.55368
  -5.53353  -4.70995-123.23172
   2.68157  -2.40553-116.63270
