********************************************************************************
              CENTRO DE INSTRUMENTACION Y REGISTRO SISMICO  A.C.

    Anaxagoras 814, Col. Narvarte, Benito Juarez, C.P. 03020 Mexico, D.F.
           Tels. 5687 45 42/ 5687 45  82             Fax. 5669 25 12
********************************************************************************
ARCHIVO ESTANDAR DE ACELERACION:
VERSION DEL FORMATO                    : 2.0
NOMBRE DEL ARCHIVO                     : SP5120170919181440
FECHA Y HORA DE CREACION               : 02/OCT/17, 14:19
REF. CATALOGO ACELEROGRAMAS, SMIS 1996 : REGISTRO No.     /PAG.


================================================================================
DATOS DE LA ESTACION:
NOMBRE DE LA ESTACION                  : SECTOR POPULAR
CLAVE DE LA ESTACION                   : SP51
LOCALIZACION DE LA ESTACION            : Del. Iztapalapa, Col. Sector Popular,  
                                       : Calle Sur 103A esq. con Av.            
                                       : Agustín Yañes.                         
                                       :                                        
                                       : 
COORDENADAS DE LA ESTACION             : 19.3656 LAT. N
                                       : 99.1189 LONG. W
ALTITUD (msnm)                         : 2234
TIPO DE SUELO                          : Terreno blando, material compresible
                                       : (arcillas)                
                                       : 
INSTITUCION RESPONSABLE                : CIRES
                                       : 

================================================================================
DATOS DEL ACELEROGRAFO:
MODELO DEL ACELEROGRAFO                : RADESD
NUMERO DE SERIE DEL ACELEROGRAFO       : 177
NUMERO DE CANALES                      : 3
ORIENTACION C1-C6 (rumbo;orientacion)  : /S00E/+V/N90W
ORIENTACION C7-C12 (rumbo;orientacion) : 
VEL. DE MUESTREO, C1-C6 (muestras/s)   : /100/100/100
VEL. DE MUESTREO, C7-C12 (muestras/s)  : 
ESC. COMPLETA DE SENSORES, C1-C6, (g)  : /0.5/0.5/0.5
ESC. COMPLETA DE SENSORES, C7-C12, (g) : 
FREC. NAT. DE SENSORES, C1-C6, (Hz)    : /52.67/53.32/56.11
FREC. NAT. DE SENSORES, C7-C12, (Hz)   : 
AMORTIGUAMIENTO DE SENSORES, C1-C6     : /0.6053/0.5865/0.6038
AMORTIGUAMIENTO DE SENSORES, C7-C12    : 
INTERVALO DE MUESTREO, C1-C6, (s)      : /0.01/0.01/0.01
INTERVALO DE MUESTREO, C7-C12, (s)     : 
UMBRAL DE DISPARO, C1-C6, (Gal)        : /0.72/1.92/0.72
UMBRAL DE DISPARO, C7-C12, (Gal)       : 
MEMORIA DE PREEVENTO (s)               : 44.0
TIEMPO DE POSEVENTO (s)                : 64.0


================================================================================
DATOS DEL SISMO:
FECHA DEL SISMO (GMT)                  : 19/SEP/17
HORA EPICENTRO (GMT)                   : 18:14:40.0
MAGNITUD(ES)                           : /Mc=7.1
COORDENADAS DEL EPICENTRO              : 18.40 LAT. N
                                       : 98.72 LONG. W
PROFUNDIDAD FOCAL (km)                 : 57
FUENTE DE LOS DATOS EPICENTRALES       : SSN
                                       : INSTITUTO DE GEOFISICA, UNAM

================================================================================
DATOS DE ESTE REGISTRO:
HORA DE LA PRIMERA MUESTRA (GMT)       : 18:14:59.00
EXACTITUD DEL TIEMPO (s)               : 0.01
DURACION DEL REGISTRO (s), C1-C6       : /459.2/459.2/459.2
DURACION DEL REGISTRO (s), C7-C12      : 
NUM. TOTAL DE MUESTRAS, C1-C6          : /45920/45920/45920
NUM. TOTAL DE MUESTRAS, C7-C12         : 
ACEL. MAX. (Gal), C1-C6                : /77.3631/38.49628/100.38069
ACEL. MAX., C1-C6, EN LA MUESTRA       : /6798/6340/6432
ACEL. MAX. (Gal), C7-C12               : 
ACEL. MAX., C7-C12, EN LA MUESTRA      : 
UNIDADES DE LOS DATOS                  : Gal (cm/s/s)
FACTOR DE DECIMACION                   : 1
FORMATO DATOS (FORTRAN,10 campos/dato) : 3F10.5


================================================================================
CALIDAD DEL ACELEROGRAMA:
REGISTRO DIGITAL COMPLETO CON TIEMPO ABSOLUTO CORRECTO.


================================================================================
COMENTARIOS:














================================================================================
DATOS DE ACELERACION:
---------+---------+---------+---------+---------+---------+---------+---------+
   CANAL-1   CANAL-2   CANAL-3   CANAL-4   CANAL-5   CANAL-6   CANAL-7   CANAL-8
      S00E        +V      N90W
---------+---------+---------+---------+---------+---------+---------+---------+
[...]
 -26.73978  -2.54932  14.90769
 -27.87703  -1.39711  16.16465
 -29.82231  -0.33468  17.13729
 -31.87235   0.23394  18.31943
 -33.62311  -0.33468  19.96544
 -34.59575  -1.56171  21.86584
 -34.47604  -2.99823  23.64653
 -33.57822  -4.15044  24.72392
 -31.58804  -4.88367  25.27758
 -28.72996  -5.60193  24.79874
 -24.98902  -5.30265  23.24250
 -20.67946  -3.95591  21.05780
 -16.25018  -2.01062  18.25957
 -12.04537  -0.48432  14.96754
  -7.81062   0.56314  11.85508
  -3.74048   1.35622   8.89226
   0.34463   2.07448   5.97432
   4.39981   3.30151   3.04143
   8.02104   4.76796  -0.02614
  11.74701   5.93513  -3.27328
  14.93429   6.27930  -6.23610
  17.52302   5.80046  -9.00440
  19.48328   4.21430 -11.50335
  20.54570   2.58325 -13.62820
  21.65302   1.41608 -15.70816
  22.67056   1.07191 -17.45892
  23.85269   1.20659 -19.25458
  25.64835   2.23908 -20.36189
  26.84545   3.34640 -21.16994
  27.78816   4.10955 -21.37943
  27.68342   4.00481 -21.00534
  27.08487   2.41865 -20.15240
  26.33668   0.59307 -19.03012
  25.24432  -1.77120 -18.25200
  24.60088  -3.62671 -17.56367
  24.01730  -4.65921 -16.83045
  23.74795  -4.34497 -15.72313
  22.89501  -4.10555 -14.75048
  22.05704  -3.50700 -13.23914
  21.05447  -2.84859 -11.89241
  19.70773  -2.22012 -10.80005
  18.82487  -1.71135 -10.38107
  18.30114  -0.79856 -10.32121
  18.73509   0.36861 -10.51574
  19.57306   1.87995 -11.00954
  20.68038   3.90006 -11.36867
  21.62309   5.71068 -12.08693
  22.64063   7.29684 -12.76030
  22.62567   8.56876 -14.15193
  22.25157   9.37680 -15.39393
  21.08440  10.02024 -17.11476
  19.72270  10.15491 -18.62610
  18.06172  10.39433 -19.25458
  16.16132   9.84067 -19.55385
  14.85947   9.51147 -19.13487
  13.60252   8.94285 -18.89545
  12.46527   9.03263 -18.79070
  11.88169   9.04760 -18.19215
  11.83679   8.68847 -17.26440
  11.58241   8.05999 -16.21693
  11.56745   7.77568 -14.49610
  11.02875   6.71325 -12.88001
  10.69955   4.13948 -10.80005
   9.78676   0.51825  -8.57045
   8.97872  -2.98327  -6.31092
   8.27542  -5.93113  -4.60505
   7.25788  -8.40015  -3.06379
   6.12064 -10.49508  -2.10611
   5.01332 -11.70714  -1.08857
   4.19031 -12.47029  -0.04111
   3.78629 -13.29330   0.49759
   3.92097 -14.31083   1.00636
   4.19031 -15.35830   1.06621
   4.08557 -16.04663   0.67715
   4.16039 -15.58275   0.28810
   3.47205 -13.54768  -0.26556
   2.87350  -9.74689   0.03371
   2.17021  -5.24280   0.69212
   1.67640  -0.43943   1.42534
   1.84100   3.91503   2.29324
   2.45452   7.56618   2.69726
   3.17278  10.84325   2.60748
   4.05564  13.82104   2.36806
   4.77390  16.24516   2.71222
   5.29763  17.78643   3.46041
   5.50712  17.90614   3.93925
   6.04582  17.50212   4.46298
   6.74912  16.26013   4.79219
   7.24292  14.73382   5.12139
   7.91629  12.59401   5.74987
   8.32031  10.02024   6.76740
   8.51484   6.99756   7.82983
   8.17067   3.69057   8.78751
   7.18306   0.12919   9.31124
   5.94107  -3.31247   9.68534
   4.63923  -6.49975   9.89483
   3.29249  -9.05855   9.74519
   2.03553 -10.65968   8.99700
   0.68879 -11.91663   7.32106
  -0.85247 -12.27576   5.09146
  -2.25907 -12.06627   2.12864
  -3.62077 -10.77939  -1.04368
  -4.77298  -8.84906  -4.32074
  -5.41642  -6.69428  -7.52299
  -5.49124  -4.64425 -10.30625
  -5.19197  -3.32743 -12.14679
  -4.65327  -3.20772 -13.31396
  -4.39889  -4.25519 -14.19682
  -4.60838  -5.84135 -14.82530
  -5.26678  -7.20305 -15.37896
  -6.37410  -7.50232 -15.51364
  -7.91537  -6.69428 -14.79537
  -9.77088  -5.10812 -13.07454
 -12.12019  -3.31247 -10.39603
 -14.91841  -2.08544  -7.44817
 -18.00094  -1.50186  -4.66491
 -20.82909  -1.81609  -1.82179
 -22.63971  -2.08544   1.23081
 -23.07366  -1.57667   4.55277
 -22.13094   0.09927   7.62034
 -20.17069   2.98727  10.65798
 -17.74656   5.71068  13.48613
 -15.24761   7.43151  16.50881
 -13.16765   8.00013  19.81580
 -11.65631   7.35669  23.19761
 -10.92309   5.80046  26.34000
 -10.98294   3.57086  29.34772
 -11.77602   1.38615  31.71199
 -13.10779  -0.17008  33.34304
 -14.97826  -1.05294  34.16605
 -16.45968  -1.57667  34.30072
 -17.07319  -1.95077  33.83685
 -16.74399  -2.17522  32.90909
 -15.57681  -1.83106  30.76928
 -13.75124  -0.75367  28.04587
 -11.89573   0.90731  25.24765
 -10.15993   2.86756  23.18265
  -8.36428   4.52854  21.76109
  -6.08979   5.72564  20.87823
  -3.21675   6.14463  20.23479
   0.01542   5.93513  19.69609
   2.75379   5.32162  18.93294
   4.31002   5.06724  17.78073
   4.74397   5.35155  16.34421
   4.74397   6.11470  14.68323
   4.56441   6.80303  12.87262
   4.75894   6.89281  11.07697
   5.31259   6.50376   9.59555
   6.13560   5.38147   8.30867
   7.73672   3.66064   7.45574
   9.81669   1.73032   6.82726
  12.22585   0.27883   6.36338
  14.23100  -0.55914   5.55534
  15.77226  -0.61899   4.73233
  16.81973  -0.46936   3.89436
  17.11900  -0.58907   3.38559
  16.70002  -1.38215   3.35567
  15.33831  -2.68399   3.90933
  12.91419  -4.33001   4.49291
   9.81669  -5.60193   4.67248
   5.98596  -6.17055   4.05896
   2.11035  -6.21544   2.63741
  -1.21160  -5.87127   1.39541
  -4.03976  -5.93113   0.07860
  -6.11972  -6.52968  -0.84915
  -7.60113  -7.35269  -1.91158
  -8.33435  -7.63700  -3.16853
  -8.36428  -6.79903  -4.56016
  -7.51135  -5.72164  -5.93683
  -6.08979  -4.94352  -6.67005
  -3.94997  -4.58439  -7.05911
  -1.91490  -4.21030  -6.90947
  -0.13421  -3.26758  -6.68502
   0.56908  -1.84602  -6.78976
  -0.07436  -1.05294  -7.20875
  -1.91490  -1.33725  -8.40585
  -4.48867  -2.30990  -9.76755
  -7.28689  -3.28254 -11.53327
  -9.93548  -3.11794 -13.28403
 -11.68624  -2.25004 -14.66070
 -12.18004  -1.23251 -15.52860
 -11.31214  -0.60403 -15.93262
  -9.69606  -0.22994 -16.26182
  -8.03508   0.02445 -16.57606
  -7.10733   0.12919 -17.12972
  -7.06244   0.72774 -17.45892
  -7.70588   2.19419 -17.29432
  -8.81320   4.61832 -16.71074
  -9.69606   7.55122 -14.88516
 -10.69863   9.69104 -12.59570
 -11.58149  10.57390  -9.55806
 -12.56910   9.63118  -6.90947
 -13.61656   6.93771  -5.15871
 -14.54432   2.89749  -4.33571
 -15.50200  -2.39968  -4.54520
 -16.05566  -8.28044  -5.26346
 -15.62171 -13.23344  -5.42806
 -14.20015 -16.92949  -5.38317
 -11.46178 -19.18902  -4.42549
  -8.00515 -20.52079  -2.68969
  -3.87515 -21.28395  -0.05607
   0.07528 -21.67300   2.03886
   4.47462 -21.26898   3.86443
   8.67944 -20.58065   5.30096
  12.80944 -19.38355   6.24367
  17.11900 -17.93206   7.06668
  21.39864 -15.73239   7.68019
  25.93266 -13.41301   8.44335
  30.09258 -10.67464   8.86233
  33.59410  -7.90634   9.08679
  35.53939  -5.22783   8.72766
  35.74888  -2.22012   7.97947
  33.89338   0.53322   6.67762
  30.84077   3.33144   5.18125
  26.84545   5.65082   3.38559
  22.55085   7.67093   1.87425
  18.67523   9.69104   0.58737
  15.47299  12.50422  -0.49002
  13.12368  16.00574  -1.73201
  11.29810  19.10324  -3.18350
   9.87654  20.67444  -4.66491
   8.42506  20.28538  -6.32589
   6.53962  18.56455  -8.46570
   4.44470  16.73897 -10.38107
   1.87093  14.26995 -12.85009
  -0.82255  11.95057 -15.21436
  -3.56092   9.60125 -17.60856
  -6.59856   7.32676 -20.18233
  -9.41175   5.27673 -22.03783
 -12.65888   3.25662 -23.84845
 -15.26258   2.31390 -24.86599
 -17.74656   2.08945 -25.73388
 -19.39257   1.44601 -26.45214
 -20.21558  -0.05037 -27.34997
 -19.37761  -2.23508 -27.26019
 -18.00094  -4.97345 -27.42479
 -15.63667  -6.67932 -27.52953
 -13.84102  -6.87385 -27.90363
 -12.20997  -6.72421 -29.11569
 -10.30957  -6.46982 -29.68432
  -8.51392  -7.53225 -31.12084
  -6.65841  -9.22316 -31.91392
  -4.93758 -11.03377 -32.46758
  -3.54595 -12.36555 -33.09605
  -2.21418 -10.97392 -33.06613
  -1.24153  -7.71182 -33.93402
  -0.67291  -2.89349 -34.47272
  -0.41853   1.52082 -34.51761
  -0.23896   5.62089 -33.41029
  -0.65795  10.06513 -32.07852
  -1.60066  16.36487 -30.62703
  -3.44121  23.72704 -30.05841
  -5.85037  30.50563 -29.69928
  -8.34932  35.84769 -29.16058
 -10.99790  38.34664 -28.63685
 -12.86837  38.49628 -27.18537
 -14.63410  35.83273 -25.21015
 -15.62171  30.74505 -22.09769
 -16.19033  23.81683 -19.38925
 -15.57681  17.06817 -16.36657
 -14.11037  10.81332 -13.98733
 -12.40450   5.65082 -11.47342
 -11.14754  -0.00548  -9.37849
 -10.51906  -6.93370  -7.43320
 -10.93805 -14.72982  -6.25107
 -12.06033 -22.52594  -6.14632
 -13.69138 -28.61619  -6.74487
 -15.69652 -32.19253  -8.34599
 -17.83634 -31.69872 -10.29128
 -19.34768 -27.62858 -12.26650
 -20.85902 -21.40366 -14.12201
 -21.48750 -13.83199 -15.16947
 -21.87656  -6.72421 -16.50124
 -21.99627  -0.25986 -18.08740
 -21.59225   5.42637 -19.74838
 -21.02362  10.31952 -21.64878
 -20.14076  14.10535 -23.14515
 -19.06337  16.91853 -23.47436
 -18.33015  17.72658 -23.27983
 -18.25533  16.81379 -22.75610
 -18.64439  14.92835 -21.97798
 -19.88638  12.62393 -21.61885
 -21.95138  11.08267 -21.52907
 -24.46529  10.34944 -21.85827
 -27.02409   9.88557 -22.06776
 -29.14895   8.49394 -22.03783
 -30.54058   6.24937 -21.52907
 -30.86978   3.37633 -20.75095
 -30.04677   0.29380 -20.25715
 -28.71500  -1.72631 -20.31700
 -26.85949  -2.41464 -20.67613
 -24.64485  -1.47193 -21.24476
 -22.08605   0.66789 -21.73856
 -19.66192   3.72050 -22.14258
 -17.68670   6.74318 -22.26229
 -16.36989   8.76328 -22.29222
 -15.65163   9.31694 -22.20244
 -15.66660   8.46401 -22.12762
 -15.87609   6.89281 -21.64878
 -16.42975   4.76796 -21.16994
 -16.96844   3.27158 -20.67613
 -17.49218   3.01720 -21.09512
 -17.53707   4.09459 -22.20244
 -17.13305   6.09973 -23.77363
 -16.05566   8.22459 -25.32986
 -14.24504   9.25709 -26.04812
 -11.94062   8.98774 -25.80870
  -8.81320   7.71582 -24.77620
  -4.68320   6.02492 -23.10026
   0.18002   3.95992 -21.21483
   5.86625   1.49090 -19.22465
  11.62730  -1.35222 -16.78555
  17.56791  -3.95591 -13.56835
  23.26911  -5.72164  -9.55806
  28.61117  -5.88624  -5.17368
  33.39957  -4.88367  -0.35535
  37.21533  -3.58182   4.28342
  39.90881  -2.98327   8.53313
  41.71942  -3.14787  12.40874
  42.96142  -3.47707  15.50624
  44.08370  -3.68656  18.08001
  45.61000  -3.61175  20.24975
  47.48047  -4.24022  22.18008
  49.84475  -5.24280  24.02062
  52.13420  -6.00595  25.36736
  54.09445  -6.15558  26.86373
  54.90250  -6.12566  28.59953
  54.54337  -6.48479  31.48754
  53.12181  -7.74174  35.16862
  50.66775  -8.80417  39.80739
  47.46551  -8.63957  45.16441
  43.21580  -7.08334  50.56633
  38.38251  -4.74899  55.84854
  33.30979  -2.48946  60.62198
  28.68599  -1.18762  64.70708
  25.42389  -1.47193  68.25350
  23.91255  -2.77378  71.66523
  24.36146  -3.67160  74.92733
  26.38157  -2.99823  78.11461
  29.10497  -0.36461  81.30189
  31.96305   3.25662  84.11508
  34.73135   6.30923  86.85345
  37.15548   7.20705  89.60678
  39.29529   5.20191  92.34515
  41.12087   1.02702  95.15834
  42.76689  -3.77635  97.58247
  44.42786  -7.71182  99.37812
  46.22352  -9.98631 100.38069
  48.21370 -10.65968 100.36573
  50.36848 -10.30055  99.82703
  52.62801  -9.35783  98.92920
  54.96235  -8.47497  97.91167
  57.13210  -7.75671  96.68464
  58.67336  -8.04102  94.99374
  58.83797  -9.13337  92.80903
  57.26677 -11.69218  89.48707
  53.82511 -15.34333  85.38700
  48.28851 -18.96456  80.17961
  41.27051 -20.93978  74.23900
  32.92073 -20.93978  67.75969
  24.24175 -18.99449  61.17564
  16.14636 -15.46304  55.29488
   9.54734 -11.15348  50.40173
   4.93850  -6.03587  46.54108
   2.03553  -1.06791  43.51840
   0.12017   2.14930  41.43844
  -1.01708   2.74785  40.16652
  -2.42367   1.34126  38.93949
  -4.56349   0.78760  37.65261
  -7.72084   2.92742  35.82703
 -11.58149   7.16216  33.50764
 -15.74142  11.51662  30.93388
 -19.96120  13.73125  28.15062
 -23.58243  12.89328  25.30750
 -26.20108   8.91292  22.34468
 -27.62264   2.79274  19.65120
 -28.05659  -3.92598  17.78073
 -27.48797  -9.89653  16.91283
 -26.54525 -13.35315  16.83801
 -25.64743 -13.93674  17.48146
 -25.39304 -12.21591  18.76834
 -25.88685  -9.91149  20.11508
 -27.02409  -7.44247  21.47678
 -28.62521  -4.55446  22.91330
 -30.13655  -0.46936  24.21515
 -31.40847   4.91760  25.51700
 -31.81249  10.84325  27.08819
 -31.34862  16.34991  28.67435
 -29.97195  20.59962  30.63460
 -28.01170  23.74201  32.74449
 -26.32079  24.34056  34.51022
 -24.85435  22.60476  36.76974
 -24.57003  18.95360  39.01431
 -24.83938  14.61411  41.45340
 -25.72224   9.79578  43.38373
 -27.42811   5.20191  44.88010
 -29.64275   0.80256  45.31405
 -32.15666  -3.02816  45.02974
 -34.79028  -6.49975  43.54833
 -36.67572  -9.02863  41.10923
 -37.27427 -10.39033  38.17634
 -36.18191 -10.85421  34.22590
 -32.62054 -10.62975  30.05102
 -26.66496 -10.91406  25.11297
 -18.16555 -10.83924  19.71106
  -8.40917 -10.31551  13.15693
   1.76618  -8.86403   6.46813
   9.56230  -7.18808  -0.34038
  14.66494  -6.60450  -6.61020
  16.58031  -6.67932 -12.46103
  15.21860  -7.33772 -18.17718
  11.19335  -7.96620 -23.75867
   5.86625  -8.14577 -29.37008
   0.88332  -7.92131 -34.65228
  -2.34885  -7.42750 -39.30601
  -3.54595  -6.58953 -43.36119
  -3.24668  -5.33258 -46.78789
  -1.55577  -3.79131 -50.12481
   0.29974  -2.23508 -53.89568
   2.37970  -1.29236 -58.05561
   4.71404  -1.30733 -61.94618
   7.13817  -2.27997 -65.83676
  10.08603  -2.35479 -68.88937
  13.43792  -0.81352 -71.65766
  16.59527   3.24166 -74.11172
  19.78255   8.79321 -75.86248
  22.53588  13.40205 -77.10447
  24.57095  14.95828 -78.40632
  26.56113  14.12031 -79.03480
  28.35679  11.84582 -79.28918
  29.86813   8.97278 -79.58846
  31.27472   7.25194 -79.49867
  32.41196   6.53368 -79.91766
  33.36965   6.84792 -81.20454
  34.05798   7.67093 -82.82063
  34.44704   7.59611 -84.82577
  34.28243   5.09716 -86.51668
  32.15758   0.39854 -88.16269
  28.50642  -5.66178 -88.92584
  23.17932 -10.37537 -89.41965
  16.96936 -13.00899 -90.04813
  10.71451 -12.97906 -90.42222
   6.06078 -10.51004 -89.82367
   2.64905  -6.88881 -88.56671
   0.06031  -3.26758 -86.27726
  -2.99229   0.32372 -83.53889
  -7.88544   2.34383 -81.01001
 -14.63410   3.19677 -78.18186
 -23.61235   2.61318 -75.50335
 -33.77275   1.34126 -72.33103
 -44.65140   0.44343 -68.56017
 -55.09611  -0.25986 -64.60973
 -64.52327  -0.11023 -60.67426
 -71.16718   1.23651 -56.73880
 -75.49171   3.63071 -53.04275
 -76.58407   5.92017 -49.66094
 -75.86581   7.61107 -46.54847
 -73.32197   7.26691 -43.42105
 -69.71570   5.93513 -40.47319
 -65.12183   3.36137 -37.60015
 -60.07904   0.08430 -34.57747
 -55.42531  -3.88109 -31.76428
 -50.89129  -6.85888 -28.27772
 -47.22517  -8.53482 -24.73131
 -44.60651  -9.56732 -21.63381
 -42.06267 -10.24069 -18.53631
 -39.75825 -10.62975 -15.55853
 -36.98996 -10.98888 -12.77527
 -33.63807 -11.28815  -9.93215
 -30.33108 -11.94656  -7.13393
 -26.51532 -12.09620  -3.12364
 -22.86417 -11.37794   1.30563
 -18.98855  -8.56475   6.67762
 -15.48703  -4.28511  12.75291
 -11.89573   0.08430  20.07019
  -8.57377   2.70296  27.94112
  -5.38649   3.00224  35.54272
  -2.90251   1.96974  42.03699
  -1.98972   1.53579  46.10713
  -1.89994   1.96974  47.57358
  -2.42367   3.40626  46.54108
  -2.79776   3.73546  43.05452
  -2.49849   3.33144  38.71503
  -0.95722   1.77521  34.16605
   1.30231  -0.02044  29.12326
   3.87607  -1.27740  23.69142
   5.82136  -2.16026  18.34935
   6.86883  -2.57925  13.72555
   6.86883  -2.74385   9.77512
   5.83633  -2.33983   6.70755
   3.87607  -0.99309   4.71737
   1.76618   0.84745   3.22099
  -0.26889   2.95735   1.66476
  -1.78023   4.69314  -0.32542
  -2.66309   5.72564  -2.28567
  -2.99229   5.83039  -3.72219
