********************************************************************************
              CENTRO DE INSTRUMENTACION Y REGISTRO SISMICO  A.C.

    Anaxagoras 814, Col. Narvarte, Benito Juarez, C.P. 03020 Mexico, D.F.
           Tels. 5687 45 42/ 5687 45  82             Fax. 5669 25 12
********************************************************************************
ARCHIVO ESTANDAR DE ACELERACION:
VERSION DEL FORMATO                    : 2.0
NOMBRE DEL ARCHIVO                     : TH3520170919181440
FECHA Y HORA DE CREACION               : 25/SEP/17, 11:18
REF. CATALOGO ACELEROGRAMAS, SMIS 1996 : REGISTRO No.     /PAG.


================================================================================
DATOS DE LA ESTACION:
NOMBRE DE LA ESTACION                  : TLÁHUAC
CLAVE DE LA ESTACION                   : TH35
LOCALIZACION DE LA ESTACION            : Del. Tláhuac, Col. San José, calle Juan
                                       : Mendoza esq. con calle La Rondalla.    
                                       :                                        
                                       :                                        
                                       : 
COORDENADAS DE LA ESTACION             : 19.2786 LAT. N
                                       : 99.0000 LONG. W
ALTITUD (msnm)                         : 2238
TIPO DE SUELO                          : Terreno blando, material compresible
                                       : (arcillas)                
                                       : 
INSTITUCION RESPONSABLE                : CIRES, A. C.
                                       : 

================================================================================
DATOS DEL ACELEROGRAFO:
MODELO DEL ACELEROGRAFO                : RAD_IO14
NUMERO DE SERIE DEL ACELEROGRAFO       : 
NUMERO DE CANALES                      : 3
ORIENTACION C1-C6 (rumbo;orientacion)  : /S00E/+V/N90W
ORIENTACION C7-C12 (rumbo;orientacion) : 
VEL. DE MUESTREO, C1-C6 (muestras/s)   : /100/100/100
VEL. DE MUESTREO, C7-C12 (muestras/s)  : 
ESC. COMPLETA DE SENSORES, C1-C6, (g)  : /2.0/2.0/2.0
ESC. COMPLETA DE SENSORES, C7-C12, (g) : 
FREC. NAT. DE SENSORES, C1-C6, (Hz)    : /53.1/51.25/51.77
FREC. NAT. DE SENSORES, C7-C12, (Hz)   : 
AMORTIGUAMIENTO DE SENSORES, C1-C6     : /0.5698/0.5715/0.5572
AMORTIGUAMIENTO DE SENSORES, C7-C12    : 
INTERVALO DE MUESTREO, C1-C6, (s)      : /0.01/0.01/0.01
INTERVALO DE MUESTREO, C7-C12, (s)     : 
UMBRAL DE DISPARO, C1-C6, (Gal)        : / / /
UMBRAL DE DISPARO, C7-C12, (Gal)       : 
MEMORIA DE PREEVENTO (s)               : 60
TIEMPO DE POSEVENTO (s)                : 90


================================================================================
DATOS DEL SISMO:
FECHA DEL SISMO (GMT)                  : 19/SEP/17
HORA EPICENTRO (GMT)                   : 18:14:40.0
MAGNITUD(ES)                           : /Mc=7.1
COORDENADAS DEL EPICENTRO              : 18.40 LAT. N
                                       : 98.72 LONG. W
PROFUNDIDAD FOCAL (km)                 : 57
FUENTE DE LOS DATOS EPICENTRALES       : SSN
                                       : INSTITUTO DE GEOFISICA, UNAM

================================================================================
DATOS DE ESTE REGISTRO:
HORA DE LA PRIMERA MUESTRA (GMT)       : 13:13:57.00
EXACTITUD DEL TIEMPO (s)               : 
DURACION DEL REGISTRO (s), C1-C6       : /329.01/329.01/329.01
DURACION DEL REGISTRO (s), C7-C12      : 
NUM. TOTAL DE MUESTRAS, C1-C6          : /32901/32901/32901
NUM. TOTAL DE MUESTRAS, C7-C12         : 
ACEL. MAX. (Gal), C1-C6                : /189.9389/58.99466/186.6892
ACEL. MAX., C1-C6, EN LA MUESTRA       : /8812/7946/8125
ACEL. MAX. (Gal), C7-C12               : 
ACEL. MAX., C7-C12, EN LA MUESTRA      : 
UNIDADES DE LOS DATOS                  : Gal (cm/s/s)
FACTOR DE DECIMACION                   : 1
FORMATO DATOS (FORTRAN,10 campos/dato) : 3F10.5


================================================================================
CALIDAD DEL ACELEROGRAMA:
REGISTRO DIGITAL COMPLETO CON TIEMPO ABSOLUTO CORRECTO.


================================================================================
COMENTARIOS:














================================================================================
DATOS DE ACELERACION:
---------+---------+---------+---------+---------+---------+---------+---------+
   CANAL-1   CANAL-2   CANAL-3   CANAL-4   CANAL-5   CANAL-6   CANAL-7   CANAL-8
      N00E        +V      N90W
---------+---------+---------+---------+---------+---------+---------+---------+
[...]
  67.77540 -34.37874 -42.67870
  67.95490 -32.40354 -38.48890
  65.74030 -30.18894 -35.73560
  61.37090 -27.73484 -34.47860
  54.90660 -25.22094 -35.07720
  46.70650 -22.52754 -37.53120
  37.30930 -19.47494 -41.66120
  27.43330 -16.42234 -46.92840
  17.19810 -13.72884 -52.79420
   6.78340 -11.99304 -59.25850
  -3.57150 -11.03544 -65.66300
 -13.44750 -10.19744 -71.76810
 -22.36590  -8.88064 -77.51420
 -30.26670  -6.42664 -82.96100
 -36.91060  -2.83534 -87.86910
 -42.41720   1.35456 -91.81950
 -47.20560   5.84366 -95.05160
 -51.21590   9.85386 -97.38600
 -54.50790  12.66706 -98.94220
 -56.66260  13.74446 -99.89990
 -58.33860  13.56486-100.73780
 -59.17650  12.42766-101.21670
 -59.17650  10.69186-101.33640
 -58.99700   8.65676-101.45610
 -59.11670   6.56186-101.81520
 -59.11670   4.58666-101.87510
 -59.23640   2.55166-101.75540
 -60.01450   0.45666-101.51590
 -61.21160  -1.57834-101.15680
 -62.40870  -3.49374-100.49840
 -63.90510  -5.52874 -99.78020
 -66.00000  -7.50394 -98.88230
 -68.51390  -9.47914 -97.50570
 -71.50660 -11.69384 -95.23120
 -74.73880 -14.14784 -92.71730
 -77.61180 -16.60194 -89.96400
 -79.94610 -18.99614 -86.49240
 -81.68190 -21.39024 -82.54200
 -83.11840 -23.18594 -78.23240
 -84.49510 -23.54504 -73.44410
 -85.99150 -22.28814 -68.05710
 -87.60750 -19.35524 -63.02930
 -89.40320 -14.74644 -58.24100
 -91.13900  -9.35944 -53.27300
 -92.75510  -4.51124 -48.42480
 -94.37110  -0.97984 -43.69630
 -95.86750   1.05526 -39.02760
 -96.70550   1.95306 -34.23920
 -97.18430   2.37206 -29.33110
 -97.18430   2.97056 -24.54280
 -96.46600   4.28736 -19.39520
 -94.96970   6.38236 -13.88860
 -92.99450   9.31516  -8.50170
 -90.54040  12.78676  -3.29430
 -87.72730  16.19846   1.61380
 -84.67470  18.89196   5.98320
 -81.80160  20.14886   9.57440
 -79.28770  19.49046  12.86650
 -77.37240  17.39556  15.91910
 -76.35490  14.70216  18.79210
 -76.17530  11.88896  21.24610
 -77.13300   8.83636  22.80230
 -79.40740   5.66406  23.87970
 -82.63960   2.91076  23.81990
 -86.41040   0.93556  22.32350
 -90.18130   0.03776  19.57020
 -93.23390   0.75596  15.32050
 -95.32880   2.79106   9.87370
 -96.34630   5.84366   3.28970
 -96.40620   9.55466  -4.37170
 -95.86750  13.68456 -12.63170
 -94.55070  18.17366 -21.01130
 -92.63530  22.90226 -29.86980
 -90.06160  27.75046 -38.78820
 -86.64990  32.47896 -47.82620
 -82.57970  37.02796 -56.26580
 -77.67170  40.61926 -63.86730
 -72.10520  42.83386 -70.09220
 -66.47880  43.79156 -74.46160
 -60.55320  43.97106 -76.91560
 -53.90930  43.73166 -76.97550
 -46.66690  43.85136 -74.88060
 -38.88580  44.62946 -70.57100
 -31.04480  45.94626 -64.16660
 -23.26370  47.68206 -56.20590
 -15.42270  49.47776 -47.04810
  -7.28250  50.97406 -37.47140
   0.73800  52.23106 -27.35590
   8.63890  52.94926 -16.94120
  16.42000  53.42816  -6.70600
  24.08140  53.96686   2.99040
  31.26400  54.44566  11.84890
  38.20710  54.80476  19.98920
  45.09040  55.04426  27.71040
  52.51240  55.22376  34.83310
  59.99420  55.16396  40.75880
  66.81770  54.74496  45.24790
  73.16230  53.48796  48.53990
  78.48930  51.33326  50.27570
  82.61930  48.28066  50.33550
  85.49240  44.56966  48.71940
  87.22810  40.73896  45.30770
  87.70700  37.14766  40.27990
  86.92890  34.15496  33.99520
  85.19310  32.17966  26.93230
  82.85870  31.16216  19.68990
  80.94340  30.92276  12.02850
  78.54920  30.98266   6.10290
  76.15500  30.74316   0.77580
  74.47910  30.56366  -4.85050
  73.40170  30.14466  -8.80100
  72.86300  29.42636 -11.55430
  73.16230  28.52856 -12.99080
  74.89810  27.45116 -12.57180
  77.47180  25.29646 -10.47690
  79.98570  22.00436  -7.18490
  81.48210  18.77226  -1.55850
  82.08060  15.48026   5.08530
  82.14050  11.58966  12.86650
  82.37990   8.11806  21.42570
  82.43980   5.60416  30.40390
  82.73900   3.86846  39.02300
  83.15800   2.85086  47.70190
  83.87630   2.01296  55.78230
  84.77410   1.35456  63.56340
  86.03100   1.23476  69.60870
  88.18580   1.17496  74.69640
  91.53770   0.39686  79.12570
  95.90710  -0.68054  81.87900
  99.67790  -1.93754  84.57240
 101.41370  -3.55354  88.04400
 100.33630  -5.82804  91.09660
  96.08660  -9.12004  93.13170
  90.81940 -13.42964  93.61050
  86.27050 -17.61944  93.19150
  82.67920 -20.97134  92.95210
  80.76380 -23.30564  93.13170
  80.82370 -24.62244  93.67040
  82.49960 -25.40054  94.32880
  85.55220 -26.11884  94.56820
  89.68220 -26.95674  93.96960
  93.99170 -27.91444  93.37110
  98.36110 -29.41084  92.95210
 102.43120 -31.56554  92.35350
 105.06490 -34.01964  91.93460
 105.96270 -36.53354  92.41340
 105.36410 -38.32914  93.25140
 103.32910 -39.04744  94.56820
  99.97720 -39.16714  96.18430
  95.84720 -38.68834  97.86020
  91.59750 -38.14964  99.59600
  87.22810 -37.85034 101.21200
  82.97850 -37.73064 102.58870
  78.66890 -37.79044 103.66610
  74.17980 -38.14964 104.08510
  69.33160 -38.32914 104.02520
  64.00450 -38.02994 103.48650
  57.95920 -36.89264 102.40910
  51.13570 -34.73784 101.09230
  43.83350 -31.68534  99.95510
  36.23190 -28.15384  98.63830
  28.69020 -24.38304  97.44120
  21.32810 -21.09104  96.90250
  14.14550 -18.93624  97.32150
   7.38190 -17.85884  98.63830
   0.85780 -17.73914 101.09230
  -5.30730 -18.63694 104.56390
 -10.93360 -19.77424 108.87350
 -15.84170 -20.61214 113.54210
 -20.51040 -20.91144 117.97140
 -25.05930 -20.43264 121.98160
 -29.48860 -19.47494 125.15390
 -33.67840 -18.69684 127.54810
 -37.56900 -18.81654 129.34380
 -40.80110 -19.83404 130.54090
 -43.31500 -21.51004 131.01970
 -45.23040 -23.72464 130.84010
 -46.42750 -26.47794 130.00220
 -47.02600 -29.71004 128.38610
 -47.38520 -33.24154 126.23130
 -47.68440 -37.25174 123.35830
 -47.80410 -41.02264 119.94660
 -48.04360 -44.01534 115.99620
 -48.22310 -46.23004 111.08810
 -48.46250 -47.84604 105.40190
 -48.70200 -49.04314  99.17700
 -48.88150 -49.88114  92.77250
 -49.00120 -49.82124  86.12870
 -49.42020 -48.56434  79.30520
 -49.89910 -45.93074  72.36210
 -50.43780 -42.15984  65.11960
 -51.27570 -37.79044  57.93710
 -52.23340 -33.36124  50.51510
 -53.49030 -29.47064  42.85370
 -54.98670 -26.23854  35.25210
 -56.78240 -23.66474  27.65060
 -58.81740 -21.74944  20.04900
 -60.97220 -20.73184  12.62700
 -63.30650 -20.61214   5.26490
 -65.58100 -21.62974  -1.67820
 -68.15480 -23.36544  -8.38200
 -70.78840 -25.28084 -14.78640
 -73.66140 -26.95674 -20.71200
 -76.65410 -27.97434 -25.91940
 -79.88630 -28.21374 -30.58810
 -83.05860 -27.67504 -34.53850
 -86.11120 -26.59764 -37.77060
 -88.92430 -25.22094 -40.46410
 -91.43820 -23.54504 -42.73860
 -93.53320 -21.51004 -43.99550
 -95.20910 -19.47494 -44.95320
 -96.16680 -17.20044 -46.03060
 -96.64560 -14.98584 -46.80870
 -96.40620 -12.95074 -47.40730
 -95.74780 -11.03544 -47.82620
 -94.55070  -8.88064 -48.42480
 -92.69520  -6.42664 -49.32260
 -90.48060  -3.97254 -50.22040
 -88.02650  -1.51854 -51.23800
 -85.27320   0.69616 -52.37520
 -82.16080   2.43186 -53.75190
 -78.74900   3.62896 -55.54750
 -75.15780   4.58666 -57.46290
 -71.08760   5.54436 -59.37820
 -66.53870   7.04076 -61.53300
 -61.57070   9.19546 -63.44830
 -55.94440  11.76926 -65.36370
 -50.07860  14.40286 -66.91990
 -43.97340  16.79706 -68.29660
 -37.20990  19.13136 -69.61340
 -29.96740  21.52556 -70.75060
 -22.60530  23.91976 -71.52870
 -15.72200  26.37376 -72.06740
  -9.31750  28.58846 -72.42650
  -3.27220  30.32426 -72.54620
   1.93510  31.64106 -72.66600
   6.30450  32.83816 -72.78570
   9.71630  33.67606 -72.78570
  12.11040  33.97536 -72.78570
  13.60680  34.09506 -72.66600
  14.26520  33.91546 -72.54620
  14.14550  33.25706 -72.30680
  13.48710  31.94026 -72.12730
  12.40970  29.96506 -72.30680
  10.85350  27.69056 -72.72580
   8.93810  25.35626 -73.86310
   7.08260  22.90226 -75.65870
   5.22720  20.50806 -77.99300
   3.31180  18.11386 -80.74630
   1.45630  15.48026 -83.91860
  -0.21960  12.42766 -87.62960
  -1.77590   9.31516 -91.46030
  -3.51160   6.32246 -95.47060
  -5.42700   3.74866 -99.42100
  -7.58180   1.47426-103.43130
 -10.33510  -0.44114-107.38170
 -13.44750  -2.23674-110.91310
 -16.61980  -3.91274-113.90590
 -19.73230  -5.10984-116.30010
 -22.72500  -5.16964-118.15560
 -25.65790  -3.91274-119.23290
 -28.35140  -1.93754-119.71180
 -30.68570   0.15746-119.35270
 -32.66090   2.07276-118.45480
 -34.27700   4.22756-117.25770
 -34.99520   6.44216-116.12050
 -34.99520   8.53706-115.64170
 -34.81570  10.63196-116.47960
 -34.51640  12.90646-118.39500
 -34.21710  14.76196-120.66950
 -34.21710  15.77956-122.04610
 -33.91780  16.31816-120.60960
 -33.49890  15.89926-116.53950
 -32.78060  14.76196-109.83580
 -31.70320  13.62476 -99.66040
 -29.60830  12.24806 -86.43250
 -26.73530   9.97356 -70.99000
 -24.87980   7.28016 -53.57230
 -24.87980   4.40716 -36.57360
 -24.99950   1.89326 -23.64490
 -23.50310   1.05526 -16.82150
 -22.18630   1.83336 -13.40980
 -21.88700   4.22756  -9.45940
 -23.86220   7.63926  -5.74840
 -27.63310  11.23056  -2.81550
 -32.54120  14.22326   0.53640
 -38.40700  16.31816   3.40940
 -44.51210  17.39556   5.38460
 -50.61730  17.27586   6.58170
 -56.84220  16.55766   7.41970
 -62.34880  16.43796   6.58170
 -66.71820  17.39556   5.68390
 -69.83070  18.65256   4.78610
 -71.56650  19.90946   2.75100
 -72.64390  21.16646   0.47650
 -74.02050  22.48326  -1.67820
 -75.33730  23.08176  -3.29430
 -76.89350  22.30366  -4.25200
 -78.15050  20.20876  -4.25200
 -78.92860  17.63496  -3.59360
 -79.64690  15.18096  -2.75560
 -79.94610  13.08606  -2.09720
 -79.70670  12.00866  -1.61840
 -78.86880  11.52986  -1.19940
 -77.19280  11.46996  -0.72060
 -75.57670  11.41016  -0.84030
 -73.18260  11.64956  -0.54100
 -70.72850  11.94876   0.23710
 -67.85550  12.66706   0.59620
 -64.26420  14.04376   1.79330
 -60.13420  15.36056   3.11010
 -55.76480  16.91676   4.30720
 -50.67720  18.71236   5.68390
 -44.81140  20.62776   6.94080
 -38.70620  22.54306   8.01820
 -32.06230  24.69786   8.97590
 -25.29880  26.61326  10.05330
 -18.23590  28.16946  11.13070
 -10.93360  29.00736  12.20810
  -3.39190  29.24686  13.52490
   4.20960  29.00736  15.08110
  11.93090  28.70816  16.57750
  19.83170  28.64826  18.13370
  28.09170  28.28916  19.45050
  37.12970  27.69056  20.64760
  46.70650  26.97236  21.84470
  56.88180  26.31396  23.10160
  67.59580  25.11686  24.41840
  78.48930  23.62046  26.15420
  89.50260  22.12416  28.24910
 100.33630  20.56786  30.70320
 110.87080  19.25106  33.75580
 120.74680  18.05396  37.52660
 129.78490  16.37806  41.47700
 137.92510  14.46266  45.72670
 144.92810  11.88896  50.27570
 150.73400   8.77646  54.64510
 155.58230   5.06556  59.01450
 159.83190   1.11506  62.90500
 163.54290  -2.59594  66.37660
 166.83490  -5.64844  69.60870
 169.70800  -7.68354  72.30220
 172.58100  -8.46164  74.57670
 176.47160  -7.68354  76.43220
 181.37960  -5.64844  78.22780
 185.80890  -2.95504  79.84390
 188.80160  -0.86014  81.04100
 189.93890  -0.26154  81.69940
 188.68190  -0.86014  81.40010
 183.65410  -1.09954  80.14320
 175.45400   0.03776  77.50960
 166.77510   2.13266  74.15770
 158.27570   4.28736  70.80580
 149.95590   5.96336  67.33430
 142.77330   6.56186  62.84520
 137.62580   5.36476  57.99690
 133.73530   2.61146  53.62750
 129.42570  -0.44114  49.67710
 124.99650  -3.19444  46.62450
 121.22560  -5.64844  44.82890
 117.03580  -8.10254  43.75150
 112.00800 -10.25734  43.03320
 106.68090 -11.93324  42.43470
 100.75530 -13.48944  41.17770
  94.65010 -15.04564  39.14270
  89.08360 -16.48224  36.98790
  84.71420 -17.61944  34.65360
  82.08060 -17.97854  31.90030
  81.18280 -17.20044  29.14690
  81.36240 -15.46464  26.81260
  82.02080 -13.36974  25.13670
  82.61930 -11.51424  23.58050
  83.15800 -10.49674  22.02420
  83.51710 -10.13764  20.22860
  83.93610 -10.43684  18.31320
  83.87630 -10.91574  16.09860
  83.27770 -11.15514  13.70440
  82.32010 -11.03544  11.31020
  80.88350 -11.09524   9.15550
  78.96820 -11.51424   7.30000
  76.93310 -12.05294   5.32480
  75.61630 -12.77124   3.11010
  75.01780 -13.48944   0.89550
  74.89810 -13.96834  -1.43880
  75.37690 -14.26754  -3.53370
  76.57400 -14.68654  -5.80820
  78.24990 -15.22524  -8.26230
  80.10540 -16.00334 -10.47690
  82.02080 -16.78144 -12.27250
  84.41500 -17.26034 -13.76890
  87.04860 -17.20044 -14.96600
  89.74200 -16.96104 -15.86380
  92.19610 -16.42234 -16.28280
  94.17130 -15.82384 -16.58210
  95.54790 -14.92594 -16.76160
  95.84720 -13.54934 -16.52220
  95.78740 -12.23254 -17.71930
  94.53040 -11.39454 -19.03610
  92.61510 -10.67624 -21.25070
  90.04130  -9.77844 -24.36320
  86.92890  -9.00034 -28.49320
  83.69670  -8.16234 -33.99980
  79.50690  -7.20474 -38.36920
  74.83820  -6.00764 -43.51670
  69.57100  -4.69084 -50.10070
  63.28620  -4.09224 -56.32560
  56.40300  -4.03244 -63.38850
  49.45980  -4.45144 -70.87030
  42.51670  -5.28934 -78.41200
  34.91510  -6.06744 -85.41500
  27.43330  -6.66604 -92.23850
  19.71200  -7.44414 -99.30130
  11.57180  -9.00034-106.00500
   3.97020 -10.43684-112.52920
  -3.03280 -11.15514-118.51470
  -9.73650 -11.03544-123.66220
 -15.90160 -10.19744-127.73230
 -21.52790  -8.88064-130.42580
 -26.43600  -7.68354-131.62290
 -30.98500  -6.48644-131.38350
 -35.05510  -5.58864-129.70750
 -38.34710  -5.22954-126.77460
 -41.04060  -5.28934-122.46510
 -43.31500  -5.70834-116.95850
 -45.35010  -6.36674-110.61390
 -46.96620  -7.38424-103.79040
 -48.40270  -8.58134 -96.90710
 -49.83920 -10.07774 -90.44280
 -51.45530 -11.69384 -84.33760
 -53.25090 -13.30994 -78.89090
 -55.22610 -15.16534 -73.92290
 -57.26120 -17.20044 -69.31410
 -59.53570 -19.11584 -65.30380
 -62.28900 -20.67204 -61.83230
 -65.28170 -21.56984 -58.95920
 -68.45400 -21.62974 -56.56500
 -71.80590 -21.15084 -54.70950
 -75.21760 -20.25304 -53.27300
 -78.68920 -18.75664 -52.25550
 -82.16080 -17.32014 -51.41750
 -85.33310 -16.12304 -50.34010
 -88.08640 -15.16534 -49.02330
 -90.66010 -14.44714 -47.46710
 -93.05430 -13.72884 -45.37220
 -95.14920 -13.07044 -42.79840
 -96.94490 -12.71134 -40.04510
 -98.44130 -12.65144 -36.93270
 -99.69820 -12.59164 -33.64070
-100.65590 -12.41204 -30.16910
-101.49380 -12.59164 -26.57780
-102.03250 -12.89094 -22.74710
-102.27200 -13.01064 -18.55730
-102.45150 -12.89094 -14.24770
-102.21210 -12.71134  -9.99810
-101.79310 -12.89094  -5.62870
-101.61360 -13.19014  -1.37900
-101.85300 -13.54934   2.75100
-102.39170 -13.90844   6.76130
-103.40920 -14.08804  10.77150
-104.72600 -14.02814  14.54240
-106.34210 -13.84854  17.95410
-108.13770 -13.30994  21.18630
-109.75380 -11.99304  24.11910
-111.07060 -10.19744  27.11190
-112.08810  -8.04264  30.22430
-112.92610  -5.70834  33.63610
-114.18300  -4.21194  37.64630
-116.15830  -3.49374  41.89600
-119.09110  -3.31414  45.48730
-122.74230  -3.07474  47.64210
-126.99200  -2.65574  47.82160
-131.60080  -1.69804  45.84640
-136.98770   0.03776  41.23760
-142.67390   2.25236  34.95290
-147.88130   4.22756  27.05200
-153.02880   5.78376  17.41540
-158.59530   7.45966   5.56420
-164.28150   8.95606  -8.68120
-169.66840   9.91376 -24.78220
-173.61880  10.45246 -41.12250
-174.93560  10.03346 -55.00880
-173.55890   8.53706 -63.86730
-171.04500   6.44216 -67.69800
-169.48880   3.68886 -68.47610
-168.95010   0.57636 -67.45860
-168.89030  -3.19444 -66.08190
-169.36910  -7.02514 -65.96220
-169.42900  -9.71864 -68.35640
-168.35160 -11.21494 -72.66600
-166.55590 -11.81354 -76.85580
-163.56320 -12.05294 -80.08790
-158.95440 -12.71134 -82.30260
-152.84920 -14.08804 -83.02080
-145.24770 -15.64424 -81.94340
-136.86800 -17.02084 -79.48940
-127.94960 -17.43984 -75.59880
-118.97140 -16.90114 -70.63090
