********************************************************************************
              CENTRO DE INSTRUMENTACION Y REGISTRO SISMICO  A.C.

    Anaxagoras 814, Col. Narvarte, Benito Juarez, C.P. 03020 Mexico, D.F.
           Tels. 5687 45 42/ 5687 45  82             Fax. 5669 25 12
********************************************************************************
ARCHIVO ESTANDAR DE ACELERACION:
VERSION DEL FORMATO                    : 2.0
NOMBRE DEL ARCHIVO                     : TL0820170919181440
FECHA Y HORA DE CREACION               : 25/SEP/17, 14:11
REF. CATALOGO ACELEROGRAMAS, SMIS 1996 : REGISTRO No.     /PAG.


================================================================================
DATOS DE LA ESTACION:
NOMBRE DE LA ESTACION                  : DEPORTIVO "ANTONIO CASO T-II"
CLAVE DE LA ESTACION                   : TL08
LOCALIZACION DE LA ESTACION            : Del. Cuauhtémoc, Col. Morelos,         
                                       : Av. Paseo de la Reforma                
                                       : Esq. Eje 2 Norte.                      
                                       :                                        
                                       : 
COORDENADAS DE LA ESTACION             : 19.4500 LAT. N
                                       : 99.1336 LONG. W
ALTITUD (msnm)                         : 2232
TIPO DE SUELO                          : Arcilloso, zona lago                
                                       :                           
                                       : 
INSTITUCION RESPONSABLE                : CIRES
                                       : 

================================================================================
DATOS DEL ACELEROGRAFO:
MODELO DEL ACELEROGRAFO                : RADESD
NUMERO DE SERIE DEL ACELEROGRAFO       : 222
NUMERO DE CANALES                      : 3
ORIENTACION C1-C6 (rumbo;orientacion)  : /N00E/+V/N90W
ORIENTACION C7-C12 (rumbo;orientacion) : 
VEL. DE MUESTREO, C1-C6 (muestras/s)   : /100/100/100
VEL. DE MUESTREO, C7-C12 (muestras/s)  : 
ESC. COMPLETA DE SENSORES, C1-C6, (g)  : /0.5/0.5/0.5
ESC. COMPLETA DE SENSORES, C7-C12, (g) : 
FREC. NAT. DE SENSORES, C1-C6, (Hz)    : /33/30/30
FREC. NAT. DE SENSORES, C7-C12, (Hz)   : 
AMORTIGUAMIENTO DE SENSORES, C1-C6     : /0.785/0.790/0.792
AMORTIGUAMIENTO DE SENSORES, C7-C12    : 
INTERVALO DE MUESTREO, C1-C6, (s)      : /0.01/0.01/0.01
INTERVALO DE MUESTREO, C7-C12, (s)     : 
UMBRAL DE DISPARO, C1-C6, (Gal)        : /1.5/3.29/1.5
UMBRAL DE DISPARO, C7-C12, (Gal)       : 
MEMORIA DE PREEVENTO (s)               : 44.0
TIEMPO DE POSEVENTO (s)                : 30.0


================================================================================
DATOS DEL SISMO:
FECHA DEL SISMO (GMT)                  : 19/SEP/17
HORA EPICENTRO (GMT)                   : 18:14:40.0
MAGNITUD(ES)                           : /Mc=7.1
COORDENADAS DEL EPICENTRO              : 18.40 LAT. N
                                       : 98.72 LONG. W
PROFUNDIDAD FOCAL (km)                 : 57
FUENTE DE LOS DATOS EPICENTRALES       : SSN
                                       : INSTITUTO DE GEOFISICA, UNAM

================================================================================
DATOS DE ESTE REGISTRO:
HORA DE LA PRIMERA MUESTRA (GMT)       : 18:15:01.00
EXACTITUD DEL TIEMPO (s)               : 0.01
DURACION DEL REGISTRO (s), C1-C6       : /380.2/380.2/380.2
DURACION DEL REGISTRO (s), C7-C12      : 
NUM. TOTAL DE MUESTRAS, C1-C6          : /38020/38020/38020
NUM. TOTAL DE MUESTRAS, C7-C12         : 
ACEL. MAX. (Gal), C1-C6                : /82.84913/30.17763/81.2083
ACEL. MAX., C1-C6, EN LA MUESTRA       : /6693/6864/7085
ACEL. MAX. (Gal), C7-C12               : 
ACEL. MAX., C7-C12, EN LA MUESTRA      : 
UNIDADES DE LOS DATOS                  : Gal (cm/s/s)
FACTOR DE DECIMACION                   : 1
FORMATO DATOS (FORTRAN,10 campos/dato) : 3F10.5


================================================================================
CALIDAD DEL ACELEROGRAMA:
REGISTRO DIGITAL COMPLETO CON TIEMPO ABSOLUTO CORRECTO.


================================================================================
COMENTARIOS:














================================================================================
DATOS DE ACELERACION:
---------+---------+---------+---------+---------+---------+---------+---------+
   CANAL-1   CANAL-2   CANAL-3   CANAL-4   CANAL-5   CANAL-6   CANAL-7   CANAL-8
      N00E        +V      N90W
---------+---------+---------+---------+---------+---------+---------+---------+
[...]
  31.97235  13.68756 -12.41989
  30.47597  11.45796 -15.77177
  27.64782   7.56738 -18.77949
  24.25105   4.57463 -21.26347
  21.01888   3.54213 -23.10401
  18.49000   3.36257 -25.13909
  17.17319   2.25525 -26.75517
  17.62210   1.34246 -27.08437
  19.94148   1.17786 -26.57561
  23.60761   2.59942 -25.51318
  27.55804   3.90126 -24.80988
  31.07452   3.79652 -24.55550
  32.97492   2.70416 -24.77995
  32.76543   2.09065 -25.69274
  31.11941   2.89869 -26.85992
  28.59054   3.42242 -28.35629
  26.10655   2.55452 -29.86763
  24.16127  -0.49808 -30.72057
  22.88935  -4.04449 -30.91510
  22.70978  -6.36388 -30.81035
  23.50286  -7.03725 -30.97495
  25.71750  -7.02228 -31.51365
  28.82996  -7.12703 -32.30673
  31.92746  -8.18946 -33.63850
  34.51619  -9.56612 -35.10495
  35.99760 -10.20956 -36.19730
  36.47644  -9.83547 -36.45169
  36.43155  -7.72558 -35.80825
  35.78811  -4.61312 -34.31187
  34.62093  -1.00685 -32.00745
  33.27420   1.86619 -28.93988
  31.76286   3.16804 -25.57303
  30.26648   2.07568 -22.55035
  28.96463  -1.17145 -20.03644
  28.12666  -4.49341 -17.98641
  27.60293  -6.43870 -16.99880
  27.28869  -7.26170 -17.04369
  27.54308  -5.82518 -17.17836
  27.93213  -3.25141 -17.85173
  28.24637  -0.57290 -18.34554
  27.46826   0.41471 -19.00394
  25.22369  -0.48312 -19.22840
  21.67728  -1.87475 -18.49518
  16.78413  -3.34120 -16.99880
  11.62163  -3.95471 -14.85898
   6.92301  -4.25399 -12.19543
   3.10725  -4.82261  -9.17275
   0.32399  -5.88504  -6.15007
  -1.86071  -6.87264  -3.69602
  -3.32716  -6.01971  -1.67591
  -3.56658  -3.64047   0.20952
  -3.01292  -1.23131   1.96028
  -1.41180   0.60924   3.87565
   0.45867   2.16547   5.73115
   2.11965   4.91880   7.72133
   3.03244   8.45025   9.92101
   2.25432  11.11380  11.73162
  -0.42419  11.69738  13.48238
  -5.60165   9.91669  14.52984
 -12.38024   7.26811  15.29300
 -19.45810   5.14325  15.30796
 -25.93740   3.66184  14.27546
 -30.74077   3.22789  12.46484
 -33.73352   3.70673  10.71408
 -35.18501   4.79909   9.83122
 -36.05291   5.09836  10.05568
 -36.72628   3.60199  10.72905
 -37.89345   0.89355  11.97104
 -39.88363  -2.12913  13.48238
 -43.08587  -4.94232  15.75687
 -47.72464  -6.88761  19.31825
 -53.51561  -5.88504  24.36103
 -59.39637  -2.33863  30.55603
 -64.67858   0.84866  35.11998
 -68.01550   0.81873  39.10034
 -69.57173   0.22018  42.58689
 -69.64655   0.62420  46.17820
 -68.52427   4.51478  50.48776
 -66.42934   9.58749  54.30352
 -64.09499  14.49560  56.62290
 -61.82050  16.93470  57.53569
 -60.06974  16.96463  57.41598
 -59.32155  14.94452  56.50319
 -59.38141  11.33825  54.09403
 -60.09967   7.28307  50.42790
 -61.44641   3.91623  45.87892
 -62.85300   1.40231  40.59671
 -63.75083  -0.90210  35.97291
 -64.12492  -3.70033  31.87284
 -63.40666  -7.32156  28.28154
 -61.73072  -9.83547  25.78259
 -59.14199 -11.12235  24.61542
 -55.43098 -10.89790  24.30118
 -51.01667 -10.47891  24.22636
 -47.06623  -9.50627  24.09169
 -43.86399  -7.41134  25.42346
 -41.82892  -4.01457  26.83005
 -41.23037  -0.57290  28.40125
 -42.41250   1.64173  29.49360
 -45.06109   1.98590  30.79545
 -48.57757   1.14793  32.78563
 -51.60025   0.14536  35.23969
 -53.26123  -0.03421  37.88827
 -53.11159  -0.63276  40.34233
 -51.16630  -2.77257  42.22776
 -47.73960  -6.57337  43.85881
 -44.04355 -10.49387  45.04095
 -41.05080 -13.93554  45.74425
 -39.91356 -15.89579  45.87892
 -40.61685 -16.88340  46.34280
 -43.10084 -16.35967  46.08841
 -46.97645 -15.97061  45.04095
 -51.31594 -15.11768  43.70918
 -55.05688 -14.21985  42.60186
 -57.40619 -12.66362  42.07813
 -57.84014 -10.97272  42.07813
 -56.70290  -9.80554  42.48215
 -54.14409  -9.64094  42.79639
 -51.12141 -10.17964  42.73653
 -48.05384 -10.35920  42.27266
 -44.86656  -8.99750  41.95842
 -42.53221  -6.51351  41.16534
 -41.20044  -4.19413  40.28248
 -40.81138  -2.75761  39.01056
 -41.09569  -1.50065  37.42440
 -41.05080   0.41471  36.55650
 -40.60189   2.37496  35.77838
 -39.21026   3.69177  35.28458
 -36.51678   4.41003  35.68860
 -32.37182   5.39764  36.66125
 -26.93998   6.53488  38.23244
 -20.49060   5.87648  39.68392
 -13.21821   2.67423  40.89599
  -5.60165  -1.96453  41.38979
   0.99736  -6.69308  41.04563
   6.11497  -9.77561  39.38465
   9.18254 -12.82822  35.85320
  10.63403 -15.11768  31.21444
  10.91834 -15.25235  25.82748
  10.40957 -12.67858  20.79966
  10.03548  -8.41391  17.05872
  10.30482  -5.00217  14.32035
  12.14537  -3.53573  12.68930
  15.33265  -2.62294  12.40499
  19.43272  -0.69261  13.15318
  23.83206   3.99105  13.99115
  28.12666   9.76706  13.70684
  32.19680  15.66278  11.64184
  36.10235  20.10701   8.31988
  39.05021  21.67821   4.01032
  40.83089  19.70299  -0.31421
  40.87579  14.97445  -4.71355
  39.90314   9.81195  -8.43953
  38.79582   5.77173 -11.68666
  37.80821   3.15307 -13.72174
  37.95785   2.86876 -14.14072
  38.96042   4.27536 -13.34764
  41.17506   5.38267 -11.73156
  44.37731   5.68195  -9.39721
  48.08832   4.43996  -7.12272
  52.15846   3.00344  -5.59641
  55.51034   0.75887  -5.91065
  56.91694  -2.26381  -8.20011
  56.21364  -5.63065 -13.00348
  53.17600  -9.11721 -19.99155
  48.94125 -11.55630 -27.39861
  44.04810 -12.87311 -34.77575
  39.72358 -13.50159 -40.83607
  36.17716 -13.51655 -45.13067
  33.84282 -12.69355 -47.89896
  33.15449  -9.85043 -48.93146
  33.25923  -5.73540 -49.24570
  33.28916  -1.82986 -49.41030
  33.13952   0.84866 -49.90411
  31.98731   2.25525 -50.72712
  29.50333   3.57206 -51.93918
  25.85217   4.08083 -53.91440
  21.48275   4.55967 -56.60787
  17.17319   5.87648 -58.86740
  14.38993   8.73456 -59.64552
  14.25526  11.48789 -59.12178
  16.70931  11.18861 -57.50570
  21.78203   8.55499 -54.51295
  28.60550   6.35532 -49.69462
  35.56365   6.38525 -44.15802
  41.65390   7.34293 -38.90574
  45.81383   8.68967 -35.20970
  47.54962  10.11122 -32.71075
  47.35509  11.99666 -30.73553
  45.60433  13.16383 -28.98477
  43.41962  12.75981 -27.51832
  41.87836  10.76963 -26.51575
  41.72872   8.80938 -25.91720
  43.07546   8.07615 -25.24383
  45.54448   7.37285 -24.92959
  48.61205   6.02612 -25.27376
  51.55991   4.57463 -25.79749
  53.65484   3.51220 -26.14166
  54.34317   4.14068 -26.12669
  53.28074   5.99619 -26.26137
  50.84165   8.19586 -26.90481
  47.77408   9.33311 -28.31140
  44.93096   9.25829 -29.77785
  43.56926   8.73456 -30.93006
  43.73386   6.93891 -31.57350
  45.55944   4.33521 -31.57350
  48.49234   1.10304 -30.40633
  51.67962  -0.72254 -28.37126
  55.03150  -0.09406 -25.51318
  57.59031   1.56692 -21.98173
  59.05675   1.88115 -17.68713
  58.98194   0.28003 -13.54217
  57.09650  -2.80250  -9.05304
  53.72966  -6.16935  -4.72852
  48.94125  -9.28181  -1.97518
  43.85357 -11.43659  -1.04743
  38.96042 -12.39427  -1.72080
  34.33662 -12.00521  -3.90551
  30.23655 -10.47891  -5.71612
  26.37590  -8.20442  -7.15265
  22.73971  -5.25656  -8.24500
  19.38783  -1.81489  -8.55924
  15.94616   1.49210  -7.72127
  12.41471   5.84655  -5.77598
   8.55406  10.88934  -2.93286
   4.60363  16.44089   0.16463
   0.62327  20.54096   2.73840
  -3.46184  20.76542   4.23478
  -7.68162  16.78506   5.41691
 -12.09593  12.19119   6.97314
 -16.40549   9.51267   8.90347
 -20.02672   9.34807  11.41738
 -22.33114  10.23093  13.54224
 -22.76509  12.13133  15.77184
 -21.58295  14.03173  18.30071
 -19.81723  15.07919  21.65259
 -17.73726  14.52553  25.87237
 -16.57009  11.42803  28.98484
 -16.45038   6.93891  30.61589
 -17.66245   1.62677  30.21186
 -20.32599  -4.01457  27.29393
 -24.21657  -9.20699  22.55042
 -29.45389 -13.14246  15.92147
 -35.00544 -14.57898   8.73887
 -39.95845 -14.26474   1.19713
 -43.87895 -13.09757  -5.50663
 -46.25819  -9.73072 -10.86366
 -46.94652  -5.70547 -13.99108
 -45.77935  -2.05431 -13.06333
 -44.70196   0.08550 -11.22279
 -43.90888   0.65413  -9.23261
 -42.38258  -0.27363  -4.71355
 -41.33511  -1.18642  -0.95765
 -41.55957  -2.63790   0.52376
 -42.77163  -2.18899   0.40405
 -44.61218  -0.82729  -1.42152
 -46.60236   2.07568  -3.87558
 -47.79946   4.45492  -5.62634
 -47.96406   7.64220  -6.34460
 -47.15602   9.43785  -5.47670
 -45.61475  10.56014  -4.27960
 -42.99609  11.78716  -2.42410
 -39.59932  13.11894  -0.35910
 -35.96312  14.04669   1.12231
 -33.10505  12.34082   2.66358
 -30.96523   6.99876   3.27710
 -30.39661  -0.88714   3.72601
 -32.20722  -7.83033   3.42673
 -35.55910 -13.29210   3.57637
 -39.92852 -15.98558   3.63623
 -44.55232 -18.66409   3.38184
 -48.66736 -21.23785   2.87307
 -51.63018 -23.61709   2.21467
 -52.72254 -24.26053   1.34677
 -52.03420 -23.25796   0.47887
 -49.90935 -20.95354  -1.04743
 -46.67718 -17.99072  -3.05257
 -42.87638 -13.15742  -5.08765
 -39.22522  -6.91754  -6.65884
 -36.86095   0.25010  -7.67638
 -36.21751   5.92137  -8.88844
 -37.20512   9.57253 -10.22022
 -39.28508   9.36304 -11.65674
 -41.26030   6.78927 -13.27282
 -42.50229   1.20779 -14.78416
 -43.14573  -5.97482 -16.74442
 -41.87381 -13.00779 -17.64224
 -39.07559 -17.04800 -17.05865
 -35.00544 -18.42467 -15.39768
 -30.41157 -16.43449 -13.22793
 -25.66806 -12.84319 -11.04322
 -21.32857  -7.12703  -8.57420
 -17.93179  -0.66268  -6.37453
 -15.61241   5.08340  -5.04275
 -14.63977   8.49514  -4.69859
 -14.54998   9.40793  -5.47670
 -14.50509   9.93166  -6.68877
 -13.87661  11.15869  -7.97565
 -12.54484  12.87952  -9.14283
 -10.64444  13.67260 -10.08554
  -8.44477  13.05908 -10.26511
  -6.66408  11.95177  -8.66398
  -5.36223  11.66745  -6.10518
  -4.37463  11.68242  -2.58870
  -3.20745  12.19119   1.37670
  -1.72604  12.20615   4.95304
   0.00976  12.61017   7.42206
   1.46124  13.47807   8.69398
   1.89519  13.34340   8.69398
   0.78787  11.26343   7.36220
  -2.01035   6.65459   4.96800
  -5.87100   0.93844   2.46905
 -10.01596  -4.77772   0.16463
 -12.97879 -10.07489  -1.84051
 -13.54741 -14.11510  -2.33431
 -11.54227 -15.71623  -1.63102
  -7.05314 -14.45927   1.33181
  -2.01035 -11.31688   5.62641
   1.71562  -7.66572   9.81626
   3.33171  -4.80765  12.59952
   1.56599  -3.79011  13.24296
  -2.59394  -3.46091  11.98600
  -8.34002  -2.69776   9.32245
 -14.96897  -1.47073   6.06036
 -20.55045   1.38735   3.35191
 -24.00708   5.39764   1.42159
 -23.87241   9.69224   0.77815
 -20.23621  12.99923   1.55626
 -13.50252  13.43318   2.49898
  -3.64140  10.39553   3.11249
   6.65367   5.47246   2.54387
  16.21551   0.51945   0.97268
  23.29337  -2.33863  -2.49892
  27.15402  -2.56308  -7.21250
  28.33615  -0.97692 -13.21297
  27.13905   0.25010 -19.52768
  24.78974   0.13039 -25.10916
  23.39811  -0.75247 -29.20923
  23.47293  -0.79736 -30.37640
  26.15145   1.52202 -29.80778
  32.52601   3.67681 -27.36869
  41.59405   5.00858 -24.34601
  52.02379   4.55967 -22.05655
  62.66302   3.94615 -19.88681
  71.77595   4.20054 -19.37804
  78.50964   4.08083 -20.03644
  82.23562   3.90126 -21.39815
  82.84913   4.51478 -24.25622
  81.11334   4.75420 -27.66796
  77.02823   5.08340 -30.91510
  71.32704   3.40746 -33.53375
  65.13204  -0.01924 -35.13488
  59.93962  -5.27152 -34.71589
  56.79723 -10.67344 -32.05234
  56.30342 -14.39942 -27.18912
  57.97936 -16.06039 -21.15872
  61.21154 -14.83337 -15.20315
  65.23679 -11.09243  -9.54685
  68.93284  -6.12446  -5.65627
  71.14747  -0.34845  -4.24968
  70.80331   4.57463  -5.25225
  67.48135   7.32796  -8.34975
  61.31628   8.37543 -12.70420
  53.22089   8.80938 -17.37289
  44.78133  10.14115 -20.62003
  36.37169  11.27840 -22.17626
  29.06938  11.59264 -21.54778
  23.53279  11.47293 -18.95905
  19.67214  11.42803 -15.20315
  18.01116  11.18861 -10.08554
  17.68196  10.63495  -4.18982
  18.16080   9.42289   1.00260
  18.37029   8.12104   4.99793
  16.73924   6.92394   6.79358
  13.56692   5.12829   5.91072
   9.00298   0.98333   3.68112
   3.60106  -5.27152   1.07742
  -1.59137 -12.31945  -0.83794
  -6.06553 -17.40713  -1.60109
  -8.81886 -19.09804  -0.79305
  -8.95354 -16.35967   1.12231
  -6.27502 -11.78076   3.81579
  -1.59137  -7.15696   7.22753
   3.78062  -3.86493  10.98343
   8.44932  -1.51562  14.49992
  11.59171  -0.76743  17.01383
  12.77384  -0.58787  18.40546
  12.90852   0.16032  18.21093
  12.14537   0.96837  16.23571
  11.24754   1.25268  12.86887
  10.55921   1.74648   8.94836
  10.58913   2.55452   5.32713
  11.77127   4.35018   3.42673
  13.50707   6.51992   3.23220
  15.88631   8.16593   5.13260
  18.72942  10.23093   8.63412
  21.70721  11.83206  12.37506
  24.40069  13.89705  15.36781
  26.43576  15.46825  17.08865
  27.33358  16.06680  17.16347
  26.85474  16.09673  15.74191
  24.32587  15.67774  12.77908
  20.48018  15.33358   9.36735
  15.39250  15.61789   6.26985
   9.60153  14.77992   4.38441
   3.84048  14.27115   4.50412
  -1.32202  14.31604   6.52423
  -5.51187  14.82481  10.54948
  -8.38491  13.82224  16.68463
 -10.06085  10.08130  23.56795
 -11.09335   4.32025  30.28668
 -12.61966  -2.59301  35.74846
 -14.81933 -10.20956  39.69889
 -18.21610 -17.25749  41.41972
 -22.52567 -23.63206  40.98577
 -26.34143 -27.47774  39.29487
 -29.57360 -28.15111  37.30469
 -31.53385 -26.22079  36.34701
 -31.87802 -24.24557  37.25980
 -30.50135 -23.84155  39.39961
 -27.76298 -25.29303  42.31755
 -24.20161 -26.96898  45.66943
 -20.61031 -26.96898  49.12606
 -16.91426 -25.54742  52.38816
 -13.51748 -23.19811  54.79732
 -10.41999 -20.05572  56.66779
  -8.05571 -16.04543  57.79007
  -6.60423 -10.97272  57.89482
  -5.90093  -6.06460  57.08678
  -6.69401  -2.84739  55.50062
  -8.72908  -2.60797  53.48051
 -11.66198  -5.37627  51.84946
 -15.14853  -8.26427  51.40055
 -18.30589  -9.02743  51.50530
 -20.43074  -7.83033  52.31334
 -20.53549  -6.42373  53.69000
 -19.50299  -4.56823  54.31848
 -17.36317  -3.84997  54.97689
 -15.19342  -2.12913  55.87471
 -14.02625  -0.04917  56.29370
 -14.57991   2.58445  54.67761
 -16.95915   4.03594  50.95164
 -21.10411   5.33778  46.22309
 -25.93740   6.40021  41.80878
 -30.77070   7.29804  38.44193
 -34.54157   7.50753  36.43679
 -36.21751   5.06844  36.49664
 -35.78356   1.08808  37.75360
 -33.31454  -4.01457  40.25255
 -29.73820  -7.74054  42.57193
 -26.14690  -9.04239  43.66429
 -23.75270  -6.42373  43.35005
 -22.48078  -0.49808  41.25512
 -22.22639   7.20825  36.85577
 -22.12165  12.52039  31.27429
 -21.43331  14.94452  25.91727
 -20.17636  13.92698  21.84712
 -18.15625  11.08387  19.39307
 -15.19342   8.04622  19.24343
 -12.35031   5.83159  20.30586
  -9.73165   4.90383  21.81719
  -8.75901   5.02354  22.95444
  -9.43238   4.82902  23.55299
 -11.18314   5.00858  23.50810
 -13.99632   4.61952  22.68509
 -17.10879   4.06586  21.15879
 -20.41578   3.24286  19.78212
 -23.64795   2.53956  18.95912
 -26.26661   2.28518  18.85437
 -28.91519   2.41985  18.94415
 -32.08751   3.04833  19.03394
 -35.72370   3.85637  18.80948
 -39.40479   4.73923  18.34560
 -42.17308   6.29546  17.86676
 -43.56471   8.97398  16.78937
 -42.90631  11.38314  16.31053
 -40.31758  13.92698  15.18825
 -36.35218  14.51057  14.12582
 -31.72838  13.64267  12.07579
 -27.79291  10.36561   8.72390
 -25.09943   6.05604   4.39938
 -23.88737   2.49467  -0.25435
 -24.11183   1.02822  -5.59641
 -25.68302   0.19025 -11.08811
 -28.24182  -0.25866 -16.53492
 -30.84552  -0.73750 -21.06894
 -32.76088  -0.73750 -24.27119
 -33.28461  -0.42326 -25.73764
 -32.04262  -0.60283 -25.91720
 -29.82798  -1.94957 -25.69274
 -26.32646  -3.82004 -25.61793
 -22.86983  -4.77772 -26.17158
 -19.75737  -5.33138 -27.96724
 -17.82705  -6.46862 -31.12459
 -17.24346  -9.80554 -35.31444
 -18.02158 -14.36949 -39.59408
