********************************************************************************
              CENTRO DE INSTRUMENTACION Y REGISTRO SISMICO  A.C.

    Anaxagoras 814, Col. Narvarte, Benito Juarez, C.P. 03020 Mexico, D.F.
           Tels. 5687 45 42/ 5687 45  82             Fax. 5669 25 12
********************************************************************************
ARCHIVO ESTANDAR DE ACELERACION:
VERSION DEL FORMATO                    : 2.0
NOMBRE DEL ARCHIVO                     : TL5520170919181440
FECHA Y HORA DE CREACION               : 25/SEP/17, 11:25
REF. CATALOGO ACELEROGRAMAS, SMIS 1996 : REGISTRO No.     /PAG.


================================================================================
DATOS DE LA ESTACION:
NOMBRE DE LA ESTACION                  : TLATELOLCO
CLAVE DE LA ESTACION                   : TL55
LOCALIZACION DE LA ESTACION            : Del. Cuauhtémoc, Deportivo 5 de Mayo,  
                                       : U. Hab. Nonoalco Tlatelolco,           
                                       : Av. Manuel González entre calle        
                                       : Lerdo y Eje 1 Pte. Guerrero.           
                                       : 
COORDENADAS DE LA ESTACION             : 19.4536 LAT. N
                                       : 99.1425 LONG. W
ALTITUD (msnm)                         : 2232
TIPO DE SUELO                          : Terreno blando, material compresible
                                       : (arcillas)                
                                       : 
INSTITUCION RESPONSABLE                : CIRES
                                       : 

================================================================================
DATOS DEL ACELEROGRAFO:
MODELO DEL ACELEROGRAFO                : RADESD
NUMERO DE SERIE DEL ACELEROGRAFO       : 179
NUMERO DE CANALES                      : 3
ORIENTACION C1-C6 (rumbo;orientacion)  : /S00E/+V/N90W
ORIENTACION C7-C12 (rumbo;orientacion) : 
VEL. DE MUESTREO, C1-C6 (muestras/s)   : /100/100/100
VEL. DE MUESTREO, C7-C12 (muestras/s)  : 
ESC. COMPLETA DE SENSORES, C1-C6, (g)  : /0.5/0.5/0.5
ESC. COMPLETA DE SENSORES, C7-C12, (g) : 
FREC. NAT. DE SENSORES, C1-C6, (Hz)    : /52.99/54.34/51.72
FREC. NAT. DE SENSORES, C7-C12, (Hz)   : 
AMORTIGUAMIENTO DE SENSORES, C1-C6     : /0.5865/0.5881/0.5715
AMORTIGUAMIENTO DE SENSORES, C7-C12    : 
INTERVALO DE MUESTREO, C1-C6, (s)      : /0.01/0.01/0.01
INTERVALO DE MUESTREO, C7-C12, (s)     : 
UMBRAL DE DISPARO, C1-C6, (Gal)        : /0.72/1.92/0.72
UMBRAL DE DISPARO, C7-C12, (Gal)       : 
MEMORIA DE PREEVENTO (s)               : 44.0
TIEMPO DE POSEVENTO (s)                : 79.0


================================================================================
DATOS DEL SISMO:
FECHA DEL SISMO (GMT)                  : 19/SEP/17
HORA EPICENTRO (GMT)                   : 18:14:40.0
MAGNITUD(ES)                           : /Mc=7.1
COORDENADAS DEL EPICENTRO              : 18.40 LAT. N
                                       : 98.72 LONG. W
PROFUNDIDAD FOCAL (km)                 : 57
FUENTE DE LOS DATOS EPICENTRALES       : SSN
                                       : INSTITUTO DE GEOFISICA, UNAM

================================================================================
DATOS DE ESTE REGISTRO:
HORA DE LA PRIMERA MUESTRA (GMT)       : 18:15:00.00
EXACTITUD DEL TIEMPO (s)               : 0.01
DURACION DEL REGISTRO (s), C1-C6       : /401.2/401.2/401.2
DURACION DEL REGISTRO (s), C7-C12      : 
NUM. TOTAL DE MUESTRAS, C1-C6          : /40120/40120/40120
NUM. TOTAL DE MUESTRAS, C7-C12         : 
ACEL. MAX. (Gal), C1-C6                : /82.45664/33.57064/69.19602
ACEL. MAX., C1-C6, EN LA MUESTRA       : /6622/6915/8693
ACEL. MAX. (Gal), C7-C12               : 
ACEL. MAX., C7-C12, EN LA MUESTRA      : 
UNIDADES DE LOS DATOS                  : Gal (cm/s/s)
FACTOR DE DECIMACION                   : 1
FORMATO DATOS (FORTRAN,10 campos/dato) : 3F10.5


================================================================================
CALIDAD DEL ACELEROGRAMA:
REGISTRO DIGITAL COMPLETO CON TIEMPO ABSOLUTO CORRECTO.


================================================================================
COMENTARIOS:














================================================================================
DATOS DE ACELERACION:
---------+---------+---------+---------+---------+---------+---------+---------+
   CANAL-1   CANAL-2   CANAL-3   CANAL-4   CANAL-5   CANAL-6   CANAL-7   CANAL-8
      S00E        +V      N90W
---------+---------+---------+---------+---------+---------+---------+---------+
[...]
  -8.47581  -3.40481 -18.82082
  -7.09915  -4.28767 -17.56386
  -5.61773  -5.26032 -15.99267
  -4.06150  -6.63698 -14.45140
  -2.53520  -7.35524 -12.98495
  -0.96401  -7.43006 -11.59332
   0.53237  -6.99611 -10.24658
   1.78933  -6.89137  -8.95970
   2.80686  -7.34028  -7.73267
   3.67476  -7.89394  -6.32608
   4.75215  -8.32789  -4.56035
   5.72480  -8.62716  -2.74974
   6.60766  -8.73191  -0.83438
   7.35585  -8.89651   0.94631
   7.55037  -8.77680   2.33794
   7.11643  -8.29796   3.26569
   6.17371  -7.16071   3.95403
   5.08135  -4.88622   4.55258
   4.21346  -1.48945   5.07631
   3.52512   2.13178   5.54018
   2.98643   5.01979   5.92924
   2.55248   6.56105   6.46794
   2.19335   6.95011   7.41065
   1.75940   6.53113   8.57783
   1.40027   5.54352  10.16399
   1.50502   4.49606  12.06438
   2.04371   3.73290  13.93485
   2.97146   3.61319  15.34145
   4.13864   3.83765  16.46373
   5.20106   3.64312  17.00242
   6.09889   2.92486  17.01739
   6.71240   2.07193  16.64329
   7.04161   1.56316  16.22431
   7.23614   1.57812  15.76043
   7.44563   2.13178  15.14692
   7.99929   2.96975  14.38377
   8.97193   3.59823  13.42609
  10.46831   3.68801  12.39359
  12.06943   3.17924  11.43591
  13.34135   1.62301  10.47822
  14.01472   0.20146   9.53551
  13.95486  -0.23249   8.81725
  13.43113   0.68030   8.29352
  12.92236   1.99711   8.26359
  12.68294   2.61062   8.50301
  12.72784   2.19164   9.04170
  13.05704   1.39856   9.83478
  13.14682   1.05439  10.38844
  12.80265   1.20403  11.04685
  11.77015   1.36863  11.67533
  10.33363   1.41352  12.45344
   8.64273   1.39856  13.57572
   6.96679   1.78761  14.89253
   5.45545   2.05696  16.34402
   4.09375   2.08689  17.69076
   2.88168   1.36863  18.79808
   1.96889   0.23138  19.71086
   1.17581  -0.98068  20.35431
   0.78675  -2.70151  21.13242
   0.62215  -5.46981  22.03025
   0.75683  -8.67205  23.30217
   1.10099 -10.52756  24.66387
   1.50502  -9.92901  25.80112
   1.98386  -7.81912  26.81865
   2.62730  -6.29282  27.56684
   3.49520  -6.56216  27.98582
   4.90179  -7.56474  28.18035
   6.33831  -7.62459  28.01575
   7.87958  -5.67930  27.64166
   9.22632  -2.55188  26.99822
  10.55809  -0.00804  26.42959
  11.96468   1.02446  25.81608
  13.53588   1.06935  25.21753
  14.94247   1.53323  24.64891
  16.25928   2.53580  23.94561
  17.39653   3.17924  23.25728
  18.63852   3.26903  22.94304
  19.95533   2.89493  22.64376
  21.16740   2.80515  22.22478
  22.11011   3.55334  21.38681
  22.73859   4.70555  20.02510
  23.06779   5.57345  18.43895
  22.97801   5.94754  16.74804
  22.33457   6.53113  14.90750
  21.15243   8.01254  12.90235
  19.70095  10.43667  10.97203
  18.20457  12.71116   8.89207
  16.73812  13.07029   6.79714
  15.33153  10.94544   4.26826
  13.67055   7.14464   1.30544
  11.71030   3.46356  -2.01652
   9.52559   1.03943  -5.50307
   7.19124  -0.17264  -8.94474
   4.97661  -0.29235 -12.32655
   3.01636   0.51569 -15.34923
   1.43020   1.68287 -17.89306
   0.27799   2.46098 -19.97303
  -0.70962   2.40113 -21.72379
  -1.59248   1.74272 -23.33987
  -2.43045   0.93468 -24.94100
  -3.35821  -0.03796 -26.40744
  -4.09143  -1.83362 -27.32023
  -4.58524  -4.69169 -27.54469
  -4.55531  -7.98372 -26.97607
  -3.95676 -10.43778 -25.77897
  -2.74469 -11.21589 -23.99828
  -1.14357 -10.19836 -21.82853
   0.78675  -8.47753 -19.50915
   2.91161  -7.44503 -17.51897
   5.08135  -7.65452 -16.24705
   7.01168  -8.74687 -15.55872
   8.26863  -9.91405 -15.19959
   8.77740 -10.48267 -15.18462
   8.68762 -10.51260 -15.46894
   8.25367  -9.91405 -16.03756
   7.49052  -8.38774 -16.72589
   6.56277  -6.17311 -17.65364
   5.42552  -3.88365 -18.83578
   4.07878  -2.07304 -20.16756
   2.58241  -0.48688 -21.52926
   0.89150   1.26388 -22.81614
  -1.03882   2.85004 -23.89353
  -3.38813   3.91247 -24.64172
  -5.97686   4.87015 -24.79136
  -8.67034   6.62091 -24.19281
 -11.45360   8.77569 -23.23513
 -14.17701  10.06257 -21.96321
 -16.88545   8.88044 -20.61647
 -19.04023   5.04971 -19.03031
 -20.80595  -0.03796 -17.29451
 -22.16765  -3.74898 -15.46894
 -23.18519  -4.79644 -13.74810
 -24.03812  -4.55702 -12.08713
 -24.65164  -4.67673 -10.56082
 -24.92099  -5.58952  -9.24401
 -25.02573  -6.71180  -7.91224
 -25.04070  -6.48735  -6.35601
 -24.96588  -4.12307  -4.45561
 -24.50200  -1.01061  -2.16615
 -23.46950   0.87482   0.24301
 -21.86838   0.50073   2.42772
 -20.13258  -1.16025   3.98395
 -18.84570  -2.71648   4.28323
 -17.97780  -2.80626   3.62482
 -17.58874  -0.86097   2.15837
 -17.43911   1.95222   0.46747
 -17.16976   4.24167  -0.90920
 -16.55624   5.10957  -1.80702
 -15.85295   4.78037  -1.98659
 -15.00001   4.24167  -1.85191
 -14.34161   3.88254  -1.74717
 -13.99744   3.62816  -1.71724
 -14.08722   3.92743  -1.58257
 -14.34161   5.04971  -1.25336
 -14.49124   6.24681  -0.74460
 -14.32664   6.63587   0.03352
 -13.99744   6.44134   1.11091
 -13.45875   5.88768   2.36787
 -13.03976   5.42381   3.92410
 -12.90509   4.85519   5.58508
 -12.84523   3.71794   7.27598
 -12.59085   1.05439   8.87710
 -11.82770  -2.74641   9.99938
 -10.63059  -5.81398  10.68772
  -9.11925  -6.92129  11.10670
  -7.68273  -6.00850  11.42094
  -6.63527  -3.77890  11.89978
  -6.08161  -1.59420  12.54322
  -5.91701   0.08175  13.56076
  -6.14147   1.38359  14.62319
  -6.56045   2.90990  15.65569
  -6.93455   4.76540  16.64329
  -7.35353   6.71069  17.46630
  -7.75755   7.86290  18.18456
  -8.44589   7.60852  18.76815
  -9.37364   6.35156  19.08239
 -10.58570   4.58584  18.63347
 -12.11201   3.29895  17.48126
 -13.69817   2.85004  15.91007
 -15.16461   2.85004  14.03960
 -16.24200   2.23653  12.06438
 -16.94530   0.75511   9.62529
 -17.55882  -1.10039   6.61757
 -18.24715  -2.01318   2.84671
 -19.24972  -1.47449  -1.91177
 -20.71617  -0.62155  -7.23887
 -22.34722  -0.45695 -12.31158
 -23.85856  -0.71133 -16.68100
 -25.36990  -0.27738 -20.12267
 -26.68671   1.39856 -22.72636
 -28.06338   3.61319 -24.52201
 -29.48493   5.28913 -25.52458
 -30.93642   6.65084 -25.89868
 -32.41783   8.40160 -25.92860
 -33.83939  10.43667 -25.94357
 -34.88685  12.36699 -26.22788
 -35.47044  12.95058 -26.96110
 -35.38065  11.69362 -27.94871
 -34.78210   8.86547 -28.99618
 -33.88428   5.34899 -30.11846
 -32.89667   2.17667 -31.15096
 -31.75942   0.09671 -32.03382
 -30.59225  -1.16025 -32.85683
 -29.29040  -2.41720 -33.70976
 -27.92870  -3.74898 -34.80211
 -26.65678  -4.82637 -35.96929
 -25.50457  -5.08075 -37.22624
 -24.35236  -4.46724 -38.27371
 -23.08044  -3.38985 -38.94708
 -21.46436  -2.49202 -39.20146
 -19.71360  -2.77633 -38.94708
 -18.02269  -4.76651 -38.15400
 -16.46646  -7.71437 -37.00179
 -15.38907  -9.83923 -35.87950
 -14.70074  -9.92901 -34.75722
 -14.32664  -8.22314 -33.75465
 -14.10219  -6.18807 -32.60244
 -13.81788  -4.69169 -31.04621
 -13.32407  -3.65919 -28.80165
 -12.93501  -2.35735 -25.79393
 -12.63574  -0.63651 -22.14277
 -12.57588   0.69526 -18.16241
 -12.54596   0.57555 -14.22694
 -12.06712  -1.23507 -10.53089
 -11.12440  -4.09314  -7.44836
  -9.47838  -6.33771  -4.94941
  -7.21886  -6.39756  -2.97420
  -4.42063  -4.37745  -1.58257
  -1.24832  -2.07304  -0.60992
   2.22328  -0.84601   0.16819
   5.48538  -0.42702   0.66200
   8.67266   0.03685   1.45508
  11.53073   0.93468   2.62225
  14.08954   1.38359   4.08870
  16.60345   1.09928   5.97413
  19.01261   0.05182   7.82964
  21.48164  -2.01318   9.07163
  23.77109  -4.39242   9.55047
  26.03062  -6.18807   9.62529
  28.33504  -6.47238   9.70011
  30.68435  -4.96104  10.02931
  32.68949  -2.22267  10.82239
  34.29061   0.12664  12.37862
  35.38297   1.83251  14.18924
  36.20598   3.04457  15.89511
  36.86438   4.28656  17.18199
  37.59761   5.01979  17.78054
  38.68996   4.98986  17.82543
  40.09655   4.30153  17.51119
  41.92213   4.00225  17.19695
  43.89735   4.84022  17.06228
  45.75285   6.65084  17.51119
  47.39887   8.38663  18.45391
  48.67079   9.00015  19.62108
  49.70329   8.17714  20.99775
  50.81061   6.56105  22.53902
  52.14238   5.34899  24.57409
  53.84825   5.03475  27.05807
  55.77857   5.22928  29.99097
  57.57423   4.73548  33.17825
  58.93593   2.87997  36.42539
  59.69908   0.08175  39.50792
  59.80383  -2.37231  42.23132
  59.17535  -3.97343  44.56567
  57.99321  -4.66177  46.54089
  56.52676  -4.54206  47.96244
  55.20995  -4.00336  48.53107
  54.19242  -3.53948  48.42632
  53.38437  -4.03329  47.57339
  52.69604  -5.11068  46.07701
  52.09749  -5.17053  43.98208
  51.40916  -3.01575  41.22875
  50.88542   0.57555  37.74220
  50.51133   3.35881  33.64213
  50.48140   3.25406  29.34753
  50.64600   0.30620  24.99307
  50.81061  -4.16796  20.54884
  50.58615  -7.87897  16.26920
  50.07738  -9.51002  12.25891
  49.37408  -9.13593   8.74243
  49.04488  -7.77423   5.89931
  49.13466  -6.53224   3.83432
  49.85293  -5.70923   2.99634
  50.82557  -4.70666   3.25073
  51.69347  -2.73144   4.58250
  51.87303   0.18649   6.73728
  51.22959   3.43363   9.43076
  49.73321   6.41142  12.72279
  47.68318   8.14721  16.46373
  45.37876   7.81801  20.45905
  43.34369   5.82783  24.46934
  41.80242   4.07707  28.16539
  40.91956   4.00225  31.20303
  40.62028   5.19935  33.58227
  40.76992   6.17200  35.49763
  41.05423   5.70812  37.14365
  41.21884   3.67305  38.20607
  40.93452   1.24892  38.38564
  40.06663  -0.35220  37.57759
  38.73485  -0.84601  36.02136
  37.05891  -1.02557  33.86658
  35.41290  -1.59420  31.44245
  34.12601  -2.73144  29.10811
  33.06359  -4.01832  26.74383
  32.24058  -4.42235  24.14014
  31.16319  -2.95590  21.22220
  29.56207   0.12664  18.25938
  26.95837   3.14932  15.53598
  23.45685   4.16685  13.84507
  18.98269   2.46098  13.23156
  13.58077  -0.78615  13.42609
   7.56534  -3.97343  13.68047
   1.04114  -5.09572  13.77025
  -5.73744  -3.52452  13.84507
 -12.39632  -0.38213  14.05456
 -18.62124   1.98214  14.80275
 -24.21769   2.49091  16.44877
 -29.38019   1.39856  18.81304
 -34.25837   0.18649  21.20724
 -38.82232  -0.95075  23.12260
 -43.14685  -1.71391  24.45438
 -46.84289  -1.66901  25.50184
 -50.01521  -0.72630  26.14528
 -52.36452   0.75511  26.47448
 -53.95068   2.16171  26.44456
 -55.10289   3.58327  26.22010
 -55.94086   5.72308  25.87593
 -56.73394   8.74576  25.36717
 -57.73651  11.02025  24.87336
 -59.08325  10.67609  24.08028
 -60.62452   7.06982  23.09267
 -62.10593   1.42848  21.55141
 -63.25814  -4.04825  19.27692
 -63.79684  -7.45999  16.16445
 -64.03626  -9.01622  12.22898
 -63.85669  -9.52499   7.69497
 -63.55741  -9.12097   2.99634
 -63.55741  -7.62459  -1.28329
 -64.35049  -4.66177  -4.79977
 -66.01147  -0.78615  -7.38851
 -68.48049   3.04457  -9.13927
 -71.59295   6.06725 -10.24658
 -74.81016   8.19210 -10.99477
 -77.68320   9.58373 -11.68310
 -80.00259  10.67609 -12.50611
 -81.55882  11.30457 -13.50868
 -82.45664  11.36442 -14.69082
 -82.41175  10.67609 -15.52879
 -81.33436  10.15236 -15.84303
 -79.13469  10.82573 -15.69339
 -75.75288  12.96554 -15.36419
 -71.45828  15.98822 -15.43901
 -66.61002  18.63681 -16.23209
 -61.35774  19.53463 -17.92299
 -55.98575  18.00833 -20.72122
 -50.46412  14.68638 -24.44719
 -44.77790  10.82573 -28.65201
 -38.91210   7.99757 -32.61741
 -32.98645   6.80047 -35.84958
 -27.43490   6.66580 -38.18392
 -22.46693   6.18696 -39.44088
 -18.72599   4.93000 -39.99454
 -16.22704   3.25406 -40.26389
 -15.04490   1.26388 -40.77265
 -14.92519  -0.75622 -41.86501
 -15.28432  -2.86612 -43.49606
 -15.53871  -5.76908 -45.30667
 -15.20951  -9.42024 -46.71327
 -14.49124 -13.13125 -47.34175
 -13.75802 -16.01926 -47.13225
 -13.38393 -17.68024 -46.09975
 -13.86277 -18.02440 -44.43878
 -15.23943 -17.15651 -42.28399
 -17.33436 -16.28861 -39.93468
 -19.68367 -15.91451 -37.64523
 -21.70378 -15.67509 -35.41563
 -22.99066 -15.45064 -33.42545
 -23.30490 -15.19625 -31.94404
 -22.72131 -14.77727 -30.83672
 -21.50925 -13.59513 -29.74436
 -19.66871 -11.78452 -28.39762
 -17.10990 -10.22829 -26.28773
 -13.83284  -9.43521 -23.10045
  -9.98715  -8.47753 -19.37448
  -5.93197  -6.62202 -15.57368
  -2.05636  -4.22782 -12.29662
   1.40027  -1.92340  -9.76774
   4.07878  -0.44199  -8.21151
   6.00911   0.84490  -7.29872
   7.62519   3.04457  -6.81988
   9.24128   6.41142  -6.70017
  10.90226   9.95783  -6.89470
  12.45849  12.92065  -7.49325
  13.61070  15.13529  -8.69035
  14.19428  16.42217 -10.38126
  13.93990  16.51195 -12.17691
  13.22164  15.18018 -13.77803
  12.27892  12.20239 -14.96017
  11.71030   8.08736 -15.51383
  11.48584   3.59823 -15.09484
  11.74023  -0.72630 -13.59847
  12.27892  -4.93111 -10.86010
  12.86251  -8.34285  -7.19398
  13.38624 -10.36296  -2.86945
  13.82019 -10.91662   1.47004
  14.02968  -9.86915   5.68982
  14.22421  -7.89394   9.80486
  14.65816  -5.79901  13.77025
  15.40635  -3.35992  17.52616
  16.73812  -0.39709  21.22220
  18.66845   2.19164  24.66387
  21.18236   3.47852  27.40224
  24.38460   2.61062  29.58695
  28.18540   0.14160  30.97858
  32.27051  -2.95590  31.39756
  36.32569  -6.26289  31.05340
  40.09655  -9.18082  30.36506
  43.52325 -11.66481  29.84133
  46.54593 -13.11629  29.78148
  49.17956 -13.11629  30.27528
  51.03506 -11.91919  31.02347
  52.11245 -10.34800  31.65195
  52.20224  -9.13593  31.08332
  51.99274  -8.89651  28.92854
  51.57376 -10.10858  25.08285
  51.07995 -12.30825  20.26452
  50.55622 -15.09151  15.59583
  49.77811 -17.50067  11.45087
  48.68575 -18.84741   8.36833
  47.33901 -18.59303   6.46794
  45.93242 -16.70759   5.65989
  44.69043 -14.04404   5.77960
  43.95720 -11.11115   6.79714
  43.67289  -8.01365   9.07163
  43.67289  -5.52966  12.39359
  43.55318  -4.10811  16.04474
  43.11923  -3.47963  19.75576
  42.40097  -2.91101  23.09267
  41.53307  -1.42959  25.89090
  40.60532   0.99454  27.92597
  40.15641   2.98472  29.06322
  40.39583   4.30153  29.25774
  41.35351   5.25921  28.46466
  42.89478   6.32163  26.44456
  44.86999   6.86033  23.27224
  46.90506   6.87529  18.88786
  48.91021   6.18696  13.65054
  50.84053   5.25921   7.81468
  52.81575   5.19935   1.94888
  54.86578   6.68076  -3.45304
  56.69136   9.50891  -8.19655
  58.23263  12.11261 -11.87763
  59.60930  13.54913 -14.46636
  60.86625  13.32467 -15.94778
  61.65933  12.24728 -16.83064
  61.76408  11.28960 -17.24962
  60.59690  10.42170 -17.60875
  58.18774   9.67352 -18.01277
  54.83586   9.06000 -18.56643
  51.19966   8.56620 -18.47665
  47.38390   8.64102 -17.77335
  43.14916   9.46402 -16.45654
  38.60018  10.27207 -14.10723
  33.40775  10.13739 -11.12945
  27.57189   8.52131  -8.19655
  21.24222   5.52855  -5.83227
  14.35889   1.93725  -4.24612
   7.04161  -1.84858  -3.49793
  -0.24574  -6.08332  -3.58771
  -7.48820 -10.16843  -4.68006
 -14.44635 -12.60752  -6.46075
 -21.03041 -12.54767  -8.88488
 -27.03088 -10.81187 -11.72800
 -32.05870  -9.00126 -14.97513
 -35.87446  -8.41767 -18.44672
 -38.46319  -8.28300 -22.23256
 -40.10920  -7.16071 -26.13810
 -41.27638  -4.07818 -29.92393
 -42.17420   0.12664 -33.35063
 -43.02714   3.92743 -35.93936
 -43.64065   5.69316 -37.86969
 -44.23920   5.36395 -39.48577
 -44.76293   3.52341 -40.84747
 -45.33155   0.97957 -41.93983
 -45.79543  -1.62412 -42.52341
 -45.98996  -3.68912 -42.74787
 -45.67572  -5.08075 -42.62816
 -45.19688  -5.42492 -41.89494
 -44.73300  -4.87126 -40.95222
 -44.62826  -4.36249 -40.11425
 -44.88264  -5.00593 -39.91972
 -45.61587  -6.83151 -40.09929
 -46.76808  -8.55234 -40.32374
 -47.83050  -8.91147 -40.36863
 -48.71336  -7.40013 -39.80001
 -49.16228  -4.99097 -38.49816
