********************************************************************************
            CENTRO NACIONAL DE PREVENCION DE DESASTRES (CENAPRED)               
                   Coordinacion de Instrumentacion Sismica                      
  Av. Delfin Madrigal No. 665, Col. Santo Domingo, C.P. 04360, Mexico, D.F.     
  Tels.: 606-8837, 606-9156, 606-9942, 606-7956, 606-9837.       FAX: 606-1608  
********************************************************************************
ARCHIVO ESTANDAR DE ACELERACION:                                                
VERSION DEL FORMATO                    : 2.0                                    
NOMBRE DEL ARCHIVO                     : TLK21709.191
FECHA Y HORA DE CREACION               : 08 de Noviembre de 2017/13:33:07
REF. CATALOGO ACELEROGRAMAS, SMIS 1995 : NUM. REG. /PAG. 
                                                                                
                                                                                
================================================================================
DATOS DE LA ESTACION:                                                           
NOMBRE DE LA ESTACION                  : ESTACION No.7, TLACOTAL, Sup.
CLAVE DE LA ESTACION                   : TLK2
LOCALIZACION DE LA ESTACION            : Eje 4 sur, Esq. con Chicle, 
                                       : Col. Granjas Mexico,
                                       : Del. Iztacalco, Mexico, D.F.
                                       :
                                       :
COORDENADAS DE LA ESTACION             : 19.3974 LAT. N
                                       : 99.1052 LONG. W
ALTITUD (msnm)                         : 2229    
TIPO DE SUELO                          : Arcilla
                                       :
                                       :
INSTITUCION RESPONSABLE                : CENAPRED
                                       : 
                                                                                
================================================================================
DATOS DEL ACELEROGRAFO:
MODELO DEL ACELEROGRAFO                : ALTUS-K2 EPISENSOR
NUMERO DE SERIE DEL ACELEROGRAFO       : 2618
NUMERO DE CANALES                      : 3
ORIENTACION C1-C6 (rumbo;orientacion)  : /N00E/+V/N90E
ORIENTACION C7-C12 (rumbo;orientacion) :
VEL. DE MUESTREO, C1-C6 (muestras/s)   : /100/100/100
VEL. DE MUESTREO, C7-C12 (muestras/s)  :
ESC. COMPLETA DE SENSORES, C1-C6, (g)  : /2/2/2
ESC. COMPLETA DE SENSORES, C7-C12, (g) :
FREC. NAT. DE SENSORES, C1-C6, (Hz)    : /212.0/216.0/202.0  
FREC. NAT. DE SENSORES, C7-C12, (Hz)   :
AMORTIGUAMIENTO DE SENSORES, C1-C6     : /0.7/0.7/0.7  
AMORTIGUAMIENTO DE SENSORES, C7-C12    :
INTERVALO DE MUESTREO, C1-C6, (s)      : /0.01/0.01/0.01          
INTERVALO DE MUESTREO, C7-C12, (s)     :
UMBRAL DE DISPARO, C1-C6, (Gal)        : /1.5/1.5/1.5
UMBRAL DE DISPARO, C7-C12, (Gal)       :
MEMORIA DE PREEVENTO (s)               : 60
TIEMPO DE POSEVENTO (s)                : 180
                                                                                
                                                                                
================================================================================
DATOS DEL SISMO:
FECHA DEL SISMO (GMT)                  : 19 de septiembre, 2017
HORA EPICENTRO (GMT)                   : 18:14:40.0
MAGNITUD(ES)                           : /Mc=7.1
COORDENADAS DEL EPICENTRO              : 18.4 LAT. N
                                       : 98.72 LONG. W
PROFUNDIDAD FOCAL (km)                 : 57
FUENTE DE LOS DATOS EPICENTRALES       : SSN                               
                                       : Instituto de Geofisica, UNAM
                                       :                                                                                
================================================================================
DATOS DE ESTE REGISTRO:
HORA DE LA PRIMER MUESTRA (GMT)        : 18:13:59.00
EXACTITUD DEL TIEMPO (s)               : 0.01
DURACION DEL REGISTRO (s), C1-C6       : /572.00/572.00/572.00
DURACION DEL REGISTRO (s), C7-C12      :
NUM. TOTAL DE MUESTRAS, C1-C6          : /57200/57200/57200
NUM. TOTAL DE MUESTRAS, C7-C12         :
ACEL. MAX. (Gal), C1-C6                : /56.87/28.56/90.83
ACEL. MAX., C1-C6, EN LA MUESTRA       : /8468/8594/8376
ACEL. MAX. (Gal), C7-C12               : 
ACEL. MAX., C7-C12, EN LA MUESTRA      : 
UNIDADES DE LOS DATOS                  : Gal (cm/s/s)
FACTOR DE DECIMACION                   : 1
FORMATO DATOS (FORTRAN,10 campos/dato) : 3F10.5
                                                                                
                                                                                
================================================================================
CALIDAD DEL ACELEROGRAMA: 
Registro digital completo. Tiempo absoluto correcto.
                                                                                
                                                                                
================================================================================
COMENTARIOS:
                                                                                
                                                                                
                                                                                
                                                                                
                                                                                
                                                                                
                                                                                
                                                                                
                                                                                
                                                                                
                                                                                
                                                                                
                                                                                
                                                                                
================================================================================
DATOS DE ACELERACION:
---------+---------+---------+---------+---------+---------+---------+---------+
   CANAL-1   CANAL-2   CANAL-3   CANAL-4   CANAL-5   CANAL-6   CANAL-7   CANAL-8
      N00E        +V      N90E
---------+---------+---------+---------+---------+---------+---------+---------+
[...]
  13.68031  -1.61814 -32.26392
  12.15677  -1.43243 -29.96433
   9.30144  -1.97365 -26.01302
   6.16922  -2.70759 -20.31549
   3.43649  -2.91154 -11.78089
   1.07094  -0.53150  -1.89816
   0.10124   3.23316  10.43845
  -0.42735   7.41881  23.79818
  -0.46758  12.14244  34.84479
   2.30961  14.25819  46.11114
   6.46062  13.73755  55.26654
  11.24507  11.30647  59.80111
  16.83920   6.37989  62.40665
  20.22915   1.66098  61.95900
  22.11950  -1.84875  59.65098
  21.64799  -4.41965  55.01109
  18.80105  -8.11931  52.56745
  16.67079 -10.80669  52.40422
  12.28540  -9.35284  44.62834
   8.99175  -9.45200  41.85674
   7.57064  -8.15346  44.31866
   4.60119  -1.97786  38.47708
   4.60778   2.12267  36.76496
   5.03063   6.73258  36.61624
   5.58494  12.98673  28.69352
  10.20333  14.89246  23.45859
  14.05779  15.96607  17.58005
  18.16065  16.39127   8.16834
  23.78100  12.01429   2.55742
  26.54373   6.80227  -2.92025
  29.58334   1.88457  -7.87028
  31.32536  -4.38972  -9.85598
  30.43657  -9.30091 -10.36633
  31.41090 -11.50415  -8.59954
  30.61849 -12.23669  -7.13867
  29.22829 -11.63699  -4.26512
  29.38823  -8.81910  -0.64732
  28.37600  -5.75142  -0.61739
  28.80866  -4.09268  -0.10657
  29.14314  -2.01575  -0.97757
  27.26967  -0.36871  -5.63897
  25.92672   0.19684  -8.70526
  22.73737   1.16607 -12.89467
  17.88330   1.52251 -18.69885
  14.68650   2.09080 -21.15655
  10.77772   4.49708 -23.70968
   7.75122   6.78822 -25.43344
   6.67251   8.71271 -23.31253
   4.12780  10.89069 -21.40868
   1.88207  11.75420 -17.76470
  -0.47085  11.96186 -11.63915
  -4.09847  11.97261  -6.52073
  -6.03834  10.72784  -0.09208
  -7.08662   9.10605   6.31550
  -7.40939   6.93702  10.48295
  -5.26323   3.79398  14.74488
  -2.59784   0.85079  17.22359
   0.63731  -1.63124  17.79242
   4.26114  -3.06685  18.39632
   5.26592  -2.78384  17.18898
   5.28695  -1.30847  16.07849
   4.29857   1.73676  15.31739
   1.65239   6.08842  13.85233
  -0.25240  10.77556  13.47437
  -3.08292  14.92990  12.31899
  -5.86760  16.75707  12.17113
  -8.04464  17.84323  11.19814
 -10.91117  18.51031   7.23701
 -12.97454  16.49557   6.86188
 -15.75501  15.07822   5.79863
 -17.80855  13.97189   2.27348
 -17.47736  10.49585   2.61121
 -16.84820   8.01102   1.78652
 -14.04715   5.23197  -0.18703
  -9.47416   0.21134   0.83225
  -5.70715  -3.82839   0.47113
  -1.81197  -7.88028   0.15304
   0.00581 -12.30124   1.68875
  -1.30677 -14.22287   1.92311
  -3.59420 -14.95307   2.34037
  -7.46459 -14.82677   2.68605
 -11.07350 -11.95789   0.89634
 -12.26632  -8.22502  -1.74941
 -12.45484  -4.66618  -5.58003
 -11.36071   0.67163 -11.66301
  -8.86886   6.85470 -18.37702
  -7.33642  11.57692 -24.25698
  -7.27421  14.90188 -29.98070
  -8.63263  15.21949 -35.39663
 -11.66757  11.69754 -39.23755
 -15.38032   6.72371 -42.01146
 -19.60949   0.65152 -44.13657
 -23.65810  -4.96041 -44.68060
 -26.52231  -7.53318 -44.24650
 -28.55012  -7.93968 -43.76329
 -28.96410  -6.95548 -41.84680
 -27.87979  -4.93936 -39.74508
 -26.32256  -4.10063 -38.16400
 -23.47146  -4.50947 -34.95317
 -20.95809  -4.11420 -32.14932
 -19.39759  -3.49907 -27.90330
 -19.31806  -0.96746 -22.81576
 -21.48949   4.34828 -19.92443
 -23.29651   8.29779 -13.66791
 -26.73982  12.19432  -8.92511
 -30.01052  15.17318  -8.01622
 -30.31457  12.65413  -3.84552
 -31.34602   8.13219  -2.49224
 -31.52004   2.07122  -3.93206
 -30.85626  -6.15137  -3.34780
 -31.64400 -11.76329  -5.87661
 -31.37409 -15.24169  -9.65812
 -30.55735 -17.01830 -12.58407
 -29.63115 -14.91330 -17.54250
 -26.12703 -11.65991 -21.77214
 -21.81974  -9.91838 -24.56618
 -17.34966  -9.47399 -27.49072
 -12.59470 -11.03777 -29.10876
 -10.39334 -14.01003 -29.28371
  -9.81237 -15.97375 -28.20221
 -10.56174 -16.25489 -25.92086
 -13.31415 -14.37770 -22.76009
 -15.75033  -9.50955 -18.67593
 -17.43620  -3.28109 -14.80320
 -17.06665   2.71441 -10.63998
 -13.23650   9.12434  -6.21808
  -8.14240  14.57532  -3.04328
  -2.49259  17.48583   0.78875
   2.39709  19.38732   4.17967
   3.77516  19.53612   5.31214
   2.42142  17.59107   6.53391
  -1.27028  15.58669   5.66530
  -6.30965  12.47504   2.31370
  -9.97936   8.80202  -1.46593
 -11.94309   5.27780  -7.69392
 -11.18108  -0.32380 -14.55996
  -7.98944  -6.19534 -20.80853
  -4.56203 -10.32815 -27.78402
  -0.96482 -13.31163 -33.17094
   2.22963 -13.25270 -37.36550
   4.78742  -9.50486 -41.87628
   7.76480  -3.33020 -45.35841
  11.14681   5.37464 -49.05011
  16.14222  14.12155 -52.73104
  23.11070  19.05802 -55.07133
  30.52541  19.08141 -56.90128
  37.28481  14.20066 -58.28310
  41.28572   5.46631 -58.68913
  41.40737  -3.49299 -58.24707
  37.12762  -9.72799 -58.20123
  30.35660 -12.75779 -56.31983
  22.08018 -11.06443 -56.26276
  13.85571  -6.93162 -58.88840
  10.67484  -4.13198 -55.38194
   9.71400   0.44804 -54.44124
  11.70441   4.21502 -57.19598
  18.12557   2.75553 -52.88308
  21.26061   1.45796 -50.76077
  20.82842  -0.73591 -50.13254
  17.48706  -5.74253 -44.08512
  10.31328  -7.62861 -40.53375
   4.31584  -8.32232 -37.32621
  -0.27251 -10.14104 -31.18756
  -3.12502  -9.42721 -27.10060
  -0.99290  -8.31437 -22.40598
   1.93212  -8.17918 -16.06666
   3.71903  -6.06015 -10.45755
   4.57270  -4.93561  -4.08502
   1.11538  -7.11265   2.29920
  -4.32721  -9.68729   7.84374
 -10.65203 -12.72270  12.78814
 -18.10091 -15.38763  17.42286
 -22.53403 -14.72713  22.67693
 -23.79797 -11.87041  27.70884
 -22.52608  -7.61832  32.62286
 -18.24125  -1.24064  38.27735
 -14.29040   5.13512  42.72449
 -12.21346   9.63697  46.20751
 -11.57869  12.57000  49.70278
 -14.76800  13.75348  49.42771
 -19.36812  12.47410  48.15861
 -23.78675  11.23262  45.39642
 -29.22886  10.05566  39.19792
 -31.05179   7.83044  37.61403
 -31.43069  10.51406  31.93891
 -31.07003  15.01269  22.74804
 -27.25531  16.33367  22.62459
 -25.43379  20.89453  18.69847
 -23.92240  24.97683  13.12309
 -21.92358  24.53381  14.68312
 -22.87972  24.46788  12.45837
 -23.08461  20.33929  11.18456
 -23.93316  11.78222  13.30360
 -26.36653   5.70630  11.07469
 -26.73140  -0.23212   9.55202
 -28.03089  -5.19898   7.52708
 -29.54134  -4.53005   0.67040
 -29.14559  -2.48306  -6.65406
 -29.68495  -0.13201 -15.28127
 -28.32793   5.04581 -25.89841
 -25.41741   9.07992 -35.22542
 -24.23020  10.99773 -43.32825
 -22.44843  12.46515 -49.21804
 -22.07655  11.18491 -52.21556
 -23.49625   8.36748 -52.21135
 -23.43123   7.32197 -48.87797
 -23.34329   7.25698 -44.49630
 -21.31781   8.45490 -38.41940
 -15.76483  11.54411 -31.47338
  -9.36049  13.48445 -26.07757
  -1.15989  13.74877 -20.03622
   7.34053  13.37968 -14.79525
  13.04320  10.75594 -11.87772
  17.00574   6.53426  -8.22110
  17.67462   2.65405  -6.49033
  14.67386  -1.92219  -7.18591
  10.89748  -6.25054  -6.81357
   6.18186  -8.20257  -8.95645
   2.55146  -9.89031 -11.46608
   1.97702 -10.73839 -11.58957
   2.64267  -9.85944 -12.87970
   5.12559  -9.70461 -11.82112
   8.41783  -8.29332  -8.83764
  10.52329  -5.50911  -6.98570
  12.48137  -3.80500  -3.86189
  13.06047  -2.47370  -2.21438
  12.28211  -3.49018  -3.47737
  11.93640  -8.11650  -5.23014
  10.90776 -13.56424  -9.00182
   9.92920 -18.99653 -13.29929
   9.57180 -23.43527 -14.91406
   8.16379 -24.96771 -15.17695
   6.31331 -24.46298 -12.68230
   3.90053 -22.40897  -6.51465
   0.18170 -18.91935   0.77145
  -3.03568 -16.07900  10.16809
  -5.91157 -14.55031  20.01434
  -8.09656 -14.34168  28.16300
  -8.27712 -15.67391  35.05245
  -8.41138 -16.97620  38.55187
  -7.90757 -16.86440  39.14549
  -6.77041 -15.06252  36.96516
  -5.42414 -12.28206  32.70519
  -3.32804  -9.02914  26.71387
  -1.00365  -7.25299  21.24978
   2.89059  -6.91665  19.25607
   6.71371  -4.43603  13.58801
  11.37700  -3.21887  10.05680
  16.43739  -3.37277  13.73681
  18.82302   0.19028  13.07585
  22.23031   2.33362  13.81066
  25.84110   2.20217  18.95855
  28.56686   3.93430  18.59464
  33.68384   2.79296  17.61513
  38.85277  -0.54365  16.98454
  43.66579  -1.74070  11.45076
  49.06207  -4.07631   5.64936
  51.12774  -6.84555  -0.95185
  50.48405  -7.23801 -10.64232
  47.70500  -7.76333 -19.98337
  41.55279  -7.66136 -28.53059
  35.86181  -5.29627 -36.14273
  30.79483  -3.80359 -41.23121
  26.24385  -2.84746 -43.10466
  24.64404  -0.12827 -42.22150
  24.20667   2.20546 -39.12247
  24.91024   4.14855 -33.62047
  26.38276   7.29065 -27.66193
  25.79479   9.81151 -22.61180
  24.31058  12.12000 -17.24079
  22.38193  15.34388 -13.04997
  19.79884  17.24631 -10.27745
  18.87356  18.20063  -6.23679
  18.72900  19.11092  -2.40149
  18.23740  17.67340   2.26599
  17.82342  14.81673   9.99786
  15.38301  12.22430  17.84618
  11.33956   9.14160  27.32012
   6.76143   7.39213  39.01129
   1.21689   7.19899  49.80245
  -3.27050   6.83311  60.79702
  -6.13984   7.29434  71.47784
  -7.47067   8.80626  79.28919
  -6.38777   9.84941  85.83528
  -3.63584  11.22933  90.65804
  -1.13931  13.58082  90.46207
   0.83705  13.49567  90.82881
   0.48482  12.43337  89.83855
  -3.95626  11.94365  80.94606
  -8.68642   7.56894  75.12229
 -14.64450   2.69565  72.27912
 -22.93398   1.78447  63.89000
 -29.19191   1.21986  58.94372
 -35.12800   2.52543  57.09928
 -41.20303   7.87862  50.60279
 -43.95309  11.96790  46.05974
 -45.85414  15.66102  41.89928
 -46.05340  19.87523  34.57019
 -42.06186  20.44123  29.83533
 -38.13581  19.11414  24.16311
 -33.53241  15.87903  17.45048
 -27.20806   8.97232  14.13580
 -21.98065   1.08187  11.24444
 -16.65126  -6.06576   8.67500
 -12.00905 -12.36111   7.60658
  -9.57100 -16.28904   6.59615
  -8.35103 -17.00146   5.20595
  -8.57229 -16.04158   3.11688
  -8.48528 -13.32426   0.99691
  -7.09318  -8.14831  -1.12025
  -5.46017  -2.59766  -3.46942
  -1.70111   2.34853  -3.42873
   2.82370   6.87337  -2.31776
   7.03179   9.30445  -0.22866
  12.28163  10.07528   5.18531
  15.94948  10.05056  10.19901
  18.37349   7.33978  15.35671
  19.75442   2.80748  21.24365
  18.67242  -2.67064  25.40780
  16.11091  -9.07357  29.17060
  12.59179 -13.72141  32.54470
   8.82012 -17.19559  37.08963
   4.70274 -19.31649  42.83484
   1.05738 -17.61097  47.58609
  -0.98775 -14.07692  53.48379
  -1.80215  -8.88693  60.54118
  -1.69783  -1.54797  65.77603
  -0.08775   3.84499  70.50720
   2.15993   5.76798  74.88230
   2.98041   5.16738  76.58453
   3.94496   2.75506  77.85269
   4.58298   1.49071  78.40370
   3.98143   2.54316  76.95457
   4.26679   5.01489  75.28412
   4.26349   8.58918  72.19114
   3.97021  10.95010  67.60509
   5.01470  10.56978  62.01370
   7.04207   8.19482  54.94140
   9.62611   4.15977  47.86627
  11.55703  -0.24756  41.93349
  11.51308  -2.57241  37.78708
   9.64620  -1.19761  35.59788
   7.07951   3.96899  35.62174
   5.15133  11.42302  37.12377
   5.34079  17.56211  38.36901
   7.63570  19.09122  38.86249
  11.23291  15.81727  37.44656
  15.49578   8.62520  34.03739
  18.18215  -0.80748  30.08042
  17.65218  -9.66064  25.76473
  14.32259 -16.73529  22.00475
   9.03759 -21.45096  19.45023
   3.67272 -22.90294  17.15673
   0.85810 -22.18958  15.57701
   1.36657 -19.76322  14.68869
   4.77989 -15.18275  13.45192
  10.51301 -10.39504  12.54438
  16.40183  -6.56068  12.09861
  19.68426  -4.00193  11.82260
  19.26887  -3.54866  12.09351
  15.56076  -3.96451  12.26939
   9.68269  -4.07865  11.82174
   4.17277  -3.58281  10.77858
   1.29407  -1.86887   8.39616
   1.53357  -0.14792   4.23861
   4.59420   0.47236  -0.87607
   9.37905   0.97662  -6.23352
  14.71828   2.02444 -10.78874
  19.60609   3.59942 -12.70615
  22.89088   5.72592 -11.52642
  24.40413   7.74482  -7.63826
  25.26858   8.93489  -1.42945
  26.88661   9.69826   5.57081
  30.59094  10.14552  12.00836
  36.62849   9.92232  17.27319
  43.73265   9.14961  20.66220
  50.57807   7.52358  22.12169
  55.26898   5.36201  21.19037
  56.87483   3.54794  17.62541
  56.49224   2.17642  12.93874
  54.55606   1.81535   7.37545
  51.38830   2.55250   0.82056
  47.92019   3.74210  -5.12021
  44.91566   6.33123 -10.24050
  43.03049  10.63523 -14.81443
  42.20771  15.01881 -17.70249
  41.76893  18.61367 -18.74422
  41.48498  20.82767 -18.22499
  40.87637  20.70838 -15.70414
  39.23120  18.65668 -11.52548
  37.16976  15.38273  -6.59839
  35.33977  10.84250  -1.69842
  33.92854   6.06456   2.06345
  32.96064   2.40708   3.73014
  31.73369  -0.04921   3.58419
  29.90189  -1.03108   1.93902
  27.02928  -0.49875  -1.16048
  22.55027   0.31144  -4.50929
  16.03698   0.82225  -7.44272
   7.86580   1.42849  -9.27829
  -0.16399   2.70271  -8.77963
  -6.95097   5.20764  -6.41689
 -11.48092   8.66915  -3.00305
 -12.69200  12.51475   1.21022
 -10.86300  16.11620   5.43331
  -7.30976  18.47892   8.80873
  -3.73547  18.53927  11.45265
  -1.91722  15.51975  12.76146
  -3.10117   9.62998  12.42470
  -7.03330   2.52025  11.38296
