********************************************************************************
              CENTRO DE INSTRUMENTACION Y REGISTRO SISMICO  A.C.

    Anaxagoras 814, Col. Narvarte, Benito Juarez, C.P. 03020 Mexico, D.F.
           Tels. 5687 45 42/ 5687 45  82             Fax. 5669 25 12
********************************************************************************
ARCHIVO ESTANDAR DE ACELERACION:
VERSION DEL FORMATO                    : 2.0
NOMBRE DEL ARCHIVO                     : TP1320170919181440
FECHA Y HORA DE CREACION               : 25/SEP/17, 11:18
REF. CATALOGO ACELEROGRAMAS, SMIS 1996 : REGISTRO No.     /PAG.


================================================================================
DATOS DE LA ESTACION:
NOMBRE DE LA ESTACION                  : TLALPAN
CLAVE DE LA ESTACION                   : TP13
LOCALIZACION DE LA ESTACION            : Del. Tlalpan, Col. Tlalpan,            
                                       : Las Fuentes, entre Av. San Fernando    
                                       : y calle Ignacio Allende.               
                                       :                                        
                                       : 
COORDENADAS DE LA ESTACION             : 19.2922 LAT. N
                                       : 99.1708 LONG. W
ALTITUD (msnm)                         : 2265
TIPO DE SUELO                          : Terreno firme, materiales compactos 
                                       : (limos, arenas, gravas)   
                                       : 
INSTITUCION RESPONSABLE                : CIRES, A. C.
                                       : 

================================================================================
DATOS DEL ACELEROGRAFO:
MODELO DEL ACELEROGRAFO                : RAD_IO14
NUMERO DE SERIE DEL ACELEROGRAFO       : 
NUMERO DE CANALES                      : 3
ORIENTACION C1-C6 (rumbo;orientacion)  : /S00E/+V/N90W
ORIENTACION C7-C12 (rumbo;orientacion) : 
VEL. DE MUESTREO, C1-C6 (muestras/s)   : /100/100/100
VEL. DE MUESTREO, C7-C12 (muestras/s)  : 
ESC. COMPLETA DE SENSORES, C1-C6, (g)  : /2.0/2.0/2.0
ESC. COMPLETA DE SENSORES, C7-C12, (g) : 
FREC. NAT. DE SENSORES, C1-C6, (Hz)    : /51.83/50.37/51.83
FREC. NAT. DE SENSORES, C7-C12, (Hz)   : 
AMORTIGUAMIENTO DE SENSORES, C1-C6     : /0.5881/0.5605/0.5912
AMORTIGUAMIENTO DE SENSORES, C7-C12    : 
INTERVALO DE MUESTREO, C1-C6, (s)      : /0.01/0.01/0.01
INTERVALO DE MUESTREO, C7-C12, (s)     : 
UMBRAL DE DISPARO, C1-C6, (Gal)        : / / /
UMBRAL DE DISPARO, C7-C12, (Gal)       : 
MEMORIA DE PREEVENTO (s)               : 60
TIEMPO DE POSEVENTO (s)                : 90


================================================================================
DATOS DEL SISMO:
FECHA DEL SISMO (GMT)                  : 19/SEP/17
HORA EPICENTRO (GMT)                   : 18:14:40.0
MAGNITUD(ES)                           : /Mc=7.1
COORDENADAS DEL EPICENTRO              : 18.40 LAT. N
                                       : 98.72 LONG. W
PROFUNDIDAD FOCAL (km)                 : 57
FUENTE DE LOS DATOS EPICENTRALES       : SSN
                                       : INSTITUTO DE GEOFISICA, UNAM

================================================================================
DATOS DE ESTE REGISTRO:
HORA DE LA PRIMERA MUESTRA (GMT)       : 13:13:57.00
EXACTITUD DEL TIEMPO (s)               : 
DURACION DEL REGISTRO (s), C1-C6       : /329.01/329.01/329.01
DURACION DEL REGISTRO (s), C7-C12      : 
NUM. TOTAL DE MUESTRAS, C1-C6          : /32901/32901/32901
NUM. TOTAL DE MUESTRAS, C7-C12         : 
ACEL. MAX. (Gal), C1-C6                : /60.33537/51.55913/66.57997
ACEL. MAX., C1-C6, EN LA MUESTRA       : /8276/8403/8349
ACEL. MAX. (Gal), C7-C12               : 
ACEL. MAX., C7-C12, EN LA MUESTRA      : 
UNIDADES DE LOS DATOS                  : Gal (cm/s/s)
FACTOR DE DECIMACION                   : 1
FORMATO DATOS (FORTRAN,10 campos/dato) : 3F10.5


================================================================================
CALIDAD DEL ACELEROGRAMA:
REGISTRO DIGITAL COMPLETO CON TIEMPO ABSOLUTO CORRECTO.


================================================================================
COMENTARIOS:














================================================================================
DATOS DE ACELERACION:
---------+---------+---------+---------+---------+---------+---------+---------+
   CANAL-1   CANAL-2   CANAL-3   CANAL-4   CANAL-5   CANAL-6   CANAL-7   CANAL-8
      N00E        +V      N90W
---------+---------+---------+---------+---------+---------+---------+---------+
[...]
 -32.02043  -0.08403  53.71117
 -33.81613  -0.62273  57.30247
 -36.21033  -0.92203  55.62657
 -39.62203  -1.81983  50.06007
 -43.21333  -3.79503  44.49357
 -46.62503  -6.00963  41.20157
 -49.19873  -7.74543  41.02197
 -50.69513  -8.40383  44.67307
 -51.83243  -7.86513  50.29947
 -52.73023  -6.36883  55.86597
 -52.90973  -4.15413  60.53457
 -51.89223  -1.46073  64.24557
 -50.09663   0.75397  65.80187
 -46.80463   1.59187  64.00617
 -41.53733   1.65177  59.09807
 -35.67163   2.42987  51.91557
 -31.96063   3.68677  44.01467
 -31.18253   3.80647  36.65257
 -32.55913   2.13057  30.24807
 -35.13293  -0.62273  24.26267
 -37.34753  -3.55563  19.35457
 -39.44243  -6.30893  16.12237
 -41.77683  -8.64323  14.44647
 -43.57243  -8.76293  13.36907
 -45.24833  -6.06953  11.87267
 -46.38563  -0.92203  10.25667
 -46.50533   5.30287   7.62307
 -45.90673  11.22847   3.49307
 -44.05123  15.53807  -0.21793
 -40.40013  17.09427  -1.17563
 -35.79133  16.25627   1.93687
 -29.74603  15.17887   9.65807
 -21.90503  13.80227  19.41437
 -13.64503  11.76717  28.39257
  -5.32523   9.19347  34.91677
   1.91717   6.20067  37.61027
   8.14207   2.96857  35.99417
  13.82827   0.21527  31.62477
  18.49697  -2.41833  27.37507
  21.60937  -5.83013  25.45977
  22.92617  -9.18193  25.81887
  22.86637 -11.09733  26.77657
  21.66927 -11.69583  26.71667
  19.87357 -10.01993  24.62177
  18.37717  -6.48853  21.32977
  18.01807  -2.47823  18.21727
  19.09547   0.93347  16.24207
  20.77137   2.54957  14.98517
  23.34517   2.72917  14.14717
  26.63717   2.96857  14.20707
  29.98907   3.68677  15.34427
  32.68247   4.82407  17.55887
  34.95697   4.94377  19.59397
  36.69277   3.56707  20.31227
  38.00957   1.23277  19.71367
  38.78767  -1.28113  18.15747
  38.60817  -3.85493  16.84067
  37.41107  -7.38633  15.22457
  36.15407 -11.33673  13.12967
  38.00957 -14.09003  11.75297
  42.61837 -15.76603  11.15447
  47.10747 -16.84333  10.61577
  49.92067 -17.44193  10.31647
  50.87837 -17.50173  10.01717
  49.80097 -16.66383   7.74277
  46.20967 -14.44913   1.09887
  40.76287 -10.37903 -10.45313
  33.99927  -4.27383 -24.10003
  26.45757   2.78897 -36.37023
  19.45457   9.43287 -45.04913
  13.82827  14.81977 -48.99953
   9.21947  17.87237 -47.98203
   5.50847  18.53077 -43.13383
   2.93467  16.91467 -36.78923
   2.33617  13.56287 -29.90593
   3.89237   9.49267 -22.72333
   7.78297   5.96127 -16.73783
  12.63117   3.02837 -13.44583
  15.50417   0.21527 -12.84733
  14.72607  -2.17893 -14.34363
   9.81797  -4.75273 -16.79773
   2.09677  -7.14693 -19.19193
  -5.38513  -7.86513 -22.18463
 -10.95163  -7.56593 -25.29713
 -14.30343  -5.77023 -27.81103
 -15.08153  -3.19653 -29.60663
 -14.30343   0.15537 -31.40223
 -13.16623   3.08827 -33.31763
 -12.92683   4.34517 -33.61693
 -13.28593   5.06347 -31.52193
 -14.78233   6.44017 -28.28983
 -16.87723   7.93647 -25.65623
 -18.61303   9.37297 -25.17733
 -19.33123  12.00657 -27.39203
 -17.83493  14.75997 -29.42703
 -13.46553  14.16137 -29.54673
  -8.13843   9.73217 -27.63143
  -4.00843   2.96857 -23.74083
  -2.03323  -3.91473 -19.55103
  -2.57193 -10.07983 -16.19913
  -4.00843 -14.98783 -14.34363
  -6.10333 -16.78353 -14.16413
  -8.55743 -16.06523 -15.30133
 -10.47273 -14.14993 -16.97723
 -12.20853 -11.27683 -17.51593
 -15.56043  -7.32643 -17.21673
 -19.09183  -3.19653 -16.85753
 -22.86273  -0.80233 -16.55833
 -26.57373  -0.14393 -16.55833
 -28.07003  -0.50303 -16.97723
 -27.47153  -0.74243 -17.57583
 -25.25693  -0.14393 -17.03713
 -21.00723   1.11307 -14.58313
 -15.97943   2.78897 -10.57283
 -11.31073   5.96127  -6.32313
  -8.07853  10.09127  -1.77413
  -6.10333  14.34097   3.37337
  -4.54713  18.71037   8.99967
  -2.33253  21.82277  14.20707
   0.48067  22.24177  17.61877
   3.23397  19.42857  19.11517
   5.08947  13.98187  20.19247
   5.98727   7.57737  21.68887
   6.04717   1.23277  23.06557
   5.32887  -4.57313  23.24507
   3.29387  -8.46373  21.09037
  -0.05803 -11.03743  16.96037
  -4.00843 -14.44913  10.85517
  -7.24063 -18.39963   3.31347
  -8.97643 -21.51203  -3.45013
  -8.43773 -23.18793  -7.22093
  -5.86393 -23.84633  -6.86183
  -1.31503 -24.20553  -2.55233
   4.19167 -23.78653   5.10917
   8.26177 -20.91353  13.30927
   8.86027 -15.40683  20.73117
   5.08947  -8.22433  26.05827
  -1.79383  -0.92203  27.61447
  -8.49753   5.54227  24.68167
 -13.70493  10.92927  19.41437
 -16.75753  15.35847  13.42897
 -18.43343  17.93227   6.96457
 -19.63053  18.05197   0.08137
 -21.60573  17.09427  -7.52023
 -23.94003  16.43587 -15.36123
 -25.55613  15.17887 -21.34663
 -25.13713  12.72487 -23.20213
 -22.56343  10.51027 -20.74813
 -18.43343  10.33067 -15.84003
 -14.18373  12.96427  -9.73483
 -10.53263  16.37597  -2.55233
  -7.00123  18.65047   5.58797
  -3.46973  18.88987  13.60847
  -0.41713  17.99207  20.37207
   2.57557  17.57307  24.62177
   4.96977  15.71757  25.81887
   5.20917  13.50297  23.66407
   2.63547  12.18617  20.19247
  -1.25513  11.82707  17.02017
  -5.02603  12.54527  14.08737
  -9.51513  13.62267  11.75297
 -15.56043  14.46067  11.39387
 -22.20433  14.46067  13.36907
 -27.95033  12.12637  16.12237
 -31.12263   7.45767  18.93557
 -31.72123   1.59187  21.98817
 -30.16493  -4.15413  25.39987
 -27.11243  -8.46373  29.46997
 -21.36633 -11.09733  34.19857
 -15.14143 -13.13233  39.70517
 -11.72973 -14.98783  45.69067
 -11.90923 -15.16743  50.06007
 -14.12393 -13.37183  49.70087
 -16.75753 -10.07983  42.69787
 -17.71523  -5.11183  29.88897
 -16.45823   1.23277  14.02747
 -11.78953   6.38027  -3.39023
  -3.82893   9.07377 -20.62843
   6.04717   9.97157 -34.33513
  16.82097   9.49267 -44.86963
  27.23577   7.69707 -53.00983
  35.49567   3.92627 -58.15733
  41.42127  -2.41833 -59.17483
  44.89287 -10.13963 -57.67853
  45.49137 -16.60393 -56.96023
  43.87537 -21.45223 -56.78063
  41.60087 -24.62453 -56.18213
  39.20667 -26.24053 -52.89013
  36.45337 -25.88143 -46.96453
  34.41827 -24.38503 -39.48263
  33.16137 -22.05073 -32.18033
  31.12627 -17.68133 -27.03283
  27.53497 -10.25933 -23.74083
  22.56707  -1.99943 -21.10723
  17.77867   3.86637 -18.71303
  16.88087   7.75697 -16.67803
  18.01807  12.24607 -14.04443
  18.85607  17.69277 -11.35093
  19.99327  22.24177  -6.20343
  21.25027  24.63597   4.33097
  22.50717  22.90017  17.67857
  23.40497  16.55557  29.88897
  21.42977   8.11607  39.52557
  14.60637   1.05317  45.27167
   3.17407  -3.31623  47.96507
  -9.63483  -5.71043  48.80307
 -19.86993  -7.26663  47.78557
 -26.03503  -7.68563  44.43367
 -28.72843  -7.14693  38.62777
 -29.92553  -4.57313  31.80437
 -30.82333  -0.20373  24.68167
 -28.72843   4.16567  19.47427
 -22.38383   7.81677  16.72097
 -12.56763   9.37297  14.80557
  -0.89603  10.57007  14.80557
   8.44137  13.44317  17.25967
  13.46917  17.21397  20.13267
  14.00787  21.28407  20.73117
   8.44137  24.39657  18.51657
  -3.88873  25.77317  14.86547
 -19.09183  25.47397  10.91507
 -32.08033  22.84037   6.84487
 -40.93883  18.47097   3.79227
 -46.32573  13.74237   1.21857
 -47.34333  10.15117  -1.77413
 -44.58993   9.01387  -6.62243
 -39.08333   9.43287 -11.94943
 -30.52413  10.21097 -16.61813
 -20.16923  10.45037 -21.58613
 -10.89173   9.55257 -25.53653
  -4.54713   8.29567 -26.97303
  -0.83613   8.53507 -26.91313
  -0.41713  10.57007 -26.01533
  -3.17053  14.34097 -24.33943
  -8.37783  18.77017 -21.46643
 -16.03923  21.76297 -16.55833
 -25.49633  20.68557 -10.33343
 -34.95333  16.01687  -4.58733
 -42.79433   9.07377   0.91927
 -48.71993   2.31017   5.04927
 -51.83243  -1.16143   5.88727
 -53.98713  -0.80233   3.97187
 -55.36383   2.19047   0.14117
 -54.58573   5.06347  -4.28803
 -51.35353   6.91897  -6.80193
 -46.74473   7.69707  -6.32313
 -41.41763   6.14087  -2.91143
 -35.19273   0.93347   1.03897
 -28.78833  -5.53083   4.51057
 -23.70063 -11.21703   8.16167
 -21.36633 -15.52653  12.47127
 -21.42623 -20.25513  17.25967
 -22.74303 -25.88143  20.19247
 -24.83793 -31.62753  19.59397
 -26.51383 -35.09903  15.52387
 -25.73573 -35.81733  10.31647
 -23.34153 -33.24353   6.96457
 -21.54593 -27.49753   4.69017
 -20.46853 -21.15293   1.03897
 -20.46853 -16.12513  -4.28803
 -19.33123 -12.17473 -10.09403
 -14.06403 -10.07983 -14.58313
  -5.08583  -9.36153 -16.07943
   4.67047  -8.52353 -14.34363
  12.99027  -7.74543 -10.75243
  20.53197  -7.80533  -6.02383
  26.99627  -9.42133  -0.69683
  32.74237 -12.35423   3.97187
  37.94967 -15.88573   6.60547
  42.49867 -19.59673   6.78507
  47.34687 -21.03323   3.01417
  53.21267 -19.35723  -4.64723
  58.59957 -16.00543 -13.32613
  60.33537 -12.47393 -18.89263
  57.52217  -9.48123 -17.93493
  50.81847  -7.74543 -12.24873
  41.36147  -7.32643  -5.24573
  31.78467  -6.60823  -0.15813
  23.82397  -3.37603   2.35577
  16.88087   1.47217   3.07407
  10.59607   5.54227   2.53537
   5.02957   7.21827   0.85947
   1.01937   6.49997  -2.43253
  -0.83613   3.08827  -7.58013
   0.95947  -2.65783 -13.92473
   6.28657  -8.64323 -20.08973
  13.82827 -11.21703 -23.86053
  21.36997  -7.86513 -24.39923
  24.30287  -0.02423 -22.96273
  22.20797   8.41537 -21.40653
  17.06037  15.59787 -19.67073
  10.17717  21.70307 -18.41383
   4.37117  27.08997 -18.77293
   1.61787  31.10027 -20.68823
   1.37847  32.83607 -23.08243
   2.75517  32.77617 -26.91313
   6.04717  30.26227 -32.24023
  12.93047  25.53377 -35.83153
  23.34517  19.30887 -34.87383
  33.40077  12.24607 -27.87083
  42.31907   6.38027 -16.79773
  48.06517   1.11307  -4.88663
  50.99807  -3.37603   8.46097
  52.85357  -5.59063  20.97067
  51.65647  -5.88993  29.58967
  49.68127  -6.12933  32.88177
  46.68847  -6.42863  30.96637
  42.07967  -7.62573  25.75897
  35.43577  -9.54113  17.97787
  26.09847 -12.11483  10.79537
  16.94067 -15.28713   4.51057
  11.49397 -17.56163   0.50027
  10.77567 -18.99813  -0.39753
  14.30707 -19.47693  -0.57703
  19.39477 -19.41713  -0.27783
  24.24297 -19.77623   1.27837
  29.03137 -21.09303   3.31347
  32.26347 -23.30763   6.54567
  33.40077 -23.72663   9.23907
  29.92917 -19.29743   9.41867
  22.26777 -11.21703   6.66537
  10.59607  -0.68263   2.11637
  -2.03323  10.09127  -1.47493
 -13.52533  19.36877  -4.34793
 -23.58093  25.11477  -6.50273
 -31.24233  25.83307  -7.81953
 -34.05553  23.73817  -9.73483
 -31.60153  20.92497 -12.36843
 -25.73573  17.69277 -14.46333
 -18.49333  13.38327 -16.13933
 -11.61003   8.35547 -16.37873
  -5.50483   3.44737 -14.16413
  -0.59673  -1.28113  -9.55533
   2.27627  -4.27383  -3.86913
   1.73757  -3.67533   2.65507
  -1.31503  -0.38333  10.91507
  -6.64203   5.72187  18.93557
 -12.68743  12.72487  24.56187
 -18.01443  16.13657  28.39257
 -23.46123  16.73517  31.62477
 -26.09483  15.71757  36.53287
 -25.61603  13.74237  43.35627
 -23.28163  14.10157  51.19727
 -20.76773  17.99207  57.90097
 -19.51083  23.67827  62.27037
 -18.73273  28.16737  65.14347
 -17.47573  29.60387  66.57997
 -14.12393  27.98787  64.78427
 -10.23333  23.37897  57.90097
  -8.67713  18.23147  46.58847
  -9.21583  14.87967  30.24807
 -10.41293  12.00657  10.61577
 -10.77203   9.01387  -8.65743
 -10.65233   7.15837 -23.32183
  -9.27563   4.10577 -31.22273
  -4.78653  -1.52053 -31.10303
   2.39597  -7.74543 -24.27953
  11.67347 -12.17473 -15.60063
  21.36997 -14.03023  -7.16113
  29.09117 -12.47393   0.20107
  33.52047  -8.76293   5.34857
  34.23877  -5.94983   7.32377
  31.66497  -4.09433   5.10917
  25.85907  -2.59793  -0.09823
  19.75387  -0.62273  -7.04143
  14.54647   1.77147 -14.94223
  10.89537   5.66197 -21.46643
   8.44137  11.94677 -26.91313
   6.34637  17.69277 -30.50443
   4.43107  20.14687 -32.83883
   3.53327  17.45337 -34.75413
   3.53327  10.15117 -35.41253
   5.20917   1.65177 -35.23293
   5.38877  -6.48853 -35.05343
   2.69527 -11.09733 -36.60963
  -2.15293 -12.35423 -39.72203
  -9.87423 -12.95283 -43.97173
 -19.21153 -14.20973 -47.68273
 -28.66863 -15.82583 -49.77763
 -36.03073 -17.32223 -49.83753
 -39.38263 -17.92073 -48.52073
 -39.68183 -15.58643 -45.76743
 -37.52713 -10.55863 -41.21843
 -31.84093  -5.59063 -36.48993
 -23.28163  -1.52053 -30.92343
 -15.50053   2.60947 -23.86053
  -7.89903   5.36277 -15.60063
  -0.17773   7.21827  -8.11873
   5.98727  10.98907  -4.64723
   9.27927  15.35847  -5.66473
   8.32167  17.93227 -11.05163
   5.74787  17.45337 -18.71303
   3.77267  13.14387 -26.37443
   2.33617   5.66197 -33.55703
   2.15657  -3.19653 -40.44033
   4.96977 -12.47393 -46.42583
  10.29687 -22.52953 -48.70033
  17.18017 -32.70483 -44.09143
  25.14077 -41.86263 -32.95853
  33.10147 -48.44663 -17.21673
  41.00227 -51.55913   0.32077
  47.04767 -50.78103  16.78077
  49.26227 -46.71083  30.06857
  46.68847 -41.26413  38.86717
  40.22417 -35.09903  43.41617
  31.42557 -27.01863  44.79277
  21.54957 -17.56163  43.29647
  10.29687  -8.34403  40.00447
  -1.19523   1.11307  36.83217
 -10.95163  13.08397  35.09637
 -17.71523  24.81557  34.67737
 -20.40863  32.53677  36.77227
 -19.57073  35.29007  39.16647
 -18.49333  33.97327  38.44817
 -19.33123  32.17767  33.65987
 -20.64803  30.26227  23.30497
 -21.96483  27.74837   8.58067
 -24.35903  24.87537  -7.28083
 -26.57373  20.14687 -20.32913
 -28.12993  13.38327 -25.23723
 -27.29193   4.64447 -23.20213
 -21.48603  -5.59063 -18.95253
 -13.34583 -15.40683 -15.30133
  -5.26543 -23.36753 -11.29103
  -0.71643 -28.51503  -6.62243
  -0.11793 -30.66983  -0.51723
  -2.33253 -30.43043   5.04927
  -5.68443 -27.07853   6.84487
  -7.95883 -22.46973   5.16897
  -8.25813 -17.62143   0.26087
  -4.72673 -13.79073  -4.10853
   1.49817 -11.39663  -5.24573
   9.51867  -7.62573  -4.64723
  19.51447  -3.55563  -1.95373
  28.37297  -0.68263   1.63757
  35.07667   1.29257   6.36607
  39.02707   2.84887  12.35157
  40.10447   3.44737  19.47427
  37.88987   2.84887  26.95607
  31.18617   1.29257  32.64227
  23.22547  -0.74243  36.23357
  17.59907  -3.13663  38.08907
  13.76837  -6.90743  38.02927
  10.29687 -10.67833  33.59997
   8.86027 -12.65353  24.32247
   8.56107 -14.44913  13.42897
   7.90267 -14.62873   4.03177
   6.64567 -13.85063  -1.35523
   5.02957 -12.47393  -4.22823
   4.49097  -9.30163  -3.33043
   4.96977  -6.00963   2.17627
   3.65297  -1.64023   9.23907
  -0.71643   2.72917  15.82317
  -6.46253   5.96127  18.45677
 -10.77203   8.65477  14.98517
 -13.58523  10.80957   5.94707
 -14.78233  13.38327  -7.16113
 -14.18373  15.71757 -21.82553
 -11.43043  16.79497 -34.51473
  -7.00123  17.63297 -42.65493
  -1.01573  16.97457 -46.42583
   4.31137  14.46067 -45.28853
   8.86027  10.98907 -40.79943
  12.21217   7.21827 -34.75413
  13.46917   3.38757 -27.51173
  12.27207   0.03567 -20.02983
   6.88507  -3.07673 -13.50573
  -0.29743  -4.15413  -7.46033
  -5.68443  -3.73513  -2.13333
  -7.48003  -3.67533   2.35577
  -5.26543  -2.29863   6.30617
   0.42077   0.81377   9.17927
   7.54347   3.26787   9.71797
  14.00787   4.04597   8.40117
  18.91587   4.64447   6.36607
  21.66927   5.54227   2.89447
  23.04587   6.55987  -1.05593
  25.14077   6.49997  -3.03113
  27.89417   5.06347  -2.31283
  29.62987   1.65177   0.56017
  28.61237  -3.55563   3.73247
  24.24297  -9.36153   6.36607
  18.37717 -13.37183   8.16167
  12.81077 -16.06523   8.28147
   7.78297 -16.42443   7.38357
   2.93467 -13.97033   6.18647
  -0.53683 -10.67833   5.22887
  -3.58943  -7.86513   7.68287
  -5.74423  -5.88993  11.63327
  -7.12093  -3.25633  17.67857
  -8.19833   0.63417  28.57217
  -9.45523   4.40507  41.74027
 -11.96913   6.26057  53.89077
 -16.15893   6.55987  61.55217
 -21.06703   5.36277  62.50977
 -25.79553   2.07077  58.67907
