********************************************************************************
              CENTRO DE INSTRUMENTACION Y REGISTRO SISMICO  A.C.

    Anaxagoras 814, Col. Narvarte, Benito Juarez, C.P. 03020 Mexico, D.F.
           Tels. 5687 45 42/ 5687 45  82             Fax. 5669 25 12
********************************************************************************
ARCHIVO ESTANDAR DE ACELERACION:
VERSION DEL FORMATO                    : 2.0
NOMBRE DEL ARCHIVO                     : UC4420170919181440
FECHA Y HORA DE CREACION               : 25/SEP/17, 14:12
REF. CATALOGO ACELEROGRAMAS, SMIS 1996 : REGISTRO No.     /PAG.


================================================================================
DATOS DE LA ESTACION:
NOMBRE DE LA ESTACION                  : UNIDAD COLONIA IMSS
CLAVE DE LA ESTACION                   : UC44
LOCALIZACION DE LA ESTACION            : Del. Cuauhtémoc, Col. San Rafael,      
                                       : Calle Villalongin y Río Neva.          
                                       :                                        
                                       :                                        
                                       : 
COORDENADAS DE LA ESTACION             : 19.4337 LAT. N
                                       : 99.1654 LONG. W
ALTITUD (msnm)                         : 2234
TIPO DE SUELO                          : Alto riesgo sísmico                 
                                       :                           
                                       : 
INSTITUCION RESPONSABLE                : CIRES
                                       : 

================================================================================
DATOS DEL ACELEROGRAFO:
MODELO DEL ACELEROGRAFO                : RADESD
NUMERO DE SERIE DEL ACELEROGRAFO       : 252
NUMERO DE CANALES                      : 3
ORIENTACION C1-C6 (rumbo;orientacion)  : /N00E/+V/N90W
ORIENTACION C7-C12 (rumbo;orientacion) : 
VEL. DE MUESTREO, C1-C6 (muestras/s)   : /100/100/100
VEL. DE MUESTREO, C7-C12 (muestras/s)  : 
ESC. COMPLETA DE SENSORES, C1-C6, (g)  : /0.5/0.5/0.5
ESC. COMPLETA DE SENSORES, C7-C12, (g) : 
FREC. NAT. DE SENSORES, C1-C6, (Hz)    : /30/30/32
FREC. NAT. DE SENSORES, C7-C12, (Hz)   : 
AMORTIGUAMIENTO DE SENSORES, C1-C6     : /0.747/0.777/0.759
AMORTIGUAMIENTO DE SENSORES, C7-C12    : 
INTERVALO DE MUESTREO, C1-C6, (s)      : /0.01/0.01/0.01
INTERVALO DE MUESTREO, C7-C12, (s)     : 
UMBRAL DE DISPARO, C1-C6, (Gal)        : /2.39/3.89/2.99
UMBRAL DE DISPARO, C7-C12, (Gal)       : 
MEMORIA DE PREEVENTO (s)               : 44.0
TIEMPO DE POSEVENTO (s)                : 35.0


================================================================================
DATOS DEL SISMO:
FECHA DEL SISMO (GMT)                  : 19/SEP/17
HORA EPICENTRO (GMT)                   : 18:14:40.0
MAGNITUD(ES)                           : /Mc=7.1
COORDENADAS DEL EPICENTRO              : 18.40 LAT. N
                                       : 98.72 LONG. W
PROFUNDIDAD FOCAL (km)                 : 57
FUENTE DE LOS DATOS EPICENTRALES       : SSN
                                       : INSTITUTO DE GEOFISICA, UNAM

================================================================================
DATOS DE ESTE REGISTRO:
HORA DE LA PRIMERA MUESTRA (GMT)       : 18:15:19.00
EXACTITUD DEL TIEMPO (s)               : 0.01
DURACION DEL REGISTRO (s), C1-C6       : /296.2/296.2/296.2
DURACION DEL REGISTRO (s), C7-C12      : 
NUM. TOTAL DE MUESTRAS, C1-C6          : /29620/29620/29620
NUM. TOTAL DE MUESTRAS, C7-C12         : 
ACEL. MAX. (Gal), C1-C6                : /125.31945/41.72581/124.92514
ACEL. MAX., C1-C6, EN LA MUESTRA       : /6277/6710/6868
ACEL. MAX. (Gal), C7-C12               : 
ACEL. MAX., C7-C12, EN LA MUESTRA      : 
UNIDADES DE LOS DATOS                  : Gal (cm/s/s)
FACTOR DE DECIMACION                   : 1
FORMATO DATOS (FORTRAN,10 campos/dato) : 3F10.5


================================================================================
CALIDAD DEL ACELEROGRAMA:
REGISTRO DIGITAL COMPLETO CON TIEMPO ABSOLUTO CORRECTO.


================================================================================
COMENTARIOS:














================================================================================
DATOS DE ACELERACION:
---------+---------+---------+---------+---------+---------+---------+---------+
   CANAL-1   CANAL-2   CANAL-3   CANAL-4   CANAL-5   CANAL-6   CANAL-7   CANAL-8
      N00E        +V      N90W
---------+---------+---------+---------+---------+---------+---------+---------+
[...]
  -9.77338   0.35228 -13.38527
  -4.31161   1.99829 -14.89661
   1.62900   5.33521 -16.67729
   7.52472  10.78202 -19.05653
  12.83686  17.03687 -21.91461
  17.38584  21.48111 -25.23657
  20.70780  22.97749 -28.72312
  22.42863  22.85778 -31.35674
  22.81769  23.08223 -32.13486
  22.53338  23.90524 -31.08740
  22.38374  23.96509 -28.46874
  22.47352  22.45375 -24.72780
  22.68301  19.77524 -20.19378
  22.53338  16.70767 -15.39041
  21.75526  13.81966 -10.94617
  20.13917  11.24590  -6.93589
  17.47562   8.70206  -3.62890
  13.86936   5.38010  -1.27959
   9.67950   1.07054   0.20183
   5.16045  -4.19670   1.08469
   0.68628  -9.29935   1.75806
  -3.93752 -12.50159   2.67085
  -9.10001 -12.80087   4.31686
 -14.77128 -10.55630   7.05523
 -21.11591  -7.14456  11.08048
 -28.31348  -3.82261  16.13823
 -35.34645  -1.20395  22.07884
 -41.45166   0.68148  28.25888
 -46.15029   2.20779  33.94511
 -49.36749   4.78155  38.82329
 -51.47738   9.01630  42.96825
 -52.68945  13.40068  46.20043
 -53.15332  15.95948  48.29535
 -53.18325  15.61532  49.14829
 -53.07851  13.07148  48.84901
 -52.89894  10.06376  47.68184
 -52.30039   7.69949  46.09568
 -51.23796   6.08340  44.31499
 -49.50217   4.87134  42.38467
 -46.70394   3.41985  40.22989
 -42.51409   1.32492  37.76087
 -36.97750  -1.29373  35.48637
 -30.34855  -3.89743  33.79547
 -23.10609  -6.27667  32.76297
 -14.90595  -8.40152  32.28413
  -6.88538  -9.74826  32.01478
   0.77607  -9.74826  31.59580
   7.50976  -9.59862  30.44359
  12.86679 -10.85558  28.10924
  16.69751 -13.45927  24.18873
  18.74754 -15.46441  19.23573
  19.19646 -15.23996  14.29769
  18.46323 -13.16000  10.01805
  17.07160 -11.09500   6.48661
  15.54530 -10.67601   3.43400
  14.36316 -11.55887   0.63578
  14.04892 -12.06764  -1.77339
  14.81207 -11.40924  -3.61393
  16.60773 -10.78076  -4.99060
  18.67272 -11.18478  -5.81360
  20.42348 -12.65123  -6.23259
  21.69540 -13.86329  -6.23259
  22.54834 -13.78847  -5.69389
  23.20674 -12.81583  -4.67636
  23.76040 -11.51398  -3.49422
  24.47866  -9.85300  -1.99785
  25.72066  -7.14456   0.02226
  27.59113  -3.43355   2.25186
  29.58131   0.24753   4.25701
  30.95797   2.82130   5.42418
  31.12257   4.66184   5.40922
  29.53641   6.57720   4.39168
  26.36410   8.19329   2.82048
  22.39870   8.65717   1.24929
  18.41834   7.90898  -0.18723
  14.81207   6.63706  -1.83324
  12.34305   5.15565  -3.71868
  11.34048   3.58445  -5.78368
  11.63976   2.46217  -7.87860
  12.53758   2.35742  -9.61440
  13.27081   2.76145 -10.85639
  13.60001   2.62677 -11.67940
  13.33066   2.01326 -12.09838
  12.28320   1.96837 -12.38270
  10.41273   2.85123 -12.36773
   8.03349   3.58445 -12.24802
   5.31009   3.10561 -12.09838
   2.18266   1.95340 -12.06846
  -1.36375   1.14536 -12.21809
  -4.88023   1.42967 -12.21809
  -7.48393   2.40232 -11.84400
  -8.65110   3.65927 -11.15567
  -8.39672   5.14068  -9.82389
  -7.25947   6.65202  -7.25013
  -5.50871   7.90898  -3.28473
  -3.57839   8.49257   1.62338
  -1.91741   8.46264   6.68114
  -1.00462   7.86409  11.11041
  -0.81009   6.45749  14.70171
  -1.09440   3.91365  17.15577
  -1.69295   0.36724  18.62222
  -2.66560  -3.43355  19.04120
  -4.22183  -6.50112  18.56236
  -6.36165  -8.64094  16.90138
  -8.65110  -9.62855  13.72907
 -10.71610  -9.35920   9.04541
 -11.91320  -8.26685   3.31429
 -12.15262  -7.23435  -2.91064
 -11.44932  -6.68069  -9.15052
 -10.07266  -6.33652 -14.95646
  -8.17226  -5.34891 -19.83465
  -5.86784  -3.34377 -23.48581
  -3.51853  -0.36598 -25.86504
  -1.46850   2.94101 -27.48113
   0.17752   5.46989 -28.82787
   1.37462   6.56224 -30.36914
   2.10784   6.45749 -32.11990
   1.95820   6.18815 -33.88562
   0.62643   6.06844 -35.23236
  -2.00719   5.75420 -35.80098
  -5.86784   4.33264 -35.89076
 -10.68617   1.78880 -35.72616
 -15.90853  -0.51562 -35.39696
 -20.75678  -1.26381 -34.76848
 -24.33312  -0.71015 -33.81080
 -26.30834   0.18768 -33.09254
 -26.30834   0.45703 -32.62866
 -25.02146   0.05300 -32.08997
 -23.12106  -0.48569 -31.14725
 -20.92139  -1.03935 -29.54613
 -19.39508  -2.02696 -27.34646
 -18.46733  -3.25399 -24.68291
 -17.65929  -3.64304 -21.57044
 -16.76146  -2.35616 -18.23353
 -15.71400   0.59170 -14.79186
 -14.36726   3.91365 -11.52976
 -12.42197   6.68195  -8.68665
 -10.02777   9.55499  -6.06799
  -7.52882  13.41564  -3.40444
  -5.16455  18.27886  -0.54636
  -3.17437  22.85778   2.41646
  -1.72288  26.37426   5.13987
  -0.89987  28.72357   7.65378
  -0.79513  30.04038   9.46439
  -0.97469  30.21995  10.16769
  -0.98966  28.91810   9.71878
  -0.72031  26.03009   8.58153
  -0.31629  21.72053   7.13005
  -0.07687  15.97445   5.54389
  -0.28636   9.33054   4.06248
  -0.73527   2.32750   2.73070
  -1.57324  -4.30145   1.26425
  -2.99480  -9.77819  -0.12738
  -4.65578 -13.42934  -1.10002
  -6.15215 -15.79362  -1.83324
  -6.91531 -17.91847  -2.77596
  -6.57114 -19.93858  -3.61393
  -4.80542 -20.89626  -4.39205
  -1.42361 -20.20793  -4.97563
   3.30494 -18.65170  -5.28987
   8.67693 -17.33488  -5.34973
  13.60001 -16.84108  -5.28987
  17.31102 -16.85604  -5.23002
  19.34609 -16.70641  -4.87089
  19.78004 -16.43706  -4.09277
  18.73258 -16.67648  -2.55151
  16.60773 -17.79876  -0.36680
  14.01900 -18.96593   2.53617
  11.50508 -18.84622   6.09755
   9.32037 -17.18525   9.92827
   7.92874 -14.55163  13.38490
   7.49480 -11.70851  15.98859
   8.00356  -8.11721  17.61964
   9.36527  -3.28391  18.29301
  11.49012   2.37239  18.33790
  14.18360   7.25057  17.91892
  17.25117  10.06376  16.94627
  20.51327  11.38057  15.53968
  23.68558  12.30832  13.96849
  26.52870  12.90687  12.21773
  28.77326  12.38314  10.13776
  30.12000  10.75209   8.14758
  30.40431   8.91155   6.75595
  29.62620   7.29546   6.23222
  27.92033   5.17061   6.68114
  25.72066   2.04318   7.74356
  23.44616  -1.45834   9.25490
  21.47095  -3.83757  11.15530
  19.92968  -4.63065  13.35497
  18.74754  -5.03467  15.70428
  17.78986  -6.47119  17.60468
  16.90700  -9.11978  18.48754
  16.27852 -12.29210  18.42769
  16.26356 -15.31478  17.63461
  16.87707 -17.72394  16.18312
  17.77490 -19.45974  13.95352
  18.56798 -19.96851  11.03559
  19.18149 -18.90608   7.99795
  19.64537 -16.30239   5.37929
  19.86983 -13.59394   3.29933
  19.73515 -11.45413   1.62338
  19.28624  -8.77561   0.21679
  19.16653  -4.28649  -0.62118
  19.57055   1.33989  -0.99527
  20.69283   5.60456  -1.57886
  22.47352   6.60713  -2.86574
  24.85276   5.00601  -4.93074
  27.83055   3.04576  -7.28005
  31.43681   2.13297  -9.33009
  35.61170   1.32492 -10.94617
  40.08587  -0.38094 -12.30788
  44.58996  -3.01457 -13.49001
  49.15390  -5.69308 -14.37288
  53.50836  -7.71319 -14.77690
  57.24930  -9.05993 -14.86668
  60.18220  -9.46395 -15.03128
  62.06763  -8.56612 -15.03128
  62.95049  -6.11206 -14.77690
  62.75596  -2.73025 -14.32798
  61.22966   0.41213 -14.10353
  58.34165   3.10561 -14.38784
  54.61568   6.09836 -15.10610
  50.62035  10.16851 -16.00393
  46.69985  14.64267 -16.75211
  42.97387  17.88981 -17.47037
  39.30775  19.43107 -18.26345
  35.71645  19.93984 -19.02661
  32.21493  20.46357 -19.16128
  28.48895  21.46615 -18.92186
  24.41881  22.01980 -18.51784
  19.82493  20.79278 -17.93425
  14.70733  17.80002 -16.75211
   9.21563  14.62771 -14.56740
   3.20020  12.20358 -11.48487
  -3.15940  10.58749  -7.77386
  -9.63871   8.97141  -3.64386
 -15.99831   7.20568   0.77045
 -21.81921   5.51478   5.27454
 -26.99667   3.89869   9.73374
 -30.87229   1.95340  13.44475
 -33.35627  -0.35102  15.46486
 -34.59826  -2.59558  15.25537
 -34.94243  -4.52591  12.92102
 -35.06214  -6.44127   9.00052
 -35.43623  -8.82051   4.16722
 -36.76801 -11.60376  -0.80075
 -39.23703 -13.96804  -5.39462
 -42.93308 -14.82097  -9.43483
 -47.52695 -13.50416 -12.78672
 -52.76427 -10.01761 -15.18092
 -58.31582  -5.78286 -16.72219
 -63.74767  -2.32623 -17.56016
 -68.92513  -0.09663 -17.72476
 -73.80331   1.38478 -17.36563
 -78.51690   3.00087 -16.51269
 -83.02099   4.99105 -15.22581
 -86.88164   6.53231 -13.41520
 -89.85943   7.20568 -11.30530
 -91.86457   7.23561  -9.31512
 -92.70254   7.35532  -7.74393
 -92.35838   7.89402  -6.66654
 -91.10142   8.55242  -6.09792
 -89.29081   8.70206  -6.15777
 -87.21084   8.32796  -6.42712
 -85.17577   7.60970  -6.48697
 -83.39508   6.66699  -5.88842
 -82.03338   4.94615  -4.54169
 -80.83628   2.35742  -2.79093
 -79.33991  -0.81489  -1.20477
 -77.21505  -3.67297   0.35146
 -74.29712  -5.45366   2.14712
 -70.66092  -6.63580   4.15226
 -66.32143  -7.78801   6.26215
 -61.63778  -8.97014   8.35708
 -57.08879  -9.62855  10.66150
 -53.12340  -9.00007  13.45972
 -50.17554  -7.27924  16.88642
 -48.49960  -5.51351  20.79196
 -47.85615  -4.79525  25.08656
 -47.94594  -5.34891  29.53080
 -48.63427  -6.53105  34.01993
 -49.80144  -6.95004  38.22474
 -51.31278  -6.26170  42.05546
 -52.76427  -5.84272  45.33253
 -53.84166  -6.48616  47.99608
 -54.87416  -7.60844  49.79173
 -55.93658  -8.28181  50.68955
 -56.90923  -8.13217  50.77934
 -57.59756  -7.27924  50.46510
 -57.41800  -6.60587  49.91144
 -56.47528  -6.68069  49.14829
 -54.69459  -7.24931  48.08586
 -51.86644  -7.41391  46.70919
 -47.84119  -6.51609  45.00333
 -42.82833  -4.76533  42.72883
 -37.24685  -2.67040  39.31710
 -31.41098  -0.71015  34.84293
 -25.70979   0.77127  29.72533
 -20.14327   1.11543  24.41319
 -15.32494  -0.09663  19.31055
 -11.55407  -1.42841  14.62689
  -8.33686  -1.53315  10.73631
  -4.95505  -0.26123   8.02787
  -0.51082   0.84608   6.56143
   5.39987   0.80119   6.17237
  12.49269   0.14279   6.71106
  20.21399  -0.35102   8.04284
  27.95026  -0.42584  10.06294
  35.07301  -0.11160  12.65168
  40.65449   0.45703  15.79407
  44.18594   0.77127  19.66968
  45.83195   0.18768  24.30844
  46.31079  -1.47330  29.69540
  46.16115  -4.00217  35.36666
  46.04144  -6.57594  40.84340
  46.66992  -7.72815  46.17050
  48.27104  -6.41134  51.21329
  51.08423  -3.59815  55.83709
  54.95984  -1.26381  59.26379
  59.61357  -0.53058  60.79009
  65.01549  -0.38094  60.04190
  71.13567   0.57674  57.07908
  77.57009   2.53699  52.32060
  83.42092   4.40746  45.84130
  88.02975   5.21550  37.92547
  90.90280   4.70673  29.06692
  91.93530   3.44978  19.72953
  91.06740   2.31253  10.28740
  88.28414   2.11800   0.97994
  84.00450   2.86619  -7.65415
  78.97668   3.73409 -15.04624
  74.29302   3.53956 -21.22628
  70.82143   2.53699 -26.11943
  69.17542   2.43224 -29.63591
  69.80389   4.42242 -31.92537
  72.63204   7.46007 -33.37685
  77.13614   9.25572 -34.36446
  82.76251   8.98637 -35.06776
  88.80787   7.57978 -35.56156
  94.91308   6.53231 -35.81594
 100.74895   5.69434 -35.83091
 106.21072   3.28518 -35.93565
 111.29840  -1.42841 -36.59406
 115.95213  -6.83033 -37.64152
 120.12702 -10.84061 -38.79373
 123.46394 -12.80087 -40.11054
 125.31945 -14.08775 -41.90619
 125.03513 -15.53923 -44.59967
 122.29677 -16.81115 -48.14608
 116.87988 -16.69144 -52.09652
 108.58996 -14.97061 -55.89731
  97.41203 -12.42677 -59.15941
  83.60048  -9.77819 -61.35908
  67.64911  -6.96500 -61.58354
  50.74006  -3.49341 -59.15941
  34.26496   0.66652 -53.59289
  19.69026   4.55710 -45.42268
   7.36012   6.72684 -35.44185
  -3.03969   7.02612 -24.41356
 -12.57161   6.20311 -12.84657
 -21.78928   4.72170  -1.63872
 -31.65040   2.65670   8.02787
 -41.64619   0.65156  15.09077
 -51.11825  -1.02439  19.14595
 -59.01912  -2.84996  18.99631
 -64.67542  -5.45366  14.70171
 -68.28169  -8.32670   7.27969
 -70.27187 -10.25703  -1.77339
 -71.28940 -10.31688 -11.29034
 -71.57371  -9.31431 -20.38831
 -71.18466  -8.92525 -28.54356
 -70.28683 -10.04753 -36.02544
 -68.43132 -11.67858 -42.66935
 -65.67799 -11.97786 -47.47271
 -62.19144 -10.78076 -50.19612
 -57.98662  -8.85043 -51.88702
 -53.90151  -7.06975 -53.32354
 -50.87883  -6.02228 -54.20641
 -49.17296  -5.13942 -54.35604
 -48.58938  -3.53830 -53.41333
 -48.87369  -0.47073 -51.03409
 -49.66677   3.30014 -47.08366
 -50.87883   6.36771 -41.65181
 -52.50988   8.11847 -35.14258
 -54.42524   9.13601 -27.94501
 -56.77455  10.31814 -19.96932
 -59.45307  12.20358 -11.60458
 -62.40093  14.40325  -3.22487
 -65.31886  16.28868   5.19972
 -68.07219  17.15658  13.26519
 -70.24194  16.91716  21.04635
 -71.82810  15.97445  29.36620
 -72.66607  15.19633  39.01782
 -72.11241  14.62771  49.44756
 -69.40397  13.71492  59.59299
 -64.73528  12.33825  69.05009
 -59.28847  10.82691  77.78892
 -54.27561   9.12104  86.01899
 -50.47481   7.32539  93.51584
 -47.67659   6.65202  99.74076
 -44.98311   7.10094 104.17003
 -42.19985   8.01373 105.71130
 -39.34177   8.86666 103.93061
 -36.51362  10.03383  98.73819
 -34.11942  11.85941  90.31359
 -32.63801  14.22369  79.19552
 -31.99457  16.45329  66.38654
 -31.88982  17.21644  53.12865
 -32.00953  15.82481  40.66383
 -32.78765  12.45796  29.90489
 -33.68547   8.04365  21.86935
 -34.13439   3.10561  17.15577
 -33.76029  -1.60797  15.94370
 -32.36866  -4.98978  17.96381
 -29.92957  -5.76790  22.66243
 -26.86200  -4.28649  29.45598
 -24.40794  -2.49083  37.32692
 -22.11849  -1.50323  44.03068
 -20.33780  -0.47073  48.66945
 -19.69436   1.78880  51.31803
 -19.66443   4.90126  51.70709
 -19.93378   6.83159  50.01619
 -19.99363   5.91880  46.84387
 -19.64947   2.83626  42.71387
 -19.09581  -0.20138  38.43423
 -18.34762  -1.57805  34.52869
 -17.18044  -1.32366  31.13192
 -15.56436  -0.90468  28.52823
 -13.08037  -1.18899  26.58294
  -9.56389  -1.44337  25.58036
  -5.28426  -0.65029  25.70007
  -0.84002   1.25011  26.47819
   3.17027   3.06072  27.69025
   6.59697   4.22789  29.35123
   9.99374   5.09579  31.49105
  13.36059   6.11333  33.61590
  16.51794   7.22065  34.76811
  18.67272   8.01373  34.21445
  20.36363   8.28307  31.89507
  22.14432   8.65717  27.98953
  24.23924   9.51010  21.91424
  27.03747  10.30318  13.63928
  29.94044  10.10865   3.26940
  32.42442   8.46264  -9.15052
  34.39964   6.41260 -22.63287
  35.86609   5.02097 -36.77363
  36.53945   5.14068 -51.39322
  35.64163   6.18815 -64.21716
  33.50181   6.77173 -74.66187
  30.38935   6.69691 -82.35324
  26.97761   6.51735 -86.34856
  24.14946   5.61952 -85.94454
  22.41366   3.98847 -80.88679
  21.72533   0.75630 -71.45962
  22.33885  -3.43355 -59.18934
  24.04471  -7.39895 -45.69203
  26.28928 -11.73844 -32.68852
  29.13239 -16.15275 -21.33102
  31.78098 -20.10318 -12.45751
  33.09779 -23.33535  -7.96839
  33.29232 -25.14597  -8.40234
  32.51420 -25.32553 -12.65204
  30.71855 -24.14340 -19.87954
  28.26450 -22.45249 -28.51363
  25.85533 -20.77655 -37.25247
  24.25421 -18.92104 -45.03362
  24.23924 -16.61662 -50.22605
  24.82283 -14.01293 -53.06916
  25.81044  -9.76322 -53.99691
  27.44149  -4.13685 -52.73996
  29.05757   1.69902 -49.47786
  30.55395   6.75677 -45.28800
  31.67623   9.97398 -40.78391
  32.76859  11.23093 -36.51924
  33.89087  11.36561 -33.42174
  35.23761  10.90173 -31.26696
  36.24018   9.76449 -30.02497
  36.15040   7.20568 -29.66584
  34.89344   2.82130 -30.29432
  31.96054  -2.52076 -32.26953
  27.87544  -7.84786 -35.89076
  24.31406 -12.60634 -41.36750
  22.50345 -15.88340 -48.08623
  22.51841 -17.58927 -54.83488
  24.61334 -18.11300 -61.82296
  28.50392 -17.75387 -68.36212
  33.24743 -15.98815 -73.73411
  37.73656 -11.91800 -77.31045
  41.14829  -5.21424 -78.68712
  43.40782   3.01583 -77.54987
  44.20090  10.70720 -74.31770
  42.98884  16.34854 -69.63404
  39.75666  19.90991 -64.29198
  34.98322  21.87017 -58.47108
  29.28203  22.12455 -53.08412
  22.92243  21.12198 -48.47529
