********************************************************************************
              CENTRO DE INSTRUMENTACION Y REGISTRO SISMICO  A.C.

    Anaxagoras 814, Col. Narvarte, Benito Juarez, C.P. 03020 Mexico, D.F.
           Tels. 5687 45 42/ 5687 45  82             Fax. 5669 25 12
********************************************************************************
ARCHIVO ESTANDAR DE ACELERACION:
VERSION DEL FORMATO                    : 2.0
NOMBRE DEL ARCHIVO                     : UI2120170919181440
FECHA Y HORA DE CREACION               : 25/SEP/17, 11:18
REF. CATALOGO ACELEROGRAMAS, SMIS 1996 : REGISTRO No.     /PAG.


================================================================================
DATOS DE LA ESTACION:
NOMBRE DE LA ESTACION                  : U. IBEROAMERICANA
CLAVE DE LA ESTACION                   : UI21
LOCALIZACION DE LA ESTACION            : Del Alvaro Obregón, Col. Centro,       
                                       : Comercial Lomas de Sta. Fe,            
                                       : Aut. México-Toluca Km 9.5              
                                       : Esq. Joaquín Gallo.                    
                                       : 
COORDENADAS DE LA ESTACION             : 19.3700 LAT. N
                                       : 99.2642 LONG. W
ALTITUD (msnm)                         : 2540
TIPO DE SUELO                          : Terreno firme, materiales compactos 
                                       : (limos, arenas, gravas)   
                                       : 
INSTITUCION RESPONSABLE                : CIRES, A. C.
                                       : 

================================================================================
DATOS DEL ACELEROGRAFO:
MODELO DEL ACELEROGRAFO                : RAD_IO14
NUMERO DE SERIE DEL ACELEROGRAFO       : 
NUMERO DE CANALES                      : 3
ORIENTACION C1-C6 (rumbo;orientacion)  : /S00E/+V/N90W
ORIENTACION C7-C12 (rumbo;orientacion) : 
VEL. DE MUESTREO, C1-C6 (muestras/s)   : /100/100/100
VEL. DE MUESTREO, C7-C12 (muestras/s)  : 
ESC. COMPLETA DE SENSORES, C1-C6, (g)  : /2.0/2.0/2.0
ESC. COMPLETA DE SENSORES, C7-C12, (g) : 
FREC. NAT. DE SENSORES, C1-C6, (Hz)    : /54.11/51.56/54.11
FREC. NAT. DE SENSORES, C7-C12, (Hz)   : 
AMORTIGUAMIENTO DE SENSORES, C1-C6     : /0.5715/0.6038/0.5715
AMORTIGUAMIENTO DE SENSORES, C7-C12    : 
INTERVALO DE MUESTREO, C1-C6, (s)      : /0.01/0.01/0.01
INTERVALO DE MUESTREO, C7-C12, (s)     : 
UMBRAL DE DISPARO, C1-C6, (Gal)        : / / /
UMBRAL DE DISPARO, C7-C12, (Gal)       : 
MEMORIA DE PREEVENTO (s)               : 60
TIEMPO DE POSEVENTO (s)                : 90


================================================================================
DATOS DEL SISMO:
FECHA DEL SISMO (GMT)                  : 19/SEP/17
HORA EPICENTRO (GMT)                   : 18:14:40.0
MAGNITUD(ES)                           : /Mc=7.1
COORDENADAS DEL EPICENTRO              : 18.40 LAT. N
                                       : 98.72 LONG. W
PROFUNDIDAD FOCAL (km)                 : 57
FUENTE DE LOS DATOS EPICENTRALES       : SSN
                                       : INSTITUTO DE GEOFISICA, UNAM

================================================================================
DATOS DE ESTE REGISTRO:
HORA DE LA PRIMERA MUESTRA (GMT)       : 13:13:57.00
EXACTITUD DEL TIEMPO (s)               : 
DURACION DEL REGISTRO (s), C1-C6       : /340.22/340.22/340.22
DURACION DEL REGISTRO (s), C7-C12      : 
NUM. TOTAL DE MUESTRAS, C1-C6          : /34022/34022/34022
NUM. TOTAL DE MUESTRAS, C7-C12         : 
ACEL. MAX. (Gal), C1-C6                : /74.69028/35.50617/79.26074
ACEL. MAX., C1-C6, EN LA MUESTRA       : /8647/8484/8834
ACEL. MAX. (Gal), C7-C12               : 
ACEL. MAX., C7-C12, EN LA MUESTRA      : 
UNIDADES DE LOS DATOS                  : Gal (cm/s/s)
FACTOR DE DECIMACION                   : 1
FORMATO DATOS (FORTRAN,10 campos/dato) : 3F10.5


================================================================================
CALIDAD DEL ACELEROGRAMA:
REGISTRO DIGITAL COMPLETO CON TIEMPO ABSOLUTO CORRECTO.


================================================================================
COMENTARIOS:














================================================================================
DATOS DE ACELERACION:
---------+---------+---------+---------+---------+---------+---------+---------+
   CANAL-1   CANAL-2   CANAL-3   CANAL-4   CANAL-5   CANAL-6   CANAL-7   CANAL-8
      N00E        +V      N90W
---------+---------+---------+---------+---------+---------+---------+---------+
[...]
  55.71628  20.48267 -20.21776
  49.85048  12.70157 -17.52436
  41.41098   5.75837 -14.71116
  32.07368   0.19187 -12.31696
  22.79618  -2.80083 -11.41916
  14.17708  -3.39943 -12.31696
   6.75508  -2.26213 -14.95056
   0.41048  -0.22713 -18.24256
  -4.85672   2.22697 -21.23536
  -8.68742   4.62117 -23.21056
 -11.14142   6.41677 -23.86896
 -12.99692   7.67377 -23.50986
 -14.79262   8.57157 -21.95356
 -15.87002   9.22997 -19.61926
 -15.81012  10.00807 -17.16526
 -15.21162  10.18767 -14.83086
 -14.13422   9.28977 -12.55636
 -12.87722   6.59637 -10.70086
 -12.15902   2.16707  -9.44396
 -11.79982  -3.21983  -8.90526
 -11.68012  -8.12793  -9.26436
 -11.56042 -11.06083 -10.70086
 -11.62032 -11.59953 -12.97536
 -12.09912 -10.40243 -16.14766
 -13.05682  -8.00823 -19.55936
 -13.95462  -5.01543 -22.97116
 -14.31372  -2.02273 -25.90396
 -14.43342   0.67077 -28.41786
 -14.67292   2.82547 -30.45296
 -14.67292   4.32187 -31.47046
 -15.51082   5.27957 -32.48806
 -16.76782   6.11747 -34.28366
 -16.94732   7.79347 -36.67786
 -15.69042  11.32487 -38.65306
 -12.75752  16.17307 -39.13186
  -7.78962  21.67977 -38.59326
  -1.38512  26.22867 -37.03696
   5.07918  28.50317 -34.34356
   9.92738  27.72507 -31.05156
  12.32158  23.59507 -27.46026
  12.38148  16.29277 -23.86896
  10.58578   6.35697 -20.69666
   8.73028  -4.95563 -18.36226
   7.35368 -15.60973 -16.80606
   5.25878 -23.98943 -15.01046
   1.48788 -29.13693 -13.39436
  -4.07862 -30.81283 -11.65856
  -9.82462 -29.67563  -9.86296
 -14.67292 -26.80263  -8.24686
 -17.84522 -23.51063  -6.98986
 -18.56342 -20.87693  -6.33146
 -17.00722 -19.08133  -5.79286
 -13.35612 -17.64483  -5.67306
  -8.62752 -16.32803  -5.85266
  -4.31802 -15.25063  -6.57096
  -0.72672 -14.23313  -7.94756
   2.50538 -13.03603 -10.04246
   5.07918 -11.12063 -12.37686
   5.79748  -8.12793 -14.77106
   4.24118  -4.23733 -17.16526
   0.53018  -0.16723 -19.73896
  -4.07862   3.30437 -22.43246
  -5.81442   5.15987 -24.10836
  -4.55742   5.63867 -24.22806
  -4.97642   4.44157 -23.44996
  -5.93412   2.58607 -21.77406
  -5.93412   1.50867 -19.67916
  -5.45522   1.98757 -17.70386
  -5.87422   4.38177 -15.84846
  -7.72972   8.27227 -14.59146
 -11.14142  13.06067 -14.17246
 -14.55322  17.72937 -15.13016
 -15.45102  21.50017 -17.52436
 -14.25392  24.13377 -19.79886
 -12.21882  25.09147 -21.17546
  -9.22612  23.77467 -21.23536
  -5.81442  20.24327 -20.15796
  -1.86402  14.73657 -18.42216
   2.92438   8.03287 -16.44696
   8.19158   1.14957 -14.89076
  13.15958  -4.83593 -13.33456
  17.46908  -9.14543 -11.00016
  20.28228 -12.07833  -7.40886
  21.65898 -13.81413  -2.74026
  21.71878 -14.17323   2.46714
  20.94068 -12.97613   7.61464
  19.68378 -10.52213  12.46284
  18.18738  -7.46953  16.83224
  16.27198  -4.53663  21.20164
  13.69828  -2.20233  25.39154
  10.76538  -0.40663  29.34194
   7.53318   0.61087  32.75364
   4.30108   0.73057  34.96824
   1.84698   0.49117  35.32734
   0.47038   0.55097  33.71134
   0.29078   0.73057  30.35944
   1.54778   1.44887  26.70834
   4.06168   3.12477  23.77544
   8.01208   5.45907  22.45864
  12.97998   7.73357  22.39874
  17.05008   8.57157  22.27904
  20.10268   7.79347  22.33894
  22.31738   6.23717  23.29654
  23.45458   4.44157  24.91264
  23.81368   2.64597  26.82804
  23.39468   1.14957  28.80324
  22.61658  -0.40663  30.65874
  21.77868  -1.96293  31.91564
  21.06038  -2.92053  31.79594
  20.46188  -2.56143  29.88064
  19.86328  -0.58623  26.52874
  19.20488   3.00507  22.27904
  18.54648   7.61387  18.20894
  18.12748  11.98327  14.55784
  18.00778  15.03587  11.26574
  18.12748  16.23297   8.81174
  18.36688  15.69427   7.25554
  18.60638  14.19787   6.59714
  18.72608  11.98327   6.89634
  18.48668   8.99057   8.21324
  18.00778   5.09997  11.08624
  16.99028   0.79047  14.73734
  14.65598  -2.92053  18.08924
  11.60338  -5.13523  20.90244
   8.37118  -5.19503  22.63814
   4.24118  -3.39943  23.47614
  -1.08582  -0.64603  23.65574
  -7.13122   1.98757  23.41634
 -13.41592   3.72327  22.69804
 -19.10212   4.32187  21.91994
 -23.35182   3.72327  21.14184
 -25.74602   1.86787  20.24404
 -26.52412  -0.82563  19.34614
 -26.10512  -3.75853  18.74764
 -24.78832  -6.57173  19.04694
 -22.57372  -8.78633  20.48344
 -19.70072  -9.80383  22.93744
 -16.76782  -9.38483  25.75064
 -14.73272  -7.82863  27.96524
 -14.31372  -5.49433  29.16234
 -15.98972  -2.86073  28.92294
 -19.34152  -0.82563  27.84554
 -23.95032   0.49117  26.16964
 -28.73872   0.85027  24.31414
 -32.62932   0.55097  22.45864
 -34.12572  -0.10743  20.54324
 -32.09062  -0.16723  18.14904
 -25.98542   1.44887  14.55784
 -16.22912   5.21967   8.57234
  -4.01872  10.18767   0.43204
   9.32888  14.73657  -8.66586
  22.73628  17.60957 -18.06306
  35.30578  18.38777 -27.10106
  46.25928  16.53227 -35.06176
  54.69878  12.10297 -40.14946
  59.48718   5.63867 -41.52606
  61.04338  -1.96293 -40.56846
  65.65218 -10.04323 -36.91726
  73.01428 -14.35283 -30.21356
  74.69028 -16.02873 -23.27036
  72.71498 -14.11343 -16.80606
  67.92668  -8.78633 -11.65856
  59.42728  -1.72343  -7.88776
  47.69578   5.63867  -4.41616
  32.37298  12.34237  -0.52556
  14.05738  18.02857   2.94594
   1.12878  22.15857   4.86134
  -6.89172  24.97177   5.87884
 -15.75032  26.04917   4.08324
 -20.41892  26.76737  -1.12416
 -20.47882  26.94697  -6.98986
 -17.30652  27.54547 -12.19726
 -11.91952  28.08417 -16.50686
  -5.03632  27.96447 -18.36226
   1.78718  26.58787 -15.90826
   5.19888  23.53527 -10.76076
   4.30108  18.14827  -4.95486
   0.17108  10.42707   1.56934
  -5.69472   1.14957   7.79424
 -12.51812  -8.66663  12.94174
 -19.52112 -17.58493  16.41334
 -26.16502 -24.40843  17.67024
 -32.15042 -27.99973  16.65274
 -36.81912 -27.99973  13.83954
 -40.29072 -24.46823   9.47014
 -42.62502 -17.64483   4.14304
 -43.70242  -8.48703  -1.48326
 -43.76232   1.38897  -6.98986
 -42.92432  10.48687 -11.83816
 -41.78712  17.31037 -15.24986
 -40.64982  20.78187 -17.22506
 -39.39292  20.60237 -18.00316
 -36.93882  17.72937 -16.68636
 -31.97092  13.00077 -13.15496
 -24.54892   7.19487  -8.72566
 -15.33132   1.26927  -4.59576
  -5.51512  -3.75853  -1.54316
   3.52298  -7.40963   0.07294
   9.68798 -10.10313   0.37224
  11.90258 -12.31773  -0.10666
   9.98728 -14.17323  -0.76506
   4.36088 -15.90903  -1.78256
  -2.64212 -17.22583  -2.08186
 -10.18382 -17.88423  -2.62056
 -17.96492 -17.34553  -4.05706
 -25.38692 -15.66963  -6.27166
 -31.55192 -13.15573  -8.96516
 -35.80162 -10.04323 -12.25716
 -37.95642  -6.33223 -16.26736
 -41.36812  -1.84313 -24.22806
 -42.92432   2.70577 -32.00916
 -39.99142   6.17737 -36.73776
 -33.88622   7.79347 -40.14946
 -25.32702   8.15257 -40.98736
 -13.83492   8.15257 -38.17426
  -1.02602   7.67377 -32.30846
  11.24418   6.77587 -24.40766
  23.21518   5.15987 -15.48926
  34.40798   2.58607  -6.45126
  43.98478  -0.70593   1.74884
  51.40678  -4.65633   8.81174
  55.77618  -8.78633  13.77964
  56.43458 -12.55713  15.99434
  52.60388 -15.54993  15.93444
  43.98478 -17.76453  14.49794
  32.07368 -19.50033  11.80444
  19.32458 -21.23613   7.43504
   6.21638 -22.01423   2.88614
  -6.41292 -21.89453  -1.54316
 -16.94732 -20.57773  -6.45126
 -24.54892 -18.36303 -11.95786
 -29.21762 -16.02873 -17.52436
 -31.49202 -14.29293 -22.49226
 -31.49202 -13.15573 -26.32296
 -29.87602 -11.83893 -28.77706
 -27.54162  -9.44473 -29.67486
 -24.90802  -5.55413 -28.11866
 -22.27442  -1.00523 -24.46746
 -19.40142   3.36417 -19.02076
 -15.51082   6.23717 -12.49656
 -10.18382   6.89557  -5.85266
  -2.94132   5.57877   0.13284
   5.37848   2.94517   4.80144
  13.75808  -0.16723   7.85404
  21.12028  -3.51913   8.81174
  26.44728  -6.81113   7.67454
  29.32038  -9.80383   5.45984
  30.15828 -12.31773   3.06564
  29.38018 -14.83163   1.21014
  27.28528 -17.16603  -0.28616
  24.23268 -19.26093  -1.24386
  20.82098 -20.45803  -1.42346
  17.52898 -20.39813  -0.58546
  15.13478 -19.26093   1.27004
  13.81798 -17.58493   3.60434
  13.15958 -16.02873   5.28034
  13.33918 -14.65213   6.29784
  14.23698 -13.33533   6.83654
  15.55378 -12.25793   6.95624
  16.99028 -11.41993   7.13584
  18.30708 -10.34253   7.49494
  18.90558  -9.02573   7.37524
  18.48668  -7.28993   6.53724
  17.28958  -5.25493   5.40004
  15.67348  -2.86073   4.26274
  13.93768  -0.40663   3.36494
  12.38148   1.56857   3.00584
  10.94498   2.52627   3.42484
  10.04708   2.16707   4.92114
   9.80768   0.91017   7.67454
  10.22668  -0.64603  11.38554
  10.64568  -1.60373  15.63514
  10.64568  -1.72343  19.76514
   9.86758  -0.94533  23.29654
   8.37118   0.49117  26.04994
   6.51568   2.34667  28.32434
   4.83978   4.20217  30.23974
   3.58278   6.17737  31.97554
   2.80468   8.27227  33.35214
   2.26598  10.42707  34.36974
   2.32588  12.16287  35.20764
   2.98428  13.06067  35.86604
   4.06168  12.88107  36.40474
   5.07918  11.74387  36.34494
   5.55798  10.36717  35.56684
   5.43828   9.05037  34.19014
   5.01928   7.79347  32.39454
   4.42078   6.41677  30.06014
   3.88208   5.09997  27.36674
   3.52298   4.32187  23.89514
   3.88208   4.32187  19.40604
   5.01928   4.74087  13.77964
   7.05438   4.74087   7.49494
   9.80768   4.20217   1.50944
  13.09968   2.94517  -3.51836
  16.51148   1.62837  -7.34906
  19.50418   0.73057  -9.86296
  21.29978   1.02987 -10.88046
  21.65898   2.64597 -11.06006
  20.22238   5.33937 -11.06006
  17.28958   8.45187 -11.06006
  15.37418  11.56427  -8.72566
   9.92738  14.01837 -11.35926
   2.68498  16.71177 -16.56666
  -2.46252  19.04617 -18.72146
  -7.61002  19.88407 -23.39006
 -13.05682  20.42277 -31.35076
 -17.72552  20.18337 -38.71296
 -21.43652  18.20817 -45.05756
 -24.36932  14.97597 -51.46196
 -25.38692  11.26497 -56.78906
 -24.78832   6.89557 -61.39786
 -21.91532   2.28677 -65.94686
 -17.06712  -2.08263 -69.71766
 -10.90202  -5.79363 -71.75276
  -4.85672  -8.96593 -72.11186
   1.00908 -11.41993 -70.31626
   6.81498 -13.15573 -65.46796
  11.84278 -14.89153 -58.34526
  14.83548 -16.44773 -49.72616
  15.85308 -18.12363 -40.68816
  15.31438 -19.97913 -32.18876
  13.39898 -21.77483 -25.06606
  10.22668 -23.33103 -20.21776
   6.39598 -24.34853 -18.06306
   2.68498 -24.82743 -18.90096
  -0.30772 -24.64783 -22.55216
  -2.34282 -23.69013 -28.17846
  -3.71942 -22.07403 -35.00196
  -4.55742 -19.44043 -42.12466
  -5.39542 -15.54993 -48.40936
  -6.35312 -10.58193 -52.41966
  -7.61002  -4.59653 -53.01816
  -9.16622   2.16707 -49.54666
 -11.14142   9.58907 -42.54366
 -12.93712  16.95117 -32.90706
 -14.49332  23.47537 -21.29516
 -15.39112  28.02437  -8.54616
 -15.98972  29.34117   5.04094
 -16.10942  27.36597  18.98704
 -15.39112  22.69727  32.75364
 -13.89482  16.53227  45.32314
 -11.50062   9.52927  56.33644
  -8.38812   2.16707  65.61384
  -5.39542  -5.25493  72.67674
  -3.00122 -12.19803  77.28554
  -0.90632 -18.42293  79.26074
   0.70978 -23.57043  79.02134
   1.60758 -27.52083  76.38774
   1.30828 -30.39393  71.65924
   0.35068 -32.12963  65.37444
  -1.26542 -32.84793  57.59334
  -3.18082 -32.60853  48.67504
  -4.79682 -30.93253  38.55954
  -5.93412 -27.28143  27.54624
  -6.47282 -21.89453  16.41334
  -5.99392 -15.54993   6.11824
  -4.07862  -8.60673  -2.85996
  -0.78662  -1.24463 -10.04246
   3.16378   6.23717 -15.42946
   7.23398  13.65917 -18.78126
  10.70548  20.60237 -20.21776
  13.45888  26.16887 -19.73896
  15.43408  29.58057 -17.22506
  16.45158  30.17907 -12.67606
  15.31438  28.26377  -8.54616
   7.71278  24.97177  -9.74326
   1.18858  21.32057  -9.44396
  -1.20552  17.78917  -7.70816
  -3.59972  14.67677  -8.30676
  -5.63482  12.64167  -9.44396
  -7.31072  11.68397 -10.22206
  -8.92682  10.96577 -10.46146
  -9.64512  10.48687  -9.50376
  -9.16622  10.18767  -7.46876
  -7.96912   9.52927  -4.47606
  -6.83192   7.79347  -0.94456
  -6.05382   4.86057   2.64674
  -4.97642   1.38897   5.93874
  -3.53992  -1.48403   9.11104
  -1.56472  -3.27973  12.28334
   0.76968  -4.23733  15.51544
   2.92438  -4.89573  18.86734
   4.72008  -5.55413  22.15934
   5.73758  -6.27243  25.39154
   5.37848  -6.87093  28.20464
   3.70248  -6.81113  30.41934
   1.60758  -6.27243  32.09524
  -0.90632  -5.73373  33.35214
  -3.48002  -4.89573  33.89084
  -6.23332  -3.45923  34.19014
  -9.16622  -1.36433  34.84854
 -12.21882   1.62837  36.10554
 -15.63052   5.39927  37.78144
 -19.58102   9.17007  39.09824
 -23.65112  12.16287  39.87634
 -27.36212  13.71907  39.45734
 -29.21762  13.71907  37.60184
 -29.03802  12.22267  33.59164
 -26.70372   9.70877  27.30684
 -22.81312   7.19487  20.06444
 -18.44372   5.27957  12.88184
 -14.49332   3.90287   6.71684
 -11.26112   3.36417   2.64674
  -8.44802   3.66347   0.55174
  -5.93412   5.04017  -0.04676
  -3.95892   7.19487   0.07294
  -2.64212   8.75107   0.19264
  -2.46252   9.17007  -0.10666
  -3.77932   8.69127  -0.88476
  -5.45522   8.09267  -1.12416
  -6.83192   7.67377  -1.60296
  -8.44802   7.37447  -2.56066
 -10.12392   6.59637  -4.05706
 -11.38092   4.92037  -5.79286
 -12.09912   1.98757  -7.58846
 -11.85972  -1.54393  -8.72566
 -10.78232  -5.13523  -9.56366
 -10.66262  -8.30753 -11.83816
  -9.88452 -11.18053 -13.75346
  -7.78962 -14.05353 -14.83086
  -5.51512 -16.44773 -15.30976
  -2.94132 -17.94413 -14.95056
   0.29078 -18.12363 -13.51406
   3.58278 -16.74703 -11.35926
   6.63538 -13.99373  -9.08486
   9.32888 -10.22283  -7.22936
  11.30408  -6.15273  -6.03226
  12.32158  -1.78333  -6.09206
  12.74058   2.52627  -6.93006
  12.86028   6.65617  -8.12716
  12.62088  10.42707  -8.72566
  11.96248  13.77887  -7.52856
  10.40628  16.29277  -4.35626
   8.55078  17.72937   0.49194
   6.93468  18.56727   7.19564
   6.45588  18.92647  14.25854
   7.59308  18.56727  21.08194
  10.58578  17.48987  27.48644
  14.83548  15.21547  33.29234
  19.68378  12.28257  39.45734
  24.17288   8.93067  46.69974
  27.22548   5.33937  53.04444
  29.02108   1.50867  58.07214
  29.08088  -3.10013  61.72334
  27.16558  -8.42723  63.99784
  23.81368 -14.35283  64.65624
  19.74358 -19.73973  62.68104
  14.95518 -23.98943  57.35394
   9.26898 -27.52083  48.37574
   2.98428 -29.97493  37.12304
  -3.00122 -30.75303  25.69074
  -8.02902 -29.97493  15.75494
 -11.97942 -28.17923   7.79424
 -14.85242 -25.06683   1.80874
 -16.16922 -20.63753  -3.15916
 -15.87002 -15.43023  -7.52856
 -13.83492  -9.80383 -11.83816
 -10.18382  -3.93813 -15.96816
  -4.73702   2.34667 -20.03826
   2.86458   8.87087 -23.68936
  10.34638  15.21547 -28.05876
  13.75808  21.08117 -36.19906
  19.02538  25.45057 -39.31146
  23.93338  27.96447 -39.55086
  27.22548  27.60537 -41.64576
  32.49268  25.98927 -43.74076
  36.44308  24.31337 -44.51886
  36.44308  20.54247 -44.93786
  34.34818  15.63437 -44.81806
  31.17588  10.24747 -44.09986
  27.04588   4.80067 -42.54366
  22.13778  -0.10743 -40.08956
  16.21218  -3.99793 -36.55816
   9.14928  -6.99063 -31.65006
   1.24848  -9.32503 -25.48506
  -6.71222 -11.24033 -18.48206
 -13.77502 -12.61703 -11.71846
 -19.70072 -13.33533  -5.85266
 -24.54892 -13.75423  -1.30366
 -28.08032 -13.99373   1.50944
 -30.41472 -14.41263   2.82624
 -31.25262 -15.60973   2.76644
 -30.89352 -17.40543   1.68904
 -29.27742 -19.14123   0.31234
 -27.12272 -20.03903  -1.00446
 -24.78832 -19.20103  -1.96216
 -22.63352 -16.14843  -2.56066
 -21.07732 -10.94113  -2.80006
 -19.99992  -4.71623  -2.80006
 -19.04232   1.08967  -2.44096
 -18.02472   5.75837  -1.72266
 -17.12692   8.75107  -0.34606
 -16.22912  10.06797   1.56934
 -14.91232   9.76867   3.60434
 -12.93712   8.33217   5.51974
