********************************************************************************
              CENTRO DE INSTRUMENTACION Y REGISTRO SISMICO  A.C.

    Anaxagoras 814, Col. Narvarte, Benito Juarez, C.P. 03020 Mexico, D.F.
           Tels. 5687 45 42/ 5687 45  82             Fax. 5669 25 12
********************************************************************************
ARCHIVO ESTANDAR DE ACELERACION:
VERSION DEL FORMATO                    : 2.0
NOMBRE DEL ARCHIVO                     : VG0920170919181440
FECHA Y HORA DE CREACION               : 25/SEP/17, 11:18
REF. CATALOGO ACELEROGRAMAS, SMIS 1996 : REGISTRO No.     /PAG.


================================================================================
DATOS DE LA ESTACION:
NOMBRE DE LA ESTACION                  : VALLE GÓMEZ
CLAVE DE LA ESTACION                   : VG09
LOCALIZACION DE LA ESTACION            : Del. Venustiano Carranza,              
                                       : Col. Nicolas Bravo, Cananea            
                                       : Entre calles Platino y Cobre.          
                                       :                                        
                                       : 
COORDENADAS DE LA ESTACION             : 19.4539 LAT. N
                                       : 99.1225 LONG. W
ALTITUD (msnm)                         : 2233
TIPO DE SUELO                          : Terreno blando, material compresible
                                       : (arcillas)                
                                       : 
INSTITUCION RESPONSABLE                : CIRES, A. C.
                                       : 

================================================================================
DATOS DEL ACELEROGRAFO:
MODELO DEL ACELEROGRAFO                : RAD_IO14
NUMERO DE SERIE DEL ACELEROGRAFO       : 
NUMERO DE CANALES                      : 3
ORIENTACION C1-C6 (rumbo;orientacion)  : /S00E/+V/N90W
ORIENTACION C7-C12 (rumbo;orientacion) : 
VEL. DE MUESTREO, C1-C6 (muestras/s)   : /100/100/100
VEL. DE MUESTREO, C7-C12 (muestras/s)  : 
ESC. COMPLETA DE SENSORES, C1-C6, (g)  : /2.0/2.0/2.0
ESC. COMPLETA DE SENSORES, C7-C12, (g) : 
FREC. NAT. DE SENSORES, C1-C6, (Hz)    : /52.56/52.03/51.86
FREC. NAT. DE SENSORES, C7-C12, (Hz)   : 
AMORTIGUAMIENTO DE SENSORES, C1-C6     : /0.6053/0.5731/0.5912
AMORTIGUAMIENTO DE SENSORES, C7-C12    : 
INTERVALO DE MUESTREO, C1-C6, (s)      : /0.01/0.01/0.01
INTERVALO DE MUESTREO, C7-C12, (s)     : 
UMBRAL DE DISPARO, C1-C6, (Gal)        : / / /
UMBRAL DE DISPARO, C7-C12, (Gal)       : 
MEMORIA DE PREEVENTO (s)               : 60
TIEMPO DE POSEVENTO (s)                : 90


================================================================================
DATOS DEL SISMO:
FECHA DEL SISMO (GMT)                  : 19/SEP/17
HORA EPICENTRO (GMT)                   : 18:14:40.0
MAGNITUD(ES)                           : /Mc=7.1
COORDENADAS DEL EPICENTRO              : 18.40 LAT. N
                                       : 98.72 LONG. W
PROFUNDIDAD FOCAL (km)                 : 57
FUENTE DE LOS DATOS EPICENTRALES       : SSN
                                       : INSTITUTO DE GEOFISICA, UNAM

================================================================================
DATOS DE ESTE REGISTRO:
HORA DE LA PRIMERA MUESTRA (GMT)       : 13:13:57.00
EXACTITUD DEL TIEMPO (s)               : 
DURACION DEL REGISTRO (s), C1-C6       : /329.01/329.01/329.01
DURACION DEL REGISTRO (s), C7-C12      : 
NUM. TOTAL DE MUESTRAS, C1-C6          : /32901/32901/32901
NUM. TOTAL DE MUESTRAS, C7-C12         : 
ACEL. MAX. (Gal), C1-C6                : /119.54487/36.44657/101.84624
ACEL. MAX., C1-C6, EN LA MUESTRA       : /8355/8641/9043
ACEL. MAX. (Gal), C7-C12               : 
ACEL. MAX., C7-C12, EN LA MUESTRA      : 
UNIDADES DE LOS DATOS                  : Gal (cm/s/s)
FACTOR DE DECIMACION                   : 1
FORMATO DATOS (FORTRAN,10 campos/dato) : 3F10.5


================================================================================
CALIDAD DEL ACELEROGRAMA:
REGISTRO DIGITAL COMPLETO CON TIEMPO ABSOLUTO CORRECTO.


================================================================================
COMENTARIOS:














================================================================================
DATOS DE ACELERACION:
---------+---------+---------+---------+---------+---------+---------+---------+
   CANAL-1   CANAL-2   CANAL-3   CANAL-4   CANAL-5   CANAL-6   CANAL-7   CANAL-8
      N00E        +V      N90W
---------+---------+---------+---------+---------+---------+---------+---------+
[...]
  42.72133   1.37177 -12.00424
  41.10523   0.11477 -16.37364
  39.30963  -0.84293 -19.24664
  37.81323  -1.86043 -20.80284
  36.55623  -2.51883 -21.28174
  35.59863  -1.68083 -20.92264
  34.94023   0.95277 -20.26424
  34.16213   3.94547 -19.72554
  33.38393   6.27977 -19.12694
  32.42633   7.47687 -18.28894
  30.75033   7.89587 -16.31374
  28.71533   8.49447 -13.38094
  25.72253   9.33237 -10.56774
  22.55023  10.23027  -8.29324
  19.25823  10.40977  -6.49764
  15.84653   9.39227  -5.00124
  12.85383   6.75867  -4.04354
  10.16033   2.80827  -3.98374
   7.94573  -1.14213  -4.88154
   6.80843  -3.71593  -6.55744
   7.04793  -4.13493  -8.41294
   8.60413  -2.39913 -10.50784
  11.05813   0.41407 -12.00424
  13.75163   2.86807 -12.48304
  15.96623   3.82577 -12.42324
  17.28303   2.56887 -11.76484
  18.06113   0.41407 -10.80714
  18.42033  -1.32173  -9.25094
  18.65973  -2.45893  -7.45524
  19.07873  -3.05753  -5.95894
  19.97653  -2.69843  -5.30054
  21.71233  -0.84293  -5.95894
  23.92693   1.79067  -8.05384
  26.50063   3.46667 -11.52544
  29.13433   2.62867 -15.59554
  31.70803   0.17467 -19.48604
  33.62343  -1.02243 -22.77814
  35.41903   1.07247 -25.23214
  37.15483   5.44187 -27.56644
  38.65123   9.27257 -29.96064
  39.30963  10.58937 -32.41474
  39.01033   8.73387 -34.50964
  37.93293   5.14257 -35.70674
  36.31683   2.08997 -36.66444
  34.82053   0.35417 -37.56224
  33.56353   0.23447 -38.51994
  32.90513   1.91047 -39.41774
  32.48613   5.38197 -39.53744
  32.12703   9.33237 -38.69944
  30.87003  11.42737 -37.20304
  27.93723  10.23027 -35.04834
  23.68753   6.33967 -32.35484
  18.18083   1.55127 -29.84094
  12.31513  -2.27943 -27.38694
   6.68873  -4.55393 -25.53144
   1.54123  -5.45173 -24.21464
  -3.12737  -5.03273 -23.19704
  -7.43697  -3.53633 -22.47884
 -11.38737  -1.26183 -21.40144
 -14.79907   0.83307 -19.96494
 -17.43267   1.85057 -17.98974
 -19.34807   1.67097 -14.63784
 -20.78457   0.11477 -10.26844
 -22.22107  -2.45893  -5.36034
 -23.53787  -5.57143  -0.27274
 -24.55537  -7.66633   4.63536
 -25.27367  -7.66633   9.42376
 -25.75247  -5.39183  13.37416
 -26.17147  -2.21953  15.94796
 -26.23137  -0.78303  16.90556
 -26.53057  -1.98013  16.78586
 -26.88977  -5.09263  15.88806
 -27.12917  -7.60653  15.05006
 -26.88977  -7.78603  14.45156
 -26.05177  -4.55393  13.85296
 -24.19627   0.35417  12.95516
 -21.56267   4.96297  11.09966
 -18.51007   8.19517   8.58576
 -15.15817  10.29007   5.29376
 -11.26767  12.56457   2.24116
  -6.89827  15.13827  -0.63184
  -2.64857  16.81427  -2.84644
   1.36173  16.63467  -4.16324
   5.01283  14.30037  -4.76184
   7.82603  10.52947  -5.30054
   9.80123   6.10027  -6.01874
  10.75893   1.01257  -7.21584
  11.05813  -4.43423  -8.41294
  10.93843  -8.74373  -9.49034
  10.75893 -10.47953 -10.38814
  10.81873  -9.58173 -11.16624
  10.93843  -8.08533 -12.24364
  10.93843  -7.66633 -13.38094
  10.04063  -7.60653 -14.63784
   7.94573  -6.16993 -15.89484
   4.95293  -3.05753 -17.45104
   1.72083   0.23447 -19.66564
  -0.85297   2.44907 -22.17954
  -2.52887   3.46667 -24.09494
  -3.54637   4.66377 -24.93284
  -4.02527   6.51927 -24.27444
  -4.74347   8.07547 -21.99994
  -6.29967   8.61417 -18.16924
  -9.17277   8.13527 -12.54294
 -12.88377   7.29737  -6.01874
 -17.13347   6.45937   0.14626
 -21.14367   5.62137   4.63536
 -24.61527   4.36447   7.14926
 -27.30877   3.28707   7.68796
 -29.28397   2.44907   6.43106
 -30.89997   1.13227   3.73756
 -32.09707  -1.02243   0.68496
 -33.17447  -3.29693  -1.88884
 -34.13217  -4.61373  -2.66694
 -34.73067  -4.61373  -1.05084
 -35.02997  -3.77573   2.00176
 -35.38907  -2.75823   5.47336
 -36.28697  -1.26183   8.04706
 -37.66357   0.53377   9.66316
 -39.10007   2.03017  10.20186
 -40.11767   2.62867   9.54346
 -40.17747   1.73087   8.34636
 -39.39937  -0.24433   6.96966
 -37.78327  -2.09983   5.53316
 -35.32927  -2.81813   4.09666
 -32.33657  -2.57873   2.95946
 -29.10437  -1.98013   2.48056
 -26.05177  -1.50133   2.48056
 -24.01667  -0.36403   3.01926
 -22.58017   1.85057   3.91716
 -22.46047   4.36447   5.05436
 -23.65757   5.68127   5.83246
 -26.23137   5.50167   5.83246
 -29.82267   4.42437   5.89236
 -33.41387   3.22727   5.89236
 -36.16727   2.08997   5.59306
 -38.02277   0.65347   4.99446
 -38.86067  -1.80053   4.03686
 -38.56147  -4.97283   3.73756
 -37.84317  -8.44443   3.91716
 -36.64607 -12.03573   4.57556
 -35.32927 -15.62703   5.71276
 -34.43147 -17.90153   7.02956
 -33.77307 -17.60223   8.76536
 -33.05477 -14.60953  10.80046
 -32.21677  -9.94083  12.71576
 -31.07957  -5.81083  14.39166
 -29.76277  -3.29693  15.58876
 -28.08687  -1.20203  16.72606
 -25.81237   1.43157  18.04286
 -22.69987   4.06517  19.65896
 -18.80937   4.78347  21.45456
 -14.79907   2.26957  23.48966
 -10.78887  -3.05753  25.94366
  -7.37707  -8.20503  29.05606
  -4.50407 -10.53933  32.82696
  -2.16977  -9.10283  36.83726
  -0.25437  -5.63123  40.48836
   1.30183  -3.35683  42.88256
   2.31933  -3.23713  43.90006
   2.97773  -3.95533  43.78036
   3.45663  -3.47653  42.82266
   3.87563  -1.20203  41.08686
   4.23473   2.08997  38.63286
   4.41433   5.20247  35.69996
   4.41433   6.87837  32.52766
   3.87563   6.39957  29.23566
   2.67853   3.82577  25.70426
   0.64343  -0.12463  21.99326
  -2.10987  -3.47653  18.46186
  -4.80337  -5.09263  15.34936
  -7.25737  -5.45173  12.41646
  -9.77127  -5.63123   9.00476
 -12.16547  -6.05023   4.57556
 -14.43997  -5.57143  -0.39244
 -16.53487  -3.59623  -4.88154
 -18.39037  -0.24433  -8.95164
 -19.46777   2.20967 -12.30354
 -19.94657   1.55127 -14.93714
 -19.88677  -2.21953 -16.37364
 -19.28817  -6.40943 -16.25394
 -18.21077  -8.68383 -14.63784
 -16.71447  -9.10283 -11.82464
 -14.73927  -9.10283  -8.71224
 -12.88377  -9.40213  -5.42024
 -10.96837  -8.92333  -1.70924
  -8.93337  -6.94803   2.54046
  -6.41947  -3.59623   6.84996
  -3.30697  -0.48373  11.03986
   0.28433   0.83307  14.75086
   4.05513   0.89287  17.92316
   7.22743   1.79067  20.73626
   9.74133   4.72357  23.01076
  10.81873   8.43457  24.14806
  10.87863  10.29007  23.25016
  10.22023   9.45207  20.31736
   9.20263   6.75867  15.10996
   8.00553   3.82577   7.62816
   6.80843   2.74837  -1.76904
   6.03033   4.42437 -11.76484
   5.85083   8.43457 -20.92264
   6.74863  13.28287 -28.70374
   8.78363  16.75437 -35.16804
  11.05813  17.77197 -40.67464
  12.85383  16.45517 -45.16374
  13.87133  14.47987 -47.85724
  14.17063  12.68427 -48.51564
  14.46983  11.06817 -46.83974
  14.94873   8.91347 -43.78714
  15.66693   5.98057 -39.95644
  16.26553   2.68857 -35.70674
  16.08593  -0.54363 -31.39714
  15.36773  -3.65603 -27.86574
  14.35013  -5.99043 -25.29204
  13.21293  -7.12763 -22.95764
  12.07573  -6.76853 -20.32404
  11.53703  -5.09263 -16.91234
  11.83623  -2.57873 -13.26124
  12.67423  -0.72323  -9.66994
  13.51223  -0.78303  -6.43774
  13.81143  -2.45893  -3.74424
  13.33263  -3.41663  -0.81144
  12.67423  -2.69843   2.42076
  11.29753  -1.08233   5.65286
   9.92093  -0.54363   7.98726
   8.66393  -1.56113   8.76536
   7.70633  -2.33923   8.16676
   7.16763  -0.60343   6.61056
   7.34713   3.34697   3.61786
   8.00553   7.23747   0.14626
   9.38223   8.01557  -3.38514
  11.35743   5.26227  -6.61734
  13.39253   1.25197  -9.13124
  15.12823  -1.38163 -11.46554
  15.72683  -1.74073 -14.21884
  14.82903  -1.02243 -17.33134
  12.85383  -1.02243 -20.26424
  10.04063  -2.09983 -22.29924
   7.40703  -3.65603 -23.55624
   6.38953  -4.25463 -23.43654
   7.64643  -3.83563 -22.05984
  10.93843  -3.83563 -19.78534
  15.54723  -4.49403 -16.85244
  20.51523  -5.39183 -13.62034
  25.06413  -5.69113 -10.08894
  28.65543  -5.93053  -5.89904
  31.16933  -7.06783  -1.11064
  32.24673  -9.52183   4.33606
  33.02483 -11.25763  10.62086
  33.32413 -11.91603  16.66616
  33.14453 -12.03573  21.93336
  33.20443 -12.93353  25.82396
  33.14453 -15.26793  28.39766
  33.08473 -17.96133  30.79186
  33.56353 -19.27813  32.64736
  34.22193 -17.72193  33.78466
  35.65843 -13.59193  33.84446
  36.97523  -8.56413  33.24596
  37.99283  -4.31443  32.40796
  38.11253  -1.32173  30.85176
  36.97523   1.25197  28.21816
  34.88033   3.82577  24.80646
  32.60583   5.74117  20.55676
  30.63063   6.63897  15.46906
  29.43353   7.71637   9.18436
  28.65543   9.81127   2.24116
  27.99703  13.04337  -4.64214
  27.45833  16.69457 -10.98674
  27.57803  19.74717 -16.07434
  27.81753  21.06397 -19.84524
  28.53573  21.06397 -22.41894
  29.43353  20.40557 -24.27444
  30.57083  19.86687 -25.71094
  31.88763  19.20847 -27.02774
  33.56353  17.71207 -28.70374
  35.77813  14.53977 -31.75634
  38.23223  10.11057 -35.46734
  40.68623   5.50167 -38.87904
  42.48193   2.14987 -40.79434
  43.20013   1.43157 -40.97394
  43.37973   2.98777 -39.29804
  43.79873   4.66377 -36.48484
  44.81623   4.72357 -32.89354
  46.91113   3.16737 -28.76354
  49.90393   0.89287 -24.69344
  52.95643  -0.30423 -21.28174
  55.82953  -0.42393 -19.30654
  57.92443  -1.02243 -18.94744
  59.00183  -2.21953 -19.54594
  59.36093  -2.99763 -20.32404
  59.24123  -2.33923 -20.44374
  58.82223  -0.84293 -20.02474
  58.52293  -0.24433 -19.84524
  58.46313  -0.72323 -19.90504
  58.70253  -0.42393 -19.84524
  59.12153   1.85057 -19.66564
  59.48063   5.62137 -19.66564
  59.18133   8.79367 -20.98244
  57.74483  10.05067 -23.43654
  54.69223   9.45207 -26.36934
  50.02363   6.21997 -30.31984
  43.91843   1.37177 -35.34754
  37.21463  -3.89553 -40.97394
  30.69053  -9.10283 -46.00174
  24.70503 -13.89123 -49.35364
  20.09623 -17.66203 -51.20914
  17.10353 -19.87673 -51.20914
  16.02613 -20.23583 -49.17404
  16.44513 -18.85913 -45.64264
  17.76193 -16.28543 -41.21334
  19.55753 -12.87373 -36.42494
  21.05393  -8.56413 -31.57674
  21.77213  -4.13493 -26.96794
  21.41303  -0.90273 -22.71824
  20.27583   0.41407 -19.06714
  19.07873   0.35417 -15.29624
  17.58233   0.11477 -10.50784
  16.62463  -0.24433  -4.64214
  15.72683  -1.44143   1.88206
  14.88883  -3.59623   8.76536
  13.99103  -6.16993  16.48666
  13.27283  -8.08533  24.56696
  12.31513  -8.14513  32.70726
  10.39973  -6.34953  39.53066
   6.92813  -3.29693  45.27676
   1.54123  -0.00493  49.94546
  -5.46177   2.26957  53.95566
 -13.54217   3.16737  56.17026
 -22.34077   3.64617  56.05056
 -31.37887   4.96297  53.29726
 -40.41687   6.87837  48.03006
 -49.57467   7.89587  40.18906
 -57.95437   7.23747  30.67216
 -65.01717   5.38197  20.43706
 -71.12237   4.06517  11.03986
 -76.03047   4.60387   3.55796
 -80.39987   6.27977  -1.94864
 -84.76927   8.13527  -5.30054
 -89.73717   8.79367  -6.67714
 -94.88477   7.83607  -6.55744
-100.21177   6.57907  -5.30054
-105.53887   5.44187  -3.74424
-110.56667   4.00537  -1.94864
-114.63677   1.43157   0.20616
-117.50977  -1.68083   2.72006
-119.12587  -4.13493   6.49086
-119.54487  -5.51153  12.11726
-119.00617  -7.06783  19.77866
-117.50977 -10.24013  28.87656
-115.77407 -14.90873  38.09416
-113.55937 -19.51753  46.65336
-111.34477 -21.91173  53.47686
-109.24987 -20.95413  57.36736
-107.57397 -17.30293  57.78636
-105.95787 -11.85613  54.37466
-104.46147  -6.22983  47.97016
-103.14467  -1.20203  39.65036
-101.76807   3.04767  30.73206
-100.15197   6.39957  22.17286
 -97.45847   8.19517  15.46906
 -94.16647   7.53677  10.74056
 -90.51537   4.00537   7.68796
 -86.62477  -1.14213   5.59306
 -82.01597  -5.45173   3.79736
 -76.74877  -6.94803   1.94196
 -71.48157  -5.45173  -0.15304
 -65.97487  -1.62103  -2.54724
 -60.82737   2.80827  -5.77934
 -55.79957   6.87837  -8.77204
 -50.95137   9.75137 -10.68744
 -46.70167  10.88867 -11.52544
 -43.58917   9.75137 -10.50784
 -41.49427   6.16007  -8.05384
 -40.41687   0.95277  -4.04354
 -40.11767  -4.43423   0.62506
 -40.65637  -8.62403   5.65286
 -41.43447 -10.71893  10.97996
 -42.15267 -10.77883  16.36686
 -42.69137  -9.64153  22.11296
 -42.75127  -8.68383  28.57726
 -42.39217  -8.86343  35.87956
 -41.73377  -9.28243  44.43876
 -40.71617  -9.40213  53.89586
 -39.69867  -8.56413  63.59226
 -38.86067  -7.30723  72.45076
 -38.08257  -5.39183  79.39396
 -37.30447  -3.11733  84.48156
 -37.18477  -0.12463  87.47436
 -37.42417   2.50897  88.67146
 -38.20227   4.06517  88.31226
 -39.15997   4.00537  86.45676
 -39.93807   2.80827  83.34436
 -40.29717   1.73087  79.15456
 -40.23737   1.19217  73.34866
 -39.81837   1.25197  66.64486
 -39.21987   1.43157  58.74406
 -38.44167   1.79067  50.42426
 -37.66357   2.50897  43.42126
 -36.58617   3.16737  37.73506
 -34.97017   3.40677  33.90436
 -32.75547   3.28707  31.09116
 -29.76277   2.98777  28.99626
 -26.17147   3.04767  27.61956
 -21.56267   2.26957  26.72176
 -16.59477  -0.54363  26.42246
 -11.08807  -5.21233  27.02106
  -5.28217  -9.94083  27.79916
   0.82303 -11.43723  28.39766
   7.46683  -7.60653  28.63716
  14.82903   0.47387  28.15826
  22.72983   9.87107  26.78166
  30.51093  16.39527  24.50716
  37.93293  17.23327  21.03556
  44.75633  13.46237  16.78586
  51.28053   7.17767  11.69826
  57.08643  -0.24433   6.55076
  62.17413  -7.18753   1.70246
  66.42383 -13.71163  -2.48734
  69.71583 -18.32043  -6.07864
  72.05013 -19.51753  -8.83194
  73.36693 -16.76423 -10.98674
  73.96553 -11.25763 -12.54294
  74.14503  -4.61373 -13.20134
  74.02533   1.13227 -12.90204
  73.42683   5.20247 -11.22614
  72.34943   7.17767  -8.41294
  70.25453   7.41707  -4.46254
  66.96243   6.39957   0.50536
  62.29383   3.88567   5.77266
  56.06893   0.05497  10.97996
  49.00603  -5.03273  14.75086
  41.34463 -10.77883  16.18736
  34.04233 -15.32773  15.70846
  27.57803 -17.00363  13.79316
  22.55023 -14.60953  10.74056
  19.13853  -8.68383   7.38866
  17.88163  -1.62103   3.43826
  18.54003   3.94547  -0.63184
  20.21593   6.27977  -5.18084
  22.37073   6.39957 -10.26844
  25.06413   7.11777 -16.25394
  28.41603   9.63167 -22.77814
  32.72553  13.70177 -30.02054
  37.69353  16.51497 -38.28044
  43.14033  16.93397 -45.64264
  48.64693  14.42007 -52.04704
  53.31563  10.76897 -56.59604
  57.44553   8.25507 -58.63104
  60.97703   7.83607 -58.09234
  63.31133   9.15287 -54.14194
  63.79013  10.64917 -47.85724
  62.29383   9.33237 -40.37534
  59.24123   4.60387 -32.65414
  55.17113  -2.51883 -26.18984
  50.20313  -9.82113 -21.28174
  45.11553 -14.42993 -18.70794
  40.56653 -15.08833 -18.34884
  36.25703 -12.03573 -19.54594
  31.64823  -6.52913 -22.23944
  27.03933  -0.00493 -25.95044
  22.07143   6.33967 -29.60154
  17.16333  11.18787 -32.83374
  11.95593  13.76167 -35.64684
   6.98803  14.30037 -37.56224
   2.19963  13.58207 -38.46004
  -2.05007  13.10327 -38.16074
  -5.10267  13.46237 -36.96364
  -6.53917  13.76167 -35.40744
  -6.23987  13.04337 -33.73154
  -4.80337  10.82877 -32.59424
  -2.52887   8.37477 -31.81614
   0.52373   6.51927 -31.27744
   4.59383   5.38197 -31.33734
  10.16033   5.20247 -31.39714
  17.40273   5.08277 -30.97824
  26.08173   4.42437 -29.78114
  35.35913   3.82577 -27.74604
  44.39723   3.76587 -25.29204
  52.11853   4.96297 -22.41894
  58.16383   6.51927 -19.60584
  62.71283   7.53677 -16.73274
  65.58583   8.01557 -14.09914
  67.20193   9.09297 -11.64514
  67.86033  11.54707  -8.89184
  67.44133  14.00107  -5.83924
  66.60333  14.00107  -3.08584
  65.28653  10.70907   0.02656
  63.96973   5.80097   3.79736
  62.71283   2.74837   8.10696
  61.51573   3.46667  12.05736
  59.95943   6.33967  14.93036
  57.50543   8.49447  15.94796
  53.91413   9.09297  15.16976
  49.12573   9.57187  12.23696
  43.67903  10.88867   7.02956
  38.71103  12.50467  -0.75154
