********************************************************************************
              CENTRO DE INSTRUMENTACION Y REGISTRO SISMICO  A.C.

    Anaxagoras 814, Col. Narvarte, Benito Juarez, C.P. 03020 Mexico, D.F.
           Tels. 5687 45 42/ 5687 45  82             Fax. 5669 25 12
********************************************************************************
ARCHIVO ESTANDAR DE ACELERACION:
VERSION DEL FORMATO                    : 2.0
NOMBRE DEL ARCHIVO                     : VM2920170919181440
FECHA Y HORA DE CREACION               : 25/SEP/17, 11:18
REF. CATALOGO ACELEROGRAMAS, SMIS 1996 : REGISTRO No.     /PAG.


================================================================================
DATOS DE LA ESTACION:
NOMBRE DE LA ESTACION                  : VILLA DEL MAR
CLAVE DE LA ESTACION                   : VM29
LOCALIZACION DE LA ESTACION            : Del. Iztacalco, Col. Militar Marte,    
                                       : Cda. Playa Flamingos.                  
                                       :                                        
                                       :                                        
                                       : 
COORDENADAS DE LA ESTACION             : 19.3811 LAT. N
                                       : 99.1253 LONG. W
ALTITUD (msnm)                         : 2234
TIPO DE SUELO                          : Terreno blando, material compresible
                                       : (arcillas)                
                                       : 
INSTITUCION RESPONSABLE                : CIRES, A. C.
                                       : 

================================================================================
DATOS DEL ACELEROGRAFO:
MODELO DEL ACELEROGRAFO                : RAD_IO14
NUMERO DE SERIE DEL ACELEROGRAFO       : 
NUMERO DE CANALES                      : 3
ORIENTACION C1-C6 (rumbo;orientacion)  : /S00E/+V/N90W
ORIENTACION C7-C12 (rumbo;orientacion) : 
VEL. DE MUESTREO, C1-C6 (muestras/s)   : /100/100/100
VEL. DE MUESTREO, C7-C12 (muestras/s)  : 
ESC. COMPLETA DE SENSORES, C1-C6, (g)  : /2.0/2.0/2.0
ESC. COMPLETA DE SENSORES, C7-C12, (g) : 
FREC. NAT. DE SENSORES, C1-C6, (Hz)    : /52.35/51.1/51.1
FREC. NAT. DE SENSORES, C7-C12, (Hz)   : 
AMORTIGUAMIENTO DE SENSORES, C1-C6     : /0.5320/0.5731/0.6204
AMORTIGUAMIENTO DE SENSORES, C7-C12    : 
INTERVALO DE MUESTREO, C1-C6, (s)      : /0.01/0.01/0.01
INTERVALO DE MUESTREO, C7-C12, (s)     : 
UMBRAL DE DISPARO, C1-C6, (Gal)        : / / /
UMBRAL DE DISPARO, C7-C12, (Gal)       : 
MEMORIA DE PREEVENTO (s)               : 60
TIEMPO DE POSEVENTO (s)                : 90


================================================================================
DATOS DEL SISMO:
FECHA DEL SISMO (GMT)                  : 19/SEP/17
HORA EPICENTRO (GMT)                   : 18:14:40.0
MAGNITUD(ES)                           : /Mc=7.1
COORDENADAS DEL EPICENTRO              : 18.40 LAT. N
                                       : 98.72 LONG. W
PROFUNDIDAD FOCAL (km)                 : 57
FUENTE DE LOS DATOS EPICENTRALES       : SSN
                                       : INSTITUTO DE GEOFISICA, UNAM

================================================================================
DATOS DE ESTE REGISTRO:
HORA DE LA PRIMERA MUESTRA (GMT)       : 13:13:57.00
EXACTITUD DEL TIEMPO (s)               : 
DURACION DEL REGISTRO (s), C1-C6       : /329.01/329.01/329.01
DURACION DEL REGISTRO (s), C7-C12      : 
NUM. TOTAL DE MUESTRAS, C1-C6          : /32901/32901/32901
NUM. TOTAL DE MUESTRAS, C7-C12         : 
ACEL. MAX. (Gal), C1-C6                : /85.23767/35.90523/94.83026
ACEL. MAX., C1-C6, EN LA MUESTRA       : /8228/8335/9748
ACEL. MAX. (Gal), C7-C12               : 
ACEL. MAX., C7-C12, EN LA MUESTRA      : 
UNIDADES DE LOS DATOS                  : Gal (cm/s/s)
FACTOR DE DECIMACION                   : 1
FORMATO DATOS (FORTRAN,10 campos/dato) : 3F10.5


================================================================================
CALIDAD DEL ACELEROGRAMA:
REGISTRO DIGITAL COMPLETO CON TIEMPO ABSOLUTO CORRECTO.


================================================================================
COMENTARIOS:














================================================================================
DATOS DE ACELERACION:
---------+---------+---------+---------+---------+---------+---------+---------+
   CANAL-1   CANAL-2   CANAL-3   CANAL-4   CANAL-5   CANAL-6   CANAL-7   CANAL-8
      N00E        +V      N90W
---------+---------+---------+---------+---------+---------+---------+---------+
[...]
  26.21183   4.84063 -41.57864
  23.33873   4.78083 -38.10714
  20.58543   3.94283 -35.35374
  18.07153   2.50633 -33.43844
  15.43793   1.42893 -32.42094
  12.68463   1.36913 -31.82234
  10.70943   2.56623 -31.88224
   9.57223   4.54143 -32.06174
   9.33273   6.21733 -32.78004
  10.05103   6.81583 -34.09684
  11.00873   6.75603 -36.07204
  12.02623   6.45673 -38.40634
  12.92403   6.21733 -40.92024
  13.88173   6.27713 -43.25464
  15.01893   6.81583 -45.64884
  16.69493   7.83343 -48.16274
  18.72993   9.21003 -50.49704
  20.70513  10.46703 -52.71164
  22.50083  11.06553 -54.50734
  23.75773  11.12543 -55.70444
  24.77533  10.76633 -56.54234
  25.37383  10.34733 -57.20074
  25.55343  10.10793 -57.73944
  25.25413   9.92833 -57.91904
  24.23663   9.38963 -57.55994
  22.50083   8.43193 -56.66204
  20.04673   6.93553 -55.16574
  17.17373   5.25963 -53.19054
  14.06133   3.94283 -51.03574
  11.06853   3.34433 -48.94084
   8.43493   3.64353 -46.60644
   5.98093   4.84063 -44.09254
   3.94583   5.85823 -41.27944
   1.97063   6.27713 -38.16694
  -0.18417   6.33703 -34.99464
  -1.97977   6.63633 -31.94204
  -3.35647   6.99543 -28.94934
  -4.31407   7.29473 -26.07634
  -5.09227   7.17503 -23.20324
  -5.99007   6.93553 -20.50984
  -7.36667   7.35453 -17.99594
  -9.10247   8.25243 -15.72144
 -11.13757   9.21003 -13.44694
 -13.05287   9.38963 -11.35204
 -14.84857   8.61153  -9.73594
 -16.58437   7.17503  -8.06004
 -18.20037   5.49903  -6.56364
 -19.99607   3.76323  -5.54614
 -22.03107   2.44643  -4.70814
 -24.12607   1.60853  -3.93004
 -26.75967   0.95013  -3.39134
 -29.51297  -0.36667  -2.61324
 -32.20637  -1.92297  -1.89504
 -35.07947  -3.35947  -1.05704
 -38.01237  -4.61637  -0.03954
 -41.00507  -5.51417   1.33716
 -43.69857  -6.35217   2.77366
 -46.03287  -7.60917   4.27006
 -47.46937  -9.34487   5.94596
 -48.48687 -10.90117   7.80146
 -48.66647 -11.26027  10.07596
 -48.06797 -10.54197  12.82926
 -46.93067  -9.28507  15.88186
 -45.25477  -7.48937  18.99436
 -43.27957  -5.45437  22.10676
 -41.30437  -3.29957  25.21916
 -39.38897  -1.14477  28.45136
 -37.89257   0.95013  31.92296
 -36.51597   3.16473  35.63396
 -35.01957   4.90053  39.22526
 -32.98457   5.97793  42.57706
 -30.59037   6.39693  45.80926
 -28.25597   5.61873  49.10126
 -25.92167   3.88303  52.45306
 -23.40777   2.20703  55.98456
 -20.89387   0.59093  59.51596
 -18.37997  -0.96527  63.04736
 -15.80627  -2.58137  66.39926
 -13.29237  -3.83827  69.57156
 -10.83827  -4.61637  72.74386
  -8.44407  -4.37697  75.73656
  -6.04987  -3.17987  78.72936
  -3.71557  -1.44407  81.42276
  -1.26147   0.05233  83.81696
   1.07283   1.06983  85.67246
   3.40713   1.90783  87.04916
   5.32253   2.62603  88.00686
   7.11813   3.28443  88.90466
   8.73423   3.70343  89.50316
  10.23063   3.70343  90.10176
  11.36783   3.16473  90.58056
  12.56493   2.02753  90.93966
  13.64233   0.53113  91.41856
  14.48023  -0.66597  91.77766
  15.31823  -1.56377  92.49596
  15.85693  -2.16237  93.15436
  15.91683  -2.52147  93.39376
  15.55763  -2.94047  93.09446
  14.71973  -3.83827  92.25646
  13.52263  -4.49667  90.70026
  12.44523  -4.61637  88.84476
  11.78683  -4.25727  87.04916
  11.36783  -3.77837  85.25346
  11.00873  -3.41927  83.27826
  10.70943  -2.58137  81.30306
  10.11093  -1.26447  79.32786
   9.21303   0.89023  77.77166
   8.13563   2.92533  76.87386
   6.69913   4.84063  76.33516
   4.84363   5.97793  76.21546
   2.80863   6.15743  76.15556
   0.65383   5.43923  76.15556
  -1.26147   4.36183  76.21546
  -2.93747   3.16473  76.57456
  -4.25427   2.44643  77.23296
  -5.33167   2.44643  78.01106
  -5.93017   2.68593  78.54976
  -6.22947   2.68593  78.96876
  -6.46887   2.26693  78.78916
  -6.52877   1.00993  77.89136
  -6.46887  -0.36667  76.09576
  -6.46887  -1.38427  73.58186
  -6.28927  -1.74337  70.70876
  -5.99007  -1.38427  67.29706
  -5.93017  -0.30687  63.76566
  -6.28927   0.77053  59.99476
  -7.18717   1.90783  56.04436
  -8.80317   3.34433  52.09396
 -10.89817   4.96033  48.50266
 -13.17257   6.39693  44.79166
 -15.50697   7.35453  41.08066
 -17.54197   8.01293  37.60916
 -19.39747   8.55163  34.49666
 -21.01357   9.32973  31.80326
 -22.27057  10.16773  29.40906
 -23.34787  10.82613  27.43386
 -24.12607  11.06553  26.11706
 -24.90417  11.12543  25.33896
 -25.56257  11.00573  25.21916
 -26.28077  11.06553  25.69806
 -26.81947  11.12543  26.65576
 -27.29837  11.06553  27.79296
 -27.29837  10.82613  28.99006
 -26.99907  10.46703  30.24696
 -26.10127   9.98813  31.44406
 -24.78447   9.56923  32.64116
 -23.16837   8.97063  33.59886
 -21.37267   8.01293  34.13756
 -19.51717   6.45673  34.19746
 -17.66167   4.66113  34.01786
 -15.74637   2.98513  33.83826
 -13.89087   1.66833  33.59886
 -12.39447   0.17203  33.23976
 -11.13757  -1.32437  32.52146
 -10.23977  -2.82077  31.44406
  -9.82077  -4.55657  29.82806
  -9.82077  -6.23247  27.85286
 -10.29957  -8.56677  25.57836
 -11.01787 -11.08067  22.76516
 -11.73607 -13.29537  19.53296
 -12.39447 -15.03107  15.52276
 -12.99307 -16.22817  11.15336
 -13.59157 -17.54497   6.66426
 -13.47187 -18.86177   1.69626
 -13.11277 -19.87937  -3.69064
 -12.15507 -20.47787  -9.37684
 -10.77847 -20.17857 -15.06304
  -8.62367 -19.10127 -20.33024
  -6.22947 -17.84427 -24.99894
  -3.71557 -16.34787 -28.82964
  -1.44107 -14.61217 -31.64284
   0.41443 -12.57707 -33.91724
   1.85093 -10.42227 -35.23404
   3.10783  -8.26757 -35.83264
   4.24513  -6.29227 -36.01224
   5.20283  -4.85577 -35.95234
   6.34003  -3.47917 -36.19174
   7.47723  -2.40177 -36.85014
   8.49483  -1.20467 -37.86764
   9.63203   0.17203 -39.36404
  10.64953   1.48883 -41.21954
  11.66713   2.80563 -43.37434
  12.38533   4.12243 -45.70864
  12.74453   5.49903 -48.10284
  12.74453   6.87573 -50.25764
  12.26563   7.71373 -52.29264
  11.30793   8.01293 -54.50734
  10.05103   8.07283 -56.78174
   8.49483   8.13263 -59.17594
   6.57943   7.59403 -61.51034
   4.30493   6.51663 -63.78474
   1.49183   4.78083 -66.29864
  -1.44107   2.80563 -69.35124
  -4.55357   1.78803 -72.58344
  -7.72587   1.66833 -75.57614
 -10.83827   1.78803 -77.67104
 -13.53177   1.72823 -79.28714
 -16.10547   1.18953 -80.42444
 -18.49967  -0.06747 -81.38204
 -20.83397  -1.44407 -82.22004
 -23.10847  -2.64117 -83.11784
 -25.32317  -3.23977 -83.77624
 -27.53777  -2.94047 -84.37484
 -29.33337  -2.22217 -84.61424
 -30.76987  -1.80317 -84.13544
 -31.72757  -1.92297 -83.29744
 -32.14657  -2.34187 -81.80104
 -32.14657  -2.16237 -79.94554
 -31.60787  -1.08497 -78.14994
 -30.47067   0.71073 -76.65354
 -29.03407   2.56623 -75.33674
 -27.59757   4.36183 -73.66084
 -26.28077   5.55893 -71.80534
 -25.20337   6.33703 -70.00964
 -24.36547   6.45673 -68.39364
 -23.22817   6.15743 -66.95704
 -21.55227   6.03773 -65.64024
 -19.57707   6.21733 -64.80234
 -17.72157   6.51663 -64.92204
 -15.86607   5.97793 -65.81984
 -14.07047   5.13993 -67.25634
 -12.39447   4.48153 -68.33374
 -10.83827   4.12243 -69.23154
  -9.04267   3.76323 -70.78784
  -7.00757   3.64353 -73.36154
  -5.27177   3.52383 -76.47404
  -4.19437   3.22463 -79.52654
  -3.77537   2.74573 -82.27994
  -3.53597   1.84793 -84.37484
  -3.05717  -0.12727 -85.57194
  -2.33887  -2.52147 -85.87114
  -1.68047  -4.97547 -85.87114
  -1.26147  -7.36967 -85.93104
  -0.78267  -9.76387 -86.35004
   0.05533 -11.91867 -86.88874
   1.67133 -13.05587 -87.66684
   4.24513 -13.05587 -88.86394
   7.35753 -11.55957 -90.18074
  10.70943  -9.46457 -91.13844
  14.12113  -7.24997 -91.43764
  17.41313  -5.75367 -91.07854
  20.58543  -4.97547 -90.06104
  24.17673  -4.61637 -88.50484
  28.36653  -4.37697 -86.17044
  32.73593  -3.71857 -83.17774
  36.86593  -2.52147 -79.76604
  40.51713  -0.96527 -75.81564
  43.68943   0.35153 -71.26664
  46.74193   0.65083 -66.35854
  49.91433  -0.24697 -61.39064
  53.32603  -1.62367 -56.42264
  56.49833  -3.06017 -51.33504
  59.37133  -4.01787 -45.82834
  61.94513  -4.37697 -40.02244
  64.21953  -3.77837 -34.33624
  66.25463  -2.22217 -29.00914
  68.16993   0.05233 -24.16094
  69.96563   2.32673 -19.67184
  71.46203   4.30193 -15.54184
  72.06053   5.55893 -11.77104
  71.76123   5.61873  -8.29944
  70.74373   5.08013  -5.18704
  69.72623   4.36183  -2.31394
  68.88823   3.82313  -0.33874
  67.75103   3.34433   1.15756
  66.49403   2.80563   2.89336
  65.47653   2.14723   4.92846
  64.69843   1.18953   7.20296
  64.27943  -0.06747   9.41756
  64.04003  -1.26447  12.29056
  64.15973  -2.16237  15.76216
  64.09983  -2.70107  19.35346
  63.92033  -3.06017  22.94476
  63.56113  -3.17987  26.23676
  62.96263  -3.00027  28.75066
  62.30423  -3.00027  30.78566
  61.82533  -3.17987  32.40176
  61.40643  -3.65867  33.77846
  60.74803  -3.41927  34.79596
  60.02973  -2.40177  35.57406
  59.37133  -1.50397  36.29236
  58.29393  -0.96527  36.71136
  56.37863  -1.08497  36.65146
  54.16393  -1.38427  36.83106
  51.82963  -1.86307  37.19016
  49.13613  -2.28207  37.48946
  46.44273  -2.34187  37.48946
  43.68943  -1.86307  37.19016
  40.75653  -0.60607  36.53176
  37.46453   1.18953  35.87336
  33.93303   2.98513  35.03536
  29.86293   4.48153  34.07766
  25.37383   5.79833  33.00036
  20.64533   7.11513  31.80326
  15.55763   8.61153  30.72586
  10.29043  10.16773  29.52876
   5.26263  11.72393  28.57106
   0.47423  13.34003  27.79296
  -4.07467  15.13563  27.19446
  -8.14477  15.97363  26.71556
 -11.67627  15.67433  26.41626
 -14.96827  14.83643  26.41626
 -17.90117  13.75903  26.47616
 -20.41507  13.28023  26.59586
 -22.74937  12.92103  27.07466
 -24.72457  12.44223  27.91266
 -26.34067  11.66413  28.99006
 -27.59757  10.40713  30.60616
 -28.37567   9.09033  32.52146
 -28.43557   7.53413  34.61636
 -28.01657   5.73853  36.59156
 -27.29837   4.48153  38.50696
 -26.46037   4.06253  40.30256
 -25.68227   4.18223  42.39756
 -24.96397   4.54143  44.37276
 -24.36547   4.84063  46.34796
 -24.12607   4.84063  48.38296
 -24.00627   4.60123  50.23846
 -23.70707   3.76323  52.33336
 -23.46767   2.98513  54.42836
 -23.40777   2.02753  56.46336
 -23.58737   1.30923  58.31886
 -23.76687   1.12963  60.17436
 -24.30557   1.66833  61.85026
 -24.96397   2.32673  63.52626
 -25.38297   2.98513  65.14236
 -25.62237   2.86543  67.05766
 -26.58007   2.68593  68.67376
 -27.83707   3.16473  69.45186
 -28.73487   3.22463  69.99056
 -29.81227   1.54863  71.18766
 -31.18887  -0.72587  72.80376
 -32.62537  -2.16237  74.30006
 -33.94217  -2.82077  75.55706
 -35.31887  -3.11997  76.99356
 -36.27657  -3.06017  78.66946
 -36.75537  -2.70107  80.22566
 -36.93497  -1.98277  81.66226
 -36.75537  -1.50397  83.27826
 -36.15687  -1.74337  84.95426
 -35.43857  -2.70107  86.80976
 -34.66047  -4.07767  88.66526
 -33.70277  -5.57407  90.40106
 -32.44587  -6.47187  92.01706
 -31.36847  -6.95067  93.27406
 -30.35097  -7.54927  94.29156
 -29.33337  -8.44707  94.83026
 -28.55527  -9.70407  94.65066
 -27.89687 -11.26027  93.93246
 -27.41807 -12.63687  92.91496
 -26.99907 -13.83397  91.83756
 -26.46037 -14.61217  90.52076
 -25.86177 -15.21067  89.08416
 -25.08367 -15.50997  87.64766
 -23.94647 -15.33037  85.85206
 -22.56977 -14.61217  83.81696
 -21.07347 -13.59457  81.72206
 -19.75667 -12.63687  79.62716
 -18.49967 -12.09827  77.77166
 -17.48217 -11.67927  75.91616
 -17.06317 -11.32007  74.12056
 -17.36247 -10.78147  72.26506
 -18.26027 -10.24277  70.46936
 -19.69677  -9.82377  68.67376
 -21.67197  -9.34487  66.87806
 -23.88657  -8.86607  64.72336
 -26.34067  -8.14777  62.14956
 -28.67497  -6.95067  59.33636
 -30.53047  -5.57407  56.40356
 -31.84727  -4.37697  53.59036
 -32.74507  -3.83827  50.47786
 -33.46337  -3.71857  47.18586
 -33.88237  -4.19737  43.53476
 -33.88237  -5.51417  39.82376
 -33.58307  -6.65147  36.41206
 -33.28377  -7.01057  33.29956
 -32.74507  -6.65147  30.48646
 -31.84727  -5.81347  27.55356
 -31.18887  -4.91567  24.80026
 -30.88957  -3.89817  23.00456
 -30.65017  -3.53897  21.02936
 -30.59037  -4.07767  18.27606
 -31.06917  -4.85577  15.10376
 -31.66777  -5.39447  12.05116
 -32.20637  -5.69377   8.93876
 -32.44587  -5.81347   4.98826
 -32.50567  -4.37697   0.31966
 -32.38597  -1.74337  -4.76804
 -32.02687   0.53113  -9.67614
 -31.60787   1.96763 -14.70394
 -31.30857   2.68593 -19.91124
 -30.82977   3.40413 -25.17844
 -30.05167   4.00273 -30.44574
 -29.03407   4.72093 -35.53334
 -28.25597   5.73853 -40.26184
 -27.71727   7.17503 -44.09254
 -27.35817   8.55163 -47.74374
 -27.11877   9.50933 -51.99344
 -26.87937  10.58673 -56.48254
 -26.75967  11.72393 -60.31324
 -27.11877  12.74153 -63.00664
 -27.53777  13.75903 -65.10164
 -27.53777  14.65683 -67.01694
 -26.81947  15.67433 -68.57314
 -25.62237  16.87143 -69.71044
 -24.12607  17.64953 -70.84764
 -22.45007  19.14593 -71.92504
 -20.59457  20.46273 -72.28414
 -18.61937  21.42043 -71.92504
 -16.22517  21.89923 -70.96734
 -13.95077  21.83943 -69.41114
 -11.97547  21.00143 -68.03444
 -10.41927  18.84663 -66.83734
  -8.92297  16.33273 -65.52054
  -7.30687  14.23783 -63.24614
  -5.63087  12.80133 -60.07384
  -4.25427  12.56193 -56.84164
  -3.47617  13.16043 -53.54964
  -2.69807  14.29773 -50.49704
  -1.62067  15.73423 -47.68384
  -0.00457  16.75173 -45.22984
   1.31223  17.35033 -43.49404
   2.21003  17.41013 -42.11734
   3.04803  17.11093 -40.56114
   3.88603  16.87143 -38.88524
   4.60423  16.51233 -37.20924
   5.14293  16.45253 -35.83264
   5.74153  16.87143 -34.93484
   6.34003  17.47003 -34.45594
   6.93853  18.12843 -34.51584
   7.83643  18.12843 -34.57564
   8.91383  17.70943 -34.21654
   9.87143  16.69193 -33.79754
  11.00873  15.07583 -34.15674
  12.32553  13.22033 -35.35374
  13.10363  11.48453 -37.02974
  13.34303  10.22763 -38.52614
  13.22333   9.09033 -39.36404
  12.68463   7.83343 -39.84294
  12.38533   5.79833 -39.84294
  12.68463   3.88303 -39.48374
  13.58243   1.96763 -39.06474
  15.13863  -0.06747 -38.64584
  17.41313  -2.28207 -38.64584
  20.16643  -4.85577 -39.00494
  22.97963  -6.95067 -39.60344
  25.79283  -8.80617 -39.96264
  28.36653 -10.18287 -40.14214
  30.76073 -11.20037 -40.32174
  33.03523 -12.09827 -40.68084
  35.24983 -12.99607 -41.33924
  37.04553 -14.01357 -42.77574
  38.66163 -15.03107 -44.81084
  39.61923 -16.34787 -47.14514
  39.97843 -17.84427 -49.24004
  39.97843 -19.34067 -50.73644
  40.09813 -20.23847 -52.05324
  40.33753 -20.05887 -53.37004
  40.51713 -19.40047 -54.56714
  40.69663 -18.62237 -55.88394
  40.63683 -18.32307 -57.32044
  40.27763 -18.62237 -58.87674
  39.55943 -19.40047 -60.73224
  38.48203 -20.11877 -62.52784
  37.40463 -20.77717 -64.26364
  36.32723 -21.31587 -66.17894
  35.36953 -21.79467 -67.85494
  34.47173 -22.03407 -69.23154
  33.51413 -22.33337 -70.18924
  32.55643 -22.81227 -70.72794
  32.01773 -23.76987 -70.78784
  31.77833 -25.20637 -70.48854
  32.13743 -26.64297 -69.83014
  32.97543 -27.48087 -69.17174
  34.11263 -28.31887 -68.33374
  35.24983 -28.73787 -67.49574
  36.32723 -28.61817 -66.59794
  37.22503 -28.13927 -65.52054
  37.64403 -27.66047 -64.38334
  37.82363 -27.24147 -63.00664
  37.88343 -26.70277 -61.09134
  37.64403 -25.56557 -58.63724
  36.98563 -23.88957 -55.76424
  35.90823 -21.55527 -52.65184
  34.17253 -18.80197 -49.41964
  32.07753 -15.74937 -45.70864
  29.74323 -12.51717 -41.99764
  27.58843  -9.52447 -38.34654
  25.79283  -7.19017 -34.57564
  24.47603  -5.75367 -30.80484
  23.87743  -4.61637 -27.21354
  23.27893  -3.35947 -24.04124
  22.32123  -2.16237 -21.04854
  21.24383  -0.48637 -18.23534
  19.86723   1.42893 -15.54184
  18.43073   3.22463 -12.78854
