********************************************************************************
              CENTRO DE INSTRUMENTACION Y REGISTRO SISMICO  A.C.

    Anaxagoras 814, Col. Narvarte, Benito Juarez, C.P. 03020 Mexico, D.F.
           Tels. 5687 45 42/ 5687 45  82             Fax. 5669 25 12
********************************************************************************
ARCHIVO ESTANDAR DE ACELERACION:
VERSION DEL FORMATO                    : 2.0
NOMBRE DEL ARCHIVO                     : XO3620170919181440
FECHA Y HORA DE CREACION               : 27/SEP/17, 17:27
REF. CATALOGO ACELEROGRAMAS, SMIS 1996 : REGISTRO No.     /PAG.


================================================================================
DATOS DE LA ESTACION:
NOMBRE DE LA ESTACION                  : JARDÍN DE NIÑOS "XOCHIMILCO"
CLAVE DE LA ESTACION                   : XO36
LOCALIZACION DE LA ESTACION            : Del. Xochimilco, Barrio la Concepción  
                                       : Tlacopa, Club España de Remo y         
                                       : Callejón Chicoco.                      
                                       :                                        
                                       : 
COORDENADAS DE LA ESTACION             : 19.2711 LAT. N
                                       : 99.1024 LONG. W
ALTITUD (msnm)                         : 2232
TIPO DE SUELO                          : Alto riesgo sísmico                 
                                       :                           
                                       : 
INSTITUCION RESPONSABLE                : CIRES
                                       : 

================================================================================
DATOS DEL ACELEROGRAFO:
MODELO DEL ACELEROGRAFO                : RADESD
NUMERO DE SERIE DEL ACELEROGRAFO       : 239
NUMERO DE CANALES                      : 3
ORIENTACION C1-C6 (rumbo;orientacion)  : /N00E/+V/N90W
ORIENTACION C7-C12 (rumbo;orientacion) : 
VEL. DE MUESTREO, C1-C6 (muestras/s)   : /100/100/100
VEL. DE MUESTREO, C7-C12 (muestras/s)  : 
ESC. COMPLETA DE SENSORES, C1-C6, (g)  : /0.5/0.5/0.5
ESC. COMPLETA DE SENSORES, C7-C12, (g) : 
FREC. NAT. DE SENSORES, C1-C6, (Hz)    : /30/30/30
FREC. NAT. DE SENSORES, C7-C12, (Hz)   : 
AMORTIGUAMIENTO DE SENSORES, C1-C6     : /0.733/0.696/0.750
AMORTIGUAMIENTO DE SENSORES, C7-C12    : 
INTERVALO DE MUESTREO, C1-C6, (s)      : /0.01/0.01/0.01
INTERVALO DE MUESTREO, C7-C12, (s)     : 
UMBRAL DE DISPARO, C1-C6, (Gal)        : /1.5/2.99/1.5
UMBRAL DE DISPARO, C7-C12, (Gal)       : 
MEMORIA DE PREEVENTO (s)               : 44.0
TIEMPO DE POSEVENTO (s)                : 0.0


================================================================================
DATOS DEL SISMO:
FECHA DEL SISMO (GMT)                  : 19/SEP/17
HORA EPICENTRO (GMT)                   : 18:14:40.0
MAGNITUD(ES)                           : /Mc=7.1
COORDENADAS DEL EPICENTRO              : 18.40 LAT. N
                                       : 98.72 LONG. W
PROFUNDIDAD FOCAL (km)                 : 57
FUENTE DE LOS DATOS EPICENTRALES       : SSN
                                       : INSTITUTO DE GEOFISICA, UNAM

================================================================================
DATOS DE ESTE REGISTRO:
HORA DE LA PRIMERA MUESTRA (GMT)       : 18:14:57.00
EXACTITUD DEL TIEMPO (s)               : 0.01
DURACION DEL REGISTRO (s), C1-C6       : /521.6/521.6/521.6
DURACION DEL REGISTRO (s), C7-C12      : 
NUM. TOTAL DE MUESTRAS, C1-C6          : /52160/52160/52160
NUM. TOTAL DE MUESTRAS, C7-C12         : 
ACEL. MAX. (Gal), C1-C6                : /124.14113/50.53009/173.55737
ACEL. MAX., C1-C6, EN LA MUESTRA       : /7404/6650/7311
ACEL. MAX. (Gal), C7-C12               : 
ACEL. MAX., C7-C12, EN LA MUESTRA      : 
UNIDADES DE LOS DATOS                  : Gal (cm/s/s)
FACTOR DE DECIMACION                   : 1
FORMATO DATOS (FORTRAN,10 campos/dato) : 3F10.5


================================================================================
CALIDAD DEL ACELEROGRAMA:
REGISTRO DIGITAL COMPLETO CON TIEMPO ABSOLUTO CORRECTO.


================================================================================
COMENTARIOS:














================================================================================
DATOS DE ACELERACION:
---------+---------+---------+---------+---------+---------+---------+---------+
   CANAL-1   CANAL-2   CANAL-3   CANAL-4   CANAL-5   CANAL-6   CANAL-7   CANAL-8
      N00E        +V      N90W
---------+---------+---------+---------+---------+---------+---------+---------+
[...]
  28.17499 -16.08352 -35.81595
  30.58415 -10.12794 -40.58939
  31.54183  -5.27968 -45.40772
  31.79622  -2.36175 -50.19613
  32.51448  -1.43400 -54.50569
  33.99589  -1.71831 -58.68058
  35.67183  -3.02016 -63.33431
  37.03353  -5.10012 -67.59898
  37.78172  -7.92827 -70.63662
  37.93136 -10.02319 -71.83373
  37.43755 -10.54693 -71.26510
  36.22549  -9.09544 -69.15521
  34.02582  -7.16512 -66.08764
  30.88343  -5.36947 -62.31677
  26.99285  -4.14244 -58.05210
  22.89278  -2.27197 -53.62283
  18.85256   0.30180 -49.64247
  15.09666   3.27959 -46.17088
  11.72981   5.71868 -43.35769
   8.81188   7.49937 -40.40983
   6.26804   8.63661 -37.25247
   3.48478   9.54940 -34.31958
  -0.04667   9.68408 -31.70092
  -4.32630   8.72640 -29.57607
  -9.20449   6.99060 -28.06473
 -14.09764   5.17999 -26.73295
 -18.67655   3.71354 -25.38621
 -22.56713   2.42665 -23.87487
 -25.41024   1.46897 -22.10915
 -26.93654   0.81057 -20.64270
 -27.38546   0.87042 -19.75984
 -27.38546   0.99013 -19.92444
 -27.13107   0.96021 -21.54053
 -26.53252  -0.02740 -24.65299
 -25.15586  -2.13729 -28.94759
 -22.83647  -5.01034 -34.08016
 -19.60430  -7.74870 -39.33244
 -15.39948  -9.73888 -44.37522
 -10.40159 -10.51700 -49.05888
  -5.05953  -9.82867 -53.24873
   0.04312  -8.30236 -57.07946
   4.45743  -6.46182 -60.95507
   8.09362  -4.95048 -64.99529
  11.04148  -4.33697 -69.48441
  13.82474  -4.72602 -74.33267
  16.48829  -6.62642 -79.45028
  19.01716  -9.63414 -84.56789
  21.26173 -13.16558 -89.32636
  23.13220 -16.30797 -93.66585
  24.61361 -18.25326 -97.57139
  25.58626 -18.82189-101.10284
  26.39430 -18.46276-104.27516
  27.32205 -17.43026-107.29784
  28.21988 -15.69446-110.48512
  29.17756 -13.19551-113.31327
  29.94071 -10.62175-115.70747
  30.28488  -8.75128-117.44327
  30.18013  -7.77863-118.17649
  29.52172  -6.76110-117.66772
  28.33959  -4.92055-115.96185
  27.14249  -2.18218-113.40305
  26.28955   0.48136-110.42526
  26.46912   1.48394-107.43251
  27.80089   0.24194-104.34998
  30.03049  -2.55628-100.96817
  32.75390  -5.18990 -97.24219
  35.47730  -6.65635 -93.21694
  38.03610  -7.01548 -88.63803
  40.10110  -6.70124 -83.71495
  41.61244  -6.02787 -78.26814
  42.89933  -4.38186 -72.02825
  44.42563  -2.15226 -64.96536
  45.81726  -0.17704 -57.58823
  47.22385   0.82553 -50.37569
  49.19907   0.60107 -42.84892
  51.26407  -0.44639 -35.21740
  52.58088  -1.02997 -27.88516
  52.34146  -0.14711 -21.03176
  50.97976   2.80075 -14.59734
  49.04943   6.88585  -8.61184
  46.46070  11.18045  -2.92561
  43.54277  14.12831   2.67084
  40.62483  15.29549   8.86583
  37.81165  15.44513  15.83895
  35.07328  16.70208  22.63249
  32.29002  20.18864  29.39611
  29.08778  26.26392  35.90535
  25.36180  33.44653  42.02553
  20.82778  39.29736  47.44241
  15.85981  42.00580  52.45527
  11.31083  41.46710  57.04914
   7.34543  38.99808  61.28389
   3.79902  36.09511  64.89015
   0.46210  33.49142  67.77816
  -2.65036  31.21693  70.17236
  -5.41866  28.71798  72.56656
  -7.73804  25.29128  75.14033
  -9.71326  21.52041  78.07323
 -11.28445  18.28824  80.91634
 -12.33191  16.64223  83.40033
 -12.81075  16.59733  85.16605
 -12.93046  17.64480  86.22848
 -12.75090  18.96161  86.54271
 -12.31695  20.32331  86.57264
 -11.89796  21.72990  86.37811
 -11.47898  23.27117  85.88431
 -10.95525  24.36353  85.24087
  -9.98260  24.82740  84.52261
  -8.60594  24.63287  83.86420
  -7.09460  24.07922  83.28062
  -5.46355  22.89708  82.66710
  -3.78761  21.69998  81.79920
  -2.48576  19.70980  80.33275
  -1.16895  16.82179  78.05826
   0.76138  12.93121  74.60163
   2.78148   8.78625  69.82819
   3.75413   4.68618  64.08211
   2.31761   1.34926  57.76740
  -1.21384  -1.76320  51.93154
  -4.70040  -4.00776  47.20299
  -7.31905  -5.39939  43.01314
  -9.98260  -6.56657  37.91049
 -13.60383  -8.33229  31.46111
 -18.27253 -10.17283  24.05405
 -23.07589 -11.53453  16.94627
 -27.19093 -12.20790  10.85601
 -30.87201 -11.99841   5.42417
 -34.65784 -11.05569   1.09964
 -38.38382 -10.05312  -1.74347
 -41.42146 -10.20276  -3.68876
 -44.11494 -11.89366  -5.14025
 -46.91316 -14.33276  -6.74137
 -50.02563 -17.23573  -9.34506
 -52.33004 -19.83942 -13.26557
 -52.74903 -21.08141 -18.30835
 -52.01581 -21.42558 -23.60553
 -51.64171 -21.18616 -28.01983
 -52.27019 -20.64746 -31.38668
 -54.33519 -19.82446 -33.82577
 -57.62722 -18.55254 -35.33711
 -61.15866 -17.05616 -36.14516
 -63.86710 -16.30797 -36.54918
 -65.18392 -17.20580 -36.66889
 -65.07917 -19.97410 -36.48932
 -63.53790 -24.31359 -35.63639
 -61.00903 -29.52097 -34.06519
 -58.18088 -34.57873 -31.76077
 -55.36769 -38.79851 -28.70817
 -52.47968 -40.81861 -24.95226
 -49.84606 -40.05546 -20.47810
 -47.90077 -36.94300 -15.31560
 -46.64382 -33.39659  -9.82390
 -45.64124 -30.55347  -4.49680
 -44.99780 -29.04213   0.20182
 -44.77335 -28.33884   3.97269
 -45.01277 -28.02460   6.81580
 -45.58139 -27.99467   9.41949
 -45.91059 -29.46112  11.64909
 -45.71606 -32.84293  13.86373
 -44.74342 -38.09521  16.61706
 -42.84302 -43.61684  19.81931
 -39.99991 -47.70194  23.27594
 -36.51335 -48.83919  26.53804
 -32.41328 -47.16325  29.51582
 -27.66977 -43.34749  32.29908
 -23.00107 -37.87075  35.09731
 -18.01814 -30.83779  37.95538
 -12.99032 -22.36830  40.90325
  -8.15702 -12.95609  43.56679
  -3.42848  -3.43914  45.46719
   1.18036   4.98546  46.29020
   5.71438  11.50966  46.03582
   9.90423  15.49002  44.80879
  13.98934  17.15099  42.95328
  17.84999  17.15099  40.57404
  21.32158  16.49259  37.98531
  24.16470  15.25060  35.60607
  26.00524  13.18560  33.67575
  27.17241   9.33991  32.26916
  27.99542   3.96792  31.17680
  28.71368  -1.31429  30.53336
  28.86332  -4.21726  30.09941
  28.11513  -3.84316  29.81510
  26.49904  -0.55113  29.50086
  24.13477   3.80332  28.91727
  21.18691   7.36469  27.78003
  17.53575   9.19027  25.95445
  13.25612   9.38480  23.15623
   8.84181   8.99574  19.25068
   4.68188   9.16035  14.04330
   0.91101  10.55198   7.69866
  -2.71022  12.97610   0.27664
  -6.31648  14.99621  -6.63662
  -9.81800  15.37031 -12.39767
 -12.79579  13.85897 -16.58752
 -15.18999  11.34505 -19.35582
 -16.98564   9.04064 -21.22629
 -18.16778   7.73879 -22.70770
 -18.84115   7.48440 -24.30882
 -19.52948   8.35230 -26.22418
 -20.66673  10.08810 -28.28918
 -22.40252  11.67426 -30.27936
 -24.42263  12.64690 -32.04509
 -26.27814  13.26042 -33.58635
 -27.69970  13.66444 -34.78345
 -28.35810  14.11335 -35.59150
 -28.22343  14.35277 -35.81595
 -27.19093  14.41263 -35.17251
 -25.24564  14.12831 -33.42175
 -22.44742  13.57466 -30.44396
 -18.72144  12.49726 -26.65813
 -13.97793  10.85125 -22.12411
  -8.36652   9.02567 -17.06636
  -2.05181   7.36469 -11.87394
   4.35268   6.36212  -6.86108
  10.24840   6.10774  -2.32706
  15.27622   5.85335   1.42885
  19.25658   5.01538   4.22707
  22.27926   3.65368   6.29207
  24.59865   2.05256   7.72859
  26.40926   0.99013   8.62641
  28.01038   0.42151   8.80598
  29.65640  -0.16208   8.71620
  31.52687  -0.91026   8.46181
  33.83129  -1.97269   7.90815
  36.52476  -2.34679   7.01033
  39.42773  -1.83802   5.78330
  42.71976  -0.67084   4.54131
  45.81726   0.69086   3.53874
  47.88226   2.27702   2.95515
  48.46584   4.08763   2.89529
  46.95451   5.88328   3.40406
  42.62998   7.82857   4.01758
  35.76161   9.69904   4.43656
  26.82825  11.47973   4.87051
  17.53575  13.24545   4.12232
   9.38050  14.78672   1.86279
   2.55703  15.89404  -1.29456
  -3.39855  16.11849  -4.67637
  -8.99499  16.11849  -7.71401
 -15.13014  15.47505 -10.43742
 -22.05836  14.84657 -12.51738
 -29.25593  14.42759 -13.46010
 -36.03451  14.74183 -14.10354
 -41.67585  16.13346 -15.19589
 -45.91059  18.79701 -16.63241
 -49.74131  22.17882 -17.93426
 -53.36254  26.05443 -18.63756
 -56.93888  29.15193 -18.59267
 -60.60500  30.40889 -17.62002
 -63.67258  29.93005 -15.67473
 -66.05181  28.88258 -12.65205
 -67.59308  29.03222  -8.29760
 -68.41609  30.58845  -2.92561
 -68.55076  32.42899   3.43399
 -67.96717  32.69834  10.66149
 -66.74015  30.84283  18.93645
 -64.74997  27.71541  28.00448
 -62.11634  24.63287  37.62618
 -58.79439  22.70255  46.94860
 -55.45747  22.08903  55.34327
 -52.07566  22.38831  62.64559
 -47.39200  22.70255  69.76834
 -42.04994  21.95436  77.35497
 -36.39364  20.18864  85.21094
 -30.58770  17.10610  92.18405
 -24.54234  14.39766  98.00496
 -18.64662  12.40748 103.00285
 -12.48155  11.70419 107.14781
  -6.28655  11.04578 110.33509
  -0.04667  10.04321 113.20814
   5.93884   8.36727 115.82679
  11.43054   6.45191 118.46042
  16.63793   4.08763 121.01922
  21.41137   1.39415 123.26378
  25.61618  -1.65845 124.93972
  29.19252  -4.32200 126.03208
  32.02067  -6.58153 126.67552
  34.04078  -7.98812 126.82516
  35.23788  -9.06551 126.49595
  35.76161  -9.45457 126.03208
  35.74665  -9.05055 125.62806
  35.08824  -7.00052 125.40360
  33.53201  -3.63367 125.23900
  30.79364   0.78064 125.05943
  27.15745   5.03035 124.70030
  22.95263   8.30741 123.99701
  18.59818  10.19285 122.84480
  14.27365  10.25270 121.27360
   9.99402   8.21763 119.19364
   5.68445   4.50662 116.39542
   1.38985  -0.01244 112.72930
  -3.02445  -4.21726 108.32995
  -7.33402  -7.83849 103.67622
 -11.14978 -11.69914  98.87285
 -14.41188 -16.39776  94.18920
 -16.71630 -21.84457  89.80481
 -18.07800 -26.88735  85.98906
 -18.67655 -30.01478  82.44264
 -18.67655 -30.25420  79.03091
 -17.88347 -28.11438  75.67902
 -15.59401 -25.39098  72.23736
 -11.76329 -23.49058  68.70591
  -7.15445 -22.41319  64.77044
  -4.22156 -21.02156  60.29628
  -3.87739 -18.38794  55.94182
  -4.47594 -14.63203  52.42534
  -4.44601 -10.21772  49.50741
  -3.03942  -8.25747  46.39495
  -0.34594  -9.39472  42.29488
   2.13804 -12.73164  37.43165
   3.87384 -17.19084  32.14945
   4.54721 -21.60515  26.56796
   3.94866 -24.82235  20.58246
   2.39243 -26.84246  14.62688
   0.41721 -28.41366   9.00051
  -1.49815 -30.16442   3.22450
  -3.32373 -31.81043  -2.82086
  -5.40369 -33.17213  -9.40492
  -7.58840 -33.72579 -16.70723
  -8.80047 -33.35170 -24.60810
  -8.54608 -33.17213 -33.30204
  -7.75300 -32.84293 -43.07338
  -7.67818 -32.31920 -53.95203
  -8.92018 -31.18195 -64.93543
 -11.22460 -29.25163 -75.12575
 -13.91807 -26.67786 -84.31350
 -15.77358 -24.43330 -93.06730
 -16.07285 -22.72743-101.61161
 -14.54655 -21.44054-109.73693
 -11.58373 -19.49526-117.21881
  -7.33402 -16.48754-123.86272
  -2.33612 -12.79149-129.57888
   2.64681  -9.21515-134.57677
   7.34543  -6.11765-139.32028
  12.20865  -3.82820-144.10869
  17.43101  -2.39168-149.10658
  22.62343  -1.73327-154.23915
  27.33702  -1.53874-159.13230
  31.21263  -1.29932-163.47179
  34.07071  -0.85041-166.83864
  35.71672  -0.58106-169.26277
  36.28534  -0.82048-170.93871
  36.65944  -2.21211-172.00114
  37.37770  -4.80084-172.82414
  38.85911  -8.10783-173.31795
  41.04382 -11.14548-173.54240
  43.21357 -13.24040-173.55737
  45.05411 -14.34772-173.39277
  46.41581 -14.94627-172.94385
  47.34356 -15.27547-172.30041
  48.01693 -15.72439-171.41755
  48.61548 -16.48754-170.34016
  48.92972 -17.47515-169.08320
  48.95965 -18.38794-167.48208
  48.86987 -18.70218-165.92585
  48.57059 -18.35801-164.19005
  47.82240 -16.83171-162.09513
  46.83480 -14.19808-159.79071
  45.95193 -10.92102-157.39651
  44.88951  -7.28483-154.94245
  43.84204  -3.94791-152.21905
  43.24349  -0.76063-149.51061
  43.18364   2.83068-147.04158
  43.91686   7.00556-145.14119
  45.02418  11.97353-143.68970
  46.35595  16.88165-142.64224
  47.98700  20.62259-141.98383
  49.81258  22.83722-141.34039
  52.04218  23.69016-140.66702
  54.75062  23.57045-139.61956
  57.83316  23.00182-137.80894
  61.43943  21.87954-135.39978
  65.00080  20.65251-132.25739
  68.20304  19.26088-128.14236
  70.98630  18.16853-123.06964
  73.21590  18.07875-117.00932
  74.99659  19.33570-110.48512
  76.53786  21.74487-103.79632
  78.12402  24.57302 -96.85313
  79.88974  27.01211 -89.65556
  81.96970  28.77784 -82.29339
  84.25916  29.61581 -74.75166
  86.57854  29.37639 -67.06029
  88.95778  28.41871 -59.21928
  91.32205  26.83255 -51.04906
  93.28231  25.02193 -42.68432
  94.58415  23.48066 -34.36447
  95.19767  22.25364 -26.04462
  94.94328  21.13135 -17.88937
  93.86589  19.99411  -9.97354
  92.45930  18.67730  -2.43180
  91.11256  17.73458   4.58620
  89.66108  17.62983  11.40967
  88.10485  19.20103  17.96380
  86.08474  22.53795  24.32340
  83.46608  27.07197  30.96731
  80.30873  31.32168  37.77582
  76.62764  34.16479  44.53944
  72.52757  35.06262  51.36291
  68.39757  34.65859  58.23128
  64.73145  33.76077  64.84526
  61.81352  33.22207  71.01033
  59.20982  33.13229  76.63671
  56.17218  33.22207  81.96380
  52.50606  32.60856  86.97666
  48.36110  31.06729  91.98952
  43.54277  28.49352  97.04727
  37.85654  25.29128 101.97035
  31.40716  21.62516 106.54926
  24.46397  17.97400 110.61941
  17.32626  14.00860 113.83661
   9.81445  10.35745 116.47024
   1.86870   7.39462 118.63998
  -6.15188   4.65625 120.37578
 -13.85822   2.12738 121.63273
 -21.47477   0.16713 122.56049
 -28.50774  -1.46392 123.32364
 -34.71770  -2.96030 123.93715
 -40.22436  -4.12747 124.22146
 -44.83320  -4.66617 124.34117
 -49.20262  -4.02273 124.41599
 -54.03591  -3.02016 124.55067
 -59.63236  -2.30189 124.65541
 -65.81239  -2.36175 124.32621
 -72.24681  -2.78073 123.56306
 -78.33706  -2.85555 122.54552
 -83.57438  -1.46392 121.03418
 -88.30292   1.19963 118.96918
 -93.37564   3.65368 116.35053
 -98.29872   5.41941 113.38770
-103.25172   5.29970 110.72415
-108.02516   4.01281 108.82375
-111.93070   1.33430 107.68651
-114.86360  -2.34679 107.17774
-116.98845  -6.04283 106.71386
-118.94871  -9.67903 105.93575
-120.78925 -12.46229 105.21749
-122.46519 -14.21305 104.49923
-123.76704 -15.78424 103.99046
-124.14113 -16.83171 103.61637
-123.69222 -17.78939 102.65868
-122.67468 -18.35801 101.08749
-120.81918 -17.68464  98.63343
-118.57461 -16.24812  95.28155
-116.13552 -13.92874  91.27126
-113.15773 -11.28015  86.54271
-109.70110  -9.02062  81.60467
-105.39154  -7.52425  76.60678
 -99.82502  -7.25490  71.32457
 -93.21104  -8.18265  66.07229
 -85.47477  -8.99070  60.73023
 -76.96039  -8.96077  55.59766
 -68.44601  -7.56914  50.82422
 -60.24587  -5.62385  46.36502
 -52.44976  -4.09755  42.13027
 -45.13248  -3.93294  37.89553
 -38.51849  -4.47164  33.48122
 -32.60781  -5.44428  28.78260
 -26.50259  -6.49175  23.63507
 -20.81637  -7.52425  17.88898
 -15.33963  -7.88338  11.57428
 -10.23699  -7.58410   4.72087
  -5.65808  -6.58153  -2.02778
  -2.08174  -6.32715  -8.19285
   0.68656  -7.12023 -13.98383
   2.87127  -8.64653 -19.61020
   4.84648 -10.59182 -25.40118
   6.61221 -12.28272 -31.40164
   8.12355 -13.00098 -37.31233
   9.08123 -12.73164 -42.99856
   9.05130 -11.98345 -48.38551
   7.94398 -11.17540 -53.59290
   5.28043 -10.92102 -59.20431
   1.07562 -11.32504 -65.04018
  -4.17666 -11.81885 -70.84612
  -9.68333 -12.41740 -76.33782
 -13.57391 -14.52729 -81.64995
 -15.86336 -17.80435 -86.84238
 -18.01814 -20.54272 -91.61582
 -20.39738 -22.02413 -95.13230
 -22.11821 -22.24859 -96.92795
 -22.82151 -21.79967 -97.64621
 -23.04597 -20.96170 -97.46665
 -23.24049 -20.37812 -96.11991
 -23.42006 -19.89928 -94.12973
 -23.19560 -19.13612 -92.37897
 -22.40252 -18.22334 -91.00230
 -20.78644 -18.35801 -89.77527
 -18.30245 -19.49526 -88.72781
 -15.05532 -21.09638 -88.06941
 -11.05999 -22.27851 -87.33618
  -6.51101 -22.89203 -86.01937
  -2.17152 -23.16138 -84.35839
   1.22525 -23.68511 -82.66749
   3.55960 -25.04681 -81.11126
