********************************************************************************
              CENTRO DE INSTRUMENTACION Y REGISTRO SISMICO  A.C.

    Anaxagoras 814, Col. Narvarte, Benito Juarez, C.P. 03020 Mexico, D.F.
           Tels. 5687 45 42/ 5687 45  82             Fax. 5669 25 12
********************************************************************************
ARCHIVO ESTANDAR DE ACELERACION:
VERSION DEL FORMATO                    : 2.0
NOMBRE DEL ARCHIVO                     : XP0620170919181440
FECHA Y HORA DE CREACION               : 25/SEP/17, 11:18
REF. CATALOGO ACELEROGRAMAS, SMIS 1996 : REGISTRO No.     /PAG.


================================================================================
DATOS DE LA ESTACION:
NOMBRE DE LA ESTACION                  : JARDÍN DE NIÑOS "XOCHIPILLI"
CLAVE DE LA ESTACION                   : XP06
LOCALIZACION DE LA ESTACION            : Del. Cuauhtémoc, Col. Obrera,          
                                       : Calle 5 de Febrero entre Diagonal      
                                       : 20 de Noviembre y calle Chimalpopoca.  
                                       :                                        
                                       : 
COORDENADAS DE LA ESTACION             : 19.4198 LAT. N
                                       : 99.1353 LONG. W
ALTITUD (msnm)                         : 2232
TIPO DE SUELO                          : Alto riesgo sísmico                 
                                       :                           
                                       : 
INSTITUCION RESPONSABLE                : CIRES
                                       : 

================================================================================
DATOS DEL ACELEROGRAFO:
MODELO DEL ACELEROGRAFO                : RADESD
NUMERO DE SERIE DEL ACELEROGRAFO       : 237
NUMERO DE CANALES                      : 3
ORIENTACION C1-C6 (rumbo;orientacion)  : /N00E/+V/N90W
ORIENTACION C7-C12 (rumbo;orientacion) : 
VEL. DE MUESTREO, C1-C6 (muestras/s)   : /100/100/100
VEL. DE MUESTREO, C7-C12 (muestras/s)  : 
ESC. COMPLETA DE SENSORES, C1-C6, (g)  : /0.5/0.5/0.5
ESC. COMPLETA DE SENSORES, C7-C12, (g) : 
FREC. NAT. DE SENSORES, C1-C6, (Hz)    : /30/33/32
FREC. NAT. DE SENSORES, C7-C12, (Hz)   : 
AMORTIGUAMIENTO DE SENSORES, C1-C6     : /0.714/0.790/0.733
AMORTIGUAMIENTO DE SENSORES, C7-C12    : 
INTERVALO DE MUESTREO, C1-C6, (s)      : /0.01/0.01/0.01
INTERVALO DE MUESTREO, C7-C12, (s)     : 
UMBRAL DE DISPARO, C1-C6, (Gal)        : /3.89/13.47/5.39
UMBRAL DE DISPARO, C7-C12, (Gal)       : 
MEMORIA DE PREEVENTO (s)               : 44.0
TIEMPO DE POSEVENTO (s)                : 72.0


================================================================================
DATOS DEL SISMO:
FECHA DEL SISMO (GMT)                  : 19/SEP/17
HORA EPICENTRO (GMT)                   : 18:14:40.0
MAGNITUD(ES)                           : /Mc=7.1
COORDENADAS DEL EPICENTRO              : 18.40 LAT. N
                                       : 98.72 LONG. W
PROFUNDIDAD FOCAL (km)                 : 57
FUENTE DE LOS DATOS EPICENTRALES       : SSN
                                       : INSTITUTO DE GEOFISICA, UNAM

================================================================================
DATOS DE ESTE REGISTRO:
HORA DE LA PRIMERA MUESTRA (GMT)       : 18:15:03.00
EXACTITUD DEL TIEMPO (s)               : 0.01
DURACION DEL REGISTRO (s), C1-C6       : /321.4/321.4/321.4
DURACION DEL REGISTRO (s), C7-C12      : 
NUM. TOTAL DE MUESTRAS, C1-C6          : /32140/32140/32140
NUM. TOTAL DE MUESTRAS, C7-C12         : 
ACEL. MAX. (Gal), C1-C6                : /81.73736/30.98133/108.18881
ACEL. MAX., C1-C6, EN LA MUESTRA       : /7957/6723/7011
ACEL. MAX. (Gal), C7-C12               : 
ACEL. MAX., C7-C12, EN LA MUESTRA      : 
UNIDADES DE LOS DATOS                  : Gal (cm/s/s)
FACTOR DE DECIMACION                   : 1
FORMATO DATOS (FORTRAN,10 campos/dato) : 3F10.5


================================================================================
CALIDAD DEL ACELEROGRAMA:
REGISTRO DIGITAL COMPLETO CON TIEMPO ABSOLUTO CORRECTO.


================================================================================
COMENTARIOS:














================================================================================
DATOS DE ACELERACION:
---------+---------+---------+---------+---------+---------+---------+---------+
   CANAL-1   CANAL-2   CANAL-3   CANAL-4   CANAL-5   CANAL-6   CANAL-7   CANAL-8
      N00E        +V      N90W
---------+---------+---------+---------+---------+---------+---------+---------+
[...]
   7.68607 -17.29176 -66.73755
  10.91825 -15.73553 -66.88719
  14.46466 -14.95741 -66.75251
  17.99610 -14.13440 -66.54302
  21.04871 -15.43625 -65.25614
  23.53270 -16.15451 -64.22364
  25.13382 -17.24687 -62.71230
  25.98675 -17.74067 -61.11118
  26.52545 -16.07969 -60.19839
  26.91451 -14.55339 -58.53741
  27.61780 -11.30625 -56.86147
  28.51563  -8.37336 -54.54208
  29.93719  -5.93426 -51.74386
  32.06204  -3.85430 -49.34966
  33.96244  -4.43789 -46.95546
  35.80298  -5.50031 -45.47405
  37.22454  -6.84705 -44.39665
  37.89791  -7.34086 -43.93278
  38.24207  -5.75470 -43.97767
  38.72091  -5.17111 -43.37912
  39.33443  -4.43789 -43.03495
  40.30707  -4.31818 -42.43640
  41.63885  -4.43789 -41.29916
  43.35968  -3.10611 -40.28162
  45.36482  -2.76195 -37.91735
  47.78895  -2.82180 -35.31365
  50.06344  -3.91416 -32.33586
  51.47004  -6.27843 -28.69967
  53.05620  -8.20875 -25.60217
  54.40293 -10.34857 -21.84627
  55.18105 -10.69274 -18.38964
  56.73728  -9.34600 -14.90308
  58.41322  -7.87955 -10.80301
  60.14902  -4.58752  -7.30149
  62.03445  -1.57981  -3.26128
  63.72536   1.21841   1.10814
  65.02720   4.61519   5.02865
  65.64072   6.88968   8.79951
  65.88014   9.41856  10.74480
  65.20677  10.76529  11.62766
  63.69543  11.36384  10.34078
  62.04942  11.75290   7.18343
  59.71507  10.15178   3.89140
  57.18619   9.40359  -0.29845
  55.07630   8.90979  -3.79997
  52.87663   8.55066  -6.35878
  50.79667   9.44848  -8.22925
  48.55210   9.02950  -8.78291
  46.60681   8.68533  -8.84276
  44.72138   8.89482  -8.36392
  42.92573   9.71783  -7.46609
  41.02533  12.93504  -6.82265
  39.25961  15.86794  -5.74526
  37.82309  18.56141  -4.60802
  36.62599  20.98554  -3.35106
  35.17450  22.87098  -1.40577
  33.13943  25.77395   0.70412
  30.55070  28.15318   3.56220
  27.64773  29.88898   6.16589
  23.83197  30.98133   7.91665
  19.56730  30.77184   8.66484
  16.29024  29.78423   7.99147
  13.41719  26.28271   6.70459
  10.60401  21.68884   4.75930
   8.28462  16.90044   2.93372
   6.01013  12.32152   1.79647
   3.54111  10.58573   0.50959
   0.69800   9.82258   0.16542
  -2.45936   9.68790   0.34499
  -5.63167   9.94229   1.09318
  -9.01348   9.16417   2.82897
 -12.35040   9.49337   4.26549
 -15.97163   9.97221   6.31553
 -18.82971  10.64558   9.15864
 -20.81989  12.36642  12.30103
 -22.60058  14.37156  16.67045
 -24.06703  17.27453  20.77052
 -24.78529  19.04025  24.69103
 -26.05721  18.09754  28.85095
 -28.21199  15.86794  31.93349
 -30.53137  12.57591  34.14812
 -32.76097   9.55323  35.76421
 -34.69130   8.56562  36.76678
 -36.09789   8.44591  37.70950
 -36.47198   8.89482  38.03870
 -35.82854   8.50577  37.67957
 -34.49677   6.99443  36.55729
 -33.13506   5.07906  34.38754
 -32.11753   2.96917  32.09809
 -31.44416   1.90675  30.27251
 -30.95036   2.34070  29.38965
 -30.68101   3.11881  29.74878
 -31.05510   3.85204  31.02070
 -32.25220   4.22613  33.07073
 -33.94311   4.85461  35.61457
 -35.48437   5.72251  38.35294
 -36.48695   6.93457  41.19605
 -36.93586   7.90722  44.18881
 -36.45702   7.71269  47.58558
 -35.15517   6.36595  51.17688
 -33.07521   3.61262  55.18717
 -30.41166   0.70965  59.42191
 -27.97257  -1.68455  63.70155
 -26.16195  -2.50756  67.60709
 -24.86010  -1.86412  71.25825
 -24.35134  -0.33782  74.35575
 -24.15681   1.17352  76.85470
 -23.93235   2.22099  78.72517
 -23.54329   2.83450  79.98212
 -22.66043   3.59765  80.73031
 -21.19398   4.66008  81.35879
 -19.02424   5.76740  81.94237
 -16.82457   6.82982  82.48107
 -14.87928   7.14406  82.82524
 -12.73946   6.85975  82.01719
 -10.94381   5.49805  80.68542
 -10.04598   3.58269  79.20401
  -9.82153   1.84689  77.61785
 -10.10584  -0.60716  76.16636
 -10.80913  -3.74955  75.07401
 -11.84163  -7.14633  74.23604
 -13.60736  -9.95951  73.92180
 -15.53768 -11.30625  73.84698
 -17.00413 -11.93473  73.93676
 -18.15634 -12.23401  73.72727
 -19.39833 -12.17415  72.84441
 -21.01442 -12.00955  71.88673
 -22.91482 -11.66538  70.51006
 -25.20427 -11.77013  68.74434
 -27.85286 -12.69788  66.72423
 -30.74086 -14.59828  64.55448
 -33.22485 -17.20197  62.35481
 -35.25992 -19.86552  60.58909
 -36.71140 -22.45425  59.69126
 -37.98332 -24.65393  59.91572
 -39.16546 -25.61161  61.00807
 -40.52716 -25.13277  62.69898
 -42.06843 -22.55900  64.24025
 -43.96883 -18.81806  65.54209
 -45.82433 -14.85266  66.15561
 -47.42546 -11.30625  65.84137
 -49.05651  -9.10658  65.09318
 -50.49303  -8.11897  63.79133
 -51.69013  -7.89452  62.44459
 -52.84234  -8.05912  61.54677
 -53.84491  -8.17883  61.15771
 -54.56317  -8.29854  61.00807
 -54.62302  -8.56788  60.78362
 -54.39857  -9.15147  60.03543
 -53.97958  -9.57046  57.88065
 -53.23139 -10.01937  54.02000
 -51.95947 -11.17158  48.69290
 -50.13390 -12.69788  42.22855
 -47.94919 -13.90995  35.36019
 -45.13600 -14.82274  28.88088
 -42.11332 -15.37640  23.47896
 -38.94100 -15.98991  19.49860
 -36.03803 -16.73810  16.83505
 -33.52412 -17.72571  15.09926
 -31.83322 -18.81806  13.85726
 -30.71094 -19.44654  12.73498
 -29.96275 -19.41661  11.28350
 -29.15470 -18.80310   9.18857
 -28.19702 -18.26440   6.77941
 -27.10467 -18.81806   4.11586
 -26.50612 -20.19473   1.34756
 -26.58094 -21.43672  -1.42074
 -27.41891 -21.72103  -3.78501
 -28.84047 -20.53889  -5.73030
 -30.33684 -18.87792  -7.24164
 -31.83322 -17.24687  -8.97743
 -32.68615 -15.79538 -11.08732
 -32.98543 -14.47857 -13.51145
 -32.59637 -13.19169 -16.47428
 -31.51898 -12.17415 -19.75134
 -30.09742 -11.35114 -23.23790
 -28.67586  -9.64528 -27.08358
 -27.19445  -7.56531 -30.95920
 -25.99735  -5.26089 -34.29612
 -24.57579  -3.82437 -36.98959
 -22.86992  -3.43531 -38.87503
 -21.08924  -3.43531 -39.98235
 -19.12898  -2.88166 -40.47615
 -17.15377  -1.37032 -40.37140
 -14.93913   0.53008 -39.65314
 -12.66464   2.19106 -38.32137
 -10.50986   3.34327 -36.72025
  -8.50471   3.35823 -35.14905
  -6.82877   2.74472 -33.96691
  -5.34736   1.66733 -33.09902
  -4.47946   0.81439 -32.79974
  -3.94077   0.18592 -33.15887
  -3.22251  -0.54731 -34.31108
  -2.39950  -0.86155 -36.16659
  -1.20240  -0.72687 -38.23159
  -0.08012   0.20088 -40.70061
   1.52100   2.23595 -43.16963
   3.40644   4.92943 -45.66857
   5.51633   8.32620 -48.48176
   8.22477  12.12700 -51.42962
  11.99564  15.31428 -54.22785
  16.72419  17.36431 -57.08592
  21.90165  18.00775 -60.19839
  27.60284  16.88547 -63.47545
  33.19929  14.62594 -66.48317
  38.49646  11.55837 -68.69780
  43.19508   8.61051 -70.17921
  47.44479   6.76997 -70.65805
  51.67953   6.05171 -70.35878
  56.01902   5.88711 -69.38613
  60.55304   5.49805 -68.11422
  64.95239   4.85461 -67.11164
  68.76814   4.49548 -66.13900
  71.64119   5.39330 -65.64519
  73.19742   8.14664 -65.48059
  73.45180  11.58830 -65.07657
  72.64376  14.80551 -64.65759
  71.02767  16.81065 -64.25356
  68.69333  16.88547 -63.40063
  66.01481  16.09239 -62.83201
  63.35126  15.11975 -62.32324
  60.52311  14.59602 -62.15864
  57.69496  15.00004 -62.42799
  55.04638  15.77815 -63.23603
  52.53246  16.51138 -64.38824
  49.97366  17.06504 -66.09411
  47.01084  17.31942 -68.02443
  43.77866  17.79826 -69.83505
  40.30707  18.30703 -71.28653
  36.92526  18.71105 -72.34896
  33.94747  19.24975 -72.82780
  31.44853  19.74355 -72.30407
  30.07186  20.32714 -70.83762
  29.62295  20.76109 -68.44342
  29.87733  20.86583 -65.74994
  30.37113  20.55159 -62.90683
  31.29889  19.68369 -60.82686
  32.18175  18.12746 -59.52502
  32.73541  16.27196 -58.83668
  32.82519  14.65587 -59.16589
  32.79526  13.17446 -59.76444
  32.43613  11.46859 -60.39291
  32.07700   9.17914 -60.94657
  32.01715   6.51559 -61.35060
  32.43613   3.37320 -60.91665
  33.34892   1.33812 -60.31810
  34.23178   0.47023 -59.85422
  35.29421   0.33555 -59.64473
  36.70081   0.38044 -60.13853
  38.16725  -0.75680 -61.35060
  39.73845  -2.74698 -63.40063
  41.17497  -4.94665 -65.77987
  42.23740  -6.87698 -68.15911
  43.23997  -7.23611 -70.22411
  43.97319  -6.50289 -71.60077
  44.13779  -4.97658 -72.55845
  43.79363  -3.07618 -73.26175
  42.89580  -2.17836 -73.15700
  42.02790  -1.86412 -72.52852
  41.14504  -2.17836 -71.21171
  40.65124  -2.52253 -69.44599
  40.60635  -2.56742 -67.18646
  40.71109  -2.25318 -64.52291
  40.80088  -1.71448 -61.66483
  40.56146  -1.59477 -58.53741
  39.76838  -0.71191 -55.78408
  38.01762   0.81439 -52.98585
  35.50370   2.47537 -50.32230
  32.57081   4.16628 -48.28723
  29.41345   4.67504 -46.38683
  26.01668   4.45059 -44.99521
  22.82940   3.94182 -44.15723
  19.37277   2.50530 -43.33423
  15.93111   1.03885 -42.88532
  12.20513  -0.14329 -42.18202
   7.89557   0.14102 -40.89513
   3.36155   1.83193 -39.51847
  -0.91809   3.34327 -37.84253
  -5.64664   4.36080 -36.06184
 -10.01605   4.79475 -34.11655
 -13.51757   4.64512 -32.11141
 -16.65996   4.01664 -29.82195
 -19.54797   2.84946 -27.30804
 -21.88232   1.30820 -24.36018
 -23.54329  -1.02615 -21.06815
 -24.26155  -3.95905 -17.22247
 -23.91739  -7.10144 -12.37421
 -22.58561  -9.40586  -6.89747
 -20.38594 -10.06426  -1.15139
 -17.85706  -9.88470   4.72937
 -15.34315  -9.76499  10.62509
 -12.97888 -10.37850  16.13176
 -10.62957 -11.36611  21.17454
  -8.78903 -11.72524  25.28958
  -7.93609 -11.66538  28.67139
  -7.36747 -11.75517  31.55939
  -7.05323 -12.32379  33.75907
  -7.57696 -13.55082  35.59961
  -8.47479 -14.94245  37.26059
  -9.73174 -15.21179  38.36790
 -11.34783 -14.88259  39.35551
 -13.35297 -14.55339  40.25334
 -15.34315 -14.14937  40.46283
 -17.76728 -14.28404  40.13363
 -21.35858 -13.88002  38.99638
 -25.24916 -13.04205  37.45511
 -29.06492 -12.15919  35.86896
 -32.71608 -11.15662  34.56711
 -36.24753 -10.24383  34.04338
 -39.30013  -9.25622  34.16309
 -42.00857  -8.17883  34.53718
 -44.26810  -7.16129  35.43501
 -46.03383  -6.56274  36.79671
 -47.56013  -5.78463  38.51754
 -48.92183  -5.20104  40.79203
 -50.31346  -4.49774  43.35084
 -51.39085  -3.73459  45.87971
 -51.69013  -2.95647  48.25895
 -51.72005  -1.60974  50.59330
 -51.67516  -0.02358  52.88275
 -51.49560   2.14617  54.69337
 -50.71748   3.94182  56.26456
 -49.25103   5.01921  57.79086
 -47.18604   5.84222  59.16753
 -44.50752   5.97689  60.69383
 -41.54470   5.55791  62.42963
 -38.85122   5.10899  64.53952
 -36.29242   4.73490  67.15818
 -34.27231   4.88454  70.07611
 -33.09017   4.98928  73.03894
 -32.25220   5.46812  75.89701
 -31.69854   5.76740  78.74013
 -31.05510   6.51559  80.92484
 -30.30691   8.05685  82.43618
 -29.10981  10.18171  83.66321
 -27.80797  12.65073  84.89023
 -26.04224  14.65587  86.62603
 -23.96228  15.55370  89.08009
 -21.94217  15.17960  92.10277
 -20.13156  13.80294  95.39479
 -18.62022  12.35145  98.73171
 -17.54283  11.40874 101.93396
 -16.88442  11.24413 104.52269
 -16.57018  10.91493 106.54280
 -16.65996  10.34631 107.68004
 -16.89938   9.14921 108.00924
 -17.28844   8.04189 107.70997
 -16.63004   6.99443 108.18881
 -14.65482   5.13892 106.06396
 -16.07638   8.44591 103.92414
 -17.73735   4.82468 106.91689
 -20.90967   5.18381 103.41537
 -18.39576  11.40874 103.29566
 -12.21573  -0.26300 105.15117
 -16.64500  14.71573  93.47943
 -13.65225  12.90511 100.52736
  -9.14816   0.15599 103.29566
 -11.10841  21.41949  87.43407
 -11.85660   9.41856  92.44693
 -11.27301  12.51605  88.94541
 -10.65950  22.64652  81.61317
 -10.19562   8.37109  84.66578
  -8.63939  24.14290  74.89444
  -8.92370  17.85812  76.97441
  -9.74671  15.53873  74.29589
  -9.47736  28.18311  66.45488
 -12.11098  10.37624  72.12615
 -13.27815  19.74355  63.77637
 -14.92417  14.70076  63.80630
 -19.17388   2.34070  64.22528
 -20.47572  15.26939  53.76561
 -23.91739  -1.08600  58.70365
 -26.98496   4.45059  53.51123
 -27.89775   9.20906  50.53344
 -30.06749  -2.67216  54.84300
 -31.01021  11.55837  47.30127
 -32.37191   2.93925  51.50609
 -33.82340   3.56773  50.32395
 -35.00553  11.03464  45.98446
 -36.92090  -1.65463  50.33891
 -37.33988   8.07182  43.08149
 -38.14792   2.16113  43.60522
 -38.31253  -4.40796  42.36323
 -37.01068   2.28084  34.61200
 -36.69644 -11.21647  36.34780
 -35.18510  -7.49049  29.50936
 -34.18253  -9.88470  26.72610
 -34.06282 -17.42643  26.72610
 -32.89564  -8.05912  20.27672
 -31.89307 -15.28661  23.10487
 -30.48648 -11.78509  20.80045
 -28.81054  -8.61278  19.43875
 -27.52365 -16.07969  22.25193
 -25.35391  -8.67263  17.40368
 -23.70790 -14.41871  18.88509
 -21.65786 -16.12458  16.77520
 -18.75489 -14.55339  13.04922
 -16.28587 -25.23751  14.62042
 -12.97888 -22.09512  10.05647
 -10.34526 -25.04298  10.53531
  -7.53207 -25.85103  10.90940
  -3.91084 -18.09980   8.42542
  -1.08269 -21.58636  11.47803
   2.10459 -15.37640   9.30828
   4.97763 -12.98219   9.24843
   7.26709 -13.79024   9.93676
  10.22991  -6.86202   6.64473
  13.20770 -11.11172   8.02140
  17.06835  -9.83980   5.58230
  21.09360  -9.88470   3.96622
  24.66994 -14.73295   4.68448
  28.41088 -10.82741   1.90122
  31.56824 -13.93987   3.27789
  34.90515 -12.50335   2.42495
  37.89791  -9.39089   0.86872
  40.02276 -12.08437   1.63187
  42.62645  -7.19122  -1.95943
  45.08051  -8.25365  -3.42588
  47.62435  -8.71752  -6.20914
  50.82660  -6.42807 -10.74316
  53.17591  -9.15147 -12.82312
  54.65732  -5.02147 -16.77355
  56.90188  -4.19847 -19.76631
  60.32858  -1.89405 -24.39011
  63.60565   2.63997 -29.50771
  65.44619   0.73957 -31.70739
  66.79293   3.76225 -36.60054
  68.85793   3.49291 -40.01227
  71.37184   1.90675 -43.79810
  73.37698   3.50787 -49.55915
  75.39709   0.20088 -53.01578
  77.34238   1.53265 -58.61223
  78.30006   1.80200 -62.93675
  78.97343   0.64979 -66.27367
  79.78147   2.69983 -70.85258
  79.69169   0.32059 -72.70809
  79.31759   0.53008 -75.55120
  78.37488   0.72461 -77.69102
  76.54930  -0.92140 -78.72352
  74.43941   0.94907 -80.81845
  71.37184  -0.30789 -81.29729
  67.96010   1.03885 -83.03308
  64.18923   3.14874 -84.72399
  60.07420   4.16628 -85.24772
  56.43801   8.26635 -86.92366
  53.19087   9.23899 -87.20797
  50.36272  10.57076 -88.28536
  47.60939  11.94743 -89.37772
  45.18526  10.52587 -89.18319
  43.38961  11.51348 -89.57225
  41.68374  10.49595 -88.85399
  40.26218   9.37366 -88.47989
  39.34939   8.35613 -88.40507
  38.66106   4.30095 -87.49228
  38.30193   2.31077 -88.00105
  37.88294  -1.04111 -87.56710
  37.59863  -2.91158 -87.26783
  37.13475  -1.69952 -87.55214
  35.95262  -0.99622 -86.54957
  34.77048   1.53265 -86.02584
  33.84273   2.83450 -84.67910
  32.78030   3.79218 -83.00316
  31.76276   5.94696 -81.35714
  30.93976   6.02178 -78.54396
  30.25142   6.87472 -76.17968
  30.02697   6.18638 -73.06722
  29.95215   4.21117 -69.77519
  29.60798   3.43305 -67.38099
  29.08425   0.42534 -64.53788
  28.42585  -2.01376 -62.44295
  27.27364  -4.79702 -60.40788
  25.77726  -7.90948 -58.32792
  24.43052  -8.67263 -56.96621
  23.03889  -8.83723 -55.15560
  21.94654  -6.84705 -53.68915
  21.01878  -4.30321 -52.31248
  20.73447  -2.85173 -51.07049
  20.59980  -1.25061 -50.96575
  20.06110  -1.43017 -51.05553
  18.89393  -1.28053 -52.17781
  17.06835  -0.62213 -54.06324
  15.54205  -0.81666 -56.12824
  14.00078   0.29066 -59.01625
  11.21752   2.04142 -61.88929
   8.00031   3.98671 -64.08896
   5.26194   4.98928 -65.76490
   1.93999   5.33345 -67.21639
  -1.71117   6.85975 -69.13175
  -5.00319   7.41341 -69.92483
  -7.48718   6.87472 -70.38871
 -10.12080   6.36595 -71.33142
 -12.88910   4.52541 -71.87012
 -15.07381   3.35823 -72.55845
 -17.13880   2.46041 -73.11211
 -19.08409   1.69725 -73.39642
 -20.53558   1.18849 -73.51613
