**************************************************************************************
                       INSTITUTO DE INGENIERIA, UNAM
                 Grupo de Procesamiento y Analisis Sismico
                   Coordinacion de Ingenieria Sismologica
           Ciudad Universitaria, Coyoacan, Mexico D.F., C.P. 04510
**************************************************************************************
ARCHIVO ESTANDAR DE ACELERACION:
VERSION DEL FORMATO                    : 2.0
NOMBRE DEL ARCHIVO                     : ATYC2109.081
FECHA Y HORA DE CREACION               : Wed Sep 08 15:05:48 2021
REF. CATALOGO ACELEROGRAMAS, SMIS 1995 : REGISTRO NO.      /PAG.    


================================================================================
DATOS DE LA ESTACION:
NOMBRE DE LA ESTACION                  : ATOYAC
CLAVE DE LA ESTACION                   : ATYC
LOCALIZACION DE LA ESTACION            : IGLESIA DE ATOYAC, A 6KM DEL ENTRONQUE CON LA
                                       : CARRETERA ACAPULCO-ZIHUATANEJO, GUERRERO. 
                                       : 
                                       : 
                                       : 
COORDENADAS DE LA ESTACION             : 17.213361 LAT. N
                                       : 100.432269 LONG. W
ALTITUD (msnm)                         : 51
TIPO DE SUELO                          : ROCA
                                       : 
                                       : 
INSTITUCION RESPONSABLE                : INSTITUTO DE INGENIERIA UNAM
                                       : 

================================================================================
DATOS DEL ACELEROGRAFO: 
MODELO DEL ACELEROGRAFO                : ALTUS-ETNA
NUMERO DE SERIE DEL ACELEROGRAFO       : 919
NUMERO DE CANALES                      : 3
ORIENTACION C1-C6 (rumbo;orientacion)  : /ENZ/ENN/ENE
ORIENTACION C7-C12 (rumbo;orientacion) : 
VEL. DE MUESTREO, C1-C6 (muestras/s)   : /100/100/100
VEL. DE MUESTREO, C7-C12 (muestras/s)  : 
ESC. COMPLETA DE SENSORES, C1-C6, (g)  : /2/2/2
ESC. COMPLETA DE SENSORES, C7-C12 (g)  : 
FREC. NAT. DE SENSORES, C1-C6, (Hz)    : /50.8/51.6/50.9
FREC. NAT. DE SENSORES, C7-C12 (Hz)    : 
AMORTIGUAMIENTO DE SENSORES, C1-C6     : /0.68/0.68/0.66
AMORTIGUAMIENTO DE SENSORES, C7-C12    : 
INTERVALO DE MUESTREO, C1-C6 (s)       : /0.01/0.01/0.01
INTERVALO DE MUESTREO, C7-C12 (s)      : 
UMBRAL DE DISPARO, C1-C6 (Gal)         : /2/2/2
UMBRAL DE DISPARO, C7-C12 (Gal)        : 
MEMORIA DE PREEVENTO (s)               : 50
TIEMPO DE POSEVENTO (s)                : 60


================================================================================
DATOS DEL SISMO:
FECHA DEL SISMO [GMT]                  : 2021/09/08
HORA EPICENTRO (GMT)                   : 01:47:46
MAGNITUD(ES)                           : /M=7.1
COORDENADAS DEL EPICENTRO              : 16.78 LAT. N
                                       : 99.93 LONG. W
PROFUNDIDAD FOCAL (Km)                 : 10
FUENTE DE LOS DATOS EPICENTRALES       : SSN
                                       : INSTITUTO DE GEOFISICA, UNAM

================================================================================
DATOS DE ESTE REGISTRO:
HORA DE LA PRIMERA MUESTRA (GMT)       : 01:47:30.000
EXACTITUD DEL TIEMPO (s)               : 0.0005
DURACION DEL REGISTRO (s), C1-C6       : /299.9/299.9/299.9
DURACION DEL REGISTRO (s), C7-C12      : 
NUM. TOTAL DE MUESTRAS, C1-C6          : /29990/29990/29990
NUM. TOTAL DE MUESTRAS, C7-C12         : 
ACEL. MAX.(Gal), C1-C6                 : /-31.1930/39.2750/-30.8835
ACEL. MAX., C1-C6, EN LA MUESTRA       : /4395/4650/4294
ACEL. MAX.(Gal), C7-C12                : 
ACEL. MAX., C7-C12,EN LA MUESTRA       : 
UNIDADES DE LOS DATOS                  : Gal (cm/s/s)
FACTOR DE DECIMACION                   : 1
FORMATO DATOS (FORTRAN,10 campos/dato) : 3F10.4


================================================================================
CALIDAD DEL ACELEROGRAMA:
Registro digital completo con tiempo absoluto correcto


================================================================================
COMENTARIOS:
Archivo de origen en formato SEISAN: 2021-09-08-0147-30S.NSN___336













================================================================================
DATOS DE ACELERACION:
---------+---------+---------+---------+---------+---------+---------+---------+
   CANAL-1   CANAL-2   CANAL-3
       ENZ       ENN       ENE
---------+---------+---------+---------+---------+---------+---------+---------+
[...]
   13.3142   16.7515   -4.3824
   11.7294    7.7743   -6.5917
    6.6324    8.7104   -4.9704
    0.9349    9.5322  -16.2266
   -5.4255    8.4110  -28.4983
   -7.9075    1.0131  -29.0039
   -1.6865  -17.9923  -19.7733
    6.7148  -32.1505   -6.4748
    8.2486  -29.2980   -0.5452
    8.2397  -22.8450  -14.4149
    6.3728  -24.0458  -27.5908
    0.2697  -27.0985  -17.3343
   -0.9278  -26.9105    0.7327
    2.8968  -21.0174   11.3213
    9.9120   -7.3419   10.8175
   17.2730    2.1180    0.9704
   18.3835    2.1474   -5.3255
   16.3384    3.4535    0.5465
   12.5859    5.0215   16.5895
   11.7757    4.6126   23.8091
   14.3863    8.0391   15.5009
    9.8339    9.1594    5.9251
    1.2591    2.3490   -2.8710
   -6.8952    0.9443   -6.0538
  -14.9101    9.1393   -5.6061
  -18.0307    9.0327  -13.1416
  -14.7614   -5.5148  -22.1716
   -5.8409  -19.5589  -24.9670
   -0.0544  -27.2014  -19.7330
   -5.2196  -29.4510  -16.3618
  -13.0830  -18.1743  -20.0104
  -17.4263   -0.9479  -16.0268
  -18.0391    4.6949  -11.0062
  -17.4324   -1.1808   -4.4128
  -16.5113   -2.9083   12.6040
   -8.6779    5.7895   14.4994
   -0.5325   10.6203    5.4217
    0.0517    8.4882   13.3417
    0.1177   -0.4754   21.2990
   -0.9198   -8.9197   13.4516
   -9.9769   -2.8508    7.6979
  -22.0957    0.4372    3.2952
  -23.1795   -3.9786   -6.9749
  -14.1444  -10.4508   -3.7855
   -6.0602  -19.4139    9.6883
    5.1791  -17.6199   12.8978
   17.9386   -8.6190   12.6620
   22.7104    1.1702   15.4387
   24.6068    7.5208   13.4815
   23.1951    8.2987   14.8119
   15.9955   12.4484   24.6315
    8.4399   14.2217   23.5958
    0.5799   11.1624   12.7888
    0.5298    6.2424    3.9735
   11.8033   -4.7383  -13.9770
   21.7033  -15.4990  -29.8721
   23.3883  -18.2435  -19.9683
   16.3763  -11.9561   -4.5752
    7.5788   -0.0029   -6.9094
   -1.1645   10.7073  -10.2189
  -11.2708   18.1609  -10.8097
  -14.0597   18.1220  -14.4687
  -14.5275    9.5313   -7.6442
  -10.4901    1.3260    0.5690
    4.7174   -5.1041   -0.5710
   18.7526   -5.3164   -7.6625
   24.5577   -1.6004  -14.8607
   12.3955   -4.5666   -5.9551
  -11.0145    0.0976    4.4576
  -23.2890   13.8049   -0.4840
  -24.2409   16.9549   -2.3719
  -15.1908    9.1889   -1.8700
   -0.0568    3.0633   -3.8576
   11.1507    3.1265    4.9455
   17.5204    0.7408   11.2465
   23.5468   -6.2239    4.9769
   30.2529  -15.4518    3.8294
   24.8145  -20.0145    5.9789
    4.8876  -10.3207    4.0642
  -18.3506    1.1899    5.5911
  -31.1930    4.8049    2.8779
  -24.3307    1.4083   -9.3437
  -13.0273   -5.6953  -18.4597
   -4.4703   -5.0058  -13.7712
    3.1742   -2.1225    6.4335
    7.3486    0.0359   12.8407
    9.5818    6.9585   -3.0366
    2.1881   10.3448   -6.8046
  -11.1773   11.5516    4.2724
  -18.4699   11.1807   13.1602
  -17.0572    3.8384   14.1664
   -9.1714   -0.0951    6.3984
    1.0869    4.9840   -8.6219
    8.2874    6.9534  -14.2582
    6.6671    3.2126  -10.1964
    1.9883   -7.0542  -12.3478
   -1.3909  -21.3841  -10.5094
   -1.7838  -17.2649  -13.8372
    1.2001   -5.3665  -17.8839
   -1.1612   -9.5728    1.3432
   -5.5476  -14.3366   18.4779
   -3.9566   -5.8974   16.8552
   -0.6611    6.9183   12.9749
    0.7539    4.9115   11.8083
    2.2442   -9.1209   14.9017
    0.7338  -13.3178   20.6194
   -5.8357  -12.1815   11.1726
   -9.7641  -12.1703   -8.5648
   -7.5875   -9.8567  -11.8379
   -2.3026  -10.9209    1.6753
    0.9924  -12.0407   15.2816
    1.4312   -5.3829   12.6494
    5.4681    5.0285   -3.6331
    8.1523   10.0758   -4.0985
    2.9393    3.6555   13.8202
   -2.7521   -4.7560   19.7067
   -3.1479   -1.8572   10.5289
   -0.4703    1.4266    0.0133
    0.6351   -0.5091   -8.7646
   -1.8264   -2.5093   -5.9570
   -5.8755   -4.3584    0.9428
   -7.8336   -0.2897    0.4825
   -4.9932    4.8657    0.6747
   -0.9619    3.5985    2.3087
    1.4579   -3.3429    4.4352
    5.5439   -2.7736    5.4400
    5.5767    6.9679    6.4181
   -1.1373    9.7292    3.0660
   -7.9023   10.2054  -10.2189
   -8.9263   10.9576  -20.1152
   -3.8603    2.6012  -13.2295
   -2.5949  -12.9361    2.0696
   -0.4773  -16.3831    2.7264
    2.7957   -2.0687   -1.5645
   -1.4451   13.0144    5.3703
   -4.1788   20.8936    9.5288
   -4.5853   20.8356   10.0916
   -6.2305   13.7006   13.7332
   -6.5014    7.5718    6.7240
   -5.0283   10.1731   -8.0278
   -7.6133    9.7409   -4.9218
  -13.3506    4.0518   -0.1444
   -8.8576    2.0515   -8.5181
    2.2971    5.3924  -12.1756
    9.3212   12.0175  -18.3105
   11.9146    7.4240  -24.1694
   13.4765   -2.0434  -14.8480
   16.5288   -4.5610    6.4476
   17.4119   -4.6863   28.3115
   13.3736   -3.0009   27.3081
    7.2738    4.2295    4.5774
    1.0308   12.9653   -4.9194
   -5.3782   14.3429    6.2338
   -8.3678   11.6354   16.5885
   -7.4416    7.3360   23.9354
   -4.5947    9.4406   22.7922
    2.4150   19.6489    5.9073
    6.4692   21.2332   -3.0544
    1.5005   14.7307   -3.1367
   -4.5699   13.4143   -9.7946
   -8.9796   15.7761  -10.1258
  -12.5371   12.2814   -6.5974
  -14.1271   -0.5863  -12.2986
  -16.5104  -19.9565  -21.1715
  -18.7323  -32.9027  -23.5267
  -12.2232  -28.5538  -16.8478
    4.3015  -20.9220   -8.5779
   15.1586  -21.3565    1.3591
   13.5860  -14.3375    7.0875
    8.2753    1.0528    1.7193
    3.2064   12.8441   -1.1389
    0.5817   21.5064   -4.9325
    0.2987   26.3535  -11.0459
   -2.4700   21.8844   -7.4777
   -5.9915   12.4816   -5.4677
   -1.8161    9.5795  -12.1574
    6.3279    5.6567  -14.1683
    9.0443   -1.2468   -6.7597
    8.3805   -3.5197    1.2665
    5.0331    1.0860    6.6061
    1.6183   10.1960   10.2328
    0.3820    8.2622   13.7051
   -3.5342    1.6263   17.3393
   -7.8401    3.7458   11.9374
  -11.2432    4.7258    1.4288
  -11.5314   -6.1776   -5.0167
   -4.3079  -21.7705  -12.6490
    2.5235  -31.1635  -12.5031
    4.8965  -35.0269   -4.7501
    9.2202  -26.0437   -5.3035
   14.4598   -6.5687   -5.3231
   12.6574    4.9471    4.1353
    5.9200    3.0091   14.9059
    5.7605   -0.0001   18.5284
   12.4848    2.9946   14.8989
   18.8382    2.6924    6.0317
   23.4523   -4.6803   -2.5670
   22.6407  -17.1433   -5.6744
   15.3612  -23.2038   -6.8645
    4.6168  -17.0268   -1.6319
   -5.0550  -12.3439    2.9940
   -5.4774  -12.0716   -1.5500
   -2.7633   -7.4785   -3.4913
   -3.7143    4.8011   -0.3694
   -3.1712   13.4489    5.0134
   -0.7837   12.4722    7.6278
    2.0805   10.5553    0.7238
    3.2644    7.8122   -8.3323
    1.3456    4.8596   -9.7015
   -0.8829    4.6126   -6.3340
   -4.0109    0.0218   -3.5839
   -6.7062   -9.5601   -3.9292
   -4.0469  -14.0340   -7.6592
   -2.1510  -15.3517   -3.2818
   -3.6610  -17.6401    6.4260
   -0.7608  -14.8250    7.3943
    2.1745   -9.4792   11.6970
    2.0510   -3.7246   20.3700
    3.8833    8.4245   12.0740
    4.8558   18.2282   -4.8465
   -0.8899   11.7430   -6.1141
  -10.4307   -1.1266    7.7438
  -15.8700   -2.9270   20.9127
  -16.0796    9.2109   21.0043
  -13.4736   20.7963    8.2780
  -10.9555   16.1083   -5.6394
   -6.9616    7.1541   -9.6435
   -2.9490    3.9011    1.8343
   -4.2958    0.2590   12.7916
   -1.2711   -0.8931    1.3652
    7.4744   -6.7418  -15.8608
    6.2896  -21.4726  -16.9002
   -3.6484  -28.6155  -12.8623
  -10.4887  -21.4730  -10.5782
  -11.1707  -12.3724   -6.4500
   -7.8411  -15.5271   -7.8351
   -3.2508  -19.9457  -13.0906
    2.6755  -12.8865  -11.2499
    4.7829   -5.3127   -4.3207
    2.8818    4.8909   -5.6539
    5.3573   19.8135  -15.2980
    7.2158   23.1231  -16.9385
    7.1386   15.3827  -11.7920
   10.3775   11.1531   -6.6292
    9.3460    3.7140    5.1532
    2.5707   -7.2404   13.9381
    1.4677   -4.9544   12.3191
    2.9978   -1.2664   14.6538
    0.7010   -3.7676   18.8465
   -0.1082   -8.7962   16.9113
    0.1238  -11.8391    9.5414
    1.5702   -1.4058   -3.9118
    1.7573    6.1797   -9.0873
   -0.5564    2.9048   -0.0756
   -0.0353    1.5028    6.1084
    0.1448    8.1350    1.6968
   -1.8460   19.4300   -8.7052
   -5.8544   21.8385  -16.6639
  -11.1721   14.2329   -7.6124
  -13.9531    5.3190    7.0388
  -13.1447    1.2731    0.2921
   -8.5395    3.0297  -13.0101
   -2.5295    4.6622  -10.7185
    1.1997    1.5632    0.0222
    4.9723    0.3563    8.5834
    9.6590    2.3172   15.8172
   11.2620    0.3961   18.9143
    9.0350    0.9915    9.7912
    0.5209    5.6291    0.3861
  -10.3320   10.7265    0.7954
  -12.2176   12.8432    5.0274
   -5.4325    8.6014   11.8705
    2.9866    5.4635   18.7684
    7.2406    6.1815   19.7212
   10.7643    7.9984   13.8506
   18.0509    5.6782    5.5405
   19.7995    1.9758    2.0378
   11.3743    3.8412    8.5530
   -1.0414    5.0481   20.2643
   -8.3654    2.2840   22.2122
  -10.1823   -2.6875    8.0333
  -12.2232   -9.4900  -11.1362
  -14.5364  -20.8448  -22.5795
  -14.8933  -28.6478  -25.6963
   -6.9523  -25.4674  -19.6853
    4.1200  -20.4776  -10.1819
   10.2722  -10.5050  -15.4440
   12.6972    3.4011  -19.8818
    7.9015   10.9056   -3.4380
    2.0478   11.1236    9.1097
    3.4946   12.8310    5.8189
    7.2509   17.3161    1.6047
    8.9414   10.0117   -3.6111
    9.8002    1.7966   -2.2068
    9.0700    1.1272   13.0007
    5.5332    0.3161   13.6565
    0.3160    0.3596   -2.2985
   -6.1075   -5.3754   -8.0821
   -7.6048  -13.6995   -3.4530
   -1.6126  -16.5066    6.9532
    3.2083  -10.7263   15.1248
    4.3796   -1.8577   11.0023
    3.0539    2.2564    1.4236
   -1.2482    4.9812   -8.1396
   -2.6805   -0.4600  -11.7382
   -2.6057  -11.0060   -0.0737
   -3.5375  -10.4442    7.5496
   -0.0067   -2.2403   -3.1115
    1.9869    1.4944   -8.0741
    0.2637   -4.5259   -4.4339
   -0.3870  -13.4029   -3.3697
   -3.2110   -6.2946   -3.4866
   -6.2024   13.8035  -10.6853
   -6.5594   19.7752  -15.6348
   -6.6473    9.0415  -11.7523
   -5.0236    0.5158  -11.4576
   -0.0381   -5.1415   -3.9993
    5.4546   -7.8312   14.9831
   12.9054    0.6225   21.8019
   18.8887    3.9783   18.3563
   12.3487   -1.4624   14.8821
   -2.0879   -1.3880    5.7618
  -14.5883    0.0803   -3.4567
  -21.9871   -1.3211   -9.8844
  -21.7364   -9.7131  -20.6073
  -14.7721  -19.2838  -29.5073
   -5.4428  -21.5656  -22.1823
    1.7128  -21.2354   -9.8199
    7.7953  -17.7528  -10.3050
   12.8081  -10.9817  -12.6663
   11.0745    1.0968   -7.1381
    2.7115   15.1451    3.9637
   -5.5055   21.4741   19.2586
  -10.5256   26.7540   26.5564
  -11.3648   35.7914   16.1605
   -8.8477   39.2750    7.8065
   -8.2691   32.9478   10.5289
   -7.1109   21.6337   10.3287
   -3.0552   10.9908    6.3489
   -3.0173    5.8447   -2.8795
   -8.9053    2.4258   -8.4095
  -12.6119   -6.1098   -4.6673
  -10.3180  -13.4586   -4.5204
   -8.7322  -15.6548   -9.6936
   -7.8093  -18.1612  -15.8187
   -2.6450  -13.9816  -15.6568
    6.1422    4.8601   -9.1650
   15.4066   18.7545   -2.7691
   19.1754   13.6884   -0.4816
   14.4916    3.2322    2.2062
    5.9341   -2.3297    9.4418
   -1.6140   -2.7235   15.9294
   -6.5706   -2.1426   18.7487
   -7.3158   -5.5494   11.8789
   -3.0800  -12.4388    4.6335
    3.6962  -15.7498    5.1682
    9.1795  -12.2938    2.3713
   10.0678  -10.0592   -6.9847
    3.7785   -9.7804  -15.5703
   -4.6569   -3.2610  -14.9767
   -7.7709    7.1185  -11.0160
   -7.7232   13.4527   -4.2767
   -7.5426   13.0354    9.5672
   -5.6584    6.1006   15.1244
   -0.5381   -1.0774    7.5796
    2.5548   -1.4297    3.3261
    0.1991   -2.6094    7.0356
    0.1411   -6.5785    5.7337
    3.0203   -1.8385   -1.3433
    1.9865    2.0684   -5.0308
   -0.5227   -4.5409   -4.0255
   -0.0030   -7.5725    0.4478
    1.3639   -3.6123    0.5339
    0.7834   -4.5268   -4.1467
    0.3001   -4.1395   -2.4229
    3.2668    5.3232    5.3651
    1.6623   10.9159   10.8189
   -6.1435   11.2640    5.3951
  -10.8910    9.9238   -6.7143
  -13.9722    4.5635  -10.4762
  -11.4051   -0.5250   -5.9359
   -2.4626   -7.9299   -4.2168
    7.3341  -14.0611   -8.0868
   16.7004   -7.3737   -8.6434
   17.2056    0.6304   -5.0776
    9.1439   -3.2058   -2.9945
   -0.5765   -8.3355   -0.2309
   -7.4566  -10.7862    0.3267
   -5.8909  -12.3518   -4.7127
   -0.0119   -7.9402   -8.3483
    1.7858   -7.5679   -4.1163
    3.9830  -15.3484    1.7908
   11.2929  -18.2846    5.6617
   13.9831  -13.7804    4.6171
    8.5167   -6.4690   -4.1074
    2.1792   -3.2910   -4.9059
   -1.3390   -0.7121    4.6415
   -2.7184    3.9521    9.9980
   -2.5669    2.7331    3.7518
    0.9513    2.2017   -5.2642
    7.2803    4.0190   -3.6836
   11.7462    5.7353    1.4218
   11.1100    8.7829    3.9047
    6.0033    8.5864    6.1098
   -0.4937    6.9061    8.0984
   -7.0538    4.3942    9.4923
  -12.6269   -3.5847    7.2484
  -10.6791  -15.4981    2.1543
   -3.9941  -18.9395    2.4509
   -1.0120   -9.8979    2.7114
    0.3904   -2.7497   -7.9745
    0.2216   -3.9524  -14.7610
   -2.4247   -6.7956  -10.1483
   -6.2160   -4.9198   -6.7761
  -10.1907    2.4725   -2.4617
  -10.0088    9.1805    7.3724
   -2.9476   13.5172   12.0487
    6.2914   12.7155    5.9681
   10.0313    2.0267   -3.2813
    8.6285   -9.9662   -6.4304
    7.4838  -13.1952   -2.9847
    5.1557   -8.6872    1.3057
   -0.7294   -7.4640    3.6180
   -4.5175   -7.8200   -0.7759
   -4.6878   -0.0334   -7.1615
   -3.7251    8.0578   -3.6232
   -1.9957    4.7183    2.7507
    0.8937   -1.5962    1.9634
    4.6505    2.7293    0.4422
    4.8488    5.2235    0.5105
    2.3083    3.6181   -3.6111
   -0.5166    4.6463   -3.8973
   -4.5217    1.0711    5.8409
   -7.4500    1.1988   10.4775
   -7.2839    9.7507    4.3926
   -4.6948   18.8195    2.3068
   -1.2730   21.9293    9.4689
   -0.8052   20.0217   16.0253
   -3.0875   25.0330   14.8086
   -5.3455   27.3490   11.9613
   -8.1096   13.4999    5.2580
   -5.1205    2.6363  -11.3313
   -1.1659    1.4542  -16.0820
   -4.5372   -1.1046  -10.5375
   -3.5399   -1.4769  -12.9311
    2.6671    0.7029   -8.3216
    5.6796    2.0604   -2.4978
    6.2606    0.9700   -6.6058
    5.4724   -4.6213   -3.4637
    5.5538   -3.8897    3.3439
    5.2137    6.2129    6.5449
    2.1212   13.2866   12.3215
    2.6905   13.4232   12.8496
    5.2118    9.1281    6.5472
    3.0423    8.3567   -2.6844
   -2.6960   10.3541  -11.4623
   -8.8084    7.2724   -9.4096
   -8.2677    1.5833   -3.7121
   -4.8272   -5.3445   -2.1829
   -4.1395   -7.3124   -1.1674
   -0.4998    0.9850    0.1232
    1.9051   10.0328    3.0117
   -1.7698    9.4457    2.1693
   -5.8521    2.1348   -1.0051
   -5.2440   -2.7511   -2.6638
    0.7595   -3.7653   -9.4779
    6.2877   -8.7359  -13.5719
    5.9261  -16.4187   -8.7992
    5.1262  -11.5220   -6.9697
    5.8718    2.8075  -11.4922
    3.0320    8.4835  -11.8505
   -0.2102   -1.2734   -0.7085
   -3.3845  -10.4980   11.5192
   -5.4465   -3.2325    9.4699
   -1.8980    7.0189   -0.5682
    1.9701    9.7357    0.1293
    3.3454    7.4717    8.0174
    1.5650    4.6182    9.8942
   -2.0097    6.6011    7.3092
