********************************************************************************
              CENTRO DE INSTRUMENTACION Y REGISTRO SISMICO  A.C.

    Anaxagoras 814, Col. Narvarte, Benito Juarez, C.P. 03020 Mexico, D.F.
           Tels. 5687 45 42/ 5687 45  82             Fax. 5669 25 12
********************************************************************************
ARCHIVO ESTANDAR DE ACELERACION:
VERSION DEL FORMATO                    : 2.0
NOMBRE DEL ARCHIVO                     : AU4620210908014746
FECHA Y HORA DE CREACION               : 07/SEP/21, 23:11
REF. CATALOGO ACELEROGRAMAS, SMIS 1996 : REGISTRO No.     /PAG.


================================================================================
DATOS DE LA ESTACION:
NOMBRE DE LA ESTACION                  : ESC. SEC. TÉC. NO. 14
CLAVE DE LA ESTACION                   : AU46
LOCALIZACION DE LA ESTACION            : Del. Benito Juárez, Col. del Valle,    
                                       : Entre Angel Urraza y Coyoacán.         
                                       :                                        
                                       :                                        
                                       : 
COORDENADAS DE LA ESTACION             : 19.3832 LAT. N
                                       : 99.1681 LONG. W
ALTITUD (msnm)                         : 2233
TIPO DE SUELO                          : Transición                          
                                       :                           
                                       : 
INSTITUCION RESPONSABLE                : CIRES, A. C.
                                       : 

================================================================================
DATOS DEL ACELEROGRAFO:
MODELO DEL ACELEROGRAFO                : RAD_IO14
NUMERO DE SERIE DEL ACELEROGRAFO       : 
NUMERO DE CANALES                      : 3
ORIENTACION C1-C6 (rumbo;orientacion)  : /N00E/+V/N90W
ORIENTACION C7-C12 (rumbo;orientacion) : 
VEL. DE MUESTREO, C1-C6 (muestras/s)   : /100/100/100
VEL. DE MUESTREO, C7-C12 (muestras/s)  : 
ESC. COMPLETA DE SENSORES, C1-C6, (g)  : /2.0/2.0/2.0
ESC. COMPLETA DE SENSORES, C7-C12, (g) : 
FREC. NAT. DE SENSORES, C1-C6, (Hz)    : /33/30/30
FREC. NAT. DE SENSORES, C7-C12, (Hz)   : 
AMORTIGUAMIENTO DE SENSORES, C1-C6     : /0.735/0.733/0.730
AMORTIGUAMIENTO DE SENSORES, C7-C12    : 
INTERVALO DE MUESTREO, C1-C6, (s)      : /0.01/0.01/0.01
INTERVALO DE MUESTREO, C7-C12, (s)     : 
UMBRAL DE DISPARO, C1-C6, (Gal)        : / / /
UMBRAL DE DISPARO, C7-C12, (Gal)       : 
MEMORIA DE PREEVENTO (s)               : 60
TIEMPO DE POSEVENTO (s)                : 90


================================================================================
DATOS DEL SISMO:
FECHA DEL SISMO (GMT)                  : 08/SEP/21
HORA EPICENTRO (GMT)                   : 01:47:46.0
MAGNITUD(ES)                           : /Mc=7.1
COORDENADAS DEL EPICENTRO              : 16.78 LAT. N
                                       : 99.93 LONG. W
PROFUNDIDAD FOCAL (km)                 : 10
FUENTE DE LOS DATOS EPICENTRALES       : SSN
                                       : INSTITUTO DE GEOFISICA, UNAM

================================================================================
DATOS DE ESTE REGISTRO:
HORA DE LA PRIMERA MUESTRA (GMT)       : 20:55:15.00
EXACTITUD DEL TIEMPO (s)               : 
DURACION DEL REGISTRO (s), C1-C6       : /583.2/583.2/583.2
DURACION DEL REGISTRO (s), C7-C12      : 
NUM. TOTAL DE MUESTRAS, C1-C6          : /58320/58320/58320
NUM. TOTAL DE MUESTRAS, C7-C12         : 
ACEL. MAX. (Gal), C1-C6                : /27.38956/6.43649/21.05676
ACEL. MAX., C1-C6, EN LA MUESTRA       : /6677/6338/6089
ACEL. MAX. (Gal), C7-C12               : 
ACEL. MAX., C7-C12, EN LA MUESTRA      : 
UNIDADES DE LOS DATOS                  : Gal (cm/s/s)
FACTOR DE DECIMACION                   : 1
FORMATO DATOS (FORTRAN,10 campos/dato) : 3F10.5


================================================================================
CALIDAD DEL ACELEROGRAMA:
REGISTRO DIGITAL COMPLETO CON TIEMPO ABSOLUTO CORRECTO.


================================================================================
COMENTARIOS:














================================================================================
DATOS DE ACELERACION:
---------+---------+---------+---------+---------+---------+---------+---------+
   CANAL-1   CANAL-2   CANAL-3   CANAL-4   CANAL-5   CANAL-6   CANAL-7   CANAL-8
      N00E        +V      N90W
---------+---------+---------+---------+---------+---------+---------+---------+
[...]
  -8.52376  -3.50899  -2.91486
  -9.14546  -2.73999  -2.50406
  -9.29016  -1.92189  -1.95786
  -9.69776  -1.05609  -1.43806
  -9.79666  -0.38789  -0.90756
  -9.89506   0.28481  -0.54056
 -10.11296   0.94271   0.00594
 -10.26096   1.37201   0.26304
 -10.38766   1.69231   0.79524
 -10.18566   1.85431   1.03204
  -9.93556   1.93221   0.88944
  -9.48866   2.05331   1.16304
  -9.00966   2.33131   0.89954
  -8.35286   2.26331   0.69774
  -7.54226   2.15361   0.22944
  -6.70636   2.22701  -0.00766
  -5.62996   2.08511  -0.20246
  -4.55086   1.97431  -0.58746
  -3.31216   1.91511  -0.68356
  -2.11996   1.68251  -0.60596
  -0.64186   1.86181  -0.57976
   0.90694   1.60351  -0.50216
   2.45964   1.55131  -0.54936
   4.17364   1.35941  -0.43226
   5.84654   1.23261  -0.34036
   7.46684   1.21281  -0.33386
   8.99594   1.08441  -0.44956
  10.48624   1.00001  -0.59036
  11.73664   0.76151  -0.93376
  12.96794   0.64901  -1.11826
  13.76314   0.30251  -1.31206
  14.92884   0.10851  -1.51646
  15.55084  -0.05659  -1.48366
  16.21294  -0.15409  -1.27376
  17.08434  -0.15129  -1.47506
  17.77624  -0.57259  -1.13716
  18.69694  -0.94339  -1.05256
  19.09234  -1.31819  -1.04276
  19.52344  -1.69679  -0.83086
  19.78554  -2.21279  -0.75136
  19.89614  -2.71779  -0.46916
  19.51854  -2.96449  -0.33826
  18.83464  -3.05239  -0.45026
  18.03294  -3.42339  -0.22646
  17.35764  -3.68199  -0.21036
  16.29854  -3.78649  -0.04386
  15.10614  -3.73369   0.20064
  14.01774  -3.66589   0.60374
  12.76424  -3.61519   0.97874
  11.60884  -3.68319   1.65584
  10.33684  -3.72969   2.14754
   9.04624  -3.70959   2.74384
   7.64294  -3.74229   3.54014
   6.24424  -3.74559   3.88594
   4.74604  -3.84409   4.55724
   3.07924  -3.82069   5.02904
   1.45494  -3.86509   5.63854
  -0.22026  -4.02949   6.22284
  -1.86656  -3.92869   7.16204
  -3.66686  -3.81529   7.57874
  -5.37276  -3.86719   8.21474
  -7.30096  -3.95069   8.97034
  -8.72226  -3.90669   9.65304
 -10.44666  -3.91069  10.22634
 -12.09806  -3.94689  10.92754
 -13.75806  -3.87939  11.56024
 -15.01356  -3.72359  11.89344
 -16.47446  -3.53289  12.49854
 -17.86956  -3.11639  12.92244
 -19.13146  -3.05169  13.16464
 -20.12656  -2.73369  13.42344
 -20.91236  -2.39789  13.45694
 -21.75716  -2.20529  13.21844
 -22.26286  -1.90389  12.73494
 -22.70026  -1.39419  12.23344
 -22.94066  -1.00699  11.49364
 -23.15626  -0.69389  10.33694
 -23.14826  -0.29199   9.03494
 -23.19856   0.00491   7.92594
 -23.23266   0.08091   6.48174
 -23.18756   0.45621   5.26524
 -22.66686   0.66661   3.94764
 -22.34186   0.89381   2.58974
 -21.80876   1.04751   1.31404
 -21.05616   1.38041  -0.02916
 -20.16016   1.55551  -1.15796
 -19.24646   1.60021  -2.28686
 -18.35196   1.69861  -3.49356
 -17.22546   1.77481  -4.87486
 -15.95496   1.93361  -6.05866
 -15.03796   1.99911  -7.15616
 -13.96896   2.11601  -8.35206
 -12.89766   2.38391  -9.52996
 -11.88316   2.51651 -10.67096
 -10.93836   2.36291 -11.74906
 -10.06226   2.56671 -12.67096
  -9.29276   2.46361 -13.76376
  -8.47586   2.41801 -14.87676
  -7.67576   2.18491 -15.53486
  -6.93946   2.01361 -16.24966
  -5.83146   1.89921 -16.52206
  -4.81066   1.56701 -16.70836
  -3.61166   1.34721 -16.78996
  -2.17676   1.00071 -16.79186
  -0.69916   0.63461 -16.64386
   0.77694   0.52371 -16.40116
   2.16734   0.23031 -16.13066
   3.61134   0.01891 -15.44306
   4.97634   0.23051 -14.87646
   6.24354   0.32761 -14.05796
   7.42834   0.54451 -13.01346
   8.47274   0.60741 -11.86296
   9.72684   0.63671 -10.74676
  10.64554   0.71011  -9.50126
  11.96134   0.69281  -8.24966
  12.84914   0.75991  -6.90266
  13.82714   0.62591  -5.39016
  14.75074   0.63431  -4.15896
  15.52604   0.47651  -2.97886
  16.20244   0.69251  -1.57626
  16.55994   0.73601  -0.60506
  17.11924   0.83101   0.53544
  17.10144   1.18961   1.49554
  17.12504   1.43961   2.36804
  16.97774   1.65351   3.24814
  16.91904   1.98201   3.89554
  16.55364   2.17541   4.57664
  16.19354   2.63531   5.33234
  15.87184   2.78511   6.00454
  15.35344   3.05071   6.61004
  14.94664   3.29691   7.00544
  14.42384   3.52211   7.47464
  14.15774   3.53851   8.10244
  13.73554   3.37201   8.53594
  13.41634   3.49171   8.97224
  13.23404   3.32851   9.37574
  12.99804   3.36751   9.75194
  12.59854   3.34161  10.08564
  12.40024   3.55551  10.38564
  11.86734   3.56071  10.59604
  11.25274   3.47811  10.86564
  10.51344   3.24991  10.88804
   9.37214   3.07831  10.69074
   8.48974   2.81551  10.62994
   7.37124   2.52021  10.42484
   6.43184   2.16021  10.08254
   5.20014   1.91161   9.78214
   4.14744   1.63461   9.31544
   3.40634   1.24151   8.71294
   2.36144   1.03231   7.91214
   1.35094   0.51761   7.16844
   0.50894   0.44051   6.48404
  -0.33626   0.38881   5.65304
  -1.29066   0.11481   4.95304
  -2.01216   0.01711   4.30474
  -2.96916   0.04751   3.51494
  -3.59536   0.34651   2.85904
  -4.61496   0.61231   2.45664
  -5.60346   0.67801   2.26124
  -6.45856   1.10661   1.88174
  -7.19436   1.55811   1.38374
  -7.92806   1.74841   0.70944
  -8.87286   2.05211   0.07744
  -9.53336   2.27591  -0.49236
 -10.53246   2.25811  -1.04736
 -11.24996   2.45851  -1.38546
 -12.09616   2.70941  -1.50096
 -13.00706   2.53921  -1.75026
 -13.59786   2.53121  -1.88956
 -14.23716   2.66921  -1.92696
 -14.55726   2.52751  -2.33006
 -15.01246   2.26961  -2.58186
 -15.36996   2.20341  -2.67916
 -15.71596   2.11321  -2.89896
 -15.92476   1.77721  -3.32376
 -16.22196   1.82911  -3.41966
 -16.26546   1.60211  -3.86296
 -16.40496   1.31281  -4.32396
 -16.27496   0.86561  -4.79556
 -16.10806   0.75361  -5.25876
 -15.89926   0.34301  -5.58986
 -15.60706   0.17681  -5.96366
 -15.20506  -0.08529  -6.06326
 -14.82376  -0.39839  -6.12926
 -14.17566  -0.53469  -6.40136
 -13.67556  -0.50009  -6.25296
 -12.84576  -0.51769  -6.37916
 -12.05596  -0.30839  -6.32586
 -10.98906  -0.09559  -6.00016
  -9.98606   0.20271  -6.00716
  -8.87866   0.53921  -5.88066
  -7.51956   0.91931  -5.70816
  -6.18566   1.32921  -5.49936
  -4.70776   1.66351  -5.43206
  -3.16156   1.91161  -5.41916
  -1.55156   1.98321  -5.53026
  -0.22966   1.86511  -5.60876
   1.03924   1.58331  -5.82626
   2.24684   1.48141  -6.04996
   3.25134   1.00751  -6.11526
   4.04324   0.57031  -6.52696
   4.83584   0.03271  -6.52036
   5.60504  -0.54099  -6.60086
   6.13374  -0.78069  -6.65156
   6.89894  -1.13139  -6.56976
   7.73804  -1.39719  -6.37356
   8.67844  -1.48889  -5.88816
   9.78294  -1.58919  -5.44626
  11.00604  -1.51409  -4.90786
  12.25924  -1.52089  -4.32216
  13.48304  -1.54149  -3.74646
  14.75514  -1.43509  -3.21946
  15.87184  -1.31399  -2.77876
  16.62324  -1.18749  -2.48696
  17.39974  -1.20339  -2.25036
  17.88844  -1.43349  -2.16736
  18.26224  -1.63499  -1.89896
  18.21674  -1.71079  -1.74976
  18.31634  -2.03439  -1.48626
  17.70534  -2.14359  -1.30906
  17.34344  -2.14869  -0.93256
  16.44424  -2.41519  -0.61696
  15.70464  -2.40639  -0.16876
  14.85264  -2.43419   0.24954
  14.02244  -2.21249   0.79854
  13.02594  -1.99089   1.27684
  12.16404  -1.69579   1.59234
  11.20364  -1.24949   2.26264
  10.32004  -1.09519   2.95404
   9.27674  -0.81969   3.59674
   8.19054  -0.78979   4.18754
   7.25414  -0.53799   4.80224
   6.24564  -0.68159   5.08424
   5.32944  -0.43179   5.51464
   4.33804  -0.51839   5.65544
   3.59684  -0.56579   5.85324
   2.67124  -0.68409   5.97974
   2.06054  -0.72829   5.97904
   1.19724  -0.97639   5.79874
   0.47014  -1.29719   5.76764
  -0.01806  -1.60839   5.53224
  -0.78616  -1.85999   5.30684
  -1.48236  -2.10639   4.95354
  -2.52586  -2.21769   4.79084
  -3.17006  -2.42409   4.73094
  -4.08466  -2.49539   4.42534
  -4.97476  -2.50549   4.61664
  -6.18006  -2.44839   4.77394
  -7.32806  -2.46289   4.74704
  -8.27526  -2.44329   4.89154
  -9.07436  -2.37479   4.79504
 -10.03656  -2.35189   4.72604
 -10.93086  -2.29649   4.76274
 -11.64256  -2.08909   4.73304
 -12.00706  -2.08739   4.67884
 -12.38516  -1.98919   4.85584
 -12.89036  -1.83099   4.98014
 -13.14216  -1.75989   5.02674
 -13.44316  -1.95439   5.10314
 -13.43676  -2.19129   5.30334
 -13.37316  -2.39839   5.62434
 -13.25556  -2.48189   5.65094
 -13.08466  -2.55999   5.83454
 -12.80926  -2.71029   5.63464
 -12.50386  -2.61589   5.64324
 -11.99096  -2.37289   5.68534
 -11.61916  -2.18749   5.71034
 -10.94716  -1.87699   5.62874
 -10.25486  -1.34389   5.48264
  -9.36716  -0.98849   5.58364
  -8.18826  -0.49679   5.31894
  -6.76646  -0.15289   5.11044
  -5.53006   0.57191   4.54414
  -4.00866   0.98431   4.19174
  -2.38166   1.29231   3.68164
  -0.98786   1.47861   3.14334
   0.41634   1.73631   2.59394
   1.85944   1.93571   1.93314
   3.21064   1.94081   1.30164
   4.61114   1.97221   0.64184
   5.85644   2.00751   0.07864
   7.11454   1.78651  -0.36536
   8.23634   1.72781  -0.65696
   9.61674   1.58411  -0.83326
  10.93734   1.60881  -0.71816
  12.09234   1.79801  -0.57906
  13.20944   1.73371  -0.50736
  14.34414   1.87841  -0.36446
  15.51924   1.98431  -0.24496
  16.14114   2.22541   0.25214
  16.80404   2.17391   0.25564
  17.14634   2.31331   0.43004
  17.47034   2.15781   0.62174
  17.51594   2.01031   0.76574
  17.72854   1.69091   0.70384
  17.81614   1.48511   0.53854
  17.49354   1.06291   0.42624
  17.74934   0.94581   0.36174
  17.53884   0.82581   0.06974
  17.85214   0.53501  -0.01916
  17.84794   0.44561   0.10294
  17.88684   0.31821   0.04964
  17.92284   0.35141   0.08684
  17.83304   0.31031   0.32664
  17.40724   0.19901   0.67904
  16.88984   0.22091   0.86704
  16.38594   0.11431   1.19714
  15.46454   0.11341   1.58694
  14.22204   0.05891   2.20814
  12.98004  -0.12879   2.73424
  11.46734  -0.25019   3.18504
   9.72734  -0.50389   3.52874
   8.06984  -0.72999   3.84414
   6.02874  -0.72429   4.22804
   4.34784  -0.85899   4.35004
   2.50614  -1.08089   4.36294
   0.59994  -1.41059   4.38114
  -1.63296  -1.39049   4.28694
  -3.60116  -1.45659   4.19244
  -5.92806  -1.41079   3.96054
  -8.13126  -1.20439   3.86914
 -10.26896  -1.05119   3.81764
 -12.30166  -0.78259   3.56544
 -14.41666  -0.65089   3.44054
 -16.32506  -0.32709   3.30124
 -18.29796  -0.10189   3.19594
 -20.11836   0.11321   2.96544
 -21.95076   0.33481   2.85514
 -23.42886   0.63531   2.72834
 -24.87586   0.95421   2.56724
 -25.81346   1.24761   2.17004
 -26.46836   1.42671   1.91284
 -27.02626   1.96401   1.31854
 -27.26986   2.09821   0.90934
 -27.38956   2.40031   0.45504
 -27.35126   2.62921  -0.10706
 -27.34426   2.62801  -0.80546
 -27.18216   2.68511  -1.21666
 -26.71436   2.63901  -1.67616
 -26.45926   2.61211  -2.09606
 -25.82726   2.49731  -2.60336
 -25.20536   2.40051  -3.12826
 -24.36436   2.15661  -3.57796
 -23.49266   2.20461  -4.05606
 -22.36996   2.05281  -4.75166
 -21.19836   1.58361  -5.27186
 -20.01576   1.56321  -5.80756
 -18.53386   1.23221  -6.33826
 -17.07086   1.02921  -6.83816
 -15.29046   0.60071  -7.09536
 -13.57216   0.44211  -7.59316
 -11.80716   0.41311  -8.08056
 -10.30146   0.23431  -8.64996
  -8.77046   0.06921  -9.11266
  -7.44986   0.01731  -9.69626
  -6.02296   0.02271 -10.20106
  -4.80126   0.08441 -10.16686
  -3.62926  -0.16389 -10.15846
  -2.46086   0.06221  -9.76266
  -1.10736   0.33431  -9.04276
  -6.0E-50   0.36541  -8.33336
   1.42404   0.47861  -7.30486
   2.54164   0.68791  -6.52156
   3.67684   0.87211  -5.46566
   5.05114   0.90791  -4.53236
   5.96274   0.95181  -3.71466
   7.18134   0.65231  -2.89146
   8.00694   0.31171  -2.35506
   8.99244  -0.13049  -1.94566
   9.43744  -0.75869  -1.61296
   9.83064  -1.28919  -1.12156
   9.98754  -1.82039  -0.62426
  10.02174  -2.22099  -0.13366
  10.38874  -2.59079   0.40944
  10.70624  -3.06569   0.99164
  11.03124  -3.53379   1.41574
  11.15614  -3.56629   1.69264
  11.50664  -3.49169   2.23974
  11.68594  -3.47249   2.60094
  11.36864  -3.44679   2.93084
  11.29804  -3.45519   3.37974
  11.14794  -3.26819   3.71154
  10.94084  -3.15809   3.74524
  10.61134  -2.89149   3.83334
  10.58514  -2.61379   3.75874
  10.41334  -2.31959   3.61754
  10.09764  -2.25229   3.20584
   9.80444  -2.19989   2.85374
   9.83484  -1.94509   2.35474
   9.74204  -1.54569   1.88294
   9.44494  -1.05049   1.15434
   9.09274  -0.50179   0.31524
   8.73414  -0.21299  -0.53766
   8.09024   0.43681  -1.50076
   7.36074   0.91371  -2.37266
   6.49094   1.32221  -3.25826
   5.55334   1.83051  -4.09936
   4.62374   2.27001  -4.30906
   3.86064   2.88851  -4.82206
   3.13064   3.30981  -5.19896
   2.43674   3.43701  -5.42646
   2.13694   3.67871  -5.83116
   1.41424   3.73861  -6.24236
   1.14494   3.89171  -6.52486
   1.07664   3.98481  -6.98896
   0.80614   3.87471  -7.46456
   0.52434   3.91211  -7.75956
   0.17604   3.71801  -8.11216
   0.15404   3.51061  -8.30926
  -0.09476   3.19361  -8.50006
  -0.37626   2.87331  -8.53046
  -0.64236   2.59481  -8.78416
  -0.89416   2.14941  -8.64366
  -1.26306   2.04401  -8.59666
  -1.78146   1.69531  -8.46566
  -2.05966   1.43211  -8.07056
  -2.52006   1.33081  -7.77016
  -2.84456   0.86041  -7.62516
  -3.31876   0.63831  -7.50476
  -3.80296   0.46691  -7.16716
  -4.37436   0.30251  -6.94806
  -5.03656  -0.00419  -6.81106
  -5.69026  -0.09379  -6.63356
  -6.37316   0.06361  -6.33896
  -6.91356   0.08631  -6.13366
  -7.22636   0.25341  -6.10326
  -7.66806   0.29511  -5.72126
  -7.90206   0.37741  -5.48296
  -8.04936   0.30091  -5.08646
  -8.07256   0.47211  -4.70086
  -8.19556   0.39821  -4.29246
  -8.43216   0.69321  -3.94596
  -8.25166   0.61231  -3.29316
  -8.26496   0.55321  -2.82386
  -8.24536   0.48841  -2.42106
  -8.17166   0.30091  -1.53236
  -8.15856   0.21811  -1.09296
  -8.22636  -0.12859  -0.73696
  -8.03046  -0.34559  -0.32796
  -7.87266  -0.32619   0.06014
  -7.39266  -0.51039   0.53384
  -6.89996  -0.72149   0.73444
  -6.23896  -0.86719   1.11554
  -5.64206  -0.89989   1.50044
  -4.88316  -0.91069   1.95844
  -4.07136  -0.91019   2.39374
  -3.11226  -0.67099   2.61804
  -2.17146  -0.56629   2.97294
  -1.02276  -0.38299   3.30164
   0.08014  -0.32729   3.53264
   1.10474  -0.13019   3.64514
   2.16594   0.04611   3.91374
   3.00624   0.15571   4.13914
   3.57634   0.20791   4.23734
   4.20664   0.27801   4.20444
   5.03664   0.07151   4.20024
   5.52114   0.12231   4.25884
   5.97724   0.05311   4.35474
   6.80544  -0.08249   4.14054
   7.68824  -0.15599   4.04564
   8.43624   0.03481   4.01084
   9.28524  -0.02429   4.05404
  10.27024   0.24431   4.09684
  11.33104   0.17701   4.30934
  12.17834   0.19271   4.31334
  12.97024   0.21231   4.57104
  13.71054   0.19571   4.62974
  14.32564  -0.08299   4.82634
  14.89034  -0.12489   5.12444
  15.15614  -0.46789   5.48264
  15.35344  -0.80849   5.85884
  15.17294  -0.99929   6.23994
  15.07734  -1.36289   6.77814
  14.69504  -1.70329   7.18924
  14.19424  -1.94829   7.62124
  13.70584  -2.16439   7.63904
  13.06874  -2.43109   7.84174
  12.50774  -2.63989   7.97434
