********************************************************************************
              CENTRO DE INSTRUMENTACION Y REGISTRO SISMICO  A.C.

    Anaxagoras 814, Col. Narvarte, Benito Juarez, C.P. 03020 Mexico, D.F.
           Tels. 5687 45 42/ 5687 45  82             Fax. 5669 25 12
********************************************************************************
ARCHIVO ESTANDAR DE ACELERACION:
VERSION DEL FORMATO                    : 2.0
NOMBRE DEL ARCHIVO                     : BL4520210908014746
FECHA Y HORA DE CREACION               : 07/SEP/21, 23:15
REF. CATALOGO ACELEROGRAMAS, SMIS 1996 : REGISTRO No.     /PAG.


================================================================================
DATOS DE LA ESTACION:
NOMBRE DE LA ESTACION                  : BALDERAS
CLAVE DE LA ESTACION                   : BL45
LOCALIZACION DE LA ESTACION            : Del. Cuauhtémoc, Col. Doctores,        
                                       : Av. Niños Héroes esq. con Av.          
                                       : Arcos de Belem.                        
                                       :                                        
                                       : 
COORDENADAS DE LA ESTACION             : 19.4253 LAT. N
                                       : 99.1481 LONG. W
ALTITUD (msnm)                         : 2232
TIPO DE SUELO                          : Terreno blando, material compresible
                                       : (arcillas)                
                                       : 
INSTITUCION RESPONSABLE                : CIRES, A. C.
                                       : 

================================================================================
DATOS DEL ACELEROGRAFO:
MODELO DEL ACELEROGRAFO                : RAD_IO14
NUMERO DE SERIE DEL ACELEROGRAFO       : 
NUMERO DE CANALES                      : 3
ORIENTACION C1-C6 (rumbo;orientacion)  : /S00E/+V/N90W
ORIENTACION C7-C12 (rumbo;orientacion) : 
VEL. DE MUESTREO, C1-C6 (muestras/s)   : /100/100/100
VEL. DE MUESTREO, C7-C12 (muestras/s)  : 
ESC. COMPLETA DE SENSORES, C1-C6, (g)  : /2.0/2.0/2.0
ESC. COMPLETA DE SENSORES, C7-C12, (g) : 
FREC. NAT. DE SENSORES, C1-C6, (Hz)    : /51.94/53.47/51.65
FREC. NAT. DE SENSORES, C7-C12, (Hz)   : 
AMORTIGUAMIENTO DE SENSORES, C1-C6     : /0.5865/0.5715/0.5896
AMORTIGUAMIENTO DE SENSORES, C7-C12    : 
INTERVALO DE MUESTREO, C1-C6, (s)      : /0.01/0.01/0.01
INTERVALO DE MUESTREO, C7-C12, (s)     : 
UMBRAL DE DISPARO, C1-C6, (Gal)        : / / /
UMBRAL DE DISPARO, C7-C12, (Gal)       : 
MEMORIA DE PREEVENTO (s)               : 60
TIEMPO DE POSEVENTO (s)                : 90


================================================================================
DATOS DEL SISMO:
FECHA DEL SISMO (GMT)                  : 08/SEP/21
HORA EPICENTRO (GMT)                   : 01:47:46.0
MAGNITUD(ES)                           : /Mc=7.1
COORDENADAS DEL EPICENTRO              : 16.78 LAT. N
                                       : 99.93 LONG. W
PROFUNDIDAD FOCAL (km)                 : 10
FUENTE DE LOS DATOS EPICENTRALES       : SSN
                                       : INSTITUTO DE GEOFISICA, UNAM

================================================================================
DATOS DE ESTE REGISTRO:
HORA DE LA PRIMERA MUESTRA (GMT)       : 20:54:01.00
EXACTITUD DEL TIEMPO (s)               : 
DURACION DEL REGISTRO (s), C1-C6       : /657.53/657.53/657.53
DURACION DEL REGISTRO (s), C7-C12      : 
NUM. TOTAL DE MUESTRAS, C1-C6          : /65753/65753/65753
NUM. TOTAL DE MUESTRAS, C7-C12         : 
ACEL. MAX. (Gal), C1-C6                : /39.67714/22.59354/37.57558
ACEL. MAX., C1-C6, EN LA MUESTRA       : /13955/14068/13483
ACEL. MAX. (Gal), C7-C12               : 
ACEL. MAX., C7-C12, EN LA MUESTRA      : 
UNIDADES DE LOS DATOS                  : Gal (cm/s/s)
FACTOR DE DECIMACION                   : 1
FORMATO DATOS (FORTRAN,10 campos/dato) : 3F10.5


================================================================================
CALIDAD DEL ACELEROGRAMA:
REGISTRO DIGITAL COMPLETO CON TIEMPO ABSOLUTO CORRECTO.


================================================================================
COMENTARIOS:














================================================================================
DATOS DE ACELERACION:
---------+---------+---------+---------+---------+---------+---------+---------+
   CANAL-1   CANAL-2   CANAL-3   CANAL-4   CANAL-5   CANAL-6   CANAL-7   CANAL-8
      N00E        +V      N90W
---------+---------+---------+---------+---------+---------+---------+---------+
[...]
   0.10714   4.30146  -8.59788
  -0.17346   2.86236  -9.44448
  -0.34886   1.46486 -10.56508
  -0.30536   0.17306 -11.73578
  -0.04836  -0.73904 -12.94298
   0.13864  -1.65904 -14.27778
   0.09094  -2.39084 -16.09378
   0.06714  -3.00884 -17.89498
   0.05564  -3.29244 -19.83468
  -0.14726  -3.55034 -21.67848
  -0.33436  -3.72824 -23.49708
  -0.35186  -3.61764 -25.36898
  -0.35326  -3.47574 -27.02168
  -0.47066  -3.03714 -28.33388
  -0.50426  -2.52714 -29.41428
  -0.58286  -1.74624 -30.54638
  -0.80846  -0.99104 -31.63988
  -1.02196  -0.48904 -32.65088
  -1.45726   0.21286 -33.72828
  -1.87136   1.10786 -34.33218
  -2.16226   1.91546 -34.81088
  -2.56136   2.73376 -35.03268
  -2.71216   3.77906 -34.78138
  -3.05916   4.57686 -34.38558
  -3.28966   5.37296 -33.66568
  -3.72106   6.23476 -32.75218
  -3.84686   6.80976 -31.41168
  -4.41896   7.21536 -29.94618
  -4.92846   7.56376 -28.42528
  -5.58236   7.75406 -26.65488
  -6.28526   7.91426 -24.59668
  -6.69816   7.89746 -22.49028
  -7.13486   7.64976 -20.28338
  -7.40236   7.25606 -18.07198
  -7.70236   6.56796 -15.61278
  -8.13696   5.90976 -13.29318
  -8.61376   4.76816 -10.69888
  -9.02056   3.53056  -8.35328
  -9.50266   2.30776  -5.94408
  -9.81546   0.79826  -3.73928
  -9.93216  -0.76284  -1.24198
  -9.93806  -2.70414   1.11322
 -10.18536  -4.25944   3.58342
 -10.25016  -5.93214   5.89952
 -10.05866  -7.59384   8.10472
  -9.82716  -8.84024  10.38792
  -9.38276 -10.02524  12.54692
  -9.12786 -11.19194  14.43982
  -8.63756 -12.00514  16.36122
  -7.97916 -12.54634  18.05872
  -7.34676 -13.16504  19.51512
  -6.29646 -13.49864  20.99562
  -5.33296 -13.71144  22.39682
  -4.17066 -13.80474  23.43652
  -2.76476 -13.93774  24.46222
  -1.17136 -13.39414  25.22632
   0.32764 -12.93124  25.85182
   2.08674 -11.76354  25.76552
   3.94714 -10.44724  25.50922
   6.01474  -8.98874  25.35492
   8.34024  -7.01864  24.43372
  10.59344  -4.93304  23.73212
  13.09304  -2.50754  22.57072
  15.52474  -0.07334  20.92992
  18.39194   2.39096  19.34532
  20.88964   4.71926  17.61212
  23.25304   7.02736  15.75572
  25.55554   8.95936  13.77092
  27.57314  10.74126  11.70122
  29.57244  12.35666   9.92212
  31.59184  13.61916   8.27502
  33.37994  14.64956   6.59952
  35.26494  15.47936   5.20412
  36.71364  15.76646   3.75852
  37.87164  15.81466   2.42532
  38.57634  15.82356   1.64722
  38.93624  15.60516   0.80622
  38.78894  15.43636   0.29232
  38.43984  15.01196  -0.26538
  37.40634  14.54276  -0.69718
  36.27964  14.08956  -0.85148
  34.74654  13.62406  -0.73998
  32.93834  13.09496  -0.51768
  31.06784  12.09986  -0.38908
  28.84874  11.36106  -0.09188
  26.82424  10.46436   0.07322
  24.44664   9.47326   0.26142
  22.26304   8.74286   0.42092
  19.85504   7.88576   0.46642
  17.62854   7.01876   0.53192
  15.52704   6.18686   0.43892
  13.74684   5.37606   0.49292
  12.16414   4.50606   0.61372
  10.45224   3.38676   0.72392
   9.11644   2.16586   1.06342
   7.88544   1.23336   1.31142
   6.72694   0.27176   1.43652
   5.63954  -0.69604   1.49522
   4.80454  -1.42434   1.44632
   4.14524  -2.36774   1.52512
   3.66424  -2.74694   1.75432
   3.65144  -3.24824   2.10832
   3.52374  -3.94594   2.37012
   3.62894  -4.49144   2.77132
   3.86694  -5.02704   3.18662
   4.03134  -5.70554   3.45432
   4.40964  -6.16574   3.92002
   4.57004  -6.84264   4.56372
   4.96804  -7.08064   4.90652
   5.19434  -7.19704   5.51692
   5.36754  -7.09414   5.83752
   5.52144  -6.87064   6.40472
   5.42064  -6.27184   6.86772
   5.59464  -5.47804   7.21092
   5.67574  -4.66144   7.22122
   5.88174  -3.72314   6.96072
   6.04704  -2.94454   6.65982
   6.12324  -2.27884   6.17722
   6.45974  -1.67304   5.97102
   6.50414  -1.44304   5.47422
   6.50524  -1.39574   4.95302
   6.92804  -1.38854   4.50362
   7.23154  -1.47554   3.71452
   8.07134  -1.73874   2.92892
   8.54084  -1.91114   2.24552
   8.90764  -2.15284   1.87282
   9.28504  -2.49494   1.28952
   9.43494  -2.87674   0.99792
   9.65564  -3.34224   0.97382
   9.79124  -3.70344   1.32832
   9.82394  -4.30364   1.95372
   9.72694  -4.63284   2.64162
   9.39934  -4.66864   3.54102
   9.21744  -4.92324   4.37322
   8.75404  -4.82034   5.25462
   8.08464  -4.52254   5.93782
   7.49784  -4.32584   6.71662
   6.47884  -3.71844   7.12182
   5.65044  -3.12134   7.71972
   4.73024  -2.42784   8.27172
   3.86444  -1.52574   8.26792
   3.06714  -0.26084   7.86232
   2.27494   1.08706   7.74472
   1.44984   2.34816   7.61872
   0.83334   3.49436   7.34842
   0.35794   4.83356   7.12722
   0.19874   5.88716   6.58382
   0.16224   6.81116   6.06502
   0.15224   7.72206   5.75502
   0.25064   8.28386   5.34252
   0.30564   8.97266   5.12812
   0.59394   9.61096   4.81832
   0.88354  10.00006   4.43982
   1.22984  10.54066   3.91512
   1.59184  11.07696   3.23972
   1.65044  11.48286   2.42272
   1.60954  11.94326   1.68952
   1.48144  12.33976   1.20932
   1.35894  12.49806   0.86882
   1.06854  12.84526   0.31212
   0.62714  13.04796  -0.20408
   0.07554  13.04726  -0.80028
  -0.54426  13.01196  -1.25228
  -1.06236  12.67996  -2.05748
  -2.17296  12.33326  -2.71268
  -3.39136  11.30796  -3.47628
  -4.51926  10.55656  -4.50988
  -5.61486   9.50206  -5.28268
  -6.72646   7.95426  -6.31168
  -7.79706   6.26026  -7.36678
  -9.16576   4.53356  -8.14098
 -10.57726   2.99956  -9.05238
 -12.16736   1.20676  -9.62238
 -13.44846  -0.93894  -9.94268
 -14.68086  -2.58914 -10.35088
 -15.82926  -4.54894 -10.54288
 -17.02986  -6.37894 -10.92888
 -17.86666  -8.16784 -11.58498
 -18.94646  -9.71894 -12.21348
 -19.91976 -11.22254 -12.92658
 -20.75776 -12.68054 -13.70168
 -21.49756 -13.85994 -14.41028
 -22.07156 -14.94734 -14.94158
 -23.04486 -15.71724 -15.58938
 -23.88536 -16.25504 -16.21928
 -24.45376 -16.54054 -16.47228
 -25.15106 -16.65504 -16.66448
 -25.71686 -16.55524 -16.57308
 -26.33406 -16.41234 -16.19618
 -26.96916 -15.77994 -15.79378
 -27.57706 -14.95694 -15.16088
 -28.18306 -13.90974 -14.09678
 -28.65676 -12.55174 -12.93728
 -29.07896 -10.90194 -11.48678
 -29.41316  -9.04674 -10.19588
 -29.88776  -7.23584  -8.80268
 -30.39976  -5.35744  -7.62258
 -31.10826  -3.54734  -6.38438
 -31.52626  -1.65414  -5.14678
 -32.11246  -0.12174  -4.10588
 -32.37336   1.12986  -2.86228
 -32.60366   2.27896  -1.82558
 -32.84076   3.31826  -0.78998
 -33.03486   4.00706   0.29232
 -33.05046   4.65216   1.36922
 -32.84236   5.22566   2.37782
 -32.42196   5.53526   3.53992
 -31.93406   5.67996   4.62432
 -31.17486   5.63106   5.46952
 -30.31286   5.66666   6.17232
 -29.45266   5.51256   6.85602
 -28.26376   5.21586   7.33482
 -26.92916   5.10056   7.70662
 -25.36516   4.52706   7.80972
 -23.72106   4.03726   8.04182
 -22.10986   3.57566   8.09002
 -20.28406   2.90376   7.71732
 -18.16596   2.30026   7.46552
 -15.90836   1.31266   7.03412
 -13.47106   0.35056   6.53382
 -11.24526  -0.56644   5.82722
  -8.84686  -1.42294   5.40502
  -6.70066  -2.12104   4.60092
  -4.61186  -2.80634   4.15172
  -2.64786  -3.41754   3.61562
  -0.96956  -3.68404   3.10972
   0.55604  -4.06894   2.70982
   1.87724  -4.17154   2.68042
   3.00844  -3.98354   2.57842
   4.29724  -3.63754   2.30002
   5.22514  -3.54284   2.43532
   6.22874  -3.10094   2.47842
   6.79774  -2.77034   2.31702
   7.55204  -2.42784   2.40362
   8.10174  -2.50194   2.30752
   8.04494  -2.68434   2.15062
   8.12654  -2.69504   1.98342
   8.09374  -2.67264   1.83732
   8.10384  -2.89544   1.46362
   7.88614  -3.20034   1.21652
   7.55834  -3.53654   0.99232
   7.15314  -3.69104   0.63252
   6.56844  -4.01934   0.14922
   5.85714  -4.27954  -0.29508
   5.01054  -4.31344  -0.83588
   4.01074  -4.43434  -1.62398
   2.98554  -4.52364  -2.07548
   1.92144  -4.64194  -2.71918
   0.91604  -4.74694  -3.43508
  -0.29196  -4.76894  -3.76288
  -1.37386  -4.66774  -4.31988
  -2.39226  -4.43134  -4.51198
  -3.21086  -4.26254  -4.36568
  -4.08676  -4.20524  -4.40748
  -4.92586  -4.23254  -4.39908
  -5.62916  -4.54424  -4.43468
  -6.13486  -5.00204  -4.46338
  -6.64506  -5.54754  -4.43888
  -6.91346  -6.20004  -4.50688
  -7.16836  -6.72194  -4.80078
  -7.46576  -7.02524  -4.73438
  -7.60926  -7.41234  -4.77198
  -7.76896  -7.52484  -4.80638
  -7.93736  -7.32794  -4.86138
  -8.14026  -7.32774  -4.96208
  -8.11716  -6.87044  -5.17038
  -8.03556  -6.17884  -5.65048
  -7.77696  -5.68174  -6.05888
  -7.38016  -4.75464  -6.49238
  -6.97966  -3.91254  -6.87118
  -6.26906  -2.94644  -7.48838
  -5.51436  -1.89124  -7.97568
  -4.83206  -1.00084  -8.58168
  -3.93566  -0.41424  -9.15638
  -3.15476   0.42486  -9.96138
  -2.33106   1.15416 -10.49518
  -1.47906   2.02416 -11.27938
  -0.61136   2.58666 -12.03788
   0.27894   3.44196 -12.69628
   1.07604   4.07676 -13.49728
   1.68624   4.64766 -14.26938
   2.51234   5.12306 -15.30718
   3.08494   5.46046 -16.23308
   3.57244   5.87846 -17.34768
   3.77444   6.03556 -18.41128
   3.89644   6.13916 -19.40328
   4.09824   6.26216 -20.38698
   4.01074   6.31876 -20.90318
   3.84174   6.62616 -21.10498
   3.57684   6.64866 -21.30698
   3.28554   6.66736 -21.13538
   2.98834   6.55446 -20.38388
   2.65024   6.16796 -19.23258
   2.32054   6.16726 -17.84518
   2.11364   5.68626 -16.10428
   2.05634   5.25416 -14.21738
   2.18284   4.85576 -12.00138
   2.50924   4.19576  -9.85268
   2.79034   3.79406  -7.78858
   3.39774   3.22876  -5.97618
   4.14854   2.67036  -4.04208
   5.10314   2.14666  -1.94578
   6.16584   1.35376   5.2E-40
   7.33324   0.88226   2.05102
   8.71384   0.28556   4.20482
   9.89344  -0.04814   6.51532
  11.36664  -0.46124   8.95072
  12.83564  -0.91254  11.34252
  14.27284  -1.28304  13.62472
  15.87284  -1.62494  15.56022
  17.49754  -1.95554  17.31472
  19.29744  -2.11494  18.93902
  21.08864  -1.96484  20.47632
  22.87304  -2.01214  21.84102
  24.82844  -1.78274  23.13122
  26.76574  -1.65154  24.22942
  28.73274  -1.25854  25.29182
  30.55344  -1.11054  26.36612
  32.15134  -0.77454  27.27852
  33.80974  -0.34064  28.29672
  34.93034   0.01246  28.92212
  35.88244   0.33416  29.47532
  36.50484   0.52026  30.03582
  37.17844   0.60096  30.13492
  37.76034   0.74126  30.43182
  38.07224   1.35006  30.34842
  38.43284   1.55626  30.45802
  38.67924   2.00776  30.22872
  38.91964   2.44706  29.75572
  39.24954   2.99586  29.34932
  39.52494   3.44036  28.86882
  39.59484   3.65446  28.19272
  39.62524   3.67716  27.52402
  39.67714   3.75966  26.63782
  39.40194   3.75716  25.43932
  39.22144   3.85556  24.25532
  38.95814   3.79546  23.00472
  38.29154   3.94156  21.49292
  37.70844   4.05406  20.34182
  36.96214   4.06646  18.96542
  36.10894   4.13166  17.57592
  35.34914   4.10456  16.51092
  34.45764   3.99886  15.25672
  33.58364   4.03256  14.07042
  32.41154   3.92916  13.02552
  31.35514   3.75106  11.91582
  30.07674   3.62806  10.90902
  28.60954   3.52336   9.89992
  27.02804   3.30896   9.09142
  25.23874   3.27896   7.95072
  23.26194   3.14456   7.06242
  21.23574   3.13306   5.87562
  18.94414   2.99326   4.76152
  16.25344   2.90116   3.64482
  13.45104   2.92636   2.35192
  10.75874   2.53896   1.26772
   7.80854   1.80806   0.06312
   4.93734   1.43826  -1.25928
   2.01404   0.41176  -2.39578
  -1.13396  -0.44744  -3.36918
  -3.90856  -1.02734  -4.45968
  -6.71916  -2.16154  -5.56388
  -9.06846  -3.01044  -6.79708
 -11.43766  -3.94734  -7.89008
 -13.96136  -4.98474  -8.81878
 -16.12206  -6.08504  -9.72778
 -18.09986  -6.96974 -10.66288
 -19.82186  -7.92884 -11.35538
 -21.42456  -8.42964 -11.48348
 -22.83026  -8.83534 -11.62778
 -24.33946  -9.09044 -11.68598
 -25.56046  -9.03874 -11.58728
 -26.23426  -8.54984 -11.62518
 -26.63596  -8.29574 -11.45478
 -26.74206  -7.50564 -11.34368
 -26.66886  -6.95314 -11.15268
 -26.09486  -5.97704 -10.73768
 -25.20296  -4.42874  -9.74558
 -24.58376  -3.32914  -9.03858
 -24.37496  -2.15424  -8.61158
 -22.89176  -0.59384  -7.56418
 -21.97586   0.73066  -6.53168
 -21.14356   1.87356  -5.90018
 -19.90666   2.99096  -4.83258
 -18.19336   3.93136  -3.80098
 -16.62356   4.71546  -2.80498
 -14.98576   5.26516  -2.23218
 -13.51576   5.79316  -1.76478
 -12.18066   6.01336  -1.46318
 -10.92216   6.24416  -1.31398
  -9.57166   6.25116  -1.75468
  -8.51276   6.18076  -2.06498
  -7.20786   6.05266  -2.34788
  -6.36756   6.01126  -2.75168
  -5.78676   5.85016  -3.00648
  -5.23776   5.93436  -3.47138
  -4.92076   6.19596  -3.76008
  -4.67006   6.35636  -4.02338
  -4.72456   6.28576  -4.26958
  -4.60596   6.47916  -3.99948
  -4.75896   6.69446  -3.51628
  -5.22466   6.72906  -3.46618
  -6.04436   6.61376  -3.29198
  -6.88376   6.93366  -2.97168
  -7.81246   7.14616  -2.58448
  -9.29996   7.49266  -2.25978
 -10.93006   8.20716  -2.10548
 -12.14096   9.04116  -2.05118
 -13.19726  10.05686  -1.85458
 -14.28316  11.12986  -1.78538
 -15.07156  12.15486  -1.23568
 -15.99666  12.91376  -1.02778
 -17.31286  13.86066  -0.80918
 -18.06566  14.61686  -0.65928
 -18.47316  15.08706  -0.62588
 -18.53006  15.29656  -0.61658
 -18.49376  15.32976  -0.72078
 -18.37336  15.11506  -1.09278
 -18.32566  14.63766  -1.54498
 -18.32076  14.10246  -2.35628
 -18.48886  13.57966  -3.09348
 -18.40706  12.40856  -3.88568
 -18.12856  11.54996  -4.81058
 -17.79776  10.58596  -5.58918
 -17.40866   9.43826  -6.35168
 -16.92026   8.30256  -7.06918
 -16.65506   7.15156  -7.91298
 -16.32546   5.69916  -8.72198
 -15.95466   4.24326  -9.74838
 -15.77596   2.84156 -10.53468
 -15.66656   1.38026 -11.61938
 -15.29476  -0.26934 -12.41518
 -15.14936  -1.83484 -13.14258
 -15.16086  -3.65044 -13.89568
 -15.26796  -5.85874 -14.74298
 -15.48236  -7.89774 -15.54808
 -15.93756  -9.96794 -16.52068
 -16.49336 -11.97564 -16.90808
 -17.09836 -14.05634 -17.23758
 -17.85856 -15.90784 -17.40328
 -18.57776 -17.77484 -17.35728
 -19.37636 -19.37944 -17.42408
 -20.29716 -20.66914 -17.37758
 -20.94506 -21.68594 -17.29508
 -21.70776 -22.38484 -17.13398
 -22.28916 -22.55264 -16.61518
 -22.47486 -22.59354 -15.97518
 -22.40656 -22.39394 -15.54878
 -22.03176 -21.86834 -14.67968
 -21.79916 -21.01324 -13.83258
 -20.97916 -20.01324 -12.82438
 -19.78536 -18.84634 -11.66798
 -18.61816 -17.69834 -10.37008
 -17.29156 -16.62304  -9.04748
 -15.72596 -15.29334  -7.51298
 -14.25786 -14.01464  -6.06098
 -12.55436 -12.35414  -4.78418
 -11.25976 -10.73344  -3.07128
  -9.80236  -8.91254  -1.76288
  -8.55406  -7.14094  -0.25418
  -7.48136  -5.04784   1.38912
  -6.51416  -3.08504   3.03952
  -5.83046  -0.94994   4.62192
  -5.56676   1.18316   6.30932
  -5.17366   3.15156   7.83822
  -4.98596   4.91216   9.43392
  -5.02076   6.63576  11.14292
  -5.13586   8.29416  12.65492
  -5.71026   9.65146  13.84472
  -6.16296  10.67316  14.91822
  -6.84636  11.50816  15.74022
  -7.63706  11.72256  16.42442
  -8.26226  11.74616  17.20952
  -8.87606  11.28136  17.74022
  -9.34346  10.64586  18.11922
  -9.75656   9.70946  18.54432
  -9.97426   8.84596  18.79682
