********************************************************************************
              CENTRO DE INSTRUMENTACION Y REGISTRO SISMICO  A.C.

    Anaxagoras 814, Col. Narvarte, Benito Juarez, C.P. 03020 Mexico, D.F.
           Tels. 5687 45 42/ 5687 45  82             Fax. 5669 25 12
********************************************************************************
ARCHIVO ESTANDAR DE ACELERACION:
VERSION DEL FORMATO                    : 2.0
NOMBRE DEL ARCHIVO                     : CE1820210908014746
FECHA Y HORA DE CREACION               : 07/SEP/21, 23:15
REF. CATALOGO ACELEROGRAMAS, SMIS 1996 : REGISTRO No.     /PAG.


================================================================================
DATOS DE LA ESTACION:
NOMBRE DE LA ESTACION                  : ESC. PRIM. "RAMÓN ESPINOZA VILLANUEVA"
CLAVE DE LA ESTACION                   : CE18
LOCALIZACION DE LA ESTACION            : Del. Iztapalapa, Col. U. H. San Nicólas
                                       : Tolentino, calle 3 entre Carril        
                                       : y Estrella.                            
                                       :                                        
                                       : 
COORDENADAS DE LA ESTACION             : 19.3398 LAT. N
                                       : 99.0847 LONG. W
ALTITUD (msnm)                         : 2240
TIPO DE SUELO                          : Arenoso, limoso, compacto           
                                       :                           
                                       : 
INSTITUCION RESPONSABLE                : CIRES, A. C.
                                       : 

================================================================================
DATOS DEL ACELEROGRAFO:
MODELO DEL ACELEROGRAFO                : RAD_IO14
NUMERO DE SERIE DEL ACELEROGRAFO       : 
NUMERO DE CANALES                      : 3
ORIENTACION C1-C6 (rumbo;orientacion)  : /N00E/+V/N90W
ORIENTACION C7-C12 (rumbo;orientacion) : 
VEL. DE MUESTREO, C1-C6 (muestras/s)   : /100/100/100
VEL. DE MUESTREO, C7-C12 (muestras/s)  : 
ESC. COMPLETA DE SENSORES, C1-C6, (g)  : /2.0/2.0/2.0
ESC. COMPLETA DE SENSORES, C7-C12, (g) : 
FREC. NAT. DE SENSORES, C1-C6, (Hz)    : /30/30/30
FREC. NAT. DE SENSORES, C7-C12, (Hz)   : 
AMORTIGUAMIENTO DE SENSORES, C1-C6     : /0.720/0.774/0.740
AMORTIGUAMIENTO DE SENSORES, C7-C12    : 
INTERVALO DE MUESTREO, C1-C6, (s)      : /0.01/0.01/0.01
INTERVALO DE MUESTREO, C7-C12, (s)     : 
UMBRAL DE DISPARO, C1-C6, (Gal)        : / / /
UMBRAL DE DISPARO, C7-C12, (Gal)       : 
MEMORIA DE PREEVENTO (s)               : 60
TIEMPO DE POSEVENTO (s)                : 90


================================================================================
DATOS DEL SISMO:
FECHA DEL SISMO (GMT)                  : 08/SEP/21
HORA EPICENTRO (GMT)                   : 01:47:46.0
MAGNITUD(ES)                           : /Mc=7.1
COORDENADAS DEL EPICENTRO              : 16.78 LAT. N
                                       : 99.93 LONG. W
PROFUNDIDAD FOCAL (km)                 : 10
FUENTE DE LOS DATOS EPICENTRALES       : SSN
                                       : INSTITUTO DE GEOFISICA, UNAM

================================================================================
DATOS DE ESTE REGISTRO:
HORA DE LA PRIMERA MUESTRA (GMT)       : 20:54:01.00
EXACTITUD DEL TIEMPO (s)               : 
DURACION DEL REGISTRO (s), C1-C6       : /657.52/657.52/657.52
DURACION DEL REGISTRO (s), C7-C12      : 
NUM. TOTAL DE MUESTRAS, C1-C6          : /65752/65752/65752
NUM. TOTAL DE MUESTRAS, C7-C12         : 
ACEL. MAX. (Gal), C1-C6                : /8.72973/4.50778/5.20564
ACEL. MAX., C1-C6, EN LA MUESTRA       : /13039/13118/12872
ACEL. MAX. (Gal), C7-C12               : 
ACEL. MAX., C7-C12, EN LA MUESTRA      : 
UNIDADES DE LOS DATOS                  : Gal (cm/s/s)
FACTOR DE DECIMACION                   : 1
FORMATO DATOS (FORTRAN,10 campos/dato) : 3F10.5


================================================================================
CALIDAD DEL ACELEROGRAMA:
REGISTRO DIGITAL COMPLETO CON TIEMPO ABSOLUTO CORRECTO.


================================================================================
COMENTARIOS:














================================================================================
DATOS DE ACELERACION:
---------+---------+---------+---------+---------+---------+---------+---------+
   CANAL-1   CANAL-2   CANAL-3   CANAL-4   CANAL-5   CANAL-6   CANAL-7   CANAL-8
      N00E        +V      N90W
---------+---------+---------+---------+---------+---------+---------+---------+
[...]
  -2.30673  -0.86668   0.59844
  -2.17463  -0.99668   0.24144
  -2.22983  -1.06258   0.12854
  -2.26773  -1.16038   0.02514
  -2.20483  -1.20598  -0.03606
  -2.13283  -1.20198   0.16224
  -2.02713  -1.00538   0.00764
  -1.98783  -0.99018  -0.13356
  -1.35353  -0.90528  -0.34866
  -1.11363  -0.67378  -0.53296
  -0.83443  -0.55638  -0.76766
  -0.45003  -0.21478  -0.58946
  -0.40053  -0.22418  -0.78496
  -0.31193   0.05262  -0.64916
  -0.30533   0.14852  -0.44776
  -0.44983   0.36972  -0.22006
  -0.93453   0.52052  -0.31426
  -1.33523   0.59442  -0.33156
  -1.65583   0.84922  -0.28506
  -2.07033   0.88312  -0.21426
  -2.06943   1.00592  -0.22336
  -2.42323   0.89532   0.01954
  -2.63033   0.72272   0.18794
  -2.65353   0.61172   0.36094
  -2.57933   0.34182   0.73484
  -2.63763   0.05942   0.80234
  -2.54193  -0.12408   0.86154
  -2.25133  -0.24238   0.95974
  -2.02473   0.12002   0.85984
  -1.99443   0.36782   0.77014
  -2.02433   0.63882   0.81574
  -1.79373   1.01082   0.61154
  -1.67123   1.11672   0.48624
  -1.33803   1.28152   0.48184
  -1.34693   1.14172   0.63914
  -1.12043   1.01382   0.55384
  -0.86153   0.58012   0.55684
  -0.77223   0.25302   0.35114
  -0.70753  -0.09228   0.28214
  -0.79983  -0.36098  -0.00966
  -0.89453  -0.43458  -0.32806
  -0.87213  -0.44118  -0.74546
  -0.84243  -0.49168  -1.11766
  -0.76363  -0.37518  -1.41036
  -0.56373  -0.51008  -1.61776
  -0.48393  -0.42148  -1.58736
  -0.18863  -0.54798  -1.55026
   0.03037  -0.60788  -1.42976
   0.63577  -0.85828  -1.30846
   0.88127  -1.04248  -1.02176
   1.38717  -0.99368  -0.80456
   1.63757  -1.04948  -0.28506
   1.83307  -0.91628  -0.38916
   1.83727  -0.68248  -0.22946
   1.83537  -0.55758  -0.24996
   1.58707  -0.54148  -0.38066
   1.36007  -0.52578  -0.43306
   1.29947  -0.61748  -0.70546
   0.83327  -0.99038  -0.61056
   0.80707  -1.44748  -0.56356
   0.35287  -1.66768  -0.52406
   4.7E-40  -2.23068  -0.47866
  -0.20013  -2.33638  -0.35106
  -0.24433  -2.37098  -0.52826
  -0.14423  -2.22838  -0.53876
  -0.23103  -1.88448  -0.77446
   0.13657  -1.47838  -1.06016
   0.60997  -1.03108  -1.30496
   1.05707  -1.00468  -1.45506
   1.22447  -0.89268  -1.40036
   1.13557  -0.92938  -1.35106
   0.87677  -1.17038  -1.23086
   0.54967  -1.42248  -0.98186
   0.05827  -1.59408  -0.52196
  -0.55503  -1.51128  -0.34816
  -1.22163  -1.44328  -0.26356
  -1.78093  -1.06238  -0.16836
  -2.11523  -0.53418  -0.23856
  -2.42783  -0.00818  -0.52356
  -2.46503   0.31472  -0.69586
  -2.39163   0.50392  -0.75296
  -2.32193   0.53332  -0.83986
  -2.23243   0.57332  -0.75616
  -1.94853   0.25072  -0.80596
  -1.67803  -0.04458  -0.60566
  -1.46693  -0.45678  -0.56826
  -1.22983  -0.89168  -0.85326
  -1.07783  -1.11588  -0.88596
  -1.04373  -1.40958  -1.01616
  -1.16133  -1.73408  -1.16136
  -1.26093  -1.84498  -1.18426
  -1.33643  -2.12088  -1.12356
  -1.23243  -2.12388  -1.13126
  -1.25133  -2.35118  -1.24926
  -1.02543  -2.26698  -1.37276
  -0.98573  -2.25598  -1.27966
  -0.75873  -2.16668  -1.42026
  -0.55183  -2.20108  -1.58066
  -0.39813  -2.09958  -1.57526
  -0.27163  -1.92048  -1.76816
  -0.20593  -1.72528  -1.91916
  -0.29183  -1.45328  -2.51796
  -0.43793  -1.09368  -2.88686
  -0.61933  -1.02428  -3.29446
  -0.87163  -0.83958  -3.28276
  -1.33713  -0.87818  -3.59326
  -1.48113  -0.80868  -3.56046
  -1.54433  -0.88278  -3.19696
  -1.49543  -0.91788  -2.98046
  -1.43533  -0.91878  -2.55026
  -0.74393  -0.99038  -2.26146
  -0.28503  -1.03548  -1.88226
   0.12747  -0.85358  -1.52636
   0.50037  -0.71048  -1.25886
   0.78907  -0.54498  -1.17236
   1.05847  -0.54378  -1.07086
   1.34327  -0.47128  -1.19206
   1.44847  -0.39178  -1.13846
   1.63687  -0.54758  -0.88456
   1.71687  -0.48578  -0.87706
   1.90367  -0.55498  -0.77166
   1.98087  -0.63408  -0.67506
   1.89007  -0.43348  -0.70756
   1.72647  -0.05088  -0.80906
   0.98997   0.47932  -1.16136
   0.65697   0.94022  -1.55066
   0.18377   1.53972  -1.86116
  -0.15923   2.03932  -2.17076
  -0.50733   2.28252  -2.54366
  -0.67753   2.32432  -2.46836
  -0.54783   2.44802  -2.22006
  -0.24993   2.29672  -1.57756
   0.03627   2.41362  -0.89346
   0.25487   2.41692  -0.02646
   0.47397   2.26452   0.54304
   0.75127   2.20482   1.24384
   0.99677   2.18712   1.71754
   1.16697   1.94112   2.06234
   1.28317   1.88292   2.27724
   1.47467   1.61962   2.64154
   1.76197   1.46532   2.80894
   1.89297   1.23062   3.02024
   2.07417   0.89182   3.49004
   2.47117   0.64532   3.89544
   2.54107   0.43962   4.15194
   2.57047   0.43122   4.25594
   2.21677   0.44052   4.13224
   1.72717   0.63972   3.84424
   1.18467   0.62452   3.41334
   0.54827   0.81532   3.32494
   0.12297   0.86182   3.09274
  -0.29833   0.69562   3.28054
  -0.40523   0.29862   3.54914
  -0.58873  -0.00258   3.95384
  -0.51113  -0.33058   4.18024
  -0.38903  -0.59318   4.40024
  -0.38793  -0.98808   4.57904
  -0.25043  -1.22188   4.50284
  -0.01893  -1.29038   4.34664
   0.37547  -1.26608   4.47624
   0.55717  -1.21808   4.45914
   1.00747  -1.39768   4.43174
   1.47487  -1.37148   4.40094
   1.98857  -1.34368   4.55714
   2.67737  -1.32868   4.75184
   3.01097  -1.07918   4.99624
   2.92757  -0.77368   5.20564
   2.97597  -0.44978   4.98894
   2.69557   0.02992   5.11034
   2.19217   0.54322   4.63284
   1.59627   0.92332   4.21874
   1.18687   1.03952   3.90264
   0.74567   1.23452   3.31204
   0.40987   1.44642   2.85894
   0.21067   1.35192   2.33334
   0.25577   1.14872   1.52814
   0.41147   0.78092   0.82524
   0.75617   0.62382   0.17464
   1.40967   0.42092  -0.47006
   1.88357   0.15412  -1.05076
   2.29947   0.14292  -1.33256
   2.57237  -0.06148  -1.69096
   2.57677   0.08892  -1.91936
   2.55037   0.36992  -1.78096
   2.36827   0.48352  -1.70336
   2.02267   0.89972  -1.29466
   2.00327   1.36482  -1.15206
   1.89107   1.54222  -0.65586
   2.06127   1.90932  -0.30726
   2.32877   2.05992   0.05414
   2.65487   2.11532   0.35064
   2.78487   2.05942   0.45774
   3.04347   1.88762   0.58724
   3.14427   1.81912   0.29014
   3.34347   1.64282   0.16734
   3.32877   1.56092  -0.10436
   3.48567   1.69862  -0.49336
   3.64247   1.73112  -0.59486
   3.80757   1.67202  -0.95826
   3.78137   1.93132  -1.23246
   3.71667   2.26352  -1.27296
   3.69657   2.61192  -1.41136
   3.54337   3.15042  -1.20046
   3.49337   3.16882  -0.84176
   3.44377   3.32032  -0.73566
   3.20317   3.56822  -0.62266
   3.18027   3.72302  -0.92736
   3.37457   3.93972  -0.99516
   3.68627   4.09732  -0.97486
   4.01797   3.92922  -0.95586
   4.43047   3.60512  -0.87596
   5.05937   3.09262  -0.60286
   5.59017   2.81232  -0.38046
   5.98157   2.35402  -0.17476
   6.19597   2.11952   0.02894
   6.13397   1.98602   0.20214
   6.19567   2.08822   0.47664
   5.77507   2.26242   0.61434
   5.54807   2.64142   0.72334
   5.10527   2.99492   0.90614
   4.59807   3.20232   1.00484
   4.13137   3.49902   1.19164
   3.51247   3.56612   1.58234
   2.89157   3.24152   1.78154
   2.31727   3.21092   2.19494
   1.58827   2.71382   2.53254
   1.02337   2.21682   2.45374
   0.61517   1.80132   2.53094
   0.13117   1.30282   2.46314
  -0.43533   1.11252   1.94474
  -0.96023   0.94582   1.50424
  -1.41943   0.98952   1.19404
  -1.80223   0.99982   0.97704
  -2.19193   1.06362   0.80074
  -2.54503   1.27172   0.73174
  -2.68813   1.12702   0.71844
  -2.67543   0.91002   0.43694
  -2.46923   0.96212   0.61724
  -2.30323   0.81062   0.55244
  -1.96683   0.59832   0.21344
  -1.34093   0.83352   0.25694
  -0.88313   0.66662  -0.17916
  -0.43133   0.72672  -0.50786
   0.06947   0.93852  -0.92216
   0.50617   0.75572  -1.48496
   0.79427   0.48632  -1.77486
   1.03417   0.45782  -2.05686
   0.95957   0.34332  -2.46556
   0.77787   0.16282  -2.90816
   0.24227   0.01782  -3.05646
  -0.24243  -0.15238  -3.19016
  -0.83123  -0.00178  -3.29726
  -1.12953   0.03792  -3.37186
  -1.18653   0.28922  -3.29536
  -1.28173   0.27542  -3.20226
  -0.99743   0.36012  -3.28456
  -0.45853   0.46062  -3.35246
  -0.08743   0.71662  -3.59046
   0.05327   0.80852  -3.64136
   0.59227   1.10692  -3.66856
   0.86647   1.36452  -3.82756
   1.17557   1.47142  -3.88966
   1.17627   1.59462  -3.49596
   1.23757   1.24812  -3.24066
   0.92847   0.91232  -2.63506
   0.66357   0.35732  -2.32716
   0.41387   0.08632  -2.04516
   0.26487  -0.11808  -1.84976
   0.14197  -0.24428  -1.55556
   0.02667   0.01482  -1.49716
  -0.09473   0.08472  -1.25516
  -0.02403   0.05712  -0.58346
   0.30957   0.13452  -0.27946
   0.45547  -0.08248   0.40814
   0.88097  -0.23988   0.95854
   0.96307  -0.56668   1.21974
   1.06407  -0.98518   1.21014
   0.67997  -1.18418   1.10984
   0.52277  -1.37058   0.73574
   0.24297  -1.23218   0.47944
   0.19987  -1.02638   0.03874
  -0.11853  -0.74538  -0.25516
  -0.27613  -0.41568  -0.28296
  -0.55673  -0.19188  -0.03836
  -0.99673  -0.14728  -0.16796
  -1.50503  -0.27448   0.14164
  -2.15523  -0.09908   0.47134
  -2.73533  -0.14208   0.47784
  -3.49963   0.22312   0.47714
  -4.19853   0.46092   0.46244
  -4.86533   0.83522   0.36214
  -5.15543   1.29882   0.40514
  -5.53073   1.50812   0.60084
  -5.56513   1.61192   0.47134
  -5.35213   1.71972   0.56014
  -4.85853   1.85392   0.69504
  -4.25553   1.82302   0.72964
  -3.44893   1.86112   0.66394
  -2.68433   1.86442   0.61484
  -2.03203   1.98202   0.54004
  -1.77323   2.14782   0.39504
  -1.41823   2.37132   0.11284
  -1.28683   2.05172   0.07284
  -1.17533   1.97382  -0.10016
  -0.96003   1.90252  -0.16046
  -1.07173   1.48452  -0.25566
  -1.22843   0.78912  -0.35056
  -1.58213   0.07722  -0.18386
  -1.86343  -0.42898  -0.31196
  -2.32593  -0.72848  -0.35706
  -2.64743  -1.23708  -0.60326
  -2.99063  -1.71848  -0.76036
  -3.10313  -1.87888  -0.83616
  -3.22043  -2.16288  -1.28536
  -2.90853  -2.32868  -1.72796
  -2.57773  -2.40208  -2.12066
  -2.09583  -2.74398  -2.49876
  -1.78513  -2.81248  -2.82306
  -1.44633  -2.87188  -3.06876
  -1.42063  -2.93218  -3.11676
  -1.66403  -2.92018  -2.86326
  -2.10683  -2.88988  -2.64306
  -2.77643  -2.81758  -2.28646
  -3.53543  -2.58538  -1.88896
  -4.35003  -2.47178  -1.59906
  -5.13443  -2.19428  -1.52936
  -5.96043  -2.19448  -1.29726
  -6.78863  -2.28568  -0.99986
  -7.58453  -2.40028  -0.65336
  -8.18563  -2.55918  -0.19556
  -8.40283  -2.63428   0.41284
  -8.56413  -2.79868   0.85404
  -8.67783  -2.97848   1.21854
  -8.72973  -2.93028   1.64574
  -8.72103  -3.07568   1.69954
  -8.57093  -3.04668   1.78814
  -8.17023  -2.84358   1.98894
  -7.85453  -2.49398   2.13084
  -7.36333  -2.10498   2.03784
  -7.02523  -1.56698   1.98704
  -6.77113  -1.04978   2.00224
  -6.54333  -0.49728   2.16734
  -6.28333  -0.29928   2.14744
  -5.99973  -0.11268   2.29964
  -5.78393   0.05082   2.42824
  -5.49733  -0.06258   2.42364
  -4.91533  -0.55668   2.52574
  -4.23053  -1.07848   2.37964
  -3.88913  -1.32048   2.12244
  -3.39513  -1.70558   1.76194
  -2.98273  -2.01538   1.41494
  -2.77343  -2.26418   0.86454
  -2.51853  -2.42878   0.16684
  -2.22353  -2.55598  -0.48896
  -1.98503  -2.77058  -0.93506
  -1.61963  -2.80618  -1.36766
  -1.55623  -2.65788  -1.92786
  -1.30343  -2.56698  -2.15296
  -1.12743  -2.29928  -2.41526
  -1.01053  -1.91158  -2.80436
  -0.81433  -1.58498  -2.87006
  -0.70163  -1.22298  -2.91516
  -0.55553  -0.93238  -2.90256
  -0.10213  -0.80448  -2.57076
   0.31897  -0.64828  -2.28626
   0.73557  -0.87118  -1.90376
   1.49987  -1.08738  -1.93176
   2.03957  -1.35468  -1.73776
   2.65817  -1.46528  -2.06716
   3.31987  -1.60548  -2.23716
   4.09217  -1.75118  -2.32876
   4.53937  -1.77878  -2.68346
   5.12607  -1.67638  -2.87736
   5.54107  -1.49098  -3.16746
   6.02967  -1.35068  -3.19416
   6.15877  -1.11808  -3.48566
   6.81927  -0.89758  -3.08816
   6.87257  -0.93728  -2.81816
   6.88217  -0.47948  -2.33866
   6.98457  -0.44418  -1.86816
   6.85197  -0.14908  -1.18856
   6.50507  -0.21508  -0.49576
   5.81317  -0.36958   0.02474
   5.21487  -0.39158   0.35444
   4.59037  -0.66468   0.45424
   3.51767  -0.63408   0.36634
   2.62967  -0.85218   0.14284
   2.21977  -1.12388  -0.21676
   1.80077  -0.89938  -0.65446
   1.44147  -0.84748  -1.05336
   1.26237  -0.66588  -1.50296
   1.19287  -0.73508  -1.66196
   1.29717  -0.67918  -1.39146
   1.79497  -0.55918  -1.64416
   2.48607  -0.58328  -1.47866
   3.07107  -0.63378  -1.19976
   4.00747  -0.74718  -0.89886
   4.66167  -0.74418  -0.63576
   5.15387  -0.49278  -0.23106
   5.50457  -0.56628  -0.06766
   5.50527  -0.93938  -0.08356
   5.22917  -1.35608  -0.12116
   4.71567  -1.86718  -0.35526
   4.15617  -2.42528  -0.60566
   3.74357  -2.76498  -0.95396
   3.18257  -3.25198  -1.26446
   2.88687  -3.54798  -1.61666
   2.61797  -3.90758  -1.86396
   2.55507  -4.08368  -2.37766
   2.59087  -4.26818  -2.62976
   2.42457  -4.40028  -3.06066
   2.39137  -4.36468  -3.15836
   2.37267  -4.50778  -3.47676
   1.87027  -4.21718  -3.82286
   1.74887  -3.87208  -3.89156
   1.27167  -3.58888  -4.03536
   1.22467  -3.33638  -4.13656
   1.48217  -3.06398  -4.26726
   1.91517  -2.81358  -4.10016
   2.23947  -2.84098  -3.90516
   2.82367  -2.65418  -3.60286
   3.28807  -2.65038  -3.26546
   3.70377  -2.65018  -2.89716
   4.14407  -2.65088  -2.52306
   4.16667  -2.51108  -2.24416
   3.93387  -2.31958  -2.08846
   3.63597  -2.01488  -1.99426
   2.88497  -1.36568  -1.74806
   2.15287  -0.75708  -1.56516
   1.14827  -0.39718  -1.52146
   0.23447   0.07832  -1.04986
  -0.85453   0.27762  -0.67666
  -1.75173   0.56562  -0.57846
  -2.52373   0.71642  -0.14896
  -3.13003   0.74452   0.07354
  -3.52953   0.71782   0.35484
  -3.94173   0.69192   0.46314
  -3.87653   0.67222   0.46894
  -3.51933   0.67552   0.46564
  -3.16343   0.85252   0.42174
  -2.69623   1.02832   0.38194
  -2.07553   1.13542   0.31204
  -1.66333   1.50692   0.37874
  -1.27773   1.65192   0.33244
  -0.81433   1.84012   0.28234
  -0.58143   1.86002   0.21854
  -0.19383   1.71292   0.26644
   0.01267   1.77562   0.32474
  -0.13003   1.57382   0.34134
  -0.55643   1.30912   0.24594
  -1.21133   1.35732   0.35954
  -2.10543   1.13262   0.48934
  -2.86553   0.82652   0.58844
  -3.79093   0.48682   0.68754
  -4.53613   0.18752   0.89984
  -4.96583   0.00312   1.18374
  -5.36613  -0.24588   1.12334
  -5.41713  -0.28658   1.14934
  -5.27843  -0.36798   1.25384
  -4.91983  -0.45708   1.24404
  -4.55323  -0.59268   1.24734
  -3.71143  -1.01068   1.23864
  -2.87653  -1.22888   1.38714
  -2.28943  -1.67548   1.66514
  -1.71073  -1.85898   2.00344
  -1.36803  -1.89358   2.10444
  -1.13423  -1.81778   2.22744
  -0.76453  -1.53348   2.20194
  -0.68813  -1.26888   1.83694
  -0.42923  -1.17788   1.53024
   0.06987  -0.92098   1.44674
   0.19737  -0.81108   1.22064
   0.66287  -0.56598   1.11194
   0.86717  -0.48538   1.33684
   1.20367  -0.20618   1.49744
   1.26117   0.02152   1.79304
   1.37197   0.10222   1.82834
