********************************************************************************
              CENTRO DE INSTRUMENTACION Y REGISTRO SISMICO  A.C.

    Anaxagoras 814, Col. Narvarte, Benito Juarez, C.P. 03020 Mexico, D.F.
           Tels. 5687 45 42/ 5687 45  82             Fax. 5669 25 12
********************************************************************************
ARCHIVO ESTANDAR DE ACELERACION:
VERSION DEL FORMATO                    : 2.0
NOMBRE DEL ARCHIVO                     : CH8420210908014746
FECHA Y HORA DE CREACION               : 07/SEP/21, 23:16
REF. CATALOGO ACELEROGRAMAS, SMIS 1996 : REGISTRO No.     /PAG.


================================================================================
DATOS DE LA ESTACION:
NOMBRE DE LA ESTACION                  : CULHUACÁN
CLAVE DE LA ESTACION                   : CH84
LOCALIZACION DE LA ESTACION            : Del. Coyoacán, Col. Ampliación         
                                       : San  Francisco Culhuacán,  entre       
                                       : Calle Ejido Santa Úrsula               
                                       : y Ejido Culhuacán.                     
                                       : 
COORDENADAS DE LA ESTACION             : 19.3300 LAT. N
                                       : 99.1254 LONG. W
ALTITUD (msnm)                         : 2234
TIPO DE SUELO                          : Alto riesgo sísmico                 
                                       :                           
                                       : 
INSTITUCION RESPONSABLE                : CIRES, A. C.
                                       : 

================================================================================
DATOS DEL ACELEROGRAFO:
MODELO DEL ACELEROGRAFO                : RAD_IO14
NUMERO DE SERIE DEL ACELEROGRAFO       : 
NUMERO DE CANALES                      : 3
ORIENTACION C1-C6 (rumbo;orientacion)  : /N00E/+V/N90W
ORIENTACION C7-C12 (rumbo;orientacion) : 
VEL. DE MUESTREO, C1-C6 (muestras/s)   : /100/100/100
VEL. DE MUESTREO, C7-C12 (muestras/s)  : 
ESC. COMPLETA DE SENSORES, C1-C6, (g)  : /2.0/2.0/2.0
ESC. COMPLETA DE SENSORES, C7-C12, (g) : 
FREC. NAT. DE SENSORES, C1-C6, (Hz)    : /32/30/33
FREC. NAT. DE SENSORES, C7-C12, (Hz)   : 
AMORTIGUAMIENTO DE SENSORES, C1-C6     : /0.793/0.714/0.776
AMORTIGUAMIENTO DE SENSORES, C7-C12    : 
INTERVALO DE MUESTREO, C1-C6, (s)      : /0.01/0.01/0.01
INTERVALO DE MUESTREO, C7-C12, (s)     : 
UMBRAL DE DISPARO, C1-C6, (Gal)        : / / /
UMBRAL DE DISPARO, C7-C12, (Gal)       : 
MEMORIA DE PREEVENTO (s)               : 60
TIEMPO DE POSEVENTO (s)                : 90


================================================================================
DATOS DEL SISMO:
FECHA DEL SISMO (GMT)                  : 08/SEP/21
HORA EPICENTRO (GMT)                   : 01:47:46.0
MAGNITUD(ES)                           : /Mc=7.1
COORDENADAS DEL EPICENTRO              : 16.78 LAT. N
                                       : 99.93 LONG. W
PROFUNDIDAD FOCAL (km)                 : 10
FUENTE DE LOS DATOS EPICENTRALES       : SSN
                                       : INSTITUTO DE GEOFISICA, UNAM

================================================================================
DATOS DE ESTE REGISTRO:
HORA DE LA PRIMERA MUESTRA (GMT)       : 20:55:25.00
EXACTITUD DEL TIEMPO (s)               : 
DURACION DEL REGISTRO (s), C1-C6       : /573.36/573.36/573.36
DURACION DEL REGISTRO (s), C7-C12      : 
NUM. TOTAL DE MUESTRAS, C1-C6          : /57336/57336/57336
NUM. TOTAL DE MUESTRAS, C7-C12         : 
ACEL. MAX. (Gal), C1-C6                : /34.02571/8.8009/32.79115
ACEL. MAX., C1-C6, EN LA MUESTRA       : /5119/5326/5644
ACEL. MAX. (Gal), C7-C12               : 
ACEL. MAX., C7-C12, EN LA MUESTRA      : 
UNIDADES DE LOS DATOS                  : Gal (cm/s/s)
FACTOR DE DECIMACION                   : 1
FORMATO DATOS (FORTRAN,10 campos/dato) : 3F10.5


================================================================================
CALIDAD DEL ACELEROGRAMA:
REGISTRO DIGITAL COMPLETO CON TIEMPO ABSOLUTO CORRECTO.


================================================================================
COMENTARIOS:














================================================================================
DATOS DE ACELERACION:
---------+---------+---------+---------+---------+---------+---------+---------+
   CANAL-1   CANAL-2   CANAL-3   CANAL-4   CANAL-5   CANAL-6   CANAL-7   CANAL-8
      N00E        +V      N90W
---------+---------+---------+---------+---------+---------+---------+---------+
[...]
   7.73579   3.01530   0.36625
   7.71169   2.63660  -0.61875
   7.98989   2.42290  -1.84835
   8.19899   2.01210  -3.04755
   8.33439   1.63700  -4.74175
   8.70349   1.10230  -6.48545
   8.97079   0.61020  -8.40205
   9.30609  -6.0E-40 -10.29685
   9.63989  -0.57690 -11.99685
   9.90159  -0.87620 -13.61455
  10.16529  -1.18220 -14.93275
  10.81829  -1.00870 -15.94865
  11.45759  -0.89300 -16.66105
  12.13679  -0.64750 -17.44105
  12.83399  -0.37680 -17.77025
  13.49709  -0.17400 -18.05135
  14.10709  -0.16590 -18.10365
  14.83119  -0.12280 -17.89095
  15.35189  -0.14600 -17.61575
  15.93269  -0.44340 -17.19225
  16.34949  -0.72330 -16.59445
  16.58219  -0.87590 -15.94145
  16.77109  -1.13640 -15.58085
  17.51739  -1.19880 -15.17755
  17.77549  -1.28700 -14.52945
  18.11389  -0.91970 -14.03335
  18.33879  -0.47730 -13.09975
  18.11639   0.00460 -12.26645
  17.63569   0.78690 -11.51305
  16.91609   1.42990 -10.90755
  15.73699   1.62250 -10.27925
  14.82459   2.01820  -9.80465
  14.10399   2.01650  -9.27105
  13.03809   1.99620  -8.44695
  12.21909   1.91620  -7.61645
  11.54759   1.87270  -6.80765
  10.50359   1.95690  -6.04565
   9.47999   1.96460  -5.61855
   8.29089   2.02610  -5.24275
   7.02009   2.10050  -5.03475
   5.63569   2.11820  -4.96105
   4.20929   2.06190  -5.02135
   3.02829   2.08990  -5.17735
   1.60629   1.83130  -5.44975
   0.24059   1.50560  -5.89275
  -0.58801   1.29730  -6.43355
  -1.59881   0.86520  -7.09595
  -2.21721   0.43060  -7.67325
  -2.58551  -0.32390  -8.13265
  -2.93481  -0.88060  -8.41235
  -3.38481  -1.38330  -8.47475
  -3.87841  -2.03380  -8.56915
  -4.63691  -2.67320  -8.62155
  -5.44521  -2.85560  -8.44805
  -6.57911  -3.27180  -7.64375
  -7.73351  -3.43190  -6.94425
  -9.15551  -3.52340  -5.96505
 -10.77131  -3.51560  -4.62885
 -12.31561  -3.37280  -3.07655
 -13.59921  -3.08920  -1.50885
 -14.81251  -2.40930   0.26555
 -15.72391  -1.80910   2.00855
 -16.26301  -1.13760   3.69735
 -16.62521  -0.31500   5.48975
 -16.64091   0.31950   7.20305
 -16.51461   0.92020   8.52015
 -16.26891   1.37940   9.98445
 -15.96871   1.66280  11.01365
 -15.74821   1.66880  11.72915
 -15.56421   1.43390  12.46125
 -15.66051   1.02940  13.04245
 -15.92211   0.61060  13.24535
 -16.37691   0.03480  13.48275
 -16.77461  -0.59750  13.38455
 -16.73061  -1.21400  13.25635
 -16.75261  -1.49760  13.00765
 -16.73981  -1.87780  12.70675
 -16.73461  -2.15840  12.30925
 -16.26231  -2.17100  12.09975
 -16.19151  -2.33000  12.05155
 -15.78721  -2.20610  11.89915
 -15.62261  -2.23810  11.58555
 -15.41341  -2.40180  11.55775
 -15.02381  -2.43050  11.54285
 -14.92851  -2.48660  11.71235
 -14.73111  -2.66670  11.69335
 -14.75941  -2.62040  11.54325
 -14.90181  -2.70620  11.39015
 -15.52421  -2.60280  11.16495
 -15.63151  -2.19880  10.83715
 -16.15341  -1.94090  10.74505
 -16.45151  -1.34590  10.63705
 -16.73041  -0.81090  10.57645
 -16.83521  -0.21660  10.56125
 -16.87091   0.10050  10.29665
 -16.93381   0.52860  10.03805
 -16.43391   0.45700   9.76795
 -15.91861   0.41400   9.49885
 -15.34161   0.49610   9.42235
 -15.09841   0.42080   9.85185
 -15.04861   0.55570  10.44205
 -15.05681   0.47740  10.97445
 -14.81221   0.39390  11.81355
 -14.87401  -0.02250  12.40085
 -14.74301  -0.65080  13.11775
 -14.79001  -1.20020  13.69785
 -14.58221  -2.20210  14.12545
 -14.32201  -3.10600  14.60875
 -14.10851  -4.10390  14.59515
 -13.71361  -5.13380  14.45485
 -13.20271  -5.97020  13.95545
 -12.65091  -6.94420  13.39995
 -11.92591  -7.63180  12.66395
 -11.45221  -8.07140  11.87695
 -10.92941  -8.38730  11.14295
 -10.35701  -8.27360  10.44105
  -9.92141  -8.16750   9.83815
  -9.48911  -7.84340   9.26645
  -9.05521  -7.33000   8.64355
  -8.56461  -6.65050   7.89355
  -7.96471  -6.19600   7.28165
  -6.79381  -5.39200   6.46265
  -5.86041  -4.73750   5.99455
  -4.61071  -3.73490   5.51215
  -3.35611  -2.90380   5.01955
  -1.81901  -2.16560   4.54935
  -0.47371  -1.20050   3.89145
   1.02879  -0.26710   3.42585
   2.38179   0.61720   2.63115
   3.75429   1.29050   1.87245
   4.85429   1.71230   0.79225
   5.67689   1.94010  -0.29215
   6.61539   2.20520  -1.39545
   7.19969   2.28630  -2.58015
   7.89409   2.32020  -3.79695
   8.79919   2.50610  -5.07255
   9.72969   2.73850  -6.21075
  10.49899   2.83320  -7.21495
  11.32479   3.00200  -7.98515
  12.14729   3.02310  -8.58255
  12.67009   3.03590  -9.15725
  13.13349   3.18580  -9.51795
  13.35099   3.43130  -9.67485
  13.30509   3.34080  -9.61295
  13.09309   3.18580  -9.46465
  12.56749   3.32330  -9.13715
  12.15879   2.96090  -8.87665
  11.69089   2.63400  -8.37845
  11.38979   2.22970  -8.02485
  11.17889   1.94170  -7.86005
  10.91579   1.86480  -7.67905
  10.54129   1.90410  -7.42635
  10.50569   1.81220  -7.15395
  10.29579   2.00510  -7.10325
  10.05889   2.08550  -7.04455
  10.07999   2.04830  -7.16025
  10.42789   1.94710  -7.49885
  10.85389   1.69060  -7.97715
  11.48749   1.58980  -8.55775
  12.27079   1.40090  -9.29985
  13.40539   1.16970  -9.70505
  14.11569   1.03010 -10.35505
  14.72389   0.90570 -10.73095
  15.24009   0.84910 -11.30895
  15.80309   0.81260 -11.60445
  16.09559   0.99270 -11.59165
  16.37529   0.89420 -11.63865
  16.32639   0.84980 -11.79835
  16.35519   1.07750 -11.62155
  16.34209   1.01140 -11.34385
  15.94299   0.90220 -11.23115
  15.76709   0.72050 -11.04105
  15.25059   0.77500 -10.80585
  14.86999   0.93490 -10.77985
  14.51199   0.86660 -11.13125
  13.95649   1.18950 -11.43005
  13.43699   1.32700 -12.01155
  13.00259   1.56900 -12.80445
  12.18539   1.90710 -13.74225
  11.32059   2.24560 -14.81095
  10.77229   2.58400 -15.52615
   9.94829   2.93610 -16.06905
   9.14659   3.11750 -16.61595
   8.28779   3.28910 -16.86075
   7.52629   3.24000 -16.83315
   6.33389   3.06370 -16.62995
   4.93429   3.05860 -16.09475
   3.42039   2.78430 -15.26005
   1.86209   2.58470 -14.49065
  -1.0E-50   2.67260 -13.55565
  -1.61821   2.71860 -12.54655
  -3.24481   2.51940 -11.68005
  -4.33291   2.64010 -10.73585
  -5.36801   2.54230  -9.93655
  -6.22121   2.49090  -9.37915
  -6.96631   2.73220  -8.90865
  -7.67101   2.92510  -8.06535
  -8.04441   2.90760  -7.09365
  -8.24081   3.14790  -6.17105
  -8.23991   3.03970  -5.13805
  -8.35001   3.02450  -4.10695
  -7.83241   2.99410  -2.96105
  -7.54311   2.70180  -1.76585
  -7.18611   2.77410  -0.91685
  -6.60951   2.82010   0.04155
  -5.93011   2.64290   0.78615
  -5.10051   2.52740   1.57975
  -4.54901   2.60340   1.97535
  -3.83141   2.67260   2.40675
  -3.26281   2.44790   3.14935
  -2.72251   2.62700   3.84695
  -2.22471   2.21150   4.80045
  -1.88501   2.22530   5.69405
  -1.56251   2.22970   6.95545
  -1.02131   2.06610   8.06955
  -0.68551   2.10210   9.09905
  -0.71801   2.07660   9.77175
  -0.47321   2.22160  10.33915
  -0.28831   2.34600  10.51895
  -0.04071   2.48930  10.47385
   0.40029   2.61200  10.10675
   0.64159   2.76100   9.73105
   0.90929   3.02960   9.12385
   0.88749   3.56430   8.74595
   0.96629   3.92720   8.45235
   0.73019   4.18860   8.16755
   0.60249   4.40770   8.08945
   0.47839   4.68500   8.07935
   0.70799   4.72120   8.25755
   1.04069   4.56760   8.73995
   1.19869   4.35970   8.98985
   1.44309   3.97440   9.55235
   1.57029   3.50910  10.15845
   1.56509   2.98450  11.17615
   1.45269   2.46960  11.52435
   1.20459   2.00900  11.90755
   0.86419   1.59310  12.60005
   0.80619   1.15890  13.18575
   0.62029   0.78010  13.76745
   0.72219   0.44580  13.94095
   0.88989   0.25590  14.24115
   1.41219  -0.04730  14.74645
   2.28079  -0.45040  14.98305
   3.05539  -0.59370  15.05085
   4.05799  -0.71480  14.97095
   5.21859  -1.07300  14.68585
   6.16459  -1.12330  14.30825
   7.39889  -0.97720  13.60075
   8.46719  -0.96850  13.06325
   9.72899  -0.74410  12.32445
  10.74939  -0.72770  11.75465
  11.66989  -0.63740  11.18765
  12.52159  -0.51400  10.80655
  13.16179  -0.44830  10.36395
  13.81159  -0.22850  10.04735
  14.45269  -0.14180   9.80275
  14.96869  -0.01650   9.30685
  15.30579   0.08710   8.64315
  15.75219   0.01000   7.78155
  16.47629  -0.14830   7.27185
  16.90789  -0.27150   6.41285
  17.58519  -0.51380   5.74575
  18.17999  -1.05430   5.05975
  18.95649  -1.58620   4.44085
  19.46619  -2.19270   4.06275
  19.99929  -2.52260   3.36835
  20.37499  -2.70850   2.73705
  20.53569  -3.04870   2.43755
  20.71849  -3.16520   2.28655
  20.49589  -3.21870   1.92135
  20.06169  -3.12540   1.53205
  19.54639  -3.11420   1.05415
  18.63389  -3.22830   0.76185
  17.72079  -3.05080  -0.02725
  16.40709  -2.91330  -0.49955
  15.16879  -2.79640  -0.98745
  13.90269  -2.68190  -1.45935
  12.69439  -2.49320  -1.66695
  11.49469  -2.39800  -2.02955
  10.43979  -2.24000  -2.49715
   9.38489  -1.70410  -3.20075
   8.48979  -1.37460  -4.07495
   7.71549  -1.05410  -5.00335
   6.98129  -0.53130  -6.25635
   6.56649   0.07990  -7.44525
   6.12879   0.57200  -8.41305
   5.50479   1.29900  -9.56285
   4.40049   2.02820 -10.32505
   3.14589   2.44910 -10.84695
   1.98879   2.97400 -11.15025
   0.70979   3.21030 -11.41415
  -0.71971   3.18950 -11.40275
  -1.71151   3.08760 -11.21385
  -2.97711   2.78830 -11.10995
  -4.05281   2.40020 -10.49505
  -5.07861   2.00080 -10.03705
  -5.99181   1.51570  -9.59655
  -6.91911   0.83950  -9.36995
  -7.58831   0.25900  -8.94865
  -8.06991  -0.27970  -8.49885
  -8.62311  -1.16590  -8.09615
  -9.44261  -1.98890  -7.72985
 -10.00491  -2.86660  -7.57315
 -10.48841  -3.66530  -7.46745
 -11.27781  -4.41880  -7.02205
 -11.69771  -5.02490  -6.91245
 -11.95511  -5.40880  -6.63165
 -11.86461  -5.78050  -6.69915
 -12.22191  -6.03980  -6.69635
 -12.24711  -6.28630  -6.96455
 -12.43251  -6.49550  -7.31975
 -12.64021  -6.90450  -7.82195
 -13.17771  -6.97810  -8.31645
 -14.05541  -7.02740  -8.60825
 -15.02171  -7.09850  -8.93695
 -16.04111  -7.08450  -8.83175
 -17.54381  -6.74940  -8.58415
 -18.85881  -6.39150  -8.42895
 -20.33431  -5.80790  -7.80205
 -21.70941  -5.17870  -7.31695
 -23.34091  -4.24910  -6.77965
 -24.75081  -3.45580  -6.07745
 -26.01331  -2.53180  -5.43545
 -27.38741  -1.69050  -4.89675
 -28.39651  -1.06270  -4.56915
 -29.53521  -0.64070  -4.26365
 -30.83751  -0.22080  -4.34875
 -31.64441   0.02450  -4.42495
 -32.24831   0.28560  -4.40695
 -32.80731   0.33430  -4.43125
 -33.26141   0.24850  -4.42725
 -33.62821   0.01740  -4.23135
 -33.78091  -0.06090  -3.96455
 -33.91631  -0.28580  -3.30895
 -34.02571  -0.74360  -2.71535
 -33.89081  -1.00360  -2.22505
 -33.90271  -1.49970  -1.82665
 -33.74841  -1.92390  -1.17635
 -33.75541  -2.22430  -0.48105
 -33.50221  -2.71860   0.11165
 -32.72901  -3.10550   0.86035
 -32.26611  -3.38280   1.43035
 -31.40141  -3.70170   2.12245
 -30.72411  -4.02670   2.69405
 -29.54591  -4.04520   3.06535
 -28.30611  -4.08660   3.47855
 -26.92871  -4.00360   4.00225
 -25.29371  -3.92180   3.99175
 -23.56231  -3.85190   4.14695
 -22.11481  -3.69080   3.97795
 -20.29581  -3.76770   3.85075
 -18.57751  -3.95500   3.83745
 -17.25321  -3.92270   3.72635
 -15.69771  -3.78430   3.74595
 -13.89241  -3.65520   3.77405
 -12.33951  -3.69750   4.02585
 -10.58731  -3.32630   4.11355
  -8.93501  -3.01880   4.18625
  -6.89241  -2.74550   4.61435
  -5.31031  -2.40880   5.00765
  -3.71691  -1.83270   5.45765
  -2.14071  -1.32460   6.09995
  -0.61471  -0.99820   6.75815
   0.98549  -0.25050   7.23235
   2.38979   0.34290   7.44085
   3.88819   0.99430   7.70675
   5.21089   1.68800   7.76845
   6.61889   2.31770   7.87875
   7.93409   2.89000   7.91995
   9.16879   3.32840   7.57995
  10.55579   3.87160   6.76395
  11.77789   4.35340   5.76565
  13.04089   4.80540   4.76375
  14.08719   5.00550   3.56085
  15.03829   5.33050   2.31855
  16.03739   5.42100   0.79065
  16.62329   5.20820  -0.86915
  17.25489   4.79320  -2.31575
  17.53729   4.16850  -3.57945
  17.80799   3.75840  -5.00945
  18.08279   3.01180  -6.03795
  18.39119   2.37560  -6.87405
  18.73319   1.55330  -7.83265
  19.00279   1.01160  -8.73945
  19.46549   0.43270  -9.73825
  19.76759  -0.27060 -10.76795
  20.13909  -0.85890 -11.74875
  20.51929  -1.21260 -12.46535
  20.86929  -1.74500 -13.23485
  21.28379  -2.26970 -13.87855
  21.74139  -2.78760 -14.26035
  22.15739  -3.46960 -14.44315
  22.19269  -3.58340 -14.54045
  22.32129  -4.03820 -14.37935
  22.20619  -4.22690 -14.00925
  22.11429  -4.35010 -13.28745
  22.15569  -4.09570 -12.24305
  22.01469  -3.67140 -11.31365
  21.95069  -3.12560 -10.10015
  21.93099  -2.68510  -8.82075
  21.93199  -1.56680  -7.84255
  22.20999  -0.71980  -6.69685
  22.26329  -0.11350  -5.76765
  22.89479   0.81100  -4.91825
  23.22869   1.52250  -4.05595
  23.89899   2.41170  -3.48665
  24.73109   3.12800  -2.93835
  25.10079   3.99640  -2.48315
  25.80779   4.54020  -2.25445
  26.55649   5.10790  -2.08945
  26.98079   5.58560  -1.92435
  27.62519   6.19630  -2.01605
  28.15219   6.54280  -2.10345
  28.48419   7.11210  -2.09685
  28.68039   7.43920  -2.47425
  28.54009   7.54380  -2.65215
  28.11409   7.80540  -3.27485
  27.68479   7.70110  -3.88955
  26.73489   7.46800  -4.40245
  25.75219   7.02610  -4.92015
  24.60979   6.51270  -5.72285
  23.01239   5.75680  -6.61155
  21.14429   5.27070  -7.50795
  19.23689   4.62020  -8.17895
  17.00559   3.92160  -8.65945
  14.70679   3.19980  -9.12005
  12.55249   2.54470  -9.05415
  10.17859   1.71650  -8.76135
   8.22959   0.96110  -8.09645
   6.13119   0.43180  -7.27905
   4.10399  -0.36950  -6.34875
   2.24149  -0.99770  -5.17565
   0.42829  -1.73560  -4.22365
  -1.24671  -2.19630  -3.07325
  -2.58921  -2.67230  -2.04175
  -3.82671  -3.07350  -0.96615
  -4.97991  -3.41070  -0.13895
  -6.01401  -3.33540   0.63145
  -6.87301  -3.26640   1.50185
  -7.85761  -2.97410   2.22735
  -8.71761  -2.27390   3.10255
  -9.52891  -1.77490   4.29845
 -10.53261  -0.95380   5.47055
 -11.34981  -0.47870   6.91615
 -12.09701  -0.09970   8.46235
 -12.72151   0.10470   9.97065
 -13.14641   0.19370  11.28375
 -13.64981   0.06800  12.72305
 -13.88101  -0.12960  13.88085
 -13.83241  -0.33400  14.97675
 -13.97731  -0.57200  16.05745
 -13.96701  -0.78330  17.14485
 -13.65191  -0.94540  18.20725
 -13.30091  -1.06600  18.93935
 -13.12791  -0.95010  19.58535
 -12.95741  -0.51980  19.82035
 -13.02131  -0.24540  19.94005
 -13.14661   0.59800  19.44365
 -13.41381   1.11920  19.03495
 -14.07461   1.90970  18.19395
 -14.74941   2.56010  17.46305
 -15.44771   2.93280  16.70385
 -16.19851   3.61370  15.86385
 -16.60531   3.97720  14.98965
 -17.25341   4.36560  14.41465
 -17.39401   4.85140  13.78905
 -17.46831   4.86310  13.58045
 -17.37061   5.34270  13.33515
 -16.98221   5.53110  13.36395
 -16.59181   5.61160  13.46235
 -15.98761   5.40530  13.92885
 -15.32381   5.21310  14.38005
 -14.43531   5.03710  14.89885
 -14.10571   4.63560  15.46585
 -13.74841   4.15240  16.19955
 -13.74471   3.50750  16.88485
 -13.71401   2.95010  17.24495
 -13.67781   2.13950  17.87155
