**************************************************************************************
                       INSTITUTO DE INGENIERIA, UNAM
                 Grupo de Procesamiento y Analisis Sismico
                   Coordinacion de Ingenieria Sismologica
           Ciudad Universitaria, Coyoacan, Mexico D.F., C.P. 04510
**************************************************************************************
ARCHIVO ESTANDAR DE ACELERACION:
VERSION DEL FORMATO                    : 2.0
NOMBRE DEL ARCHIVO                     : COYC2109.081
FECHA Y HORA DE CREACION               : Wed Sep 08 15:05:59 2021
REF. CATALOGO ACELEROGRAMAS, SMIS 1995 : REGISTRO NO.      /PAG.    


================================================================================
DATOS DE LA ESTACION:
NOMBRE DE LA ESTACION                  : COYUCA
CLAVE DE LA ESTACION                   : COYC
LOCALIZACION DE LA ESTACION            : ESCUELA PRIMARIA "LIC. ALFREDO V. BONFIL". KILOMETRO
                                       : 30 DE LA CARRETERA ACAPULCO-ZIHUATANEJO Y A 4KM
                                       : DEL ENTRONQUE CON LA CARRETERA. COYUCA, GUERRERO.
                                       : 
                                       : 
COORDENADAS DE LA ESTACION             : 16.997788 LAT. N
                                       : 100.089963 LONG. W
ALTITUD (msnm)                         : 26
TIPO DE SUELO                          : ROCA
                                       : 
                                       : 
INSTITUCION RESPONSABLE                : INSTITUTO DE INGENIERIA UNAM
                                       : 

================================================================================
DATOS DEL ACELEROGRAFO: 
MODELO DEL ACELEROGRAFO                : K2
NUMERO DE SERIE DEL ACELEROGRAFO       : 351
NUMERO DE CANALES                      : 3
ORIENTACION C1-C6 (rumbo;orientacion)  : /ENZ/ENN/ENE
ORIENTACION C7-C12 (rumbo;orientacion) : 
VEL. DE MUESTREO, C1-C6 (muestras/s)   : /100/100/100
VEL. DE MUESTREO, C7-C12 (muestras/s)  : 
ESC. COMPLETA DE SENSORES, C1-C6, (g)  : /2/2/2
ESC. COMPLETA DE SENSORES, C7-C12 (g)  : 
FREC. NAT. DE SENSORES, C1-C6, (Hz)    : /51/51.3/51.8
FREC. NAT. DE SENSORES, C7-C12 (Hz)    : 
AMORTIGUAMIENTO DE SENSORES, C1-C6     : /0.64/0.64/0.64
AMORTIGUAMIENTO DE SENSORES, C7-C12    : 
INTERVALO DE MUESTREO, C1-C6 (s)       : /0.01/0.01/0.01
INTERVALO DE MUESTREO, C7-C12 (s)      : 
UMBRAL DE DISPARO, C1-C6 (Gal)         : /2/2/2
UMBRAL DE DISPARO, C7-C12 (Gal)        : 
MEMORIA DE PREEVENTO (s)               : 50
TIEMPO DE POSEVENTO (s)                : 60


================================================================================
DATOS DEL SISMO:
FECHA DEL SISMO [GMT]                  : 2021/09/08
HORA EPICENTRO (GMT)                   : 01:47:46
MAGNITUD(ES)                           : /M=7.1
COORDENADAS DEL EPICENTRO              : 16.78 LAT. N
                                       : 99.93 LONG. W
PROFUNDIDAD FOCAL (Km)                 : 10
FUENTE DE LOS DATOS EPICENTRALES       : SSN
                                       : INSTITUTO DE GEOFISICA, UNAM

================================================================================
DATOS DE ESTE REGISTRO:
HORA DE LA PRIMERA MUESTRA (GMT)       : 01:47:30.000
EXACTITUD DEL TIEMPO (s)               : 0.0005
DURACION DEL REGISTRO (s), C1-C6       : /299.9/299.9/299.9
DURACION DEL REGISTRO (s), C7-C12      : 
NUM. TOTAL DE MUESTRAS, C1-C6          : /29990/29990/29990
NUM. TOTAL DE MUESTRAS, C7-C12         : 
ACEL. MAX.(Gal), C1-C6                 : /-89.3053/-136.3347/-167.6609
ACEL. MAX., C1-C6, EN LA MUESTRA       : /3003/2897/2946
ACEL. MAX.(Gal), C7-C12                : 
ACEL. MAX., C7-C12,EN LA MUESTRA       : 
UNIDADES DE LOS DATOS                  : Gal (cm/s/s)
FACTOR DE DECIMACION                   : 1
FORMATO DATOS (FORTRAN,10 campos/dato) : 3F10.4


================================================================================
CALIDAD DEL ACELEROGRAMA:
Registro digital completo con tiempo absoluto correcto


================================================================================
COMENTARIOS:
Archivo de origen en formato SEISAN: 2021-09-08-0147-30S.NSN___336













================================================================================
DATOS DE ACELERACION:
---------+---------+---------+---------+---------+---------+---------+---------+
   CANAL-1   CANAL-2   CANAL-3
       ENZ       ENN       ENE
---------+---------+---------+---------+---------+---------+---------+---------+
[...]
   -5.9356    0.9661    1.5321
  -13.9692   -8.1762  -13.4710
  -21.2375  -19.3771  -36.0567
  -19.5413  -28.7041  -58.6602
   -5.2311  -38.6496  -68.7291
    1.4988  -42.6926  -62.4048
    5.3515  -43.5364  -40.2251
   12.4631  -36.3518  -10.4580
   10.1359  -19.8379    3.9229
   -4.4368   -5.0954    5.4619
  -18.0449    2.1491    6.9045
  -10.5670    6.9897   19.8666
   17.9698   13.4483   45.4709
   16.3260   14.3871   59.4533
   -3.0007   13.8314   53.1434
    5.8707   17.0202   35.8829
    7.9284   15.1851   19.6875
   -7.3955    7.8204    8.2395
   -6.0296    5.8127   -2.2850
    5.7598    7.1496  -11.9460
    7.0163    1.3936  -18.5206
   16.2731   -4.1659  -23.1002
   21.3270   -0.9359  -21.6440
    5.8492    9.3978  -10.3317
    0.9712   23.2492   -7.5241
   -0.6590   25.8795   -7.3847
   -4.6978   12.3962   -5.7119
    0.7429   -4.0864  -15.5484
    3.6099  -17.4602  -15.3893
   -6.9969  -33.1223   -7.0016
  -13.4869  -50.9737   -2.4955
    8.2012  -55.8025   -7.1012
   31.7940  -45.0909  -31.3705
   40.3108  -27.4276  -46.3824
   30.0057  -10.6830  -31.2479
    0.7930   -0.8929   -8.7988
   -6.1175    3.4879   -8.1856
  -11.4282    6.2599  -25.9115
  -23.6101   15.0743  -38.9850
   -4.7918   18.2640  -32.7266
    8.9571    9.4006   -9.1248
   13.5970    2.8082   -1.1455
   10.6121   -6.4314   -9.1501
  -12.2571  -15.5811   -8.8156
  -13.3802  -14.5047   -0.1688
  -10.8164   -6.2358   16.6988
  -24.3094    9.6976   24.8443
  -13.1810   29.5922   20.2984
   13.1601   49.1472   19.7202
   22.4885   62.8625   30.0941
   11.8957   64.7780   44.8240
   -7.9213   64.8889   53.2024
  -16.0377   67.6572   57.4362
  -13.6763   61.9676   48.0807
    7.3891   41.2474   31.2327
   31.1817   13.5615   15.4878
   25.8673   -9.1524   -2.5222
    9.3089  -32.4838  -14.9272
   -8.5299  -53.8276  -31.2905
   -8.7179  -61.9388  -46.7707
  -17.4546  -53.8187  -50.2103
  -39.1487  -30.5018  -52.3812
  -42.5556  -19.0431  -55.3142
  -39.7199  -29.5518  -51.1065
    2.7099  -48.6357  -41.0615
   31.6270  -66.2260  -35.1431
   14.6369  -62.3219  -24.9292
    9.2546  -35.7812    5.9680
    3.6020    0.7200   50.5753
    4.7747   28.3760   79.7277
   -5.8635   34.6700   79.0256
  -29.5640   40.1299   70.9597
  -16.2632   56.6892   66.6528
    5.5816   66.0097   51.5516
    8.3962   60.2289   26.7135
   11.6838   47.9754    8.0225
    9.1601   40.5728   -1.8645
    6.6037   37.2895  -12.1336
   13.1741   14.2921  -15.9058
   14.8656  -17.1851  -16.8619
   22.5301  -36.3893  -28.4829
    8.5875  -52.5159  -32.4969
  -14.2962  -59.3712  -25.6248
  -16.5864  -54.4572  -20.8651
  -31.6264  -39.2039   -9.4696
  -29.0648  -15.9567   17.4131
   -9.4579    9.9413   39.7294
    1.6729   31.6172   38.0735
    1.0867   34.5811   25.2283
   -5.6109   19.9523    7.0654
    6.1401   -5.0594  -10.8987
    6.8834  -22.5458  -27.0262
    1.3131  -23.4487  -45.5404
    7.0607  -17.2843  -55.5584
    9.6934  -12.1906  -48.3939
    5.2696  -21.1009  -19.9899
    0.2330  -31.3017    2.5813
   21.2456  -24.8047    0.1259
   36.4451  -12.9237  -14.1867
    9.5582   -5.3148  -27.7770
   -8.1486   -4.8695  -18.6479
   -7.2266  -13.9649    0.4913
   -8.9410  -22.5327   -5.4944
   12.8906  -22.0673  -30.6604
   12.7625  -13.7212  -45.1133
  -22.6694    1.5068  -44.8247
  -12.1163   16.1749  -35.4874
   35.5437   18.7332  -11.1003
   50.5725   13.8608    8.7433
   24.3517   17.5699   14.8839
    7.3063   25.1404   11.0523
   16.0846   20.1169  -11.8922
   12.1581   -0.3867  -43.5126
  -14.3144  -20.7472  -61.3261
  -14.1507  -19.3350  -50.7183
    4.4772    0.5446  -19.0707
   -3.7585   12.1754   15.7394
  -14.1310    1.4937   38.3878
  -12.6220  -14.3097   44.8848
   -0.1407  -17.8428   38.8841
    6.0255   -8.4414   12.3929
  -14.8014    8.4894   -9.0051
  -34.6730   26.6995    1.8773
  -30.9448   44.3848   14.4147
  -23.8800   47.4482   12.6563
  -25.7417   35.8642    8.7489
   -5.5974   23.3132    5.4885
   18.7061    5.0147    5.0521
   17.8491  -15.2410    8.0716
    8.8069  -32.6770   14.9690
   10.3735  -32.9871   22.4567
   15.0139   -7.1723   19.9911
   -1.8374   23.5607   12.6137
  -16.6093   45.8185   22.7477
  -14.5838   57.1846   47.7733
    9.8346   61.3511   66.8900
   38.0337   56.5273   65.6429
   38.1011   51.4435   40.5307
   38.9412   54.8101   18.3412
   30.9066   51.6896   18.3557
   18.4198   29.6320   27.4914
    0.1095   -6.9487   26.0212
  -33.7356  -35.7653   -0.8513
  -45.1896  -59.1654  -44.4215
  -52.1188  -76.6476  -73.8906
  -33.1219  -75.2831  -78.4304
    5.4029  -68.5354  -71.9086
   12.4636  -64.1659  -49.1241
   16.5155  -65.2549  -12.7590
   15.7207  -64.9396    7.3517
   -6.1989  -48.1941   14.3010
  -48.2522  -14.4617   27.9554
  -73.0767   28.6721   43.6213
  -52.6956   64.8632   47.4609
  -28.3632   86.7079   35.2219
    2.5616   97.0037   22.7332
   36.2286   90.0624   29.0758
   44.9933   75.2286   52.6363
   38.8696   62.9953   57.2622
   25.9393   46.6755   18.3735
   12.6030   26.6546  -31.8004
   11.7675    4.5114  -62.6592
   15.0401  -17.5271  -76.3474
   13.3687  -31.9136  -68.3329
   21.8654  -40.4879  -24.0951
   10.1275  -54.1545   36.0410
  -13.8293  -65.5449   80.0968
  -18.9847  -67.6490   96.6631
  -31.9183  -66.1708   66.1968
  -28.4142  -56.1398    1.7870
   -7.0442  -39.9636  -47.7633
   -5.5829  -22.4916  -67.2556
  -16.7852   -4.7623  -66.1072
  -12.4713   10.8320  -52.5103
   -3.1294   21.3046  -28.7664
   -0.7516   25.3462   11.9771
   12.4916   27.1528   49.5406
   12.5389   28.0939   55.3785
    7.1655   22.9849   38.2442
   13.0946    9.3590   10.2056
    1.4371    0.8271  -11.4689
  -25.2436    5.1527  -10.0225
  -29.9494   23.8577    4.1984
   -8.3105   43.0801   30.7673
   -2.5563   45.6805   63.3896
   -0.3363   41.3044   68.5960
   16.4794   34.8725   38.1376
   20.2254   26.8510  -12.5677
   17.6849   12.9375  -65.9356
   11.8063   -4.4241  -92.8412
   -8.1266  -20.9236  -84.9933
  -16.5522  -37.6565  -57.8336
    3.7358  -49.6461  -32.9521
   24.7699  -61.0075  -24.1901
   14.3005  -63.7126  -19.8945
   -1.8009  -50.6733   -8.6613
    8.5852  -36.9904   16.6474
    6.9269  -35.4575   34.5708
  -12.7296  -34.1060    7.7016
  -19.0450  -15.9151  -25.0274
  -14.9843   15.8760  -15.2874
   -7.7978   43.1367   10.0073
  -14.7854   45.4401   34.2859
  -15.0708   27.9859   53.5841
   11.6033    4.0632   50.0739
   22.0872  -19.3486   47.3416
   14.5517  -29.3417   58.6005
    9.5371  -21.5794   49.0504
   16.1819   -6.3069    9.0661
   25.5057    0.1044  -25.1757
    7.7446    1.3394  -34.6351
   -6.6550   -3.4409  -31.8364
   -4.0153  -14.7106  -28.9745
    6.9302  -16.7496  -37.9816
   18.2144  -24.0058  -44.6091
   25.2690  -30.2487  -44.1203
   46.4977  -28.4651  -50.2706
   41.4204  -34.8030  -51.0967
   25.8902  -41.6976  -47.4214
   29.4060  -48.5791  -39.7690
   22.7519  -45.2864  -22.4598
   15.7782  -27.8827    8.5689
    1.5760   -5.5304   48.7959
   -9.8045   16.6137   64.6353
    1.1349   24.2207   39.8178
   -0.2160   15.4925    0.2490
  -23.3823   -1.3368  -16.2337
  -19.3477  -16.5569  -19.6980
   -5.1137  -25.4512  -34.2034
  -17.5514  -25.5841  -47.8545
  -19.9899  -17.4508  -51.1089
  -17.0935    1.3660  -41.2967
  -10.7195   27.7361  -30.7231
   -1.8809   47.9605  -26.4733
   -3.4025   55.5268  -20.6715
    8.6554   41.2404  -16.1317
   26.8197   20.8625    0.4548
   38.1483   10.9213   32.4938
   20.3611    8.0768   49.9424
  -15.2649   19.9855   46.0079
  -35.2999   35.3997   36.6248
  -55.4625   34.9539   17.7813
  -62.6111   21.2723   -8.4896
  -43.2858    6.1056  -19.3711
  -23.7654  -11.8819  -19.3828
  -10.1619  -27.2503  -26.7175
   18.8520  -25.6641  -35.8177
   26.3023  -15.8805  -26.8854
    8.6886    2.7586    8.4355
   25.1132   29.2844   51.7527
   29.9977   46.8219   86.6157
   21.8154   54.8069  108.8698
   27.5218   57.3969  129.6209
    3.0229   61.0615  152.0116
  -27.8542   67.1263  151.6907
  -46.1691   71.0392  114.9154
  -64.2067   71.0107   46.6207
  -79.8707   65.8352  -26.4345
  -80.4372   54.6403  -87.1558
  -59.8147   23.0602 -134.4538
  -29.6098  -25.8100 -153.4821
   14.8109  -72.4615 -140.6275
   48.2720  -96.3065  -92.1031
   56.2340  -78.8719  -12.5873
   54.7348  -41.0862   53.6725
   35.0367   -9.5210   81.6835
   10.8586    5.8712   92.9944
    4.5151    1.0578   85.6138
   -8.4569   -8.3034   48.9671
  -34.0350   -4.1949   17.2443
  -50.6968    7.5458   15.7305
  -52.4411   16.8537   33.0683
  -35.6671   25.2480   46.2942
  -14.2957   29.8949   40.9180
    2.6192   30.5867   20.2736
   14.7145   29.9220  -12.7122
   33.0009   23.9387  -51.4344
   49.5972    5.4357  -67.6598
   32.7890  -17.9986  -49.4356
   14.5555  -33.6233  -23.5254
   23.7758  -49.2985   -4.4335
   22.8936  -73.0654    9.5456
    8.7153 -100.5698   13.9497
   25.0879 -123.8619   14.5835
   41.2413 -136.1167   10.9134
   23.6996 -136.3347   -6.8248
    5.1760 -122.3641  -22.6137
  -12.8184  -87.2227  -31.6872
  -34.0350  -36.8439  -44.9880
  -43.5589   12.2255  -46.6589
  -25.0864   50.9407  -41.5924
   10.8455   80.4490  -38.4962
   26.8431   90.6541  -39.5019
   30.8992   67.2886  -52.8162
   53.2487   28.4770  -43.8784
   67.6950   -4.2043   -6.4828
   45.1898  -18.3887   23.2192
   13.2522  -18.9973   30.8945
  -14.9080  -25.9302    6.7169
  -21.8709  -38.4657  -40.1830
  -10.6522  -52.7498  -71.7603
   -1.6124  -51.9518  -67.6518
   16.0285  -34.6056  -36.0441
   15.5214  -19.2513    3.3288
   15.3666  -10.4627   27.9840
   12.7508  -14.4187   39.3571
  -17.4144  -12.9302   33.0467
  -24.2781    5.6527    5.3033
  -13.9074   29.1240  -19.7729
   -2.9184   39.7566  -40.3191
    5.1321   20.4865  -52.6670
   12.3803  -10.0941  -51.1327
   20.6768  -25.9419  -33.8343
    2.2520  -16.9339   10.3969
  -11.4843   13.0231   58.2272
    4.2952   46.7045   86.4319
   18.7369   70.9522   87.6116
    7.4873   70.2070   66.6992
  -18.5763   53.7511   45.0803
  -31.9286   47.6653   21.5338
  -35.7896   45.0401    0.1849
  -34.6450   42.6390  -10.8846
  -25.3245   40.3095  -17.0219
    8.4846   23.8713  -24.9460
   59.7737  -14.6250  -38.9789
   73.3243  -57.8879  -26.7390
   65.8277  -72.3605   11.6875
   45.0326  -58.2191   34.9749
   -5.3027  -30.7184   46.5033
  -41.0357   -6.4468   52.6621
  -63.3960    7.8803   42.4645
  -80.5073   13.2490   -3.6855
  -75.9788    5.1873  -82.1628
  -38.3619   -4.7263 -146.0893
    3.2072   -8.2725 -167.6609
   19.4391    0.2976 -132.8666
   26.3397   10.7730  -53.6302
   13.7191   17.7883   25.5609
   12.3597   31.2280   83.8311
   14.7893   35.7566  109.6281
   -3.9180   33.4013  102.3527
   -7.4016   38.0539   75.0336
  -22.8775   50.3335   38.8430
  -43.2385   57.7454    7.5435
  -44.5852   41.6216  -16.7375
  -33.5242   18.8160  -26.8490
  -21.3680    6.5022  -15.8740
  -26.1398    4.0122    4.7504
  -12.6383   12.3237   23.0999
    4.8537   24.8471   48.2879
   10.3595   32.9948   84.1538
   20.3999   26.0072   89.6072
   13.3575    9.9853   48.8038
  -17.7694    1.6706    5.7589
  -55.2272    4.0726  -12.9709
  -46.0134   10.2557  -20.1812
    2.2468    9.7926  -22.7536
   26.5165   -2.4627  -22.4018
   27.2402  -27.9131  -15.5750
   32.5612  -47.2296   17.9225
   37.3746  -42.7613   62.6870
   26.4417  -22.8691   84.5295
   18.7360    8.4945   74.1298
   13.5170   40.3651   39.6723
   12.0444   50.1118    0.3126
   21.0884   27.7300  -30.1370
   26.5633   -6.4431  -48.1969
   30.9370  -28.2424  -65.8448
   15.1364  -34.0373  -87.5998
  -13.9603  -20.4582  -92.4576
  -29.2098   -5.7559  -63.9578
  -39.7157  -11.5180  -34.3694
  -36.5708  -29.0316  -42.6818
  -17.6454  -48.3036  -67.0007
   -9.5131  -63.8661  -77.8325
   -2.1756  -67.3230  -60.2469
   30.2878  -55.7375  -13.5449
   52.4862  -33.6261   32.2543
   29.0196   -3.5863   51.3799
   -0.8143   28.7596   46.3616
  -23.8837   51.3289   43.2742
  -34.1515   63.4116   35.6930
   -8.6192   63.7606   -3.6023
   12.6198   48.2683  -49.8328
   34.7756    9.5245  -68.7193
   54.7624  -51.6879  -59.4409
   54.2039  -99.1295  -40.8776
   36.6369 -119.8834  -22.8953
  -10.4917 -110.3716   -5.3583
  -31.9548  -68.0387   -0.3503
  -55.9106  -20.6397   10.3548
  -89.3053   18.2360   28.9392
  -59.4625   32.5163   22.4174
  -14.8444   32.6127    5.9437
   15.7623   41.2773   -3.2369
   40.8993   50.0009   -0.5140
   43.4103   57.4381   14.8076
   37.2825   64.8309   18.6181
   34.0253   68.3139   14.0068
   14.2790   63.8743   25.0922
  -14.0866   57.4213   50.3400
  -30.7690   49.4199   65.6541
  -27.2471   37.7437   59.4762
  -12.1561   26.7944   36.1280
  -22.0449   13.8660    9.3898
  -25.1767    2.3951   -5.5024
  -18.9061   -1.7049  -13.4205
  -39.6282    1.7809  -22.1188
  -48.3906    6.2314  -24.1246
  -34.6019   13.0039   -3.7398
  -10.4052   16.0510   25.4201
   20.1604    0.2438   44.9465
   50.4050  -26.3559   58.4424
   54.0893  -46.4128   64.0520
   23.5073  -47.1954   59.6699
    1.9764  -29.0704   39.0371
  -13.4817   -3.4390   13.1624
  -38.3142    8.4047    3.1328
  -49.1671    4.2518    6.7862
  -35.1258    1.7290   16.5983
  -19.9160   -0.3175   22.5989
   -6.8894   -0.1178   15.5649
    3.7301   12.1231    8.7134
   18.8445   33.2797    2.6056
   49.0036   40.6725  -17.3587
   46.7685   25.9220  -29.5382
   26.4506   -0.9022  -28.7355
   28.4606  -30.6323  -25.6697
   35.5582  -51.3404  -10.6657
   30.5511  -68.5565    4.1044
   15.4129  -81.7371   15.2436
   16.7933  -82.1520   28.6384
    8.4336  -72.6280   28.3839
  -21.3732  -53.7162   10.3417
  -32.3201  -29.4975   -9.9252
  -37.5499   -6.7962  -26.5655
  -39.4214    9.3473  -48.2447
  -44.3036   17.1549  -65.4860
  -31.4426   21.9352  -66.3874
   18.3080   21.8903  -52.9762
   35.0554   12.8827  -17.9219
   38.5066    5.4109   30.0778
   36.5139    6.4564   66.1060
    7.4410   12.6231   68.2330
   -9.2329   17.8865   37.6834
  -21.6328   20.5688   10.1570
  -19.1147   23.8952  -11.8183
  -12.1963   24.4111  -29.3502
   -3.1481   20.0449  -26.1880
   28.0691   11.6988  -15.8024
   34.9665    2.0916    2.7104
   23.0246    3.4467   26.3655
   34.8589   19.7782   38.9674
   36.6673   42.4739   34.5825
   12.9762   54.8317   12.4346
    2.7268   41.0579   -8.1374
   -6.0530   17.1316  -23.6246
  -18.9898   -2.7153  -44.2133
  -30.4130  -21.8395  -55.8133
  -47.3681  -30.9644  -53.9146
  -40.9922  -34.3034  -42.3170
  -13.1496  -43.8625  -20.9554
   11.9705  -53.6905  -15.2144
   21.5174  -57.1942  -30.3816
   11.6557  -46.4980  -40.0899
   11.9883  -16.0877  -26.9294
   14.4198   19.8475   -0.9790
  -15.0109   51.8716    5.1826
  -36.6054   76.6488    4.2597
  -15.2757   82.8913   21.6362
   15.2295   67.0832   35.3618
   25.0449   31.4919   31.4348
   35.8852   -8.4625   23.4157
   47.9548  -33.0049   28.4602
   29.5122  -34.0691   44.6911
   -1.1998  -19.8444   50.5837
  -34.4415   -8.0129   35.9863
  -49.3178   -7.6275    6.4105
