********************************************************************************
              CENTRO DE INSTRUMENTACION Y REGISTRO SISMICO  A.C.

    Anaxagoras 814, Col. Narvarte, Benito Juarez, C.P. 03020 Mexico, D.F.
           Tels. 5687 45 42/ 5687 45  82             Fax. 5669 25 12
********************************************************************************
ARCHIVO ESTANDAR DE ACELERACION:
VERSION DEL FORMATO                    : 2.0
NOMBRE DEL ARCHIVO                     : CP2820210908014746
FECHA Y HORA DE CREACION               : 07/SEP/21, 23:16
REF. CATALOGO ACELEROGRAMAS, SMIS 1996 : REGISTRO No.     /PAG.


================================================================================
DATOS DE LA ESTACION:
NOMBRE DE LA ESTACION                  : CERRO DEL PEÑÓN
CLAVE DE LA ESTACION                   : CP28
LOCALIZACION DE LA ESTACION            : Del. Venustiano Carranza, Col. Peñon   
                                       : de los Baños, calle Morelos,           
                                       : Esq. con calle La Paz.                 
                                       :                                        
                                       : 
COORDENADAS DE LA ESTACION             : 19.4385 LAT. N
                                       : 99.0839 LONG. W
ALTITUD (msnm)                         : 2240
TIPO DE SUELO                          : Arenoso, limoso, compacto           
                                       :                           
                                       : 
INSTITUCION RESPONSABLE                : CIRES, A. C.
                                       : 

================================================================================
DATOS DEL ACELEROGRAFO:
MODELO DEL ACELEROGRAFO                : RAD_IO14
NUMERO DE SERIE DEL ACELEROGRAFO       : 
NUMERO DE CANALES                      : 3
ORIENTACION C1-C6 (rumbo;orientacion)  : /N00E/+V/N90W
ORIENTACION C7-C12 (rumbo;orientacion) : 
VEL. DE MUESTREO, C1-C6 (muestras/s)   : /100/100/100
VEL. DE MUESTREO, C7-C12 (muestras/s)  : 
ESC. COMPLETA DE SENSORES, C1-C6, (g)  : /2.0/2.0/2.0
ESC. COMPLETA DE SENSORES, C7-C12, (g) : 
FREC. NAT. DE SENSORES, C1-C6, (Hz)    : /30/30/30
FREC. NAT. DE SENSORES, C7-C12, (Hz)   : 
AMORTIGUAMIENTO DE SENSORES, C1-C6     : /0.700/0.700/0.700
AMORTIGUAMIENTO DE SENSORES, C7-C12    : 
INTERVALO DE MUESTREO, C1-C6, (s)      : /0.01/0.01/0.01
INTERVALO DE MUESTREO, C7-C12, (s)     : 
UMBRAL DE DISPARO, C1-C6, (Gal)        : / / /
UMBRAL DE DISPARO, C7-C12, (Gal)       : 
MEMORIA DE PREEVENTO (s)               : 60
TIEMPO DE POSEVENTO (s)                : 90


================================================================================
DATOS DEL SISMO:
FECHA DEL SISMO (GMT)                  : 08/SEP/21
HORA EPICENTRO (GMT)                   : 01:47:46.0
MAGNITUD(ES)                           : /Mc=7.1
COORDENADAS DEL EPICENTRO              : 16.78 LAT. N
                                       : 99.93 LONG. W
PROFUNDIDAD FOCAL (km)                 : 10
FUENTE DE LOS DATOS EPICENTRALES       : SSN
                                       : INSTITUTO DE GEOFISICA, UNAM

================================================================================
DATOS DE ESTE REGISTRO:
HORA DE LA PRIMERA MUESTRA (GMT)       : 20:55:00.00
EXACTITUD DEL TIEMPO (s)               : 
DURACION DEL REGISTRO (s), C1-C6       : /599.13/599.13/599.13
DURACION DEL REGISTRO (s), C7-C12      : 
NUM. TOTAL DE MUESTRAS, C1-C6          : /59913/59913/59913
NUM. TOTAL DE MUESTRAS, C7-C12         : 
ACEL. MAX. (Gal), C1-C6                : /15.3055/10.65637/21.22712
ACEL. MAX., C1-C6, EN LA MUESTRA       : /7298/7358/7718
ACEL. MAX. (Gal), C7-C12               : 
ACEL. MAX., C7-C12, EN LA MUESTRA      : 
UNIDADES DE LOS DATOS                  : Gal (cm/s/s)
FACTOR DE DECIMACION                   : 1
FORMATO DATOS (FORTRAN,10 campos/dato) : 3F10.5


================================================================================
CALIDAD DEL ACELEROGRAMA:
REGISTRO DIGITAL COMPLETO CON TIEMPO ABSOLUTO CORRECTO.


================================================================================
COMENTARIOS:














================================================================================
DATOS DE ACELERACION:
---------+---------+---------+---------+---------+---------+---------+---------+
   CANAL-1   CANAL-2   CANAL-3   CANAL-4   CANAL-5   CANAL-6   CANAL-7   CANAL-8
      N00E        +V      N90W
---------+---------+---------+---------+---------+---------+---------+---------+
[...]
  -6.85490   2.26127   3.58938
  -6.21570   2.74197   3.32988
  -5.66390   3.40297   2.64318
  -5.32720   4.06417   1.69318
  -5.01950   4.72047   0.86288
  -4.56780   5.04267   0.23538
  -3.86590   5.15647   0.31208
  -2.68020   5.26967   0.65668
  -1.22690   5.13707   1.15288
   0.40490   4.61687   2.15638
   2.15630   3.76887   3.47598
   3.85500   2.95867   4.68058
   5.12430   2.04237   5.95268
   5.61110   0.96807   6.64668
   5.59750  -0.32113   6.44488
   5.03030  -1.39153   5.59078
   4.01230  -2.22533   4.06798
   2.85710  -2.72823   2.03378
   2.39340  -2.90293   0.18998
   1.58560  -2.36163  -1.42652
   1.27160  -1.79063  -2.86492
   1.27070  -1.05013  -3.45462
   1.42240  -0.72243  -4.16302
   1.69080  -0.43993  -4.34662
   1.90410  -0.18583  -4.49432
   1.81470  -0.23183  -4.77632
   1.59100  -0.15473  -4.88952
   1.25150  -0.08013  -5.24492
   0.67280   0.13427  -5.38702
  -0.20750   0.56147  -5.76322
  -1.16280   0.82637  -5.86352
  -2.11580   0.95587  -6.05432
  -2.95570   0.97697  -6.26662
  -3.88390   0.74107  -6.38162
  -4.52430   0.10997  -6.68042
  -5.17750  -0.07823  -6.80812
  -5.69190  -0.44483  -6.88132
  -6.17260  -0.51613  -6.87502
  -6.60350  -0.63843  -6.79202
  -6.81750  -0.73803  -6.62412
  -6.49830  -1.09743  -6.66502
  -5.92760  -1.19633  -6.38512
  -4.79830  -1.19003  -5.96622
  -3.57570  -1.41213  -5.60232
  -2.11770  -1.45583  -5.46632
  -0.95400  -1.46913  -5.24372
  -0.06250  -1.57973  -4.78782
   0.40980  -1.35153  -4.36812
   0.72310  -1.11703  -4.18502
   0.68380  -0.95643  -3.78852
   0.34880  -0.48463  -3.27362
  -0.06020  -0.29753  -2.31572
  -0.73310   0.09127  -1.56772
  -1.28770   0.06227  -0.35992
  -1.88830   0.08357   0.86668
  -1.98400  -0.01843   1.71208
  -2.19810  -0.21033   2.74068
  -2.18480  -0.42453   3.79328
  -1.86000  -0.63613   4.42848
  -1.49410  -0.78593   4.61738
  -1.34000  -0.68593   4.91598
  -1.16120  -0.80373   4.84348
  -1.08120  -1.03613   4.46288
  -1.07470  -1.35643   3.56718
  -1.16090  -1.48063   2.82128
  -1.30570  -1.69033   1.81098
  -1.43010  -2.02513   1.11188
  -1.75340  -2.33033   0.94828
  -1.75440  -2.63003   0.97978
  -1.88970  -2.62203   1.43038
  -2.29630  -2.32893   2.34828
  -2.70130  -1.91923   3.04998
  -3.38350  -1.01623   3.90388
  -3.84460   0.03307   4.40748
  -4.20680   1.04917   4.39648
  -4.18320   1.87457   4.00438
  -3.64800   2.36347   3.26808
  -2.62150   2.73757   2.42428
  -1.44360   2.77357   1.72828
  -0.07680   2.01367   0.79958
   1.25360   1.31037   0.12058
   2.27350   0.24867  -0.57272
   3.13180  -0.80893  -1.10182
   3.38150  -1.30523  -1.19082
   3.17850  -1.58003  -1.27992
   2.48810  -1.24633  -0.62572
   1.47060  -0.89983   0.22978
   0.22200  -0.38573   1.37168
  -0.85260   0.22497   2.73498
  -2.17660   0.39027   3.85448
  -2.29350   0.82167   4.98638
  -2.59960   1.07607   5.51218
  -2.13410   0.79947   5.87248
  -1.30850   0.71087   5.60128
  -0.19720   0.31827   5.09348
   1.29870  -0.40793   4.48318
   2.71070  -1.30833   4.16808
   4.07290  -2.50143   3.83368
   5.09690  -3.52763   3.41938
   5.40950  -4.57763   3.09528
   5.30360  -5.58233   2.41868
   4.44580  -6.23233   1.32938
   3.30620  -6.53063   0.16948
   1.77010  -5.92973  -1.06672
   0.17480  -5.28473  -2.52572
  -1.61060  -4.26013  -4.39752
  -3.05970  -2.96903  -6.18832
  -3.92920  -1.65743  -7.65192
  -4.13550  -0.33823  -8.77722
  -4.06370   0.66717  -9.48472
  -3.74220   1.41507  -9.85562
  -3.15370   1.88997 -10.08842
  -2.67460   2.04517 -10.18902
  -2.04610   1.74847 -10.06952
  -1.80510   1.05437  -9.73492
  -1.20020   0.49997  -9.04192
  -0.89980  -0.42143  -8.04522
  -0.66480  -1.25173  -6.84082
  -0.39920  -1.99103  -5.38822
  -0.32020  -2.89423  -3.83152
  -0.50320  -3.81803  -2.29862
  -0.74310  -4.42193  -0.55582
  -1.10880  -4.66323   1.08248
  -1.42940  -4.43973   2.63288
  -1.87850  -3.71673   4.20758
  -2.16590  -3.14813   5.36238
  -2.27600  -1.91623   6.46988
  -2.10200  -1.01693   7.18678
  -1.65940  -0.39763   7.66978
  -1.11680  -0.34663   7.81548
  -0.49550  -0.15423   7.85188
   0.08570  -0.42073   7.74348
   0.66810  -0.69803   7.56758
   1.24540  -1.32303   7.28518
   1.49040  -2.15403   6.70698
   2.22130  -3.00363   5.66578
   2.59750  -3.83793   4.56158
   3.18460  -4.37983   3.20828
   3.63520  -4.82153   1.64548
   3.97980  -5.14813  -0.04382
   4.11330  -4.99293  -1.79762
   4.12200  -4.47363  -3.49082
   3.98870  -3.51223  -4.83832
   3.72850  -2.33753  -6.06132
   4.04200  -0.97023  -7.31662
   4.53440   0.14647  -8.28062
   5.05860   1.28607  -9.27452
   5.86550   2.20097  -9.96312
   6.55150   3.14857 -10.29772
   7.37940   3.57457 -10.27412
   8.10330   3.78947 -10.00362
   8.44490   3.69587  -9.22052
   8.52220   3.46347  -8.24322
   8.50490   3.02607  -7.32132
   8.41820   2.37957  -6.71712
   8.14490   1.64497  -6.03092
   7.62960   0.86497  -5.77192
   7.07780   0.39167  -5.40242
   6.43690   0.06907  -5.15882
   5.16100  -0.01583  -4.67512
   3.68190   0.31367  -3.74502
   2.09200   0.56917  -2.59282
   0.20640   0.58067  -1.26522
  -1.97690   0.50767   0.23838
  -4.03840   0.62597   1.72408
  -6.15910   0.37117   3.02218
  -8.32480   0.40477   4.57018
 -10.37140   0.34497   6.00278
 -12.00220   0.16887   7.18718
 -13.01950  -0.08573   8.46408
 -13.65570  -0.58093   9.53678
 -13.76980  -0.94523  10.09228
 -13.34050  -1.61713  10.44348
 -12.88320  -2.12783  10.57838
 -11.70290  -2.81843  10.27088
 -10.92410  -3.39273   9.27628
  -9.73030  -3.73223   8.33568
  -8.49650  -3.66693   7.01678
  -7.42070  -3.27723   5.27698
  -6.32620  -2.65663   3.70788
  -5.30310  -1.40093   2.07988
  -4.00130  -0.19373   0.66578
  -3.04360   0.95897  -0.44802
  -1.84300   2.28017  -1.51422
  -0.87690   2.92247  -2.12962
   0.10230   3.22037  -2.90022
   0.91620   3.49557  -3.66642
   1.61180   3.67137  -4.29442
   2.19190   3.54577  -4.58132
   2.58140   3.56237  -4.72882
   2.97930   3.20747  -4.53482
   3.08670   2.71137  -4.40952
   2.80020   1.95777  -4.28622
   2.22040   1.22667  -4.32362
   1.59820   0.36627  -4.38912
   0.72310  -0.49493  -4.67552
  -0.15810  -1.72313  -4.83452
  -0.99840  -2.68633  -4.92992
  -1.58580  -3.45353  -4.78802
  -2.22030  -3.95083  -4.08562
  -2.18320  -4.06703  -3.19132
  -2.09830  -4.17973  -2.37912
  -1.34070  -4.17973  -1.90892
  -0.38350  -4.34853  -1.65102
   1.04740  -4.25713  -1.61102
   2.44630  -4.16893  -1.29862
   3.63560  -3.64683  -0.89792
   4.63700  -2.68353  -0.50672
   5.31910  -1.79443   0.05558
   5.85850  -0.38963   0.84418
   6.09740   0.96007   1.97958
   6.17600   2.39097   3.36208
   6.33170   3.54207   5.42968
   6.58840   4.47617   7.33518
   6.68470   5.19367   9.20938
   6.63990   5.50817  10.77738
   6.01020   5.64097  12.01888
   5.01390   5.54677  12.44278
   3.56670   5.44757  12.74348
   1.98960   5.38917  12.25548
   0.28680   5.00057  11.46338
  -1.25910   4.47637  10.10208
  -2.44320   3.55607   8.50148
  -2.88760   2.17967   6.74598
  -2.69730   0.40757   4.76428
  -1.90660  -1.68403   2.82368
  -0.48900  -3.82453   0.80588
   0.70180  -5.84883  -0.60262
   1.96480  -7.41633  -1.99002
   2.88320  -8.52973  -3.04312
   3.64290  -8.94963  -3.94602
   3.88720  -8.83203  -4.93152
   3.89910  -7.88933  -5.98062
   3.52340  -6.64503  -7.27292
   2.92580  -4.90103  -8.60192
   2.17550  -3.13173  -9.74262
   1.21030  -1.04573 -10.43562
   0.25010   0.89837 -10.83522
  -0.74200   2.91167 -11.06602
  -1.41600   4.94677 -10.44052
  -2.25560   6.59767  -9.33772
  -2.51630   8.17657  -7.79342
  -3.01650   9.20767  -5.95382
  -3.26990   9.91917  -4.03562
  -3.69240  10.37137  -2.07252
  -4.30800  10.39057  -0.27502
  -4.91570   9.92107   1.31348
  -5.48970   8.91567   2.52058
  -6.08380   7.27977   3.44558
  -6.54390   5.24657   4.14398
  -6.44550   2.88337   4.86618
  -6.19700   0.24587   5.35668
  -5.29820  -2.71283   5.70158
  -4.32160  -5.20403   5.71208
  -3.56290  -7.20073   5.05298
  -2.94790  -8.31393   4.27328
  -2.62250  -8.71493   3.22768
  -2.18040  -8.56483   2.13128
  -1.85890  -8.05723   0.87208
  -1.79920  -7.04483  -0.10572
  -1.89510  -5.65293  -1.10622
  -2.18320  -4.39433  -1.56142
  -2.82290  -2.79513  -1.63882
  -3.43400  -1.31463  -1.40622
  -4.39830  -0.13483  -0.98322
  -4.97090   0.91147  -0.72232
  -5.82660   1.73187  -0.39002
  -6.19460   2.23927   0.01818
  -5.95960   2.87777   0.43318
  -5.18920   3.55487   1.14578
  -4.28810   4.67087   2.06348
  -3.16420   5.89887   3.07708
  -2.16260   6.96427   3.93098
  -1.22220   8.04077   5.16098
  -0.35290   8.51007   6.29268
   0.43320   8.34027   7.38968
   1.19730   7.39637   8.51568
   2.00620   6.08477   9.26318
   3.05560   4.12537   9.81758
   4.22760   2.09267   9.57998
   5.24990  -0.37123   8.70438
   6.52650  -2.84703   7.24828
   7.93890  -4.84953   5.12388
   9.23000  -6.33033   2.36538
  10.59940  -7.28493   0.05188
  11.28700  -7.81983  -2.74032
  11.85100  -8.04173  -4.96712
  11.79090  -7.68943  -6.50412
  11.14250  -7.09323  -8.08122
   9.94100  -6.15963  -8.90822
   8.24540  -4.80723  -9.66152
   6.26550  -3.20893 -10.36292
   3.88390  -1.46473 -10.96692
   1.64310   0.19417 -11.40202
  -0.32910   1.83477 -11.62482
  -1.75360   3.01907 -11.68302
  -3.07300   4.14717 -11.20882
  -3.66250   4.75697 -10.28812
  -3.81720   5.05317  -9.02462
  -3.50980   4.92687  -7.54882
  -3.00520   4.44197  -5.25192
  -2.23970   4.01107  -3.07512
  -1.57200   3.49787  -1.11952
  -0.94490   3.27477   1.31018
  -0.05040   3.26197   3.65088
   0.59430   3.30027   6.06188
   0.81920   3.03587   8.55288
   1.23540   2.84737  10.55338
   1.22530   2.55987  12.53048
   1.16550   2.15677  13.87088
   1.09390   2.00947  14.76518
   0.85710   2.00337  15.21668
   0.47760   1.97837  15.14048
   0.40930   2.17587  14.26808
   0.57530   1.89417  13.06658
   1.06540   1.62857  11.86738
   1.64310   0.88877  10.71888
   2.55380  -0.35273   9.76778
   3.60150  -1.93163   9.15028
   4.57270  -3.47193   8.49068
   5.37630  -4.77103   7.65718
   5.85850  -5.54213   6.59288
   6.01210  -6.00623   5.24218
   6.06050  -5.84323   3.57088
   6.07800  -5.23703   1.86338
   6.02350  -4.37303  -0.58902
   6.06890  -3.53483  -3.66902
   6.07990  -2.72523  -6.83552
   6.25990  -1.50353 -10.51092
   6.37610  -0.47293 -13.66032
   6.46570   0.95517 -16.42512
   6.64970   2.63957 -18.57032
   6.79670   4.40057 -20.31832
   6.48340   5.98937 -21.11882
   6.11240   7.62857 -21.22712
   5.66000   8.83997 -20.17072
   4.65650   9.60967 -18.51932
   3.81570   9.76257 -16.25072
   2.41420   9.62457 -13.85422
   1.18210   9.17567 -11.54622
  -0.16470   8.57617  -9.26242
  -1.70270   7.87567  -6.79782
  -3.10370   7.17097  -4.30592
  -4.99660   6.40407  -1.47142
  -6.66460   5.26737   1.51128
  -8.00970   3.73847   4.48208
  -9.16960   2.04357   7.25988
 -10.00060   0.10487   9.48018
 -10.70060  -1.65853  11.70928
 -11.15280  -3.23143  13.66418
 -11.40270  -4.54113  15.10748
 -11.61900  -5.31903  16.18768
 -11.87760  -5.77663  16.85898
 -11.86560  -5.95503  17.30878
 -11.52850  -6.04133  17.26488
 -11.13290  -5.83293  17.16028
 -10.12980  -5.89233  16.90548
  -8.69820  -5.89563  16.34058
  -7.19180  -5.97983  15.59448
  -5.58460  -6.05583  14.61668
  -4.38070  -5.69573  13.28118
  -3.69360  -5.09533  11.39408
  -3.20300  -4.19373   9.21408
  -2.87450  -3.07453   6.98498
  -2.41930  -1.77503   4.35838
  -2.10320  -0.44203   1.61208
  -1.93320   1.01597  -0.68142
  -1.77730   2.26777  -2.60562
  -1.59140   2.95477  -3.95052
  -1.17310   3.80747  -4.71342
  -1.40290   4.41397  -4.85842
  -1.28070   4.74847  -4.38492
  -0.94960   4.84177  -4.09192
  -0.72040   4.59167  -3.61572
  -0.38750   3.89747  -3.06972
  -0.03730   3.02837  -2.92662
   0.13040   2.16677  -3.47232
   0.29170   1.13497  -4.48892
   0.43430   0.36837  -5.45362
   0.64710   0.19507  -6.32882
   0.66650  -0.01343  -6.94882
   0.37820   0.01907  -7.02482
   0.15960   0.63467  -6.80762
  -0.01460   0.87897  -6.04702
  -0.05010   1.41747  -4.88062
  -0.43940   1.80257  -3.70152
  -0.45090   1.72517  -2.65002
  -0.47420   1.46187  -1.88312
  -0.10970   1.07747  -1.69142
   0.16240   0.78667  -1.73612
   0.35600   0.46957  -2.11952
   0.76490  -0.12803  -2.85792
   1.53910  -0.85333  -3.86302
   2.04640  -1.43103  -5.02162
   2.44490  -1.83463  -6.11492
   2.92950  -2.10283  -7.10972
   3.26220  -2.25013  -7.64542
   3.48020  -1.98123  -7.86982
   3.78410  -1.98873  -7.67762
   3.99220  -1.79133  -7.17242
   3.82340  -1.39173  -6.50342
   3.92020  -0.99293  -5.59532
   4.03480  -0.51013  -4.48782
   3.86640   7.7E-40  -3.34052
   3.47690   0.49457  -2.34002
   2.78430   1.11747  -1.59792
   1.72430   1.64957  -1.42512
   0.76610   2.12727  -1.65402
  -0.54580   2.33237  -2.26292
  -1.81700   2.08797  -3.06272
  -3.07860   1.62597  -3.94812
  -3.71480   1.05757  -4.50232
  -3.94890   0.17757  -4.58412
  -3.70690  -0.87643  -4.14882
  -3.19110  -1.77503  -3.53592
  -2.41350  -2.94523  -2.69662
  -1.68610  -3.89373  -2.08632
  -0.88550  -4.56383  -1.15602
  -0.36200  -5.08763  -0.75952
  -0.03800  -5.30903  -0.53762
   0.14280  -5.37053  -0.64722
  -0.10720  -5.14553  -0.87642
  -0.23720  -4.23233  -1.29162
  -0.30750  -3.38993  -1.43802
  -0.43050  -2.50513  -1.68702
  -0.32250  -1.54263  -1.73402
   0.32700  -0.59243  -2.21752
   1.08430   0.56167  -2.26502
   2.02100   1.18387  -2.16512
   3.08150   2.02257  -1.95192
   4.29220   2.28157  -1.35942
   5.45490   2.53997  -0.27412
   6.90590   2.51077   1.06798
   7.75180   2.51917   2.27278
   8.47520   2.29207   3.82268
   9.19440   2.09197   5.28748
   9.51830   1.78617   6.18088
   9.21810   1.46517   7.03288
   8.80700   0.89977   7.13368
   7.88420   0.50117   6.96808
   6.71330  -0.53813   6.51618
   5.47360  -1.08833   5.85238
   4.03120  -1.49953   4.92958
   2.90550  -1.86333   4.00768
   1.85140  -2.01443   3.17298
   0.77200  -2.39293   2.55128
   0.34340  -2.68803   1.95228
  -0.08450  -3.24263   1.47428
  -0.32040  -3.80823   0.91948
  -0.99000  -4.26883   0.61558
  -1.56800  -4.88023   0.18018
  -2.19880  -5.15143  -0.03682
  -3.16730  -5.28443  -0.01602
  -4.24110  -5.34733   0.11918
  -5.53410  -4.79883   0.23098
  -7.02670  -4.07663   0.28308
  -8.43050  -2.80543   0.07708
  -9.74760  -1.60243  -0.24162
 -11.00240  -0.02843  -0.62712
 -11.62480   1.10857  -0.79222
 -11.62300   1.76487  -0.59252
 -11.28530   2.06277  -0.19362
 -10.08310   1.87707   0.54638
  -8.31360   1.40787   1.73318
  -6.17590   0.49577   3.05088
  -3.98580  -0.35673   4.28028
  -1.56010  -1.78173   5.63608
   0.58680  -3.00503   6.64198
   2.12270  -4.01343   7.00598
   2.93520  -5.01063   6.70018
   3.08080  -5.48413   5.65338
   2.82850  -5.57433   3.82038
   2.27510  -5.35253   1.64948
   1.86620  -4.54563  -0.42612
   1.72430  -3.76093  -2.43872
   1.61250  -2.77383  -4.10972
   1.77920  -1.71113  -5.58532
   2.20450  -0.85473  -6.12262
