********************************************************************************
              CENTRO DE INSTRUMENTACION Y REGISTRO SISMICO  A.C.

    Anaxagoras 814, Col. Narvarte, Benito Juarez, C.P. 03020 Mexico, D.F.
           Tels. 5687 45 42/ 5687 45  82             Fax. 5669 25 12
********************************************************************************
ARCHIVO ESTANDAR DE ACELERACION:
VERSION DEL FORMATO                    : 2.0
NOMBRE DEL ARCHIVO                     : CS7820210908014746
FECHA Y HORA DE CREACION               : 07/SEP/21, 23:16
REF. CATALOGO ACELEROGRAMAS, SMIS 1996 : REGISTRO No.     /PAG.


================================================================================
DATOS DE LA ESTACION:
NOMBRE DE LA ESTACION                  : ESC. SEC. NO. TÉC. NO. 243
CLAVE DE LA ESTACION                   : CS78
LOCALIZACION DE LA ESTACION            : Del. Magdalena Contreras, Col. Colinas 
                                       : del Sur, entre calle de los Corceles   
                                       : y Corrido.                             
                                       :                                        
                                       : 
COORDENADAS DE LA ESTACION             : 19.3656 LAT. N
                                       : 99.2262 LONG. W
ALTITUD (msnm)                         : 2430
TIPO DE SUELO                          : Arenoso, limoso, compacto           
                                       :                           
                                       : 
INSTITUCION RESPONSABLE                : CIRES, A. C.
                                       : 

================================================================================
DATOS DEL ACELEROGRAFO:
MODELO DEL ACELEROGRAFO                : RAD_IO14
NUMERO DE SERIE DEL ACELEROGRAFO       : 
NUMERO DE CANALES                      : 3
ORIENTACION C1-C6 (rumbo;orientacion)  : /N00E/+V/N90W
ORIENTACION C7-C12 (rumbo;orientacion) : 
VEL. DE MUESTREO, C1-C6 (muestras/s)   : /100/100/100
VEL. DE MUESTREO, C7-C12 (muestras/s)  : 
ESC. COMPLETA DE SENSORES, C1-C6, (g)  : /2.0/2.0/2.0
ESC. COMPLETA DE SENSORES, C7-C12, (g) : 
FREC. NAT. DE SENSORES, C1-C6, (Hz)    : /33/33/33
FREC. NAT. DE SENSORES, C7-C12, (Hz)   : 
AMORTIGUAMIENTO DE SENSORES, C1-C6     : /0.800/0.795/0.795
AMORTIGUAMIENTO DE SENSORES, C7-C12    : 
INTERVALO DE MUESTREO, C1-C6, (s)      : /0.01/0.01/0.01
INTERVALO DE MUESTREO, C7-C12, (s)     : 
UMBRAL DE DISPARO, C1-C6, (Gal)        : / / /
UMBRAL DE DISPARO, C7-C12, (Gal)       : 
MEMORIA DE PREEVENTO (s)               : 60
TIEMPO DE POSEVENTO (s)                : 90


================================================================================
DATOS DEL SISMO:
FECHA DEL SISMO (GMT)                  : 08/SEP/21
HORA EPICENTRO (GMT)                   : 01:47:46.0
MAGNITUD(ES)                           : /Mc=7.1
COORDENADAS DEL EPICENTRO              : 16.78 LAT. N
                                       : 99.93 LONG. W
PROFUNDIDAD FOCAL (km)                 : 10
FUENTE DE LOS DATOS EPICENTRALES       : SSN
                                       : INSTITUTO DE GEOFISICA, UNAM

================================================================================
DATOS DE ESTE REGISTRO:
HORA DE LA PRIMERA MUESTRA (GMT)       : 20:55:25.00
EXACTITUD DEL TIEMPO (s)               : 
DURACION DEL REGISTRO (s), C1-C6       : /573.27/573.27/573.27
DURACION DEL REGISTRO (s), C7-C12      : 
NUM. TOTAL DE MUESTRAS, C1-C6          : /57327/57327/57327
NUM. TOTAL DE MUESTRAS, C7-C12         : 
ACEL. MAX. (Gal), C1-C6                : /12.89021/7.01998/11.79352
ACEL. MAX., C1-C6, EN LA MUESTRA       : /5794/1521/4461
ACEL. MAX. (Gal), C7-C12               : 
ACEL. MAX., C7-C12, EN LA MUESTRA      : 
UNIDADES DE LOS DATOS                  : Gal (cm/s/s)
FACTOR DE DECIMACION                   : 1
FORMATO DATOS (FORTRAN,10 campos/dato) : 3F10.5


================================================================================
CALIDAD DEL ACELEROGRAMA:
REGISTRO DIGITAL COMPLETO CON TIEMPO ABSOLUTO CORRECTO.


================================================================================
COMENTARIOS:














================================================================================
DATOS DE ACELERACION:
---------+---------+---------+---------+---------+---------+---------+---------+
   CANAL-1   CANAL-2   CANAL-3   CANAL-4   CANAL-5   CANAL-6   CANAL-7   CANAL-8
      N00E        +V      N90W
---------+---------+---------+---------+---------+---------+---------+---------+
[...]
  -2.57929  -1.09532  -2.56558
  -1.25109  -1.29922  -3.25978
   0.25351  -1.49302  -4.21838
   1.64541  -1.69322  -4.76858
   2.70291  -1.79532  -5.39468
   3.52851  -1.83422  -5.70358
   3.99981  -1.57862  -5.55958
   4.21421  -1.32982  -5.49318
   4.09261  -0.77872  -5.19268
   3.56121  -0.02032  -4.40218
   3.47611   0.54058  -3.60298
   2.78351   0.90938  -2.91558
   2.34381   1.39028  -1.96238
   2.05501   1.36338  -1.24508
   1.73191   1.56078  -0.30068
   1.40781   1.34348   0.68172
   0.91611   1.19018   1.31372
   0.38771   0.83498   2.15152
  -0.23279   0.38888   2.75842
  -0.81129   0.21098   3.32592
  -1.40749  -0.07292   3.75402
  -2.26089  -0.34762   4.16552
  -3.11659  -0.43992   4.31192
  -3.79539  -0.56342   4.51082
  -4.47929  -0.38852   4.30062
  -4.99809  -0.26742   3.95442
  -5.34689  -0.19842   3.55622
  -5.52019   0.04638   3.11412
  -5.54029   0.33678   2.71522
  -5.36189   0.48148   2.38152
  -4.79329   0.59228   2.01232
  -4.37219   0.79288   1.34152
  -3.74629   0.97808   0.92932
  -3.39839   1.22688   0.27352
  -3.08409   1.30678  -0.13568
  -2.87229   1.59468  -0.46388
  -2.79139   1.45578  -0.74848
  -2.56319   1.25488  -0.92058
  -2.83249   0.93438  -1.09148
  -2.81199   0.35638  -1.11408
  -2.86879   0.09498  -1.19668
  -2.83839  -0.40462  -1.53728
  -2.93869  -0.85572  -1.80788
  -3.17829  -1.15002  -2.06338
  -3.58979  -1.32662  -2.50178
  -3.85469  -1.56952  -2.94508
  -4.15169  -1.65622  -3.13168
  -4.35509  -1.97402  -3.27058
  -4.72049  -2.30642  -3.24268
  -4.82059  -2.62752  -3.21258
  -4.87229  -2.97262  -3.18688
  -4.80419  -3.04132  -3.08538
  -4.91389  -3.30182  -2.84708
  -4.99569  -3.18022  -2.55648
  -5.11639  -2.87412  -2.28228
  -5.06349  -2.50682  -2.08378
  -4.59899  -1.84162  -1.94648
  -4.04719  -1.31672  -1.83568
  -3.44769  -0.61302  -1.92968
  -2.75889  -0.16712  -1.83328
  -2.15519   0.15348  -1.78628
  -1.35389   0.51558  -1.54388
  -0.68429   0.34168  -1.29208
   0.08281   0.15928  -0.90438
   1.02951  -0.08322  -0.58108
   1.83901  -0.57582  -0.42018
   2.47981  -0.97702  -0.26278
   3.44761  -1.26512  -0.17798
   3.90301  -1.58702  -0.17728
   4.11861  -1.73692  -0.23198
   4.55071  -2.20122  -0.29158
   4.74401  -2.25502  -0.48798
   4.99801  -2.34692  -0.58828
   5.06151  -2.24872  -0.87778
   5.05591  -1.96722  -1.09398
   4.88271  -1.56362  -1.16208
   4.63951  -0.95832  -1.31238
   4.54551  -0.14792  -1.35638
   4.04121   0.30638  -1.35098
   3.78381   0.84858  -1.40848
   3.40101   1.23878  -1.16418
   2.93531   1.45788  -0.96498
   2.53591   1.68278  -0.61308
   2.30421   1.97998  -0.31308
   1.99631   2.26358  -0.00958
   1.53291   2.62828   0.16812
   1.33041   3.23338   0.43582
   1.16191   3.85298   0.56932
   0.99561   4.41318   0.59522
   0.93371   4.86908   0.50682
   0.95961   5.30288   0.17462
   0.89741   5.48658  -0.25978
   1.06271   5.67388  -0.48168
   0.91311   5.73278  -0.74468
   0.74081   5.44618  -0.93428
   0.30241   5.03258  -0.54478
  -0.23679   4.40878  -0.45428
  -0.91439   3.95748  -0.20248
  -1.71169   3.49358   0.39982
  -2.15029   2.67718   0.76592
  -2.38009   1.84828   1.24782
  -2.56529   1.13548   1.35442
  -2.29009   0.62058   1.10942
  -1.79119   0.29608   0.89312
  -0.98899  -0.09302   0.45632
  -0.42519  -0.40792  -0.05358
   0.30171  -0.49562  -0.49878
   1.20531  -0.55452  -1.20598
   1.63631  -0.63352  -1.71128
   2.29701  -0.68592  -2.04258
   2.90231  -0.65252  -2.47868
   3.47821  -0.57182  -2.51558
   3.74311  -0.60222  -2.71078
   3.80531  -0.90802  -2.61988
   3.84971  -1.10302  -2.50158
   3.33811  -1.33942  -2.36128
   2.76811  -1.61232  -2.15668
   2.31851  -1.92212  -1.90888
   1.40521  -2.21532  -1.75408
   0.81531  -2.51152  -1.48818
   0.16401  -2.46592  -1.45478
  -0.52389  -2.30762  -1.46978
  -0.88439  -2.21852  -1.05338
  -1.31629  -2.03902  -0.65848
  -1.49439  -1.89172  -0.37858
  -1.70769  -1.68872   0.25532
  -1.80489  -1.66792   0.67802
  -1.64199  -1.62022   1.13162
  -1.77879  -1.75002   1.67452
  -1.79649  -1.65742   1.91582
  -1.64709  -1.74652   2.29922
  -1.74059  -1.64942   2.69672
  -1.86689  -1.59662   3.10212
  -1.95409  -1.51972   3.51882
  -2.15219  -1.57352   3.57492
  -1.88679  -1.51872   3.80922
  -1.91269  -1.77172   3.96532
  -1.61999  -1.67192   4.05212
  -0.85379  -1.66982   4.05512
  -0.36889  -1.69762   3.66542
   0.62431  -1.43342   3.23682
   1.52501  -1.10612   2.68712
   2.32671  -0.74792   2.10872
   2.76251  -0.23302   1.50502
   3.28881   0.16348   1.10752
   3.19271   0.43608   0.71262
   3.07071   0.62738   0.25622
   2.69631   0.76838  -0.30278
   2.23641   1.03158  -0.51958
   1.52361   1.14898  -0.94278
   0.54271   0.99188  -1.44408
  -0.10049   0.92218  -1.53708
  -1.05909   0.52708  -1.75758
  -1.73499   0.07348  -1.75378
  -2.27959  -0.36472  -1.92128
  -2.82109  -0.83182  -1.73328
  -3.34179  -1.33152  -1.64278
  -3.70159  -1.81972  -1.27338
  -4.40189  -2.03452  -0.85418
  -4.77239  -2.21902  -0.55458
  -5.55799  -2.22602  -0.13048
  -6.07339  -2.24992   0.18612
  -6.68519  -2.29102   0.34482
  -7.05649  -2.42242   0.50872
  -6.98259  -2.38572   0.31402
  -7.04089  -2.45652   0.22182
  -7.08999  -1.89452  -0.16538
  -7.00019  -1.60242  -0.27868
  -6.69739  -1.22092  -0.41828
  -6.35839  -0.79742  -0.47798
  -5.72919  -0.55382  -0.32148
  -4.93279  -0.29622  -0.31708
  -4.28779  -0.18112  -0.30678
  -3.68869  -0.05022  -0.43698
  -2.88789  -0.03622  -0.42628
  -2.17759  -0.23162  -0.49128
  -1.60549  -0.35062  -0.74028
  -0.81619  -0.49722  -1.06638
  -0.29689  -0.84142  -1.28688
  -0.05159  -0.82692  -1.52708
   0.09851  -0.90922  -1.65258
   0.01601  -0.87202  -1.76808
  -0.16009  -1.05142  -1.68698
  -0.53469  -0.87652  -1.68108
  -1.05179  -0.94262  -1.32178
  -1.70649  -1.11072  -0.96218
  -2.50289  -0.98922  -0.56678
  -2.85689  -0.91812  -0.25908
  -3.29029  -0.76822   0.01142
  -3.45679  -0.47922   0.27442
  -3.30129  -0.26252   0.37832
  -2.76659   0.29068   0.41822
  -2.40909   0.54808   0.38952
  -1.60709   0.91918  -0.04558
  -0.80329   0.90958  -0.09188
  -0.20799   0.84878  -0.44188
   0.54811   0.84018  -0.50438
   0.90471   0.34658  -0.53238
   1.03981   0.13498  -0.68908
   1.15971  -0.28732  -0.83758
   0.95381  -0.60712  -0.77648
   0.29981  -0.85432  -0.76828
  -0.23679  -1.09272  -0.53288
  -1.02429  -1.13202  -0.22468
  -1.94059  -1.24612  -0.09588
  -2.82719  -1.07682   0.18492
  -3.52619  -1.13512   0.40772
  -4.46869  -1.19092   0.41432
  -5.08599  -1.16732   0.66262
  -5.49729  -1.30222   0.56372
  -5.58959  -1.46752   0.52702
  -5.66439  -1.84192   0.46642
  -5.68239  -2.25712   0.58212
  -5.72849  -2.45442   0.53472
  -5.50329  -2.52722   0.60692
  -5.44229  -2.73312   0.74532
  -5.09389  -2.78672   0.88352
  -4.70489  -2.77922   1.22322
  -4.24849  -2.58912   1.35652
  -3.72829  -2.65722   1.42832
  -3.03989  -2.41142   1.50682
  -2.34669  -2.10352   1.48632
  -1.53749  -1.73082   1.51342
  -0.83179  -1.24102   1.39532
  -0.38849  -0.76522   1.15992
   0.25791  -0.09042   1.24782
   0.68841   0.14198   0.95622
   0.85161   0.58858   0.67072
   1.13681   0.84828   0.41262
   1.42071   1.09268   0.04812
   1.80511   1.18388  -0.46208
   2.50841   1.07118  -1.01288
   2.84151   1.10828  -1.54598
   3.37561   1.06338  -2.18918
   3.63161   1.09758  -2.78848
   4.17521   1.17328  -3.21518
   4.12771   1.19978  -3.42418
   3.94211   1.29798  -3.58288
   3.70521   1.42788  -3.49568
   3.53691   1.53638  -3.58848
   3.32341   1.53128  -3.18338
   3.12581   1.57028  -3.10598
   3.19811   1.43008  -3.01568
   3.43141   1.21168  -2.86208
   3.50841   0.99868  -2.72668
   3.52501   0.62288  -2.70498
   3.69771   0.33228  -2.55668
   3.65801   0.17988  -2.57938
   3.85231   0.23648  -2.35028
   3.94841   0.40708  -2.21938
   4.29911   0.79778  -2.19688
   4.26681   1.11488  -1.99748
   4.47541   1.62058  -1.90368
   4.41461   1.96008  -1.43138
   4.51211   2.47628  -1.05688
   4.48261   2.96638  -0.93478
   4.32251   3.34848  -0.71568
   4.26431   3.54878  -0.78468
   4.24181   3.89878  -0.89298
   4.22081   4.10548  -1.02738
   4.25121   4.15528  -1.18078
   4.03001   4.34208  -1.15228
   3.94461   4.30588  -1.12048
   3.50371   4.43888  -1.04558
   2.85951   4.30658  -0.83658
   2.15511   3.97248  -0.49948
   1.44731   3.47068  -0.28458
   0.89671   2.85698   0.06192
   0.41371   2.15738   0.15852
  -0.12669   1.49788   0.42202
  -0.51319   1.09898   0.72152
  -0.90619   0.78538   0.73152
  -1.37799   0.60488   0.71772
  -1.70579   0.45478   0.38252
  -2.21649   0.19828   0.19422
  -2.70319   0.24418  -9.8E-40
  -3.28259   0.12188  -0.30978
  -3.91549   0.15508  -0.48398
  -4.50469   0.14358  -0.61288
  -5.07869   0.17468  -0.64508
  -5.60599   0.09198  -0.79308
  -6.34289   0.06688  -0.74588
  -6.81199   0.13918  -0.72878
  -7.55149   0.04918  -0.74468
  -8.19309  -0.02702  -0.48868
  -8.76119  -0.01042  -0.36988
  -9.34569   0.02488  -0.25018
  -9.83069  -0.02822  -0.46858
 -10.32819  -0.02772  -0.58458
 -10.74529   0.08888  -0.88268
 -10.93559   0.01948  -1.24158
 -10.90899   0.12958  -1.37458
 -10.55729   0.24558  -1.84178
 -10.05069   0.31778  -2.23848
  -9.42759   0.33958  -2.48818
  -8.84329   0.02668  -2.83518
  -8.07549  -0.14372  -3.15458
  -7.56249  -0.33682  -3.10668
  -6.99739  -0.48252  -3.17538
  -6.25459  -0.77592  -3.32248
  -5.66259  -0.97372  -3.44708
  -4.97889  -1.28942  -3.61308
  -4.69829  -1.66042  -3.62708
  -4.34499  -1.71752  -3.87868
  -4.19419  -2.07452  -3.98318
  -3.86389  -2.17502  -3.79148
  -3.51899  -2.42872  -3.90108
  -3.36589  -2.48112  -3.67688
  -2.96929  -2.68102  -3.30558
  -2.43129  -2.66112  -3.40848
  -1.83389  -2.47032  -3.09918
  -1.01559  -2.28072  -2.94578
  -0.14649  -2.04622  -2.84918
   0.87101  -1.93732  -2.68228
   1.76411  -1.64132  -2.54108
   2.57451  -1.34202  -2.15408
   3.57151  -1.05072  -1.91258
   4.49951  -0.87552  -1.69398
   5.30941  -0.90412  -1.44938
   5.93581  -0.83812  -1.17308
   6.14831  -1.06732  -0.99718
   6.26891  -1.10962  -0.89828
   6.69961  -1.19422  -0.90748
   6.65051  -1.35692  -0.97778
   7.09011  -1.36352  -1.02808
   7.60731  -1.23302  -1.26588
   8.16511  -1.34502  -1.38348
   9.04661  -1.14352  -1.45988
   9.95521  -0.90362  -1.66498
  10.99211  -0.58162  -1.79658
  11.76481  -0.46472  -1.80428
  12.23481  -0.36912  -2.12018
  12.78331  -0.34602  -2.03538
  12.89021  -0.44812  -1.99958
  12.64891  -0.62612  -1.84218
  12.15021  -1.14932  -1.53498
  11.44801  -1.42692  -1.25648
  10.40571  -1.58702  -0.93808
   9.51421  -1.66512  -0.39168
   8.55111  -1.59782  -0.00358
   7.55931  -1.15402   0.28502
   6.48611  -0.80842   0.92722
   5.33651  -0.25502   1.27632
   4.37061   0.45788   1.65492
   3.27781   1.02838   2.04552
   2.27501   1.56238   2.09672
   1.12561   1.89628   2.83582
   0.30591   2.49898   3.14052
  -0.59219   2.64818   3.29132
  -1.13369   2.71388   3.63362
  -1.66159   2.62218   3.79612
  -2.15079   2.58688   3.67732
  -2.35419   2.51258   3.51272
  -2.53819   2.43588   3.16172
  -2.34219   2.20208   2.76102
  -2.28539   2.07368   2.37452
  -1.80939   1.93998   2.08482
  -1.49089   1.73168   1.77272
  -1.22559   1.56938   1.39842
  -0.95339   1.17798   1.07502
  -0.87979   0.71178   0.68202
  -0.93169   0.08498   0.33012
  -1.01419  -0.33362  -0.03208
  -1.28939  -1.12552  -0.30538
  -1.71979  -1.65512  -0.55248
  -2.06349  -2.20752  -0.88758
  -2.57089  -2.76732  -1.02228
  -3.12459  -2.95992  -1.44258
  -3.54349  -3.31042  -1.88408
  -4.07409  -3.41052  -2.12538
  -4.62979  -3.39742  -2.45178
  -5.13339  -3.41842  -2.60118
  -5.39929  -3.24402  -2.77258
  -5.59619  -3.28142  -2.74708
  -5.84869  -3.33782  -2.57468
  -6.08409  -3.34992  -2.43308
  -6.13839  -3.45002  -2.15158
  -6.25389  -3.44952  -1.77208
  -6.28309  -3.74392  -1.37928
  -6.36329  -3.86222  -1.21298
  -6.35209  -4.09672  -0.86328
  -6.22949  -4.60032  -0.51468
  -5.95109  -4.99522  -0.21188
  -5.53699  -5.35092   0.14562
  -5.26369  -5.76172   0.38322
  -5.04829  -6.12132   0.63012
  -4.73569  -6.40652   0.95162
  -4.12459  -6.51902   1.41942
  -3.46339  -6.50242   1.44352
  -2.95599  -6.40842   1.54402
  -2.20009  -6.40042   1.66072
  -1.73599  -6.11072   1.69882
  -1.05089  -5.93872   1.69392
  -0.52759  -5.87302   1.59452
   0.23951  -5.67352   1.43722
   0.71671  -5.15492   1.33692
   0.92781  -4.66952   1.22462
   1.14671  -4.30572   1.21012
   1.22401  -3.77452   1.30232
   1.17071  -3.36912   1.33832
   1.05291  -2.77242   1.50012
   0.81211  -2.38412   1.54542
   0.88251  -1.85612   1.73082
   0.86611  -1.55782   1.96232
   0.97501  -1.13882   2.03202
   1.26801  -0.94592   2.15332
   1.66781  -0.94122   2.13562
   2.08471  -1.10262   2.15822
   2.32721  -1.33752   2.31352
   2.70201  -1.50052   2.37522
   2.96781  -1.95812   2.46522
   2.97061  -2.08672   2.42552
   3.11461  -2.40002   2.37692
   3.04871  -2.45492   2.46992
   3.31571  -2.56322   2.20572
   3.33931  -2.67802   2.22582
   3.18241  -2.56812   2.24262
   2.89831  -2.56602   2.41752
   2.62251  -2.20962   2.43932
   2.11391  -1.84772   2.77152
   1.79361  -1.49982   2.99252
   1.52871  -1.19982   3.03062
   1.09641  -0.75262   3.16532
   0.93271  -0.51502   3.39982
   1.02811  -0.08252   3.41872
   0.86191   0.23128   3.19662
   0.99261   0.51938   2.99362
   1.10621   0.71928   2.98852
   1.29021   0.61218   2.90482
   1.37491   0.74358   2.69482
   1.44171   0.62718   2.43532
   1.68041   0.36788   2.41592
   1.58881   0.14358   2.13442
   1.63671  -0.07542   2.28382
   1.51141  -0.47762   2.41292
   0.94491  -0.36472   2.64412
   0.42961  -0.51502   2.95182
  -0.03829  -0.45192   2.96652
  -0.75419  -0.25342   3.08442
  -1.59849  -0.32352   3.29902
  -2.67379  -0.05442   3.40162
  -3.57319   0.04378   3.44542
  -4.67329   0.30658   3.41782
  -5.18139   0.84458   3.43622
  -5.62049   1.18318   3.20062
  -5.99949   1.69498   3.19402
  -6.18019   2.35308   2.95132
  -6.25109   2.76528   2.82482
  -6.38949   3.08278   2.43112
  -6.60999   3.53808   2.10212
  -6.61109   3.76718   1.98592
  -6.61089   3.97578   1.65912
  -6.74699   4.07628   1.28052
  -6.84189   4.08958   0.80312
  -6.96069   3.93178   0.79912
  -6.99779   3.60768   0.50572
  -6.68729   3.30988   0.49942
  -6.79139   2.98108   0.51972
  -6.80709   2.31988   0.56342
  -6.60269   2.08118   0.86132
  -6.78599   1.71808   0.73412
  -6.80469   1.30428   0.61842
  -6.75609   1.12448   0.81832
  -6.68079   0.72018   0.85482
  -6.76589   0.53688   0.65182
  -6.50009   0.23618   0.82902
  -6.32279  -0.06752   1.03572
  -6.22089  -0.32872   1.24222
  -5.91179  -0.36092   1.39842
  -5.72659  -0.67122   1.47252
  -5.47039  -0.78512   1.49522
  -4.98729  -0.82272   1.21672
  -4.36519  -0.88492   0.97912
  -3.92439  -0.95482   0.64292
  -3.23449  -1.07032   0.12202
  -2.57349  -1.03502  -0.06928
  -1.96439  -1.34972  -0.32758
