********************************************************************************
              CENTRO DE INSTRUMENTACION Y REGISTRO SISMICO  A.C.

    Anaxagoras 814, Col. Narvarte, Benito Juarez, C.P. 03020 Mexico, D.F.
           Tels. 5687 45 42/ 5687 45  82             Fax. 5669 25 12
********************************************************************************
ARCHIVO ESTANDAR DE ACELERACION:
VERSION DEL FORMATO                    : 2.0
NOMBRE DEL ARCHIVO                     : CT6420210908014746
FECHA Y HORA DE CREACION               : 07/SEP/21, 23:16
REF. CATALOGO ACELEROGRAMAS, SMIS 1996 : REGISTRO No.     /PAG.


================================================================================
DATOS DE LA ESTACION:
NOMBRE DE LA ESTACION                  : CERRO DEL TEPEYAC
CLAVE DE LA ESTACION                   : CT64
LOCALIZACION DE LA ESTACION            : Del. Gustavo A. Madero, Col. Rosas     
                                       : del Tepeyac, Av. Cantera,              
                                       : Rinconada Gral. Maríano Salas.         
                                       :                                        
                                       : 
COORDENADAS DE LA ESTACION             : 19.4876 LAT. N
                                       : 99.1137 LONG. W
ALTITUD (msnm)                         : 2240
TIPO DE SUELO                          : Arenoso, limoso, compacto           
                                       :                           
                                       : 
INSTITUCION RESPONSABLE                : CIRES, A. C.
                                       : 

================================================================================
DATOS DEL ACELEROGRAFO:
MODELO DEL ACELEROGRAFO                : RAD_IO14
NUMERO DE SERIE DEL ACELEROGRAFO       : 
NUMERO DE CANALES                      : 3
ORIENTACION C1-C6 (rumbo;orientacion)  : /N00E/+V/N90W
ORIENTACION C7-C12 (rumbo;orientacion) : 
VEL. DE MUESTREO, C1-C6 (muestras/s)   : /100/100/100
VEL. DE MUESTREO, C7-C12 (muestras/s)  : 
ESC. COMPLETA DE SENSORES, C1-C6, (g)  : /2.0/2.0/2.0
ESC. COMPLETA DE SENSORES, C7-C12, (g) : 
FREC. NAT. DE SENSORES, C1-C6, (Hz)    : /30/30/30
FREC. NAT. DE SENSORES, C7-C12, (Hz)   : 
AMORTIGUAMIENTO DE SENSORES, C1-C6     : /0.700/0.700/0.700
AMORTIGUAMIENTO DE SENSORES, C7-C12    : 
INTERVALO DE MUESTREO, C1-C6, (s)      : /0.01/0.01/0.01
INTERVALO DE MUESTREO, C7-C12, (s)     : 
UMBRAL DE DISPARO, C1-C6, (Gal)        : / / /
UMBRAL DE DISPARO, C7-C12, (Gal)       : 
MEMORIA DE PREEVENTO (s)               : 60
TIEMPO DE POSEVENTO (s)                : 90


================================================================================
DATOS DEL SISMO:
FECHA DEL SISMO (GMT)                  : 08/SEP/21
HORA EPICENTRO (GMT)                   : 01:47:46.0
MAGNITUD(ES)                           : /Mc=7.1
COORDENADAS DEL EPICENTRO              : 16.78 LAT. N
                                       : 99.93 LONG. W
PROFUNDIDAD FOCAL (km)                 : 10
FUENTE DE LOS DATOS EPICENTRALES       : SSN
                                       : INSTITUTO DE GEOFISICA, UNAM

================================================================================
DATOS DE ESTE REGISTRO:
HORA DE LA PRIMERA MUESTRA (GMT)       : 20:55:25.00
EXACTITUD DEL TIEMPO (s)               : 
DURACION DEL REGISTRO (s), C1-C6       : /573.36/573.36/573.36
DURACION DEL REGISTRO (s), C7-C12      : 
NUM. TOTAL DE MUESTRAS, C1-C6          : /57336/57336/57336
NUM. TOTAL DE MUESTRAS, C7-C12         : 
ACEL. MAX. (Gal), C1-C6                : /4.57887/2.93809/4.18345
ACEL. MAX., C1-C6, EN LA MUESTRA       : /4849/5735/5687
ACEL. MAX. (Gal), C7-C12               : 
ACEL. MAX., C7-C12, EN LA MUESTRA      : 
UNIDADES DE LOS DATOS                  : Gal (cm/s/s)
FACTOR DE DECIMACION                   : 1
FORMATO DATOS (FORTRAN,10 campos/dato) : 3F10.5


================================================================================
CALIDAD DEL ACELEROGRAMA:
REGISTRO DIGITAL COMPLETO CON TIEMPO ABSOLUTO CORRECTO.


================================================================================
COMENTARIOS:














================================================================================
DATOS DE ACELERACION:
---------+---------+---------+---------+---------+---------+---------+---------+
   CANAL-1   CANAL-2   CANAL-3   CANAL-4   CANAL-5   CANAL-6   CANAL-7   CANAL-8
      N00E        +V      N90W
---------+---------+---------+---------+---------+---------+---------+---------+
[...]
  -0.54763   0.36199  -0.33005
  -0.54973   0.51369  -0.35785
  -0.43873   0.50079  -0.30805
  -0.34803   0.42509  -0.27815
  -0.38303   0.43469  -0.13885
  -0.15043   0.59739  -0.01585
  -0.23573   0.62619   0.08475
  -0.28443   0.44989   0.25985
  -0.30773   0.51669   0.24065
  -0.50933   0.56939   0.32015
  -0.50393   0.53119   0.42135
  -0.83713   0.40519   0.39665
  -0.93723   0.47329   0.51425
  -1.07983   0.32199   0.40855
  -1.16023   0.23429   0.52545
  -1.17143   0.21839   0.51215
  -1.37203   0.19059   0.56705
  -1.32603   0.07059   0.48335
  -1.29753   0.06849   0.37905
  -1.34753   0.07599   0.47075
  -1.36973   0.07789   0.33375
  -1.45533   0.07439   0.35875
  -1.31343   0.03649   0.25045
  -1.24533   0.00609   0.14455
  -1.19673   0.23589   0.12045
  -1.16563   0.03489   0.06385
  -1.04983  -0.03251  -0.06445
  -1.08143   0.03949  -0.13535
  -0.83663   0.03599  -0.09135
  -0.80113   0.12489  -0.20565
  -0.98113   0.08419  -0.08365
  -0.85443   0.28339  -0.15515
  -0.81183   0.18449  -0.06255
  -0.72883   0.17699   0.04685
  -0.66623   0.22569  -0.02165
  -0.54443   0.14779   0.00215
  -0.36243   0.22239  -0.09085
  -0.17803   0.18709  -0.21405
   0.01367   0.27199  -0.37025
   0.06207   0.27479  -0.36185
   0.17907   0.16179  -0.68635
   0.20987   0.12719  -0.94845
   0.27557   0.10339  -0.99475
   0.44157   0.15289  -1.20565
   0.43317   0.13069  -1.07705
   0.49727   0.05749  -1.14695
   0.39907   0.10949  -1.05415
   0.43267   0.06549  -1.00485
   0.41077   0.26279  -0.64455
   0.45027   0.23949  -0.77005
   0.40507   0.18029  -0.54215
   0.28797   0.36149  -0.47155
   0.35157   0.34119  -0.53725
   0.42377   0.20109  -0.37405
   0.37217   0.31889  -0.30735
   0.25547   0.17539  -0.31905
   0.27797   0.21439  -0.30905
   0.24377   0.18919  -0.15215
   0.24937   0.08629  -0.15145
   0.06567   0.10969   0.03915
   0.28867   0.03389   0.03045
   0.03267  -0.05541  -0.04765
   0.28007  -0.23921  -0.23235
   0.19797  -0.28571  -0.12315
   0.22907  -0.37481  -0.32985
   0.38217  -0.31211  -0.27555
   0.19957  -0.52631  -0.41845
   0.10487  -0.57541  -0.56205
   0.11587  -0.53821  -0.67515
   0.14937  -0.78021  -0.55285
  -0.00803  -0.63621  -0.70725
   0.13907  -0.74961  -0.50685
   0.29167  -0.58221  -0.49165
   0.21127  -0.70261  -0.32705
   0.11217  -0.71801  -0.13295
   0.30317  -0.57751  -0.00905
   0.51777  -0.61511  -0.05515
   0.55427  -0.53381   0.03675
   0.50047  -0.74181   0.22195
   0.47267  -0.60721   0.19415
   0.68967  -0.53871   0.38775
   0.74627  -0.61541   0.32505
   0.86317  -0.50831   0.14085
   0.66577  -0.50501   0.07235
   0.76967  -0.51411   0.12705
   0.73337  -0.55671  -0.12475
   0.60577  -0.52951  -0.18275
   0.60357  -0.36591  -0.30085
   0.59237  -0.08371  -0.52645
   0.25177  -0.16291  -0.59405
   0.19207   0.00799  -0.81735
   0.16807   0.03139  -0.66185
  -0.01923   0.10549  -0.58605
  -0.09803   0.10219  -0.50425
  -0.21873   0.23339  -0.20385
  -0.27433   0.17889   0.01315
  -0.22593   0.06149   0.46955
  -0.35263   0.10239   0.49975
  -0.18123  -0.04741   0.87685
  -0.18923   0.05379   1.07555
  -0.14293  -0.31351   1.16535
   0.01957  -0.13631   1.40055
   0.15607  -0.17741   1.54745
   0.22737  -0.15731   1.45975
   0.30507   0.05239   1.60655
   0.22457   0.06459   1.73825
   0.30477   0.29349   1.70005
   0.36117   0.29179   1.68675
   0.32047   0.36009   1.80015
   0.29407   0.46859   1.71245
   0.33147   0.49619   1.48915
   0.29387   0.45099   1.44995
   0.36677   0.50459   1.51845
   0.23937   0.61279   1.18175
   0.31747   0.59159   1.15785
   0.22157   0.60609   0.97875
   0.15867   0.60719   0.81235
   0.09997   0.71529   0.98135
  -0.07213   0.60489   0.78305
  -0.07163   0.67709   0.75945
  -0.19483   0.77089   0.95545
  -0.51583   0.58549   0.85865
  -0.66293   0.65889   0.81585
  -0.51053   0.72059   0.94675
  -0.82053   0.71359   0.86325
  -0.98133   0.62869   1.01105
  -1.10013   0.76269   1.04515
  -1.20393   0.57049   0.95005
  -1.39213   0.56819   1.13875
  -1.46063   0.64599   1.18665
  -1.53803   0.85969   1.48105
  -1.57923   0.72299   1.55235
  -1.64373   0.86189   1.40995
  -1.42583   0.97549   1.25585
  -1.32923   0.92379   1.11015
  -1.31803   0.89689   1.00005
  -1.13753   0.73259   0.73725
  -1.10693   0.79009   0.71225
  -0.83503   0.83469   0.61755
  -0.72273   0.72249   0.54505
  -0.64823   0.62079   0.52685
  -0.36223   0.67549   0.37535
  -0.15723   0.58169   0.29205
  -0.24343   0.57469   0.51005
  -0.15413   0.48449   0.64745
  -0.14453   0.26069   0.69305
   0.05577   0.36429   0.89065
   0.12147   0.14589   0.89365
   0.15007   0.24459   1.01385
   0.16757   0.29159   1.16885
   0.15377   0.22939   1.14695
   0.09487   0.28639   1.19065
  -0.01903   0.31219   1.15325
  -0.14133   0.19319   1.14245
  -0.34303   0.14079   1.13755
  -0.48663   0.11179   1.19695
  -0.74823   0.13909   1.37275
  -0.95213   0.14969   1.29355
  -1.09433   0.18329   1.51025
  -1.07583   0.22869   1.45295
  -1.19153   0.31309   1.51465
  -1.16353   0.24809   1.47915
  -1.07283   0.05189   1.44855
  -1.19253   0.02809   1.27685
  -1.08403  -0.17141   1.13005
  -1.00053  -0.53541   0.87565
  -0.83333  -0.48821   0.86915
  -0.81513  -0.49241   0.55605
  -0.61993  -0.55271   0.38725
  -0.46443  -0.53891   0.19695
  -0.38123  -0.59451   0.11015
  -0.10183  -0.60931   0.15645
  -0.06273  -0.57791   0.17895
   0.25667  -0.53491   0.20795
   0.36167  -0.60161   0.05645
   0.34177  -0.60531  -0.02965
   0.37327  -0.64831  -0.11305
   0.30367  -0.53161  -0.30875
   0.16267  -0.77931  -0.48905
   0.12927  -0.64571  -0.75515
   0.22247  -0.58991  -0.98425
   0.31647  -0.71331  -1.18535
   0.30997  -0.82271  -1.37355
   0.32607  -0.80851  -1.65295
   0.50727  -0.86691  -1.82015
   0.57207  -0.89661  -2.10915
   0.49977  -0.89101  -2.24775
   0.74387  -1.02801  -2.56595
   0.90287  -0.97051  -2.48505
   1.03497  -1.02831  -2.45445
   1.22247  -0.78951  -2.61555
   1.41497  -0.87771  -2.51855
   1.65057  -0.92001  -2.59805
   1.53257  -0.95721  -2.65455
   1.57017  -0.94601  -2.52625
   1.57257  -0.89941  -2.31485
   1.21787  -0.94251  -2.30505
   1.30687  -0.90641  -2.02165
   1.12967  -0.75451  -1.86595
   1.13087  -0.87301  -1.60015
   0.82037  -0.79521  -1.37095
   0.84557  -0.72341  -1.19005
   0.72707  -0.73831  -1.03805
   0.59967  -0.86721  -1.06585
   0.48907  -0.77411  -0.97305
   0.31157  -0.83981  -0.90685
   0.42237  -1.01451  -0.91275
   0.18017  -1.06311  -0.97395
   0.15587  -1.02941  -0.90175
   0.15867  -0.99061  -0.82625
   0.13277  -0.92841  -0.97005
  -0.10063  -0.81991  -0.94145
  -0.04453  -0.83071  -1.06075
  -0.15953  -0.79801  -1.17455
  -0.06013  -0.76221  -1.25755
   0.03617  -0.62211  -1.22435
  -0.03463  -0.44821  -1.27605
   0.02987  -0.36731  -1.03075
   0.01227  -0.51361  -1.10775
  -0.04773  -0.47861  -0.95785
  -0.08403  -0.47271  -0.76615
   0.01837  -0.35511  -0.76965
  -0.07213  -0.26211  -0.77755
  -0.20423  -0.10921  -0.85425
  -0.10743   0.01149  -0.70765
  -0.09523   0.01659  -0.54845
  -0.16303   0.15999  -0.37585
  -0.17803   0.04729  -0.15635
  -0.09713   0.05799  -0.29195
  -0.22193   0.11649  -0.19285
  -0.26053   0.16699  -0.18835
  -0.35503   0.06269  -0.00135
  -0.41603   0.09219   0.15505
  -0.35293   0.02689   0.14945
  -0.35193   0.12749   0.37935
  -0.31413   0.04609   0.50905
  -0.26873   0.12399   0.55915
  -0.17003   0.14689   0.45345
  -0.16533   0.27239   0.36945
  -0.05763   0.22589   0.21215
  -0.18593   0.31079   0.24865
  -0.09663   0.20509   0.22455
  -0.07513   0.03719   0.40245
  -0.18293  -0.02551   0.34565
  -0.07953   0.07629   0.22495
  -0.30383  -0.07031   0.45365
  -0.40573  -0.18231   0.55815
  -0.51513  -0.08761   0.47515
  -0.58743  -0.33551   0.43705
  -0.70263  -0.27541   0.46395
  -0.76583  -0.32451   0.45995
  -0.75833  -0.29761   0.61775
  -0.80133  -0.34091   0.65775
  -0.87153  -0.51861   0.76785
  -0.95913  -0.60931   1.01905
  -1.01953  -0.74021   1.24725
  -1.11843  -0.84171   1.37605
  -1.29443  -0.83441   1.56125
  -1.25563  -1.00181   1.59765
  -1.37253  -1.07621   1.59535
  -1.29513  -1.03221   1.66925
  -1.25023  -1.06451   1.61385
  -1.11183  -1.01311   1.60005
  -0.89723  -0.78531   1.66435
  -0.72673  -0.67821   1.68955
  -0.57733  -0.78141   1.69235
  -0.35713  -0.74791   1.86535
  -0.43353  -0.64931   2.02205
  -0.27453  -0.67381   2.07185
  -0.15303  -0.82231   1.88505
  -0.18523  -0.82041   1.72795
  -0.17143  -0.85501   1.65055
  -0.17213  -0.73651   1.38585
  -0.22083  -0.72061   1.23695
  -0.10293  -0.43441   1.02785
  -0.11813  -0.43181   0.76225
  -0.16983  -0.36401   0.77915
  -0.21963  -0.24571   0.94185
  -0.21803  -0.18231   0.91665
  -0.37833  -0.07461   1.03935
  -0.34353   0.02459   0.86605
  -0.43103   0.31819   0.76505
  -0.53033   0.31519   0.86585
  -0.52193   0.35099   0.64165
  -0.77823   0.17889   0.45925
  -0.69543   0.26329   0.33165
  -0.79133   0.02149  -0.09905
  -0.80903  -0.08201  -0.15845
  -0.68603  -0.30931  -0.60195
  -0.53733  -0.45401  -0.80235
  -0.32113  -0.60371  -0.89935
  -0.03863  -0.58121  -1.16925
   0.21547  -0.63551  -1.36255
   0.57017  -0.45401  -1.56805
   0.73947  -0.34301  -1.51105
   1.00087  -0.19891  -1.61225
   1.19307  -0.18581  -1.63405
   1.11897  -0.02801  -1.56275
   1.26437  -0.14471  -1.56945
   1.10377  -0.16781  -1.68615
   1.14207  -0.33501  -1.60645
   1.14117  -0.50101  -1.43925
   1.04297  -0.61441  -1.32165
   1.05417  -0.73531  -1.44765
   1.18397  -0.83721  -1.24915
   1.39907  -0.94271  -1.43105
   1.67637  -0.95551  -1.33875
   1.76287  -0.94811  -1.47155
   2.16597  -0.87891  -1.31815
   2.27697  -0.75591  -1.37845
   2.58917  -0.66541  -1.36325
   2.75447  -0.64621  -1.18155
   2.90547  -0.59991  -1.30975
   2.86107  -0.64671  -1.22625
   2.69807  -0.57721  -1.31115
   2.71467  -0.65811  -1.24095
   2.87317  -0.74791  -1.36605
   2.67987  -0.89551  -1.14765
   2.54077  -0.81461  -1.29285
   2.43897  -0.91421  -1.05695
   2.39597  -0.62611  -1.15405
   2.48577  -0.71071  -0.96935
   2.26277  -0.48771  -0.90525
   2.36537  -0.56531  -0.73875
   2.61597  -0.67241  -0.54425
   2.50897  -0.59011  -0.50195
   2.82807  -0.70581  -0.24615
   3.07897  -0.75311  -0.34575
   3.23607  -0.72431  -0.28615
   3.65457  -0.81271  -0.33845
   3.85427  -0.65511  -0.60855
   4.11617  -0.52511  -0.58675
   4.35887  -0.28381  -0.98915
   4.41357  -0.18771  -0.98075
   4.57887  -0.09841  -1.08555
   4.47057  -0.01591  -1.02635
   4.37777   0.15949  -1.14345
   4.39277   0.19759  -1.03895
   4.45657   0.25839  -0.97325
   4.35807   0.32619  -1.14135
   4.13767   0.32409  -1.03665
   4.14017   0.51979  -1.11335
   4.02237   0.48569  -0.92675
   3.92507   0.48209  -0.75445
   3.82807   0.45599  -0.80755
   3.83247   0.37859  -0.82455
   3.86427   0.30609  -0.61225
   3.74697   0.15549  -0.48255
   3.57397   0.15149  -0.24095
   3.35207   0.22029   0.08125
   3.28077   0.30909   0.29465
   3.18487   0.22869   0.53975
   2.71137   0.33949   0.65285
   2.38597   0.44569   0.89815
   2.16967   0.68809   1.01905
   1.82947   0.83889   1.10805
   1.51757   0.91329   1.29355
   1.22177   0.95679   1.32225
   1.05277   1.27149   1.50015
   0.76257   1.46409   1.35775
   0.43997   1.64999   1.34475
   0.50687   1.86769   1.30475
   0.49657   1.98479   1.16165
   0.36607   2.09659   0.86215
   0.30457   2.02109   0.50625
   0.10907   2.05709   0.32435
   0.04177   1.99469   0.19765
   0.05397   1.95609   0.25215
  -0.01223   1.92499   0.10365
  -0.15483   1.88029   0.09805
  -0.31643   2.00749  -0.04595
  -0.28393   1.86909   0.00385
  -0.52563   1.85479  -0.21665
  -0.52103   1.81369  -0.47975
  -0.71883   1.84379  -0.66795
  -0.79363   1.74559  -0.92325
  -0.81093   1.54389  -0.80895
  -1.07283   1.47089  -0.99475
  -1.09123   1.44889  -0.82135
  -1.19253   1.33319  -0.71375
  -1.24883   1.21439  -0.54335
  -1.20143   1.24409  -0.15145
  -1.09733   1.02009   0.24695
  -1.02093   1.00119   0.52635
  -0.86473   1.01779   0.99095
  -0.78283   0.94509   1.30335
  -0.49813   1.06319   1.86965
  -0.31733   0.87349   2.15745
  -0.23713   0.94739   2.45955
  -0.21753   0.93689   2.56005
  -0.18313   0.89039   2.70615
  -0.02673   0.99179   2.74615
  -0.02653   0.79499   2.55395
  -0.05573   0.74419   2.44825
  -0.19833   0.83329   2.41555
  -0.45343   0.83539   2.47425
  -0.56803   0.87379   2.24865
  -0.49953   1.07629   2.19225
  -0.54623   1.01499   2.17895
  -0.64143   1.04489   2.14085
  -0.84783   1.14549   2.05685
  -0.96153   1.11579   1.74565
  -1.20073   0.79729   1.35335
  -1.29023   0.94579   1.27995
  -1.53733   1.17889   1.06815
  -1.81003   1.02579   1.00805
  -1.78053   1.01079   0.90705
  -1.80413   1.00189   0.86185
  -1.72603   0.92359   0.85725
  -1.69893   1.02199   0.70505
  -1.73613   1.02179   0.58315
  -1.61103   1.17229   0.66435
  -1.61243   1.12539   0.77075
  -1.45043   1.23849   0.73445
  -1.39003   1.21279   1.01245
  -1.17173   1.12889   1.40685
  -1.13453   1.16559   1.51215
  -0.93953   1.29019   1.55305
  -1.06533   1.24089   1.45315
  -0.98583   1.19009   1.29865
  -0.81813   1.24969   0.82025
  -0.75523   1.17889   0.34705
  -0.50163   1.16439   0.13105
  -0.70613   1.09709  -0.42315
  -0.72723   0.99889  -0.71845
  -0.87403   1.20579  -1.22115
  -0.84743   1.21749  -1.45025
  -1.14903   1.29279  -1.89335
  -1.38863   1.33019  -2.08485
  -1.52353   1.36569  -2.21195
  -1.84253   1.29509  -2.15545
  -1.83403   1.22939  -2.21525
  -2.14133   1.24269  -2.01305
  -2.25093   1.35449  -1.98285
  -2.14133   1.21399  -1.84235
  -2.34613   1.42599  -1.62775
  -2.46883   1.42669  -1.49795
  -2.40523   1.28219  -1.29455
  -2.68603   1.23799  -1.17365
  -2.60193   1.19919  -1.03315
  -2.64913   1.15829  -0.76725
  -2.64723   1.17839  -0.58025
  -2.68513   1.06179  -0.46965
  -2.71293   0.96779  -0.42735
  -2.51193   0.80149  -0.22625
  -2.51233   0.84289  -0.18725
  -2.45083   0.67409  -0.24705
  -2.58463   0.53619  -0.29685
  -2.63623   0.64649  -0.24005
  -2.89583   0.57989  -0.13855
  -2.94463   0.59929  -0.15495
  -2.85603   0.49849  -0.16265
  -2.92713   0.44609  -0.09575
  -2.67863   0.38419  -0.11145
  -2.58433   0.43279  -0.09435
  -2.39473   0.45319  -0.05975
  -2.12373   0.47329   3.5E-40
  -2.04773   0.45289  -0.09325
  -1.94253   0.51489  -0.18585
  -1.93013   0.54499  -0.14325
  -1.91333   0.39419   0.02925
  -2.15583   0.31819   0.03725
  -2.25773   0.12539  -0.03265
  -2.31853   0.07669  -0.00715
  -2.56773  -0.01211   0.36595
  -2.58903  -0.16391   0.65425
  -2.51163  -0.33381   0.91665
  -2.66243  -0.45171   1.27435
  -2.54343  -0.60861   1.51605
  -2.35713  -0.93611   1.43935
  -2.14803  -0.92871   1.38815
  -1.77633  -1.04651   1.35565
  -1.76933  -1.30371   1.30005
  -1.29933  -1.34831   1.25075
  -1.20703  -1.42011   1.05805
  -1.05923  -1.43421   1.08895
  -0.69943  -1.63551   1.11135
  -0.57923  -1.48421   1.06605
