********************************************************************************
              CENTRO DE INSTRUMENTACION Y REGISTRO SISMICO  A.C.

    Anaxagoras 814, Col. Narvarte, Benito Juarez, C.P. 03020 Mexico, D.F.
           Tels. 5687 45 42/ 5687 45  82             Fax. 5669 25 12
********************************************************************************
ARCHIVO ESTANDAR DE ACELERACION:
VERSION DEL FORMATO                    : 2.0
NOMBRE DEL ARCHIVO                     : DR1620210908014746
FECHA Y HORA DE CREACION               : 07/SEP/21, 23:16
REF. CATALOGO ACELEROGRAMAS, SMIS 1996 : REGISTRO No.     /PAG.


================================================================================
DATOS DE LA ESTACION:
NOMBRE DE LA ESTACION                  : DEPORTIVO REYNOSA
CLAVE DE LA ESTACION                   : DR16
LOCALIZACION DE LA ESTACION            : Del. Azcapotzalco, Col. Nueva España,  
                                       : Entre calle San Pablo y Eje 5 Norte.   
                                       :                                        
                                       :                                        
                                       : 
COORDENADAS DE LA ESTACION             : 19.5005 LAT. N
                                       : 99.1829 LONG. W
ALTITUD (msnm)                         : 2233
TIPO DE SUELO                          : Transición                          
                                       :                           
                                       : 
INSTITUCION RESPONSABLE                : CIRES, A. C.
                                       : 

================================================================================
DATOS DEL ACELEROGRAFO:
MODELO DEL ACELEROGRAFO                : RAD_IO14
NUMERO DE SERIE DEL ACELEROGRAFO       : 
NUMERO DE CANALES                      : 3
ORIENTACION C1-C6 (rumbo;orientacion)  : /N00E/+V/N90W
ORIENTACION C7-C12 (rumbo;orientacion) : 
VEL. DE MUESTREO, C1-C6 (muestras/s)   : /100/100/100
VEL. DE MUESTREO, C7-C12 (muestras/s)  : 
ESC. COMPLETA DE SENSORES, C1-C6, (g)  : /2.0/2.0/2.0
ESC. COMPLETA DE SENSORES, C7-C12, (g) : 
FREC. NAT. DE SENSORES, C1-C6, (Hz)    : /30/30/30
FREC. NAT. DE SENSORES, C7-C12, (Hz)   : 
AMORTIGUAMIENTO DE SENSORES, C1-C6     : /0.720/0.774/0.740
AMORTIGUAMIENTO DE SENSORES, C7-C12    : 
INTERVALO DE MUESTREO, C1-C6, (s)      : /0.01/0.01/0.01
INTERVALO DE MUESTREO, C7-C12, (s)     : 
UMBRAL DE DISPARO, C1-C6, (Gal)        : / / /
UMBRAL DE DISPARO, C7-C12, (Gal)       : 
MEMORIA DE PREEVENTO (s)               : 60
TIEMPO DE POSEVENTO (s)                : 90


================================================================================
DATOS DEL SISMO:
FECHA DEL SISMO (GMT)                  : 08/SEP/21
HORA EPICENTRO (GMT)                   : 01:47:46.0
MAGNITUD(ES)                           : /Mc=7.1
COORDENADAS DEL EPICENTRO              : 16.78 LAT. N
                                       : 99.93 LONG. W
PROFUNDIDAD FOCAL (km)                 : 10
FUENTE DE LOS DATOS EPICENTRALES       : SSN
                                       : INSTITUTO DE GEOFISICA, UNAM

================================================================================
DATOS DE ESTE REGISTRO:
HORA DE LA PRIMERA MUESTRA (GMT)       : 20:55:15.00
EXACTITUD DEL TIEMPO (s)               : 
DURACION DEL REGISTRO (s), C1-C6       : /583.35/583.35/583.35
DURACION DEL REGISTRO (s), C7-C12      : 
NUM. TOTAL DE MUESTRAS, C1-C6          : /58335/58335/58335
NUM. TOTAL DE MUESTRAS, C7-C12         : 
ACEL. MAX. (Gal), C1-C6                : /31.13487/5.66294/19.69299
ACEL. MAX., C1-C6, EN LA MUESTRA       : /6097/2671/6914
ACEL. MAX. (Gal), C7-C12               : 
ACEL. MAX., C7-C12, EN LA MUESTRA      : 
UNIDADES DE LOS DATOS                  : Gal (cm/s/s)
FACTOR DE DECIMACION                   : 1
FORMATO DATOS (FORTRAN,10 campos/dato) : 3F10.5


================================================================================
CALIDAD DEL ACELEROGRAMA:
REGISTRO DIGITAL COMPLETO CON TIEMPO ABSOLUTO CORRECTO.


================================================================================
COMENTARIOS:














================================================================================
DATOS DE ACELERACION:
---------+---------+---------+---------+---------+---------+---------+---------+
   CANAL-1   CANAL-2   CANAL-3   CANAL-4   CANAL-5   CANAL-6   CANAL-7   CANAL-8
      N00E        +V      N90W
---------+---------+---------+---------+---------+---------+---------+---------+
[...]
  -6.02587   0.35346  -9.12371
  -5.76587   0.42496  -9.43281
  -5.52907   0.52646  -9.66051
  -5.13207   0.77546  -9.65251
  -4.68497   0.97976  -9.50031
  -4.25667   0.87626  -9.07951
  -3.70997   0.80606  -8.53471
  -3.10837   0.46286  -7.90831
  -2.76827   0.10976  -7.55861
  -2.16547  -0.25844  -6.94931
  -1.65627  -0.68184  -6.43091
  -1.02237  -1.07564  -5.88381
  -0.21477  -1.36414  -4.96091
   0.40173  -1.64004  -4.16951
   0.90893  -2.04174  -3.51671
   1.32903  -1.90374  -2.72501
   1.72793  -1.96264  -1.90091
   1.87363  -1.80444  -1.25931
   2.38513  -1.32554  -0.66751
   2.59563  -1.16444  -0.11061
   2.68723  -0.55284   0.46829
   2.73963  -0.23714   1.23449
   2.63463   0.02566   1.90439
   2.60423   0.38636   2.46759
   2.55673   0.49676   2.87519
   2.24133   0.69966   3.42199
   1.93833   0.73036   3.95749
   1.79643   0.45936   4.28099
   1.43243   0.07286   4.32899
   1.36883  -0.10604   4.42089
   1.17383  -0.38234   5.03459
   0.83733  -0.75414   5.04859
   0.66483  -0.86634   5.46549
   0.55003  -0.83054   5.73529
   0.30593  -0.60964   5.92239
   0.00103  -0.46744   5.94369
  -0.15587  -0.53694   6.19239
  -0.28937  -0.60164   6.21089
  -0.54307  -0.56544   6.14849
  -0.72447  -0.82524   5.82419
  -0.91907  -0.93224   5.41599
  -1.00807  -0.95804   4.92659
  -0.89307  -1.12264   4.59969
  -0.98687  -1.32414   4.25249
  -1.17387  -1.27384   3.95789
  -1.07007  -1.40904   3.65399
  -0.95247  -1.43174   3.35979
  -0.77667  -1.42234   3.16529
  -0.61527  -1.50134   3.07829
  -0.37777  -1.24444   2.39279
   0.10033  -1.23884   2.13019
   0.40943  -1.03304   1.67079
   0.83313  -1.35104   1.08679
   1.49173  -1.29354   0.56119
   2.27453  -1.22544   0.12599
   2.76233  -1.15414  -0.35331
   2.90073  -1.14034  -0.79031
   3.23393  -0.99754  -1.24481
   3.84713  -0.74104  -1.67201
   4.02373  -0.53344  -2.12341
   4.15603  -0.35594  -2.61141
   4.52523  -0.28114  -2.88241
   4.50953  -0.51584  -3.14961
   4.71573  -0.62464  -3.38601
   4.49673  -0.80224  -3.58051
   4.64703  -1.22404  -3.87191
   4.57293  -1.44314  -4.37671
   4.66273  -1.78494  -4.77691
   4.85533  -1.83664  -5.14521
   4.92313  -1.56174  -5.48071
   4.60633  -1.40134  -5.76241
   4.71433  -0.95004  -6.08371
   4.59583  -0.53104  -6.20151
   4.71063  -0.09854  -6.44751
   4.80153   0.22176  -6.77551
   4.77753   0.39486  -7.08071
   4.84223   0.59586  -7.17511
   4.55933   0.62276  -7.50551
   4.33323   0.58726  -7.71471
   4.32833   0.88396  -7.67621
   3.93223   0.75836  -7.81831
   3.47983   0.82126  -7.69861
   3.08193   0.55286  -7.60861
   2.54413   0.60316  -7.36331
   2.18333   0.67356  -6.84101
   1.66203   0.57646  -6.26911
   1.46703   0.57436  -5.50481
   1.21703   0.67136  -4.64901
   0.95773   0.55146  -3.87611
   0.83593   0.45166  -3.21841
   0.92083   0.28286  -2.56351
   0.82023   0.27486  -1.93731
   0.71533   0.16126  -1.36221
   0.33323   0.24306  -0.63221
   0.09783   0.43036   0.18849
  -0.30157   0.37536   1.13749
  -0.56807   0.48506   2.03389
  -0.79297   0.60876   2.97099
  -0.74697   0.67636   3.86719
  -0.98377   0.87806   4.78789
  -0.98127   1.02656   5.28339
  -0.97027   1.22366   5.72549
  -0.93287   1.49726   6.16649
  -0.73997   1.59146   6.39299
  -0.78767   1.68356   6.87799
  -0.75517   1.81866   7.08319
  -0.59447   1.73846   7.33479
  -0.35697   1.46056   7.21319
  -0.18417   1.29946   7.26769
   0.25513   1.07236   7.21509
   0.59743   0.94056   7.18729
   0.97203   0.60896   6.76669
   1.57593   0.62046   6.45449
   1.82873   0.60006   5.95789
   2.41253   0.60106   5.52229
   2.67573   0.69196   4.81319
   3.16183   0.67536   4.25089
   3.70033   0.73056   3.53469
   4.36503   0.51946   3.02499
   5.03253   0.44466   2.35979
   5.63133   0.43576   1.94789
   6.30193   0.34196   1.18279
   6.57663   0.14626   0.43119
   7.01153   0.00366  -0.18331
   7.26853  -0.19954  -0.83591
   7.41043   0.00206  -1.14071
   7.75953   0.34266  -1.65041
   8.09053   0.64316  -2.12911
   8.37063   1.13226  -2.46361
   8.66153   1.74876  -2.95931
   9.06883   2.08076  -3.37411
   9.27363   2.31696  -3.58191
   9.76203   2.53816  -3.69651
  10.02973   2.55516  -3.83521
  10.32623   2.78366  -3.54831
  10.66713   2.65856  -3.00351
  10.74963   2.59726  -2.73651
  10.87923   2.53046  -2.02481
  10.92763   2.37726  -1.18631
  10.80043   1.92046  -0.47441
  10.85653   1.66506   0.32619
  10.67673   1.43156   1.10379
  10.38983   1.35786   1.91399
   9.98023   1.41426   2.61309
   9.30893   1.64546   3.49479
   8.51213   1.95876   4.45689
   7.83753   2.10766   5.43889
   7.09033   2.23166   6.16269
   6.14273   2.28396   6.92149
   5.33723   2.37376   7.93549
   4.43103   2.09486   8.65889
   3.51213   1.89726   9.29549
   2.57293   1.62766   9.86949
   1.46703   1.21356  10.31499
   0.66203   0.87836  10.57659
  -0.05117   0.71536  10.62799
  -1.21177   0.36136  10.72199
  -2.24867   0.08196  10.87489
  -3.07587  -0.22904  10.92049
  -3.88167  -0.30774  10.90599
  -4.75937  -0.29164  10.67849
  -5.59407  -0.15274  10.44099
  -6.40677  -0.25404   9.92679
  -7.50827  -0.01924   9.24739
  -8.32377   0.12356   8.25319
  -9.11007   0.33566   7.60839
  -9.82717   0.70206   6.41739
 -10.60267   0.91576   5.04209
 -11.02257   1.08436   3.73929
 -11.47997   1.14906   1.95279
 -11.84657   1.47996   0.66519
 -12.15257   1.66996  -0.82561
 -12.35387   2.02076  -2.25161
 -12.28587   2.19206  -3.62641
 -12.30017   2.50986  -4.98011
 -12.07877   2.44536  -6.56461
 -11.94687   2.50496  -8.11551
 -11.62557   2.10536  -9.40031
 -11.20547   1.52906 -11.12091
 -10.79697   1.13836 -12.37971
 -10.31577   0.52296 -13.39021
  -9.87417   0.27366 -14.56001
  -9.35557  -0.24984 -15.42151
  -8.87227  -0.54514 -16.19781
  -8.22387  -0.76514 -16.86321
  -7.46867  -0.98324 -17.42531
  -6.53627  -1.04214 -17.72991
  -5.47507  -0.96104 -17.96841
  -4.21857  -0.79854 -17.92121
  -3.35277  -0.85914 -17.69071
  -2.39247  -0.69494 -16.97261
  -1.58707  -0.47194 -16.20781
  -1.16707  -0.48594 -15.43111
  -0.41847  -0.29634 -14.52511
   0.11233  -0.14974 -13.74161
   0.43773  -0.00264 -12.41341
   0.87963   0.06626 -11.18871
   1.07983   0.00596  -9.56021
   1.30053  -0.15934  -8.05471
   1.30193  -0.13434  -6.29531
   1.13493  -0.30564  -4.26471
   0.96173  -0.31134  -2.78791
   0.71183  -0.34284  -0.91041
   0.12843  -0.19954   1.04749
  -0.25667   0.10396   2.66429
  -0.66327   0.51566   4.24739
  -1.19117   0.68546   5.73419
  -1.80537   0.75656   7.21999
  -2.60457   1.07796   8.49759
  -3.37167   1.07006   9.64019
  -4.34577   1.03286  10.85739
  -5.11267   0.86406  11.40119
  -6.25357   0.51146  12.12979
  -7.39807   0.44746  12.36589
  -8.25317   0.17996  12.40359
  -9.25357   0.15256  12.40009
 -10.32397   0.37896  12.42019
 -11.13997   0.46916  12.14149
 -11.94057   0.26626  11.91609
 -12.66047   0.12846  11.70849
 -13.05017   0.22436  11.41689
 -13.55737   0.15046  10.96559
 -13.78857   0.41096  10.28149
 -13.68847   0.45626   9.48349
 -13.72707   0.59146   8.82559
 -13.28467   0.67046   8.18609
 -12.55897   0.48416   7.21699
 -11.90947   0.17386   6.20319
 -10.74787  -0.12564   5.21559
  -9.60967  -0.57224   4.28129
  -8.34037  -0.92924   3.23589
  -7.22157  -1.02654   2.80149
  -5.90757  -1.69384   2.32869
  -4.77037  -2.17384   1.93009
  -3.23307  -2.33004   1.27219
  -1.69757  -2.37774   0.83959
  -0.13807  -2.27414   0.13489
   1.43523  -2.11344  -0.37951
   2.95633  -1.84114  -0.86861
   4.40663  -1.61644  -1.70561
   5.64843  -1.44174  -2.06571
   6.80133  -1.30524  -2.48561
   7.73703  -0.94934  -2.85711
   8.48083  -0.77144  -3.12981
   9.15303  -0.60334  -3.49941
   9.73403  -0.57994  -3.59041
  10.15153  -0.52144  -3.80591
  10.64163  -0.71114  -4.06011
  11.16933  -0.82894  -4.01801
  11.28253  -1.25284  -4.05031
  11.28373  -1.40034  -4.04821
  11.47123  -1.59534  -4.12321
  11.12683  -1.47684  -4.05191
  10.63723  -1.42144  -4.03741
   9.95423  -1.40764  -3.80941
   9.24323  -1.26754  -3.57661
   8.27923  -1.40524  -3.39261
   7.08073  -1.26894  -3.56631
   5.53833  -1.31244  -3.35351
   4.05803  -1.42464  -3.53241
   2.65423  -1.47894  -3.72921
   0.92363  -1.14994  -3.68621
  -0.65627  -1.11134  -3.63061
  -2.31367  -0.84834  -3.28781
  -3.60967  -0.49644  -3.05681
  -5.13857  -0.33984  -3.16201
  -6.35577  -0.15094  -3.06381
  -7.34997  -0.02114  -2.89641
  -8.14747   0.02816  -2.83821
  -9.12787   0.05536  -2.89061
 -10.01677   0.14786  -2.82511
 -10.69667   0.39296  -2.76661
 -11.38287   0.30646  -2.71151
 -11.74997   0.27396  -2.69631
 -12.00487   0.65946  -2.71101
 -12.07447   1.09996  -2.75381
 -11.76187   1.47686  -2.77371
 -11.37637   2.03236  -2.92141
 -10.72237   2.43036  -3.02451
  -9.70997   2.72426  -3.21741
  -8.60577   3.12666  -3.20271
  -7.18047   3.15676  -3.07391
  -5.59357   3.29196  -3.08721
  -3.99107   3.61716  -2.96561
  -2.09817   3.78086  -2.65141
  -0.13387   3.83346  -2.12791
   1.93363   4.13456  -1.39091
   4.14203   4.09736  -0.67151
   6.22053   4.20446  -0.27821
   8.38473   3.89306  -0.02761
  10.51913   3.78756   0.28529
  12.38233   3.61276   0.20439
  14.36573   3.10416   0.35799
  15.88573   2.56296   0.19099
  17.37133   1.92396   0.34279
  18.73423   1.30456   0.50949
  19.83943   0.70646   0.77249
  21.06783   0.08406   0.87309
  22.03003  -0.37744   0.97869
  22.75883  -0.94444   1.18779
  23.27153  -1.56754   1.03179
  23.56803  -1.59044   1.10499
  23.50393  -1.94814   0.91369
  23.48453  -2.39574   0.72389
  23.08053  -2.65784   0.60529
  22.55863  -2.69944   0.54599
  21.77443  -2.62554   0.28499
  20.77093  -2.56454   0.21389
  19.35683  -2.32324   0.29369
  17.71833  -2.14014   0.46759
  16.05593  -1.94844   0.69399
  13.63673  -1.79874   0.78119
  11.24023  -1.79764   0.84969
   8.79483  -1.70264   1.03699
   6.25793  -1.57784   1.13889
   3.74923  -1.67584   1.42529
   1.04913  -1.52714   1.73069
  -1.42947  -1.60614   1.88189
  -4.19257  -1.74474   1.91329
  -6.77877  -1.82564   2.01079
  -9.42617  -1.96714   1.96659
 -12.01467  -1.68074   1.71199
 -14.47667  -1.25284   1.75539
 -17.12667  -0.84184   2.10079
 -19.46217  -0.52754   2.15359
 -21.81947  -0.05834   2.13659
 -23.73857   0.14326   2.13519
 -25.66397   0.17196   2.15009
 -27.05997   0.16736   2.09169
 -28.42317   0.03056   1.98829
 -29.24357  -0.09104   1.90839
 -30.17407  -0.43734   1.67689
 -30.81057  -0.67954   1.28689
 -30.89827  -1.22804   0.95209
 -31.13487  -1.49324   0.67009
 -30.99107  -2.00644   0.61309
 -30.80257  -2.33354   0.22329
 -30.18397  -2.31524   0.00449
 -29.50337  -2.20654  -0.24571
 -28.47057  -2.04944  -0.60021
 -26.99757  -1.82774  -0.83121
 -25.38997  -1.48664  -1.32431
 -23.28427  -1.46374  -1.76311
 -21.02147  -1.15674  -2.25981
 -18.62047  -0.86444  -2.68321
 -16.12967  -0.55534  -3.22331
 -13.80237  -0.35334  -3.48941
 -11.63687  -0.30144  -3.49261
  -9.32497  -0.41694  -3.60861
  -6.99007  -0.27204  -3.63481
  -4.49907  -0.33374  -3.75941
  -1.70817  -0.63674  -3.64371
   1.01063  -0.61754  -3.36571
   3.79273  -0.75994  -3.42291
   6.27503  -0.79554  -3.23381
   8.69963  -1.17914  -3.52211
  10.90213  -1.34964  -3.80011
  12.78383  -1.52264  -4.33921
  14.56593  -1.68164  -4.76271
  16.19133  -1.68254  -5.10751
  17.31573  -1.41324  -5.38511
  18.08283  -1.34334  -5.38971
  18.60563  -1.20254  -5.33341
  18.91453  -0.89394  -5.33831
  19.19973  -1.09644  -5.26651
  19.27313  -1.08894  -5.44141
  19.13963  -1.14174  -5.15171
  18.86633  -1.27924  -4.70001
  18.45223  -1.47984  -4.33761
  17.73093  -1.62434  -3.59201
  16.85723  -1.80904  -2.83751
  16.12193  -1.90264  -2.51931
  14.89813  -2.08704  -1.65911
  13.80183  -2.41344  -0.99251
  12.61853  -2.59914  -0.22581
  11.37483  -2.72794   0.28059
  10.25163  -2.57644   0.97799
   9.18503  -2.74734   1.87659
   8.06783  -2.86944   2.82019
   7.00993  -2.78924   3.53659
   5.87403  -2.61364   4.40589
   5.29493  -2.62974   5.24269
   4.46633  -2.36414   5.85859
   3.95283  -2.33584   6.28779
   3.40273  -1.90124   6.63079
   3.06553  -1.50514   6.93809
   2.93343  -1.30264   7.19289
   2.91333  -0.94604   7.55319
   3.12823  -0.67934   7.71289
   3.24833  -0.51964   7.59479
   3.48363  -0.12864   7.36659
   3.88833   0.27626   7.04959
   4.56213   0.43826   6.78469
   5.39333   0.78666   6.75939
   6.26453   1.12336   6.72929
   7.14663   1.62446   6.53239
   8.23243   1.90146   6.06059
   9.29933   2.12496   5.57259
  10.43423   2.41096   5.25949
  11.31243   2.32046   4.88749
  12.44403   2.65506   4.65629
  13.21563   2.78686   4.44609
  13.86423   2.98426   4.26189
  14.14713   2.80376   3.93779
  14.30753   2.72936   3.86739
  14.10883   2.58696   3.65419
  13.50343   2.48156   3.11549
  12.83663   2.13296   2.78679
  12.04703   1.85896   2.27609
  11.16353   1.50796   1.98009
  10.07353   1.35346   1.49729
   9.15393   1.04576   1.10199
   8.12443   1.26906   0.57049
   7.06533   1.51126   4.9E-40
   5.80183   1.85546  -0.21771
   4.86793   2.07846  -0.38531
   3.67153   2.60736  -0.14311
   2.40133   2.95126  -0.18141
   1.33283   2.98616   0.02179
   0.16513   3.29946   0.13399
  -0.88797   3.11586   0.21629
  -2.15027   3.01156   0.23659
  -3.67677   2.81826   0.04349
  -5.04107   2.51476   0.01049
  -6.70437   2.25566  -0.05191
  -8.21227   2.21076  -0.35871
  -9.83437   1.93416  -0.41431
 -11.81947   1.67776  -0.41081
 -13.25007   1.40576  -0.47511
 -14.73457   1.43806  -0.55551
 -16.07337   1.45726  -0.75591
 -17.29637   1.60246  -0.67851
 -18.44557   1.88226  -0.68481
 -19.43087   2.12826  -0.59321
 -20.25737   2.41166  -0.76501
 -20.97697   2.52716  -0.81271
 -21.66697   2.77076  -0.80481
 -21.89497   2.89426  -1.11151
 -21.94477   2.82616  -1.33041
 -21.74767   2.68846  -1.60671
 -21.33357   2.62816  -2.13161
 -20.63357   2.32486  -2.82321
 -19.75187   2.14136  -3.27851
 -18.86737   1.66206  -3.66991
 -17.87087   1.44086  -4.05941
 -16.75097   0.87066  -4.17071
 -15.49167   0.54566  -4.33671
 -14.22347   0.14296  -4.48421
 -12.68287   0.27766  -4.74401
 -11.27257   0.54116  -5.02101
  -9.74067   1.12736  -4.79561
  -8.05207   1.50746  -4.70241
  -6.52507   1.98756  -4.36401
  -5.05977   2.33636  -4.24711
  -3.53957   2.70086  -4.02971
  -2.08827   2.72826  -3.95981
  -0.63307   2.54096  -3.66191
   1.13383   2.24096  -3.05401
   2.20023   1.78756  -2.54341
   3.62953   1.23396  -2.01661
   4.74073   0.60426  -1.76101
   5.63813   0.29306  -1.28341
   6.81093  -0.07354  -0.91681
   7.64373  -0.53314  -0.42041
   8.55843  -0.98044   0.07179
   9.33533  -1.26124   0.31189
  10.04423  -1.62624   0.78929
  10.66733  -2.25264   1.15899
  11.26283  -2.53344   1.37269
  11.91123  -2.81444   1.89459
  12.19533  -3.01784   2.24999
  12.64843  -2.76674   2.68199
  13.08053  -2.33884   3.05099
  13.09333  -2.18734   3.37219
  13.09783  -2.01644   3.90129
  12.79053  -1.95734   3.92029
  12.70383  -1.89864   3.75779
  12.32503  -1.86824   3.63599
