********************************************************************************
              CENTRO DE INSTRUMENTACION Y REGISTRO SISMICO  A.C.

    Anaxagoras 814, Col. Narvarte, Benito Juarez, C.P. 03020 Mexico, D.F.
           Tels. 5687 45 42/ 5687 45  82             Fax. 5669 25 12
********************************************************************************
ARCHIVO ESTANDAR DE ACELERACION:
VERSION DEL FORMATO                    : 2.0
NOMBRE DEL ARCHIVO                     : DX3720210908014746
FECHA Y HORA DE CREACION               : 07/SEP/21, 23:16
REF. CATALOGO ACELEROGRAMAS, SMIS 1996 : REGISTRO No.     /PAG.


================================================================================
DATOS DE LA ESTACION:
NOMBRE DE LA ESTACION                  : DGCOH XOTEPINGO
CLAVE DE LA ESTACION                   : DX37
LOCALIZACION DE LA ESTACION            : Del. Coyoacán, DGCOH Xotepingo,        
                                       : Col. Ciudad Jardín, Av. División del   
                                       : Norte esq. con calle Xotepingo.        
                                       :                                        
                                       : 
COORDENADAS DE LA ESTACION             : 19.3322 LAT. N
                                       : 99.1439 LONG. W
ALTITUD (msnm)                         : 2240
TIPO DE SUELO                          : Terreno blando, material compresible
                                       : (arcillas)                
                                       : 
INSTITUCION RESPONSABLE                : CIRES, A. C.
                                       : 

================================================================================
DATOS DEL ACELEROGRAFO:
MODELO DEL ACELEROGRAFO                : RAD_IO14
NUMERO DE SERIE DEL ACELEROGRAFO       : 
NUMERO DE CANALES                      : 3
ORIENTACION C1-C6 (rumbo;orientacion)  : /S00E/+V/N90W
ORIENTACION C7-C12 (rumbo;orientacion) : 
VEL. DE MUESTREO, C1-C6 (muestras/s)   : /100/100/100
VEL. DE MUESTREO, C7-C12 (muestras/s)  : 
ESC. COMPLETA DE SENSORES, C1-C6, (g)  : /2.0/2.0/2.0
ESC. COMPLETA DE SENSORES, C7-C12, (g) : 
FREC. NAT. DE SENSORES, C1-C6, (Hz)    : /52.88/52.56/51.64
FREC. NAT. DE SENSORES, C7-C12, (Hz)   : 
AMORTIGUAMIENTO DE SENSORES, C1-C6     : /0.5605/0.5469/0.5912
AMORTIGUAMIENTO DE SENSORES, C7-C12    : 
INTERVALO DE MUESTREO, C1-C6, (s)      : /0.01/0.01/0.01
INTERVALO DE MUESTREO, C7-C12, (s)     : 
UMBRAL DE DISPARO, C1-C6, (Gal)        : / / /
UMBRAL DE DISPARO, C7-C12, (Gal)       : 
MEMORIA DE PREEVENTO (s)               : 60
TIEMPO DE POSEVENTO (s)                : 90


================================================================================
DATOS DEL SISMO:
FECHA DEL SISMO (GMT)                  : 08/SEP/21
HORA EPICENTRO (GMT)                   : 01:47:46.0
MAGNITUD(ES)                           : /Mc=7.1
COORDENADAS DEL EPICENTRO              : 16.78 LAT. N
                                       : 99.93 LONG. W
PROFUNDIDAD FOCAL (km)                 : 10
FUENTE DE LOS DATOS EPICENTRALES       : SSN
                                       : INSTITUTO DE GEOFISICA, UNAM

================================================================================
DATOS DE ESTE REGISTRO:
HORA DE LA PRIMERA MUESTRA (GMT)       : 20:54:01.00
EXACTITUD DEL TIEMPO (s)               : 
DURACION DEL REGISTRO (s), C1-C6       : /657.05/657.05/657.05
DURACION DEL REGISTRO (s), C7-C12      : 
NUM. TOTAL DE MUESTRAS, C1-C6          : /65705/65705/65705
NUM. TOTAL DE MUESTRAS, C7-C12         : 
ACEL. MAX. (Gal), C1-C6                : /33.90077/8.80441/30.54715
ACEL. MAX., C1-C6, EN LA MUESTRA       : /13455/13085/13657
ACEL. MAX. (Gal), C7-C12               : 
ACEL. MAX., C7-C12, EN LA MUESTRA      : 
UNIDADES DE LOS DATOS                  : Gal (cm/s/s)
FACTOR DE DECIMACION                   : 1
FORMATO DATOS (FORTRAN,10 campos/dato) : 3F10.5


================================================================================
CALIDAD DEL ACELEROGRAMA:
REGISTRO DIGITAL COMPLETO CON TIEMPO ABSOLUTO CORRECTO.


================================================================================
COMENTARIOS:














================================================================================
DATOS DE ACELERACION:
---------+---------+---------+---------+---------+---------+---------+---------+
   CANAL-1   CANAL-2   CANAL-3   CANAL-4   CANAL-5   CANAL-6   CANAL-7   CANAL-8
      N00E        +V      N90W
---------+---------+---------+---------+---------+---------+---------+---------+
[...]
  -4.92067  -1.09699   8.33365
  -5.66537  -1.17199   8.52535
  -6.01937  -0.98359   8.29835
  -6.02477  -1.12949   8.30605
  -5.68757  -1.22179   8.16785
  -5.05557  -1.36749   7.67875
  -4.24617  -1.78829   7.24105
  -3.24617  -1.92299   7.00565
  -2.18437  -2.46749   6.50645
  -1.12527  -2.83159   5.71335
  -0.19797  -3.19629   4.87935
   0.85603  -3.28989   3.96955
   1.91683  -3.75419   2.89855
   2.63933  -3.91459   2.01585
   3.66223  -4.42519   0.85855
   4.06013  -4.86969  -0.12675
   4.48853  -5.15729  -0.61215
   4.49013  -5.39059  -0.92095
   4.50343  -5.48459  -0.96545
   4.28903  -5.48249  -0.65395
   4.32603  -5.33309  -0.32805
   4.46843  -5.13319   0.31325
   4.51983  -4.62139   0.87955
   4.92663  -4.35339   1.28525
   5.14013  -3.66089   1.61285
   5.45573  -2.93869   1.45915
   6.00773  -2.10229   1.53515
   6.30023  -1.45469   1.33765
   6.34073  -0.45089   0.90085
   6.33413   0.52851   0.55765
   6.14853   1.36861  -0.21935
   5.62343   2.09831  -0.76855
   4.94603   2.74781  -1.51605
   4.57193   3.17941  -2.43695
   3.94133   3.57591  -3.16745
   3.37953   3.75711  -4.33575
   2.70943   3.69541  -5.20975
   2.01313   3.67041  -6.11575
   1.54043   3.48941  -6.77115
   0.88293   3.25631  -7.45805
   0.21543   3.08421  -7.98595
  -0.47477   2.76811  -8.58665
  -0.91367   2.35801  -8.99325
  -1.51647   2.18501  -9.27335
  -2.23447   1.76741  -9.45245
  -3.02657   1.65611  -9.53145
  -3.95717   1.38591  -9.47065
  -4.90127   1.21561  -9.25325
  -5.68847   0.91521  -9.04395
  -6.36307   0.65151  -8.85715
  -6.79767   0.29301  -8.50735
  -6.91417   0.06391  -8.40025
  -7.03287  -0.07849  -8.03835
  -6.95337   0.04541  -7.76805
  -7.10417   0.07821  -8.14075
  -7.10277   0.21331  -8.16255
  -7.61647   0.28721  -8.43955
  -7.82227   0.46441  -8.71355
  -8.11967   0.55581  -9.15385
  -8.42667   0.94721  -9.35825
  -8.67777   1.23081  -9.71285
  -8.97917   1.35731 -10.03345
  -9.05557   1.58161 -10.35725
  -9.12407   1.70851 -10.64695
  -9.21897   1.72811 -10.55765
  -9.19467   1.86611 -10.42255
  -9.48697   1.77841 -10.06665
  -9.76237   1.46181 -10.02645
  -9.79817   1.17501  -9.87235
  -9.90527   0.80461  -9.43135
  -9.70887   0.44361  -9.02995
  -9.27697   0.20281  -8.57895
  -8.85757  -0.14609  -8.04165
  -8.35907  -0.12809  -7.46785
  -8.15827  -0.35179  -6.60485
  -7.75907  -0.51849  -5.82905
  -7.56087  -0.80139  -5.04845
  -7.45607  -1.39809  -4.03435
  -7.42757  -2.01859  -2.87325
  -7.39627  -2.61439  -1.67685
  -7.43557  -3.33519  -0.53195
  -7.52977  -3.71679   0.83255
  -7.64757  -4.29829   2.05685
  -7.76427  -4.77549   3.22675
  -8.13317  -5.11539   4.73885
  -8.43507  -5.36349   6.11295
  -8.56017  -5.52859   7.72195
  -8.53397  -5.43859   9.25225
  -8.27447  -5.26879  10.62965
  -8.05187  -5.01509  12.08675
  -7.50427  -4.62139  13.34905
  -7.06887  -4.06449  14.45755
  -6.43367  -3.38759  15.69835
  -6.05767  -2.68309  16.93845
  -5.66187  -1.56129  17.80335
  -4.95647  -0.62959  18.81295
  -4.52227   0.36151  19.69275
  -4.14277   1.46511  20.58005
  -3.47717   2.20841  21.42735
  -2.74997   2.65431  22.10705
  -1.87527   3.11931  22.66195
  -1.05467   3.33021  23.10025
  -0.39017   3.35171  23.76965
   0.52913   3.31881  24.15875
   1.21263   3.23041  24.20625
   1.68303   3.07611  24.28315
   2.19853   2.98091  24.02455
   2.35403   2.68631  23.91375
   2.47473   2.24181  23.61185
   2.33093   1.60071  23.05235
   2.24303   0.91291  22.71845
   1.96963   0.06601  22.43325
   1.74753  -0.87229  22.16245
   1.53413  -1.61059  21.74135
   1.34403  -2.27229  21.31255
   1.24863  -2.85989  20.73185
   1.05873  -3.31669  19.98505
   0.93923  -3.34969  19.10845
   0.88433  -3.50849  18.39045
   0.63653  -3.47639  17.52655
   0.46233  -3.24799  16.60465
   0.27363  -2.97609  15.54825
   0.10383  -2.36889  14.56585
  -0.31187  -1.69549  13.40915
  -0.73087  -0.75189  12.28825
  -1.25247   0.11421  11.28825
  -2.15687   0.89791  10.15595
  -2.80427   1.93901   9.17865
  -3.75977   2.50211   8.03975
  -4.48837   3.16371   7.27375
  -4.98237   3.65401   6.29085
  -5.44537   3.91151   5.30975
  -5.62417   3.81021   4.42245
  -5.89937   3.34351   3.45425
  -5.93307   2.86121   1.98085
  -6.00137   1.91121   0.82865
  -6.41077   1.01621  -0.70655
  -6.88137   0.33651  -2.15175
  -7.57787  -0.53839  -3.45785
  -8.13387  -1.19749  -4.90855
  -8.91207  -1.61109  -5.97145
  -9.80377  -1.91879  -6.99185
 -10.67657  -1.76849  -7.92215
 -11.31397  -1.80979  -8.84685
 -12.42827  -1.87879  -9.42695
 -13.50757  -1.79139  -9.78635
 -14.30347  -1.54419  -9.97245
 -15.20147  -1.48459 -10.04045
 -15.84397  -1.26039 -10.08465
 -16.39667  -1.10419 -10.07175
 -16.73947  -1.00109 -10.02615
 -16.95687  -0.72779  -9.74845
 -17.16547  -0.51499  -9.44775
 -16.95857  -0.27399  -9.35635
 -16.68877   0.20321  -9.12465
 -16.74297   0.47211  -9.14285
 -16.63827   0.42861  -8.88265
 -16.59807   0.90701  -8.42395
 -16.45847   0.85771  -7.72945
 -16.31187   0.80651  -7.22685
 -15.93747   0.75901  -6.85555
 -15.47337   1.12491  -6.25045
 -14.54847   0.89671  -5.74565
 -13.55617   0.81791  -5.35825
 -12.74767   0.71041  -4.92075
 -11.59127   0.56871  -4.53545
 -10.30157   0.64911  -4.25815
  -9.23557   0.40781  -4.12675
  -7.96017   0.38281  -3.62845
  -6.63477   0.32831  -3.18915
  -5.59547   0.45581  -2.64855
  -4.31837   0.87971  -2.30465
  -3.30927   1.25731  -1.85525
  -2.20217   1.72841  -1.29835
  -1.15287   2.16331  -0.93105
  -0.22327   2.69121  -0.32575
   1.16353   3.10811   0.21935
   2.51863   3.29841   0.58355
   4.09713   3.48621   0.96355
   5.56373   3.73681   1.23445
   6.80553   3.66461   1.12605
   8.36643   3.68961   0.85575
   9.80643   3.87081   0.42435
  11.12983   3.96451  -0.00495
  12.20863   4.14671  -0.34165
  13.37553   4.17071  -0.95325
  14.48823   4.29211  -1.38935
  15.31713   4.19621  -1.68345
  15.92923   3.78311  -1.90995
  16.92573   3.24511  -2.05055
  17.75923   2.73841  -2.18895
  18.75103   2.09381  -2.34205
  19.53333   1.37981  -2.36055
  20.55653   0.75431  -2.40215
  21.39633   0.17541  -2.48445
  22.28763  -0.46779  -2.55815
  22.75993  -1.17389  -2.75635
  22.99303  -1.64949  -3.02925
  23.10083  -1.96039  -3.09565
  22.72373  -2.33779  -3.22865
  22.48453  -2.33429  -3.29575
  22.10013  -2.54399  -3.22795
  21.52143  -2.48339  -3.33955
  21.03913  -2.29549  -3.16255
  20.67343  -2.25409  -3.12295
  20.06883  -2.13689  -3.11245
  19.70193  -2.08429  -2.73885
  19.20093  -1.52969  -2.33695
  18.68183  -1.24359  -2.01665
  18.49763  -0.54349  -1.54475
  18.08053   0.00901  -1.13075
  17.76973   0.56331  -1.21935
  17.25423   1.27991  -1.30255
  16.66923   1.86141  -1.49915
  16.12653   2.60591  -1.95885
  15.14943   3.21191  -2.37785
  14.04943   3.71061  -3.27355
  12.84853   3.74801  -4.08515
  11.35923   3.59021  -5.12085
   9.93923   3.45391  -6.01495
   8.67903   3.14201  -6.84285
   7.37883   3.12911  -7.38745
   6.27713   2.80021  -8.03045
   5.05453   2.63371  -8.41015
   3.85273   2.34141  -8.82975
   2.84153   2.06831  -9.16415
   1.64373   1.88811  -9.26985
   0.64093   1.65941  -9.25975
  -0.36747   1.70661  -9.22985
  -1.36467   1.45531  -9.20505
  -2.38757   1.23861  -9.27305
  -3.15287   1.09201  -9.38115
  -4.00887   0.59181  -9.52565
  -4.67657   0.27921  -9.49895
  -5.07357   0.15041  -9.69345
  -5.32427  -0.07799  -9.92775
  -5.63197  -0.17319  -9.76195
  -5.57627  -0.08599  -9.69395
  -5.53797   0.14321  -9.72805
  -5.17737   0.31691  -9.76835
  -4.67287   0.76701  -9.47395
  -4.21597   1.16891  -9.17185
  -3.94967   1.92381  -9.14915
  -3.86227   2.31761  -9.16065
  -3.89027   3.04891  -9.05895
  -4.03897   3.45791  -8.99865
  -4.16807   3.88851  -8.97245
  -4.29217   4.21451  -9.19715
  -4.31187   4.23571  -8.94955
  -4.28757   4.21631  -8.67315
  -4.14677   3.80181  -8.36175
  -4.02407   3.58181  -7.86295
  -3.78487   2.87731  -7.05375
  -3.04627   2.39711  -6.04345
  -2.34197   1.94351  -4.87655
  -1.36097   1.59281  -3.67595
  -0.15237   1.24911  -2.19755
   1.23083   0.97271  -1.02365
   2.73753   0.78291   0.09775
   4.20673   0.73241   1.11385
   5.48733   0.63911   1.88145
   6.52963   0.68681   2.54125
   7.59553   0.82751   2.82585
   8.28503   0.87591   3.22935
   8.92053   1.06111   3.32775
   9.35103   1.02911   3.45145
   9.74283   1.10581   3.56535
  10.26773   1.13801   3.74775
  10.74383   1.18171   3.85735
  11.08723   1.28231   4.20595
  11.74823   1.46791   4.86485
  12.55023   1.28881   5.54895
  13.18683   1.50041   6.42975
  13.73843   1.20251   7.53585
  14.22003   0.81701   8.71965
  14.65073   0.48081   9.56815
  15.35923  -0.17719  10.40865
  15.92523  -0.67309  11.27195
  16.43333  -1.36979  12.03735
  16.64163  -2.21989  12.85175
  16.76693  -3.08429  13.21415
  17.07303  -3.78929  13.56515
  17.26403  -4.64519  13.78885
  17.45153  -5.31249  13.84755
  17.71503  -5.86029  13.83655
  18.02043  -6.30949  13.56235
  18.48823  -6.66109  13.35675
  18.88903  -6.73459  13.07835
  19.38893  -6.70249  12.99295
  19.93113  -6.52619  12.67335
  20.32853  -6.13019  12.44495
  20.56873  -5.70929  12.09255
  20.83543  -5.28799  11.94975
  20.73353  -4.82109  11.77135
  20.63083  -4.23489  11.61465
  20.36173  -3.44859  11.31535
  19.92313  -2.74689  11.07575
  19.25373  -1.85499  10.83845
  18.46203  -1.19469  10.54315
  17.57593  -0.10769  10.27335
  16.48353   0.67231  10.26275
  15.40293   1.42071  10.16155
  13.85203   2.17821   9.83425
  12.46113   2.69261   9.81315
  10.94813   2.84901   9.81275
   9.45503   3.51981   9.87395
   7.80693   3.70271   9.88165
   6.11043   3.80201  10.05725
   4.43143   3.92991  10.11265
   2.56283   3.93061   9.95275
   0.76113   3.96591   9.82345
  -0.77547   3.68721   9.60015
  -2.74607   3.58741   9.28315
  -4.91137   3.14621   8.72975
  -6.78647   2.65681   7.86885
  -9.01137   1.99541   6.89405
 -11.04737   1.28741   5.74675
 -12.89447   0.36081   4.47085
 -14.87717  -0.26619   3.20085
 -16.75137  -0.70139   1.64625
 -18.70747  -0.90429   0.41895
 -20.80637  -0.93559  -0.92685
 -22.54147  -0.81309  -2.13815
 -24.31717  -0.73499  -2.83865
 -26.08087  -0.41989  -3.49145
 -27.40397  -0.48389  -3.89975
 -29.00107  -0.52439  -4.07815
 -30.47407  -0.47389  -3.98765
 -31.51057  -0.36629  -3.91815
 -32.41567  -0.24569  -3.67685
 -32.96347  -0.20049  -3.35565
 -33.39857  -0.16689  -3.16415
 -33.58217   0.03001  -3.01915
 -33.90077  -0.09349  -3.20695
 -33.87537  -0.40369  -3.34625
 -33.71427  -0.77639  -3.73275
 -33.63027  -1.19749  -4.03855
 -33.34647  -1.41889  -4.35325
 -33.06027  -1.88469  -4.70095
 -32.49207  -2.13089  -5.19315
 -31.99197  -2.17619  -5.82185
 -31.33007  -2.09579  -6.34765
 -30.72897  -1.85959  -6.77325
 -29.92157  -1.65949  -6.98525
 -29.02147  -1.58839  -7.16785
 -28.40117  -1.18089  -7.34205
 -27.85057  -0.91829  -7.47445
 -27.09327  -0.76849  -7.47185
 -26.17837  -0.47199  -7.66985
 -25.20387  -0.44929  -8.11645
 -24.05837  -0.56859  -8.39705
 -23.05767  -0.79679  -8.72925
 -22.13597  -1.17039  -9.24085
 -21.24147  -1.68049  -9.32995
 -20.24987  -2.07619  -9.87185
 -19.43527  -2.47639 -10.03485
 -18.45657  -2.80749 -10.05845
 -17.60877  -2.78369 -10.03345
 -16.86087  -2.81449  -9.99585
 -15.79907  -2.94479  -9.93245
 -14.99177  -2.94919 -10.15925
 -14.24497  -2.86479 -10.18915
 -13.22557  -3.24569 -10.49145
 -12.15547  -3.55379 -11.04635
 -11.11427  -3.70159 -11.64185
 -10.27867  -3.84089 -12.24455
  -9.24637  -4.11429 -12.72275
  -8.21687  -4.06979 -13.33885
  -7.10237  -4.02029 -13.85155
  -5.84277  -4.17529 -14.50195
  -4.61607  -4.02799 -15.15945
  -3.21297  -3.76029 -15.77605
  -1.87297  -3.49049 -16.20555
  -0.54777  -3.13019 -16.46835
   0.57263  -3.28469 -16.97245
   1.83523  -3.04039 -17.11875
   2.72393  -2.96349 -17.24575
   3.45923  -3.10959 -17.53355
   3.93853  -3.31739 -17.66195
   4.31053  -3.31949 -17.87145
   4.70663  -3.23439 -18.02385
   4.93223  -3.13059 -18.05655
   5.23413  -3.13369 -18.02665
   5.39563  -3.13669 -17.72975
   5.54223  -2.81659 -17.44235
   5.75433  -2.75699 -17.21095
   6.14343  -2.65669 -16.80735
   6.47233  -2.75489 -16.35615
   6.73793  -2.49509 -15.78065
   6.90983  -2.26899 -15.05755
   7.05333  -1.86169 -14.24205
   7.04613  -1.35769 -13.68225
   6.69613  -0.64779 -12.97615
   6.50603   0.06201 -12.48865
   6.24043   1.10221 -12.35255
   5.84413   1.60401 -12.19225
   5.70523   2.45161 -12.01945
   5.25753   2.99421 -11.77275
   5.07583   3.07281 -11.69185
   4.84673   3.28951 -11.20785
   4.71743   3.31551 -10.73225
   4.52313   3.29121  -9.69465
   4.53713   3.43921  -8.86905
   4.57473   3.34191  -7.55035
   4.52313   3.47661  -5.99605
   4.45923   3.63841  -4.27095
   4.37483   3.63701  -2.58615
   4.15933   3.79811  -0.96985
   4.01173   3.89671   0.82415
   3.76933   4.15631   2.08935
   3.44613   4.13471   3.32705
   3.36293   3.91731   4.47325
   3.24023   3.84081   5.69065
   3.00703   3.56731   6.59385
   2.85253   3.35171   7.42765
   2.88453   2.98861   8.24315
   2.98833   2.88361   8.90455
   3.08933   2.70851   9.66915
   3.23383   2.77911   9.93385
   3.58483   2.78801  10.44045
   3.80363   2.41721  10.82955
   4.09923   2.29681  11.22445
   4.19183   2.23341  11.41505
   4.15413   2.07111  11.61045
   4.47263   2.04891  11.95835
   4.56703   1.72421  12.19665
   4.45993   2.00781  12.35705
   4.24903   1.84931  12.91795
   4.25893   2.02741  13.22565
   4.03003   2.18481  13.67335
   3.92853   2.36111  14.16885
   3.76553   2.50021  14.70725
   3.80573   2.74731  15.50925
   3.97623   3.09291  16.16925
   4.30983   3.16191  16.82275
   4.55883   3.38491  17.67925
   4.98883   3.33821  18.06455
   5.42513   3.30261  18.36075
   5.75853   3.42751  18.63595
   6.34353   3.17191  18.47645
   6.98483   2.98931  18.48235
   7.71223   2.88831  18.50385
   8.44543   3.07701  18.40725
   9.21863   3.04261  18.76965
   9.74103   3.02321  19.02385
  10.33253   2.77801  19.49945
  10.87333   2.56521  19.85055
  11.56053   2.29211  20.24545
  12.22753   2.22731  20.77485
  12.76623   1.96801  20.93105
  13.62733   1.53011  21.02175
  14.03003   1.13121  21.14235
  14.59723   0.73101  20.89265
  14.64963   0.37741  20.55765
  14.73143   0.19601  19.88335
  14.71463  -0.01889  19.03455
  14.44803  -0.06659  17.96235
  14.19393  -0.33589  16.96145
  14.01413  -0.49929  15.65395
  13.97573  -0.68239  14.51535
  13.99933  -0.70209  13.33035
  14.22383  -1.06379  11.96725
  14.29583  -1.00159  10.65535
  14.59723  -1.09879   9.69625
  14.80623  -0.90989   8.67075
  15.06953  -0.60759   7.54665
  15.50463  -0.25219   6.48795
  15.95633   0.01341   5.24875
  16.10813   0.60961   4.03575
  16.50253   1.28321   2.81385
  16.62013   1.93761   1.37645
  16.77043   2.90281  -0.20575
  16.58103   3.94401  -1.91745
  16.42443   4.81771  -3.88915
  16.21653   5.71581  -5.85665
  15.71033   6.63561  -8.11855
  15.00733   7.18381 -10.10175
