********************************************************************************
              CENTRO DE INSTRUMENTACION Y REGISTRO SISMICO  A.C.

    Anaxagoras 814, Col. Narvarte, Benito Juarez, C.P. 03020 Mexico, D.F.
           Tels. 5687 45 42/ 5687 45  82             Fax. 5669 25 12
********************************************************************************
ARCHIVO ESTANDAR DE ACELERACION:
VERSION DEL FORMATO                    : 2.0
NOMBRE DEL ARCHIVO                     : ES5720210908014746
FECHA Y HORA DE CREACION               : 07/SEP/21, 23:16
REF. CATALOGO ACELEROGRAMAS, SMIS 1996 : REGISTRO No.     /PAG.


================================================================================
DATOS DE LA ESTACION:
NOMBRE DE LA ESTACION                  : ESCANDÓN
CLAVE DE LA ESTACION                   : ES57
LOCALIZACION DE LA ESTACION            : Del. Miguel Hidalgo, Col. Escandón,    
                                       : Calle Comercio esq. con                
                                       : Calle José Martí.                      
                                       :                                        
                                       : 
COORDENADAS DE LA ESTACION             : 19.4017 LAT. N
                                       : 99.1775 LONG. W
ALTITUD (msnm)                         : 2242
TIPO DE SUELO                          : Terreno estratificado               
                                       : (arcillas, limos, arenas) 
                                       : 
INSTITUCION RESPONSABLE                : CIRES, A. C.
                                       : 

================================================================================
DATOS DEL ACELEROGRAFO:
MODELO DEL ACELEROGRAFO                : RAD_IO14
NUMERO DE SERIE DEL ACELEROGRAFO       : 
NUMERO DE CANALES                      : 3
ORIENTACION C1-C6 (rumbo;orientacion)  : /S00E/+V/N90W
ORIENTACION C7-C12 (rumbo;orientacion) : 
VEL. DE MUESTREO, C1-C6 (muestras/s)   : /100/100/100
VEL. DE MUESTREO, C7-C12 (muestras/s)  : 
ESC. COMPLETA DE SENSORES, C1-C6, (g)  : /2.0/2.0/2.0
ESC. COMPLETA DE SENSORES, C7-C12, (g) : 
FREC. NAT. DE SENSORES, C1-C6, (Hz)    : /53.32/54.34/52.35
FREC. NAT. DE SENSORES, C7-C12, (Hz)   : 
AMORTIGUAMIENTO DE SENSORES, C1-C6     : /0.5865/0.5715/0.5715
AMORTIGUAMIENTO DE SENSORES, C7-C12    : 
INTERVALO DE MUESTREO, C1-C6, (s)      : /0.01/0.01/0.01
INTERVALO DE MUESTREO, C7-C12, (s)     : 
UMBRAL DE DISPARO, C1-C6, (Gal)        : / / /
UMBRAL DE DISPARO, C7-C12, (Gal)       : 
MEMORIA DE PREEVENTO (s)               : 60
TIEMPO DE POSEVENTO (s)                : 90


================================================================================
DATOS DEL SISMO:
FECHA DEL SISMO (GMT)                  : 08/SEP/21
HORA EPICENTRO (GMT)                   : 01:47:46.0
MAGNITUD(ES)                           : /Mc=7.1
COORDENADAS DEL EPICENTRO              : 16.78 LAT. N
                                       : 99.93 LONG. W
PROFUNDIDAD FOCAL (km)                 : 10
FUENTE DE LOS DATOS EPICENTRALES       : SSN
                                       : INSTITUTO DE GEOFISICA, UNAM

================================================================================
DATOS DE ESTE REGISTRO:
HORA DE LA PRIMERA MUESTRA (GMT)       : 20:55:00.00
EXACTITUD DEL TIEMPO (s)               : 
DURACION DEL REGISTRO (s), C1-C6       : /599.21/599.21/599.21
DURACION DEL REGISTRO (s), C7-C12      : 
NUM. TOTAL DE MUESTRAS, C1-C6          : /59921/59921/59921
NUM. TOTAL DE MUESTRAS, C7-C12         : 
ACEL. MAX. (Gal), C1-C6                : /21.72659/8.09705/16.38479
ACEL. MAX., C1-C6, EN LA MUESTRA       : /7586/3735/8550
ACEL. MAX. (Gal), C7-C12               : 
ACEL. MAX., C7-C12, EN LA MUESTRA      : 
UNIDADES DE LOS DATOS                  : Gal (cm/s/s)
FACTOR DE DECIMACION                   : 1
FORMATO DATOS (FORTRAN,10 campos/dato) : 3F10.5


================================================================================
CALIDAD DEL ACELEROGRAMA:
REGISTRO DIGITAL COMPLETO CON TIEMPO ABSOLUTO CORRECTO.


================================================================================
COMENTARIOS:














================================================================================
DATOS DE ACELERACION:
---------+---------+---------+---------+---------+---------+---------+---------+
   CANAL-1   CANAL-2   CANAL-3   CANAL-4   CANAL-5   CANAL-6   CANAL-7   CANAL-8
      N00E        +V      N90W
---------+---------+---------+---------+---------+---------+---------+---------+
[...]
 -13.84951   3.37925   2.93921
 -14.85611   3.34625   3.19591
 -16.00291   3.37595   3.31051
 -16.58021   3.16625   3.13371
 -16.86801   2.90535   2.88471
 -17.08431   2.72015   2.39771
 -17.22061   2.49735   2.14641
 -16.95661   2.46555   1.52351
 -16.59021   2.25855   1.10711
 -16.20281   2.03535   0.94531
 -15.68961   1.79795   0.84501
 -15.05441   1.58145   0.82891
 -14.62911   1.53405   0.95071
 -14.22391   1.20315   1.25231
 -13.90991   1.19825   1.32761
 -13.70361   0.94875   1.52681
 -13.58211   0.81765   1.30261
 -13.63301   0.77255   1.19711
 -13.55891   0.64535   0.81301
 -13.51991   0.52325   0.41571
 -13.34941   0.35745  -0.28709
 -13.18971   0.06215  -0.55059
 -13.03941  -0.25275  -1.04319
 -12.57131  -0.60575  -1.07739
 -12.13781  -0.92915  -1.25529
 -11.53811  -0.92545  -1.15289
 -10.87671  -1.07435  -1.13839
 -10.26131  -1.04135  -0.98709
  -9.57061  -1.16605  -0.74649
  -8.86311  -1.32075  -0.64229
  -8.30271  -1.41735  -0.36749
  -7.72801  -1.36775  -0.20529
  -7.08031  -1.26675  -0.41689
  -6.49231  -1.02545  -0.48699
  -5.73471  -0.75165  -0.89409
  -4.87391  -0.55955  -1.00049
  -3.91521  -0.60555  -1.16969
  -2.80141  -0.27915  -1.27379
  -1.54791  -0.21935  -1.22659
  -0.18321  -0.15125  -1.30859
   1.15609  -0.25715  -1.16439
   2.45249  -0.29295  -1.31279
   3.44339  -0.34365  -1.24599
   4.82829  -0.51575  -1.20339
   5.78879  -0.35165  -1.63239
   6.72239  -0.46695  -2.16969
   7.68939  -0.77275  -2.77179
   8.47079  -1.13355  -3.14799
   9.07449  -1.39255  -3.78609
   9.49809  -1.44475  -4.08069
   9.97699  -1.60905  -4.19029
  10.53199  -1.74355  -4.37529
  10.66719  -1.40425  -4.37479
  10.89649  -1.37455  -4.17179
  10.82449  -1.41665  -4.13119
  10.91169  -1.59345  -3.83889
  10.86189  -1.76015  -3.61439
  10.91239  -2.11715  -3.53539
  11.03989  -2.36285  -3.46039
  11.16499  -2.45285  -3.39789
  11.36279  -2.33905  -3.25649
  11.52199  -2.22045  -3.01469
  11.65149  -2.22955  -2.91719
  11.58019  -1.89855  -2.89289
  11.16609  -1.83755  -2.67339
  10.56099  -1.91835  -2.70239
   9.70829  -1.81765  -2.45289
   8.45319  -1.74865  -2.34159
   7.21129  -1.62945  -2.16459
   5.86659  -1.63295  -1.77549
   4.35829  -1.65865  -1.28269
   2.89559  -1.63595  -0.71259
   1.72029  -1.87165  -0.09449
   0.60049  -1.78515   0.30981
  -0.48081  -1.87815   0.60881
  -1.31931  -1.92425   0.84101
  -1.85471  -2.00075   0.83941
  -2.62721  -2.30935   0.46831
  -3.60031  -2.42385   0.07391
  -4.46471  -2.47725  -0.35419
  -5.19141  -2.56885  -0.88819
  -6.58861  -2.48395  -1.18559
  -7.88741  -2.24805  -1.18119
  -9.10131  -2.03345  -0.96519
 -10.65151  -1.68365  -0.48579
 -12.02231  -1.52605   0.18681
 -13.16961  -1.29065   1.10341
 -14.31861  -0.98595   2.20741
 -15.03821  -0.89105   3.16881
 -15.52591  -0.89925   3.89811
 -15.86611  -0.81715   4.39191
 -16.18691  -0.66355   4.74401
 -16.38711  -0.69325   4.86091
 -16.48781  -0.34955   4.80921
 -16.62791  -0.24035   4.28431
 -16.97951  -0.10195   4.04651
 -17.55211   0.06895   3.78401
 -17.62411   0.32755   3.76831
 -17.60641   0.56205   3.72811
 -17.43131   0.91415   3.61421
 -16.87711   0.97875   3.64981
 -16.13431   1.08655   3.83801
 -15.19651   1.37455   3.88431
 -14.47241   1.49335   3.81951
 -13.50121   1.12975   3.81601
 -12.67161   1.01355   3.66611
 -12.07591   0.62945   3.66311
 -11.62271   0.03155   3.52471
 -10.97981  -0.39025   3.52721
 -10.58111  -0.72945   3.37341
 -10.18111  -1.30485   3.11081
  -9.36651  -1.70725   2.75661
  -8.43661  -1.81525   2.56791
  -7.11791  -1.90605   2.33581
  -5.85091  -2.13025   1.93831
  -4.43831  -2.25605   1.83281
  -3.12941  -2.15575   1.40101
  -1.92581  -2.06145   1.02671
  -0.85161  -1.98055   0.47601
  -0.11141  -1.70965   0.25881
   0.55709  -1.13775   0.06431
   1.26009  -0.70465  -0.14189
   2.31339  -0.18845  -0.28169
   3.13599   0.17765  -0.43769
   4.06769   0.43305  -0.38689
   4.86729   0.67715  -0.52189
   5.54959   0.71945  -0.47089
   6.30569   0.67245  -0.38549
   7.06159   0.69975  -0.64509
   7.88509   0.27375  -0.63149
   8.91199  -0.12835  -0.47489
   9.89679  -0.61305  -0.31909
  11.06749  -1.04345  -0.09659
  12.32069  -1.22375   0.11271
  13.52149  -1.68205   0.36971
  15.03259  -2.03435   0.58221
  16.12309  -2.35285   1.05591
  17.35129  -2.69555   1.09631
  18.12869  -3.13605   1.27361
  18.39129  -3.58285   1.23801
  18.49599  -4.30305   1.38141
  18.09759  -4.71665   1.37551
  17.74409  -5.14075   1.47321
  16.90429  -5.21515   1.35351
  16.00499  -4.93715   1.16601
  15.32489  -4.74885   0.97431
  14.66579  -4.23285   0.66821
  14.34569  -3.73835   0.48871
  13.84299  -3.00795   0.27661
  13.52709  -2.60765  -0.29829
  13.36279  -2.00725  -0.73339
  12.94629  -1.45775  -1.39979
  12.30219  -1.18265  -2.04369
  11.61079  -1.08815  -2.88169
  10.50629  -0.82325  -3.37639
   9.20909  -0.78375  -4.13439
   7.85559  -0.67735  -4.83049
   6.37349  -0.74775  -5.18869
   4.67629  -0.36775  -5.57069
   3.18479   0.11175  -5.83729
   1.74319   0.65235  -6.03409
   0.80419   1.40845  -5.95509
  -0.37911   1.96465  -6.03199
  -1.59911   2.67895  -6.13299
  -2.46731   2.98905  -6.46779
  -3.42911   3.37315  -7.09069
  -4.43061   3.32315  -7.76479
  -5.34261   3.33575  -8.67289
  -6.24611   3.19245  -9.48979
  -7.04521   2.80895 -10.25159
  -7.88041   2.56585 -10.70699
  -8.62621   2.10895 -11.17889
  -9.01251   1.70115 -11.53119
  -9.59771   1.16575 -12.00649
  -9.70671   0.88285 -12.41099
  -9.94731   0.31685 -12.54009
  -9.86821   0.06195 -12.92519
  -9.91641  -0.16485 -13.00699
  -9.45391  -0.34885 -13.03109
  -8.99401  -0.36985 -12.39719
  -8.37021  -0.21535 -12.08999
  -7.52341  -0.19855 -11.30629
  -6.56031  -0.02455 -10.43019
  -5.46841   0.23495  -9.40889
  -4.31011   0.20995  -8.56019
  -3.17241   0.35425  -7.43089
  -2.10371   0.56695  -6.54239
  -1.09551   0.63385  -5.46569
  -0.24611   0.50225  -4.20569
   0.37379   0.32785  -3.32799
   0.98729   0.45105  -2.14239
   1.26689   0.43935  -0.85879
   1.46519   0.32425   0.38351
   1.53059   0.31425   1.49871
   1.43079   0.09215   2.79291
   1.22759  -0.17045   4.06691
   0.94539  -0.45355   5.35491
   1.11629  -0.84825   6.49901
   1.25539  -1.48095   7.55161
   1.20189  -1.92355   8.35961
   1.23319  -2.22285   8.72651
   1.34239  -2.56305   9.18071
   1.25569  -2.59695   9.64671
   1.21289  -2.39375   9.91001
   0.78529  -2.23195  10.35211
   0.37679  -1.91325  11.01011
   0.29869  -1.51575  11.45011
  -0.12401  -1.42295  12.05471
  -0.32421  -0.79305  12.73981
  -0.52901  -0.47275  13.44561
  -0.60221   0.02715  13.75971
  -0.57951   0.59835  14.26441
  -0.72541   1.12835  14.59061
  -1.20141   1.56605  14.65421
  -1.72541   2.19455  14.73561
  -2.41111   2.94505  14.40941
  -3.02961   3.63595  14.37831
  -3.71601   4.27515  13.84381
  -4.26361   4.78985  13.31571
  -4.62391   5.11175  12.81341
  -4.83271   5.55275  12.24881
  -4.42991   5.98295  11.40051
  -4.05511   6.05565  10.73371
  -3.58701   6.47045  10.01221
  -2.94701   6.29885   9.30281
  -2.45251   6.16155   8.46131
  -2.00531   6.01125   7.70331
  -1.74811   5.46525   6.82721
  -1.41321   4.97945   5.60721
  -1.20681   4.34835   4.23941
  -0.89561   3.78845   2.56281
  -0.66511   3.16675   0.95491
   0.15859   2.40425  -1.09609
   1.01719   1.87145  -2.61509
   1.96649   1.19895  -4.23939
   3.17309   0.51785  -5.78229
   4.30569   0.17835  -7.04299
   5.27809  -0.41665  -8.08039
   6.43849  -0.33065  -8.91249
   7.41399  -0.22045  -9.74679
   8.42099  -0.12015 -10.56979
   9.28769  -0.00145 -11.01569
   9.97439   0.34555 -11.51619
  10.74949   0.56975 -11.87999
  11.46819   0.79495 -12.38089
  11.90429   1.20275 -12.38929
  12.35009   1.39255 -12.48259
  12.72909   1.35375 -12.16299
  12.72699   1.25155 -11.86039
  12.62979   0.87515 -11.46779
  12.32909   0.55245 -11.07899
  12.07919   0.35515 -10.89269
  11.76189   0.00845 -10.64689
  11.53229   0.05935 -10.80639
  11.45629  -0.31185 -10.53869
  11.27599  -0.61885 -10.44559
  11.17569  -0.69025 -10.01449
  10.86989  -1.04815  -9.29439
  10.33329  -1.09325  -8.31609
   9.81659  -1.01655  -7.32799
   9.08849  -1.11665  -6.00469
   8.34499  -1.25275  -4.75849
   7.27739  -1.58705  -3.48819
   6.52989  -1.84685  -2.28799
   5.46189  -2.09355  -1.30929
   4.57929  -2.32545  -0.35579
   3.57999  -2.52255   0.41711
   2.60589  -2.63085   1.23381
   1.76679  -2.31615   1.98621
   1.21169  -1.97425   2.52751
   0.64429  -1.53075   3.24571
   0.11169  -1.25955   4.03881
  -0.00311  -0.90925   4.52351
  -0.45601  -0.45175   5.20061
  -0.77591  -0.09865   5.82441
  -1.29421   0.14685   6.61661
  -1.96291   0.47835   7.09521
  -2.56731   0.67315   7.63851
  -3.47681   0.84965   8.06061
  -4.26571   1.09045   8.52961
  -4.94451   1.43465   8.77981
  -5.62981   1.52395   9.05361
  -6.30971   1.78795   9.63711
  -6.82291   2.10845   9.72931
  -7.62371   2.30745   9.91721
  -8.49231   2.42975   9.97431
  -9.37911   2.46065  10.02811
 -10.29891   2.64675   9.85291
 -11.26601   2.55995   9.68651
 -12.17381   2.47555   9.74681
 -13.05111   2.22845   9.52301
 -13.68771   1.87655   9.47321
 -14.29241   1.56465   9.10191
 -14.83011   1.14025   8.81461
 -15.31151   0.52915   8.36121
 -15.91151   0.15125   8.33971
 -16.50561  -0.15665   7.91001
 -17.22041  -0.26465   7.42551
 -17.97811  -0.34535   6.82491
 -18.49111  -0.44005   6.23331
 -18.71531  -0.30135   5.52051
 -18.99401  -0.20525   4.82651
 -18.73711   0.12135   3.85221
 -18.16451   0.36755   2.85671
 -17.40131   0.86885   1.89461
 -16.48481   1.31045   1.08391
 -15.52481   1.64605   0.11151
 -14.49111   2.19075  -0.71589
 -13.49301   2.62805  -1.44449
 -12.48321   2.67545  -2.02969
 -11.31931   2.46765  -2.85409
 -10.05951   2.21065  -3.50949
  -8.91011   2.16955  -4.25579
  -7.43431   1.76195  -5.12909
  -5.81521   1.31095  -5.77299
  -3.86571   1.04865  -6.49869
  -1.92671   0.76615  -7.08039
   0.30059   0.32925  -7.62569
   2.68399   0.24085  -7.82949
   4.97879   0.03085  -8.18419
   7.27129  -0.07175  -8.09699
   9.27179  -0.05005  -8.23359
  11.23069  -0.30165  -8.24219
  12.99049  -0.29905  -7.95699
  14.56449  -0.66215  -7.82109
  15.99189  -0.96865  -7.57099
  17.05719  -1.38045  -7.49919
  18.14649  -1.76035  -7.23469
  18.92999  -1.74165  -6.74649
  19.71489  -1.59555  -6.40709
  20.48459  -1.44005  -6.00119
  20.89719  -1.09465  -5.64339
  21.40949  -1.26425  -4.96299
  21.53719  -1.30255  -4.37269
  21.72659  -1.64715  -3.51059
  21.64119  -2.08445  -2.75149
  21.12659  -2.87605  -2.15849
  20.56919  -3.61985  -1.47019
  19.46029  -4.38855  -1.12979
  18.32769  -5.38575  -0.64949
  17.25499  -6.43305  -0.15569
  15.88979  -6.94835   0.11641
  14.56289  -7.24175   0.43141
  13.30269  -7.52915   1.06131
  11.90609  -7.71985   1.66781
  10.53339  -7.44355   2.45341
   8.84229  -7.40305   3.53361
   6.90009  -7.50995   4.65421
   5.01529  -7.36175   5.78841
   2.76279  -7.11105   7.26301
   0.15139  -6.80855   8.21961
  -2.29451  -6.27375   9.31921
  -4.71371  -5.72205  10.14151
  -6.60921  -5.37085  10.51651
  -8.46211  -4.48635  10.52471
 -10.12361  -3.95935  10.11861
 -11.30101  -3.29035   9.48311
 -12.19631  -2.56065   8.80031
 -12.97601  -2.03275   8.12811
 -13.59681  -1.66565   7.61311
 -14.35221  -1.08625   7.26001
 -15.21101  -0.69885   7.04301
 -16.35271  -0.37015   7.05821
 -17.30081   0.22325   7.10801
 -18.50771   0.60815   7.11361
 -19.34921   1.13885   6.64791
 -20.08471   1.46855   6.04491
 -20.28861   1.79235   5.46741
 -20.43171   1.94415   4.51811
 -20.27321   2.15945   3.55621
 -19.68941   2.22305   2.35661
 -19.18741   2.21115   1.69701
 -18.68891   2.38715   0.64461
 -18.16451   2.74845   0.49621
 -17.86681   3.09565   0.19691
 -17.67391   3.48815  -0.10259
 -17.38781   3.72275  -0.48209
 -17.14621   3.70285  -1.15549
 -17.01481   3.47585  -1.66239
 -16.56031   2.94575  -2.65469
 -15.95311   2.40825  -3.34319
 -15.50631   2.05355  -4.07639
 -14.43591   1.35375  -4.60979
 -13.20141   1.11435  -5.08369
 -11.92621   0.80455  -5.62399
 -10.45651   0.56375  -5.81599
  -9.37791   0.62425  -6.07549
  -8.49701   0.66865  -6.51789
  -7.78621   0.85995  -6.82699
  -7.37771   1.00145  -7.03179
  -6.84491   1.34955  -7.24029
  -6.52061   1.93245  -7.56649
  -5.58671   2.36265  -7.75889
  -4.61041   2.86715  -7.76149
  -3.36061   3.36705  -7.58589
  -2.22781   3.95465  -7.16719
  -0.65341   4.55835  -6.68859
   0.68069   5.27965  -5.92349
   1.84069   5.76545  -5.03299
   2.71389   6.45635  -4.29299
   3.50229   6.69305  -3.47579
   3.70929   6.27615  -2.49729
   3.81049   5.69135  -1.70309
   3.79019   4.95135  -1.21789
   3.73289   3.97055  -0.74259
   3.86189   2.91445  -0.29529
   4.01179   1.58595   0.18801
   4.28329   0.36315   0.64651
   4.84349  -0.63475   1.08141
   5.40089  -1.69025   1.52071
   5.92369  -2.66635   2.00421
   6.19979  -3.60225   2.43091
   6.19719  -4.32875   2.71711
   6.18829  -4.85715   3.21421
   6.10279  -5.13445   3.69071
   5.81539  -5.18775   4.10571
   5.56799  -4.86065   4.61661
   6.01649  -4.48795   5.06641
   6.15999  -3.92585   5.77841
   6.68279  -3.29645   6.48051
   7.23669  -2.62845   7.16811
   7.88039  -2.25535   7.60911
   8.19539  -1.62525   7.96261
   8.55169  -1.09655   8.06221
   8.36559  -0.92615   7.90021
   8.08129  -0.68315   7.65351
   7.74759  -0.53775   7.13801
   7.06929  -0.45945   6.96401
   6.45609  -0.14265   6.41971
   5.64889   0.10075   6.01851
   5.03589   0.17465   5.89641
   4.49039   0.37945   5.77651
   3.79579   0.94225   5.43261
   3.21919   1.31915   5.16881
   2.83969   1.63785   4.74241
   2.53979   2.10545   4.06131
   2.27649   2.55955   3.46951
   1.81819   2.95485   2.46041
   1.88629   3.08255   1.60841
   1.51219   3.27545   0.93451
   1.40789   3.15245  -0.02079
   1.56079   2.92355  -0.82069
   1.83669   2.78345  -1.33059
   2.30339   2.62615  -2.17959
   2.76729   2.39725  -2.69229
   3.79109   2.26515  -3.39609
   4.83859   2.23895  -4.14869
   6.18739   1.98735  -4.97449
   7.30729   1.90225  -5.84359
   8.49509   1.61725  -6.28079
   9.37679   1.39425  -6.79889
  10.36879   1.31635  -7.04979
  11.12899   1.32785  -7.23289
  11.78169   1.31825  -7.14069
  12.23439   1.65775  -7.04609
  12.87339   2.03835  -6.89849
  13.33629   2.27405  -6.91069
  13.70479   2.50125  -6.61489
  14.05859   2.65255  -6.40799
  14.12589   2.66375  -6.21879
  14.18969   2.41615  -5.79279
  14.03289   2.53095  -5.22419
  13.83439   2.32475  -4.84539
  13.36929   1.95345  -4.49639
  12.76439   1.57755  -3.88799
  12.09739   1.20155  -3.53119
  11.45369   0.60975  -3.32919
  10.49599   0.17905  -3.18959
   9.47149  -0.08655  -3.05379
   8.30429  -0.43835  -3.17389
   7.23929  -0.47045  -3.23869
   6.17879  -0.65935  -3.17579
   5.12449  -0.69605  -3.06269
   4.16029  -0.80615  -2.89339
   3.03029  -0.96235  -2.54589
   1.90869  -1.05615  -2.19989
   0.74289  -0.88915  -1.77229
  -0.33471  -0.87725  -1.29999
