********************************************************************************
              CENTRO DE INSTRUMENTACION Y REGISTRO SISMICO  A.C.

    Anaxagoras 814, Col. Narvarte, Benito Juarez, C.P. 03020 Mexico, D.F.
           Tels. 5687 45 42/ 5687 45  82             Fax. 5669 25 12
********************************************************************************
ARCHIVO ESTANDAR DE ACELERACION:
VERSION DEL FORMATO                    : 2.0
NOMBRE DEL ARCHIVO                     : EX0920210908014746
FECHA Y HORA DE CREACION               : 08/SEP/21, 01:49
REF. CATALOGO ACELEROGRAMAS, SMIS 1996 : REGISTRO No.     /PAG.


================================================================================
DATOS DE LA ESTACION:
NOMBRE DE LA ESTACION                  : ESC. SEC. NO. 3, BIBLIOTECA
CLAVE DE LA ESTACION                   : EX09
LOCALIZACION DE LA ESTACION            : Del. Cuauhtémoc, Col. Juárez,          
                                       : Av. Chapultepec, entre Venecia         
                                       : y Niza.                                
                                       :                                        
                                       : 
COORDENADAS DE LA ESTACION             : 19.4236 LAT. N
                                       : 99.1602 LONG. W
ALTITUD (msnm)                         : 2233
TIPO DE SUELO                          : Alto riesgo sísmico                 
                                       :                           
                                       : 
INSTITUCION RESPONSABLE                : CIRES, A. C.
                                       : 

================================================================================
DATOS DEL ACELEROGRAFO:
MODELO DEL ACELEROGRAFO                : RAD_IO14
NUMERO DE SERIE DEL ACELEROGRAFO       : 
NUMERO DE CANALES                      : 3
ORIENTACION C1-C6 (rumbo;orientacion)  : /N00E/+V/N90W
ORIENTACION C7-C12 (rumbo;orientacion) : 
VEL. DE MUESTREO, C1-C6 (muestras/s)   : /100/100/100
VEL. DE MUESTREO, C7-C12 (muestras/s)  : 
ESC. COMPLETA DE SENSORES, C1-C6, (g)  : /2.0/2.0/2.0
ESC. COMPLETA DE SENSORES, C7-C12, (g) : 
FREC. NAT. DE SENSORES, C1-C6, (Hz)    : /30/30/30
FREC. NAT. DE SENSORES, C7-C12, (Hz)   : 
AMORTIGUAMIENTO DE SENSORES, C1-C6     : /0.700/0.700/0.700
AMORTIGUAMIENTO DE SENSORES, C7-C12    : 
INTERVALO DE MUESTREO, C1-C6, (s)      : /0.01/0.01/0.01
INTERVALO DE MUESTREO, C7-C12, (s)     : 
UMBRAL DE DISPARO, C1-C6, (Gal)        : / / /
UMBRAL DE DISPARO, C7-C12, (Gal)       : 
MEMORIA DE PREEVENTO (s)               : 60
TIEMPO DE POSEVENTO (s)                : 90


================================================================================
DATOS DEL SISMO:
FECHA DEL SISMO (GMT)                  : 08/SEP/21
HORA EPICENTRO (GMT)                   : 01:47:46.0
MAGNITUD(ES)                           : /Mc=7.1
COORDENADAS DEL EPICENTRO              : 16.78 LAT. N
                                       : 99.93 LONG. W
PROFUNDIDAD FOCAL (km)                 : 10
FUENTE DE LOS DATOS EPICENTRALES       : SSN
                                       : INSTITUTO DE GEOFISICA, UNAM

================================================================================
DATOS DE ESTE REGISTRO:
HORA DE LA PRIMERA MUESTRA (GMT)       : 20:45:19.00
EXACTITUD DEL TIEMPO (s)               : 
DURACION DEL REGISTRO (s), C1-C6       : /540.2/540.2/540.2
DURACION DEL REGISTRO (s), C7-C12      : 
NUM. TOTAL DE MUESTRAS, C1-C6          : /54020/54020/54020
NUM. TOTAL DE MUESTRAS, C7-C12         : 
ACEL. MAX. (Gal), C1-C6                : /33.22477/10.90682/40.80702
ACEL. MAX., C1-C6, EN LA MUESTRA       : /13810/15088/16169
ACEL. MAX. (Gal), C7-C12               : 
ACEL. MAX., C7-C12, EN LA MUESTRA      : 
UNIDADES DE LOS DATOS                  : Gal (cm/s/s)
FACTOR DE DECIMACION                   : 1
FORMATO DATOS (FORTRAN,10 campos/dato) : 3F10.5


================================================================================
CALIDAD DEL ACELEROGRAMA:
REGISTRO DIGITAL COMPLETO CON TIEMPO ABSOLUTO CORRECTO.


================================================================================
COMENTARIOS:














================================================================================
DATOS DE ACELERACION:
---------+---------+---------+---------+---------+---------+---------+---------+
   CANAL-1   CANAL-2   CANAL-3   CANAL-4   CANAL-5   CANAL-6   CANAL-7   CANAL-8
      N00E        +V      N90W
---------+---------+---------+---------+---------+---------+---------+---------+
[...]
  13.97583   2.01698 -11.54138
  14.19093   2.04838 -10.74638
  14.64643   2.06798  -9.96498
  15.17273   2.15448  -9.06388
  15.55033   2.24778  -8.13008
  15.94193   2.38338  -7.26708
  16.42593   2.46708  -6.17128
  17.05953   2.55308  -5.08728
  17.57083   2.45958  -4.40508
  18.40603   2.17998  -3.28958
  19.21033   2.00738  -2.53408
  19.99363   2.11378  -1.70708
  20.62273   2.11288  -0.72258
  21.41723   2.10448   8.2E-40
  22.20873   2.03948   0.71842
  23.00313   2.12688   1.38382
  23.77873   2.14088   1.94472
  24.55803   1.79908   2.45612
  25.25333   1.97488   3.01022
  25.95363   2.00598   3.38732
  26.57043   1.91178   3.71892
  27.23773   1.86618   3.83532
  27.78943   1.80798   3.94682
  28.17363   1.68448   4.05652
  28.60313   1.80938   4.16242
  28.87433   1.84398   4.18442
  29.09133   1.77668   4.35252
  29.25243   1.39858   4.16452
  29.14093   1.22678   4.22722
  28.95643   0.86668   4.37002
  28.70603   0.60998   4.48202
  28.24213   0.26978   4.44552
  27.77963  -0.07372   4.62092
  27.26363  -0.46652   4.88672
  26.45793  -0.80062   5.03572
  25.70833  -1.01032   5.49182
  24.82803  -1.40242   5.83792
  23.81913  -1.68462   6.12872
  22.79833  -2.02582   6.51962
  21.70763  -2.24832   7.02792
  20.66763  -2.59582   7.27132
  19.38433  -2.94882   7.68732
  18.20523  -3.36222   7.92512
  16.92463  -3.88032   8.37402
  15.58933  -4.31762   8.72752
  14.31863  -4.73862   8.96742
  12.92513  -5.15972   9.17452
  11.46913  -5.74242   9.64712
  10.28543  -6.04452  10.01512
   8.66303  -6.47122  10.36532
   7.32703  -6.51862  10.85632
   5.84703  -6.90912  11.44272
   4.40513  -7.22402  12.08732
   3.10633  -7.23342  12.64362
   1.83923  -7.47072  13.53022
   0.70603  -7.37762  14.17812
  -0.57317  -7.30872  15.02072
  -1.70857  -7.27972  15.67542
  -2.90917  -7.28952  16.52432
  -3.95217  -6.92572  17.25942
  -5.03077  -6.58782  18.09832
  -5.95587  -6.21942  18.87272
  -6.88227  -5.81422  19.34062
  -7.78387  -5.12962  20.07332
  -8.61667  -4.38042  20.48392
  -9.37657  -4.09312  21.11402
 -10.03077  -3.23152  21.45322
 -10.83317  -2.88082  21.50682
 -11.72627  -2.25352  21.56242
 -12.30287  -1.66802  21.52462
 -13.12007  -0.98182  21.45962
 -13.67837  -0.52492  21.17832
 -14.32537   0.02378  20.91922
 -14.97367   0.56298  20.35222
 -15.57437   0.79048  19.76052
 -16.31857   1.05488  19.27632
 -17.02797   1.25598  18.51362
 -17.56897   1.52138  17.81002
 -18.28487   1.44578  17.14492
 -18.76937   1.83108  16.02302
 -19.55637   1.76918  15.04922
 -20.27767   1.69438  13.88772
 -20.81707   2.04928  13.05882
 -21.39897   1.89708  12.03152
 -21.84577   2.00838  10.99222
 -22.45137   1.87278   9.86922
 -22.78077   2.03318   8.94242
 -23.09857   1.84838   7.95362
 -23.38467   1.68308   6.90032
 -23.67417   1.62048   5.96582
 -23.91667   1.37238   5.10042
 -24.08267   1.15218   4.18862
 -24.21077   0.97328   3.44272
 -24.38757   0.81778   2.80722
 -24.55327   0.59428   2.11022
 -24.51707   0.49938   1.33312
 -24.74147  -0.07282   0.67402
 -24.98167  -0.30892   0.03032
 -25.14767  -0.19252  -0.42098
 -25.42987  -0.49832  -1.00968
 -25.65357  -0.76372  -1.79668
 -25.70877  -1.00942  -2.34968
 -25.84647  -1.29632  -2.86288
 -25.97627  -1.64702  -3.37398
 -26.11027  -1.81772  -4.27338
 -26.05857  -2.15952  -4.91938
 -26.06507  -2.23152  -5.34218
 -26.04337  -2.57242  -6.10458
 -25.91127  -2.63162  -6.50398
 -25.77607  -2.83892  -7.14088
 -25.47517  -2.97272  -7.57128
 -25.34827  -3.01032  -8.06228
 -24.90537  -2.85252  -8.53058
 -24.69237  -2.87752  -8.82308
 -24.47497  -2.74612  -9.29698
 -24.38097  -2.95092  -9.48758
 -24.06137  -2.65072  -9.73308
 -23.59837  -2.67742 -10.05408
 -23.32467  -2.51472 -10.30968
 -22.91617  -2.48172 -10.45438
 -22.66317  -2.31312 -10.58298
 -22.43877  -1.95422 -10.64798
 -21.98937  -2.16092 -10.87478
 -21.66227  -1.94912 -11.09058
 -21.18087  -1.92552 -11.14368
 -20.79017  -1.59722 -11.19718
 -20.26127  -1.22542 -11.21778
 -19.75697  -1.28742 -11.10108
 -19.08967  -1.29512 -11.07278
 -18.40387  -1.20932 -10.90138
 -17.68397  -1.22962 -10.68308
 -16.89347  -0.84552 -10.22248
 -16.09647  -0.98372  -9.98258
 -15.09687  -0.75242  -9.38818
 -14.32417  -0.58832  -8.92108
 -13.37047  -0.29392  -8.38238
 -12.40997  -0.32132  -7.52008
 -11.22897   0.03828  -6.92158
 -10.00877   0.42528  -6.09618
  -8.75437   0.70538  -5.37838
  -7.60477   1.02638  -4.51588
  -6.33887   1.09468  -3.75788
  -5.08287   1.20868  -2.95548
  -3.99427   1.17318  -2.15258
  -2.66337   1.26978  -1.30498
  -1.35457   1.25338  -0.81538
  -0.32997   1.39698   0.08942
   0.83063   1.19608   0.46912
   1.93863   1.04698   1.04062
   3.09903   0.97798   1.70932
   3.78693   0.70788   2.03502
   4.79933   0.76938   2.56902
   5.82543   0.66748   2.87812
   6.66273   0.46148   3.22882
   7.49813   0.42388   3.46052
   8.21643   0.50028   3.79722
   8.70553   0.50478   4.23492
   9.12433   0.50498   4.31372
   9.68663   0.54868   4.87992
   9.91713   0.47038   5.12082
  10.36933   0.42898   5.59492
  10.43643   0.37498   6.05722
  10.67893   0.19708   6.68942
  10.74993   0.08338   7.14862
  11.03683   0.01278   7.68712
  11.05363   0.02288   8.26012
  11.31483  -0.02112   8.94682
  11.40063  -0.09682   9.58822
  11.45493  -0.22592   9.90802
  11.73503  -0.37132  10.43292
  11.88373  -0.78562  11.03642
  11.93673  -1.15232  11.38432
  12.10373  -1.31662  11.88772
  12.21873  -1.69452  12.13392
  12.34363  -1.95142  12.45232
  12.62163  -2.29722  12.75512
  12.86823  -2.34402  12.86012
  13.08613  -2.91632  13.07142
  13.43973  -3.14012  13.14512
  13.71653  -3.27852  13.26782
  14.05043  -3.46952  13.19682
  14.38573  -3.35822  13.24282
  14.64563  -3.28062  13.31672
  14.94943  -3.26592  13.02212
  15.28303  -3.26712  13.02262
  15.61243  -3.00052  12.84672
  15.94333  -2.84252  12.71512
  16.30313  -2.74192  12.54232
  16.49343  -2.56982  12.28912
  16.77243  -2.08842  11.96742
  17.19303  -1.93882  11.53512
  17.39763  -1.72182  11.23742
  17.68403  -1.47652  10.88282
  17.70503  -1.07322  10.58392
  17.75653  -0.84202  10.14202
  17.79133  -0.57992   9.80212
  17.77283  -0.21892   9.23372
  17.90493   0.10678   8.62512
  18.03173   0.38638   8.09012
  18.13693   0.41818   7.63802
  18.30853   0.64008   7.18882
  18.31793   1.02288   6.55802
  18.51173   1.21898   6.01162
  18.65853   1.17718   5.35502
  18.74623   1.47928   4.86572
  18.89143   1.39858   4.25172
  19.07753   1.35138   3.56432
  19.19423   1.30108   3.04852
  19.20333   1.30298   2.37022
  19.09883   1.15448   1.79322
  19.09153   1.08058   1.38682
  19.01203   0.94758   0.69382
  18.86683   0.76828   0.17062
  18.91223   0.60828  -0.24678
  18.78383   0.41098  -0.86708
  18.71423   0.21528  -1.39498
  18.51993   0.14588  -2.07188
  18.34083   0.07008  -2.49438
  18.03563  -0.35332  -2.99288
  17.79413  -0.54742  -3.64258
  17.65033  -0.71782  -4.17918
  17.36183  -0.88312  -4.53158
  17.07893  -0.99702  -5.05788
  16.71493  -1.18292  -5.66968
  16.65993  -1.26102  -6.22638
  16.33983  -1.43402  -6.78728
  16.08593  -1.48802  -7.57428
  16.05393  -1.43802  -8.30198
  16.01673  -1.38982  -8.98258
  15.80303  -1.13192  -9.66688
  15.77923  -1.15582 -10.35388
  15.84463  -1.00402 -11.14528
  15.93983  -0.87432 -12.22458
  15.93463  -0.63462 -12.87968
  15.90803  -0.50762 -13.92108
  15.67933  -0.16602 -14.83778
  15.12153  -0.10712 -15.66158
  14.74203   0.38218 -16.60848
  14.28723   0.75098 -17.66578
  13.66653   1.06778 -18.41908
  12.85793   1.56408 -19.43218
  11.95153   1.99928 -20.39498
  10.95153   2.40798 -21.13808
   9.99783   2.74648 -21.83778
   8.88763   3.15918 -22.63298
   7.91713   3.57608 -23.18458
   6.97163   4.12948 -23.92228
   5.85793   4.57838 -24.40528
   5.07093   5.06798 -24.75618
   4.10983   5.52668 -25.34288
   3.26923   5.88798 -25.84318
   2.53303   6.29918 -26.25588
   1.96693   6.77878 -26.60258
   1.46263   7.06958 -26.83708
   0.78663   7.48388 -27.23508
   0.33593   7.66258 -27.57968
   0.11143   7.73478 -27.75648
  -0.29637   7.76938 -28.11418
  -0.71997   7.70578 -28.36458
  -0.91947   7.65458 -28.44998
  -1.23067   7.33428 -28.68328
  -1.56427   7.25778 -28.91688
  -1.90657   7.00298 -28.99118
  -2.10557   6.68358 -28.94308
  -2.44857   5.99408 -29.13778
  -2.74267   5.75768 -29.04218
  -2.98097   5.48418 -29.10018
  -3.54277   5.12008 -28.88198
  -3.87757   4.63758 -28.72068
  -4.37627   4.18928 -28.51028
  -4.76487   3.77198 -28.34288
  -5.17497   3.08108 -28.07048
  -5.68027   2.43718 -27.54978
  -6.16027   1.92138 -27.04428
  -6.82237   0.94828 -26.52968
  -7.31407   0.50078 -26.13528
  -8.02747  -0.19082 -25.43638
  -8.65667  -0.77392 -24.77348
  -9.23177  -1.43282 -24.23838
 -10.05227  -1.82962 -23.59398
 -10.75457  -2.31552 -22.89418
 -11.30477  -2.55352 -22.39968
 -11.87357  -2.87662 -21.62478
 -12.35147  -2.98862 -21.07278
 -12.99637  -3.18922 -20.40298
 -13.51217  -3.25212 -19.66318
 -13.90727  -3.06392 -18.87008
 -14.62457  -3.28722 -17.94818
 -15.11907  -2.95092 -17.02508
 -15.44647  -2.86492 -16.02438
 -16.07097  -2.66762 -15.10128
 -16.78847  -2.46232 -13.91308
 -17.21127  -2.07792 -12.72678
 -17.81537  -1.87502 -11.41488
 -18.39127  -1.88032 -10.22058
 -18.80487  -1.49272  -8.69428
 -19.22947  -1.45782  -7.43518
 -19.77817  -1.47862  -5.99538
 -20.02117  -1.10292  -4.55208
 -20.29777  -1.22892  -3.09668
 -20.79577  -1.11812  -1.69618
 -20.82517  -1.02832  -0.09148
 -21.09717  -1.16932   1.31902
 -21.21827  -1.02582   2.77242
 -21.45277  -0.95422   4.08292
 -21.41717  -0.86932   5.60382
 -21.29817  -0.96432   7.02402
 -21.24257  -0.80602   8.35462
 -21.05877  -1.10082   9.76542
 -20.78847  -1.00822  11.11192
 -20.28487  -1.01012  12.59892
 -19.96617  -0.90772  13.98312
 -19.50977  -0.62382  15.39432
 -19.08237  -0.40502  17.04882
 -18.71887  -0.45742  18.76052
 -18.03287  -0.35682  20.38942
 -17.38397  -0.22752  22.07942
 -16.91267   0.00808  23.69572
 -16.25937   0.25998  25.59492
 -15.61717   0.23348  27.18972
 -15.05437   0.35958  28.90222
 -14.48357   0.26668  30.55942
 -13.81817   0.53188  32.32442
 -13.18367   0.52438  33.75422
 -12.34847   0.40418  35.07682
 -11.72447   0.15168  36.43522
 -10.93957  -0.01762  37.54702
 -10.17807   0.01558  38.48932
  -9.48477  -0.05572  39.31832
  -8.53857  -0.24182  39.91622
  -7.73287  -0.49712  40.18392
  -6.82517  -0.53312  40.56782
  -6.15727  -0.84202  40.73732
  -5.42427  -0.60302  40.80702
  -4.73287  -0.87052  40.69592
  -3.93067  -0.99192  40.47902
  -3.32117  -1.03002  40.19472
  -2.57827  -1.21022  39.73942
  -2.04287  -1.54652  39.33732
  -1.18127  -1.87212  38.91572
  -1.00217  -2.04282  38.41562
   0.02403  -2.06782  37.90852
  -0.18737  -2.57942  37.09532
   0.84493  -2.16652  36.36252
   1.81753  -3.71392  35.97792
   1.75233  -3.04562  35.17502
   2.33283  -2.93692  34.59452
   2.15913  -3.55702  34.03152
   2.69663  -3.10572  33.10392
   2.55003  -2.94282  32.76942
   3.00483  -2.72302  31.97392
   2.81613  -2.86542  31.36512
   3.45163  -2.27272  30.56692
   3.35973  -2.37652  29.95762
   3.71583  -2.16282  29.23352
   3.63443  -2.07492  28.61712
   3.89863  -1.91872  27.77472
   3.87953  -2.10672  26.79982
   3.97743  -2.01032  26.00712
   4.25683  -2.24792  25.15542
   4.56053  -2.27342  24.25502
   4.63303  -2.47142  23.06982
   4.74243  -2.65122  22.27322
   4.66323  -2.76672  21.40272
   4.78313  -2.78242  20.45422
   4.87603  -2.71602  19.62092
   5.23553  -2.73932  18.60832
   5.60923  -2.83472  17.58892
   5.93253  -2.65242  16.67162
   6.45073  -2.85652  15.78602
   6.80303  -2.95162  14.85452
   7.20003  -3.19132  13.88532
   7.59963  -3.43912  13.20772
   7.93303  -3.47512  12.45182
   8.31393  -3.38232  11.72242
   8.33593  -3.34142  11.21552
   8.69223  -3.04562  10.76302
   8.72353  -2.81842  10.03942
   8.99713  -2.50832   9.59732
   9.24983  -2.13662   9.06582
   9.38433  -2.02582   8.61432
   9.51663  -1.48942   8.09972
   9.39063  -1.20092   7.71892
   9.48413  -1.03232   7.11492
   9.29753  -0.72582   6.43712
   9.46233  -0.25472   5.88442
   9.38543   0.04058   5.31832
   9.48393   0.75468   4.61342
   9.34453   1.05488   3.92392
   9.54673   1.50848   2.97322
   9.41773   1.87138   2.12522
   9.25733   1.97868   1.05622
   9.21943   2.10678   0.18902
   8.99963   2.28608  -0.80108
   8.91713   2.49798  -1.82098
   8.57553   2.84988  -2.75298
   8.48883   3.15428  -4.00078
   8.17293   3.48158  -4.89068
   7.93883   3.71278  -6.07608
   7.31783   3.76358  -7.21708
   6.80883   3.86248  -8.32458
   6.27763   3.71778  -9.23878
   5.65763   3.59618 -10.43168
   4.99923   3.12428 -11.50068
   4.45323   3.21578 -12.70268
   3.81193   3.22208 -13.62618
   3.22203   3.04128 -14.89348
   2.69473   3.19118 -15.96828
   2.07803   3.34388 -16.93388
   1.51823   3.53418 -18.08778
   1.24963   3.40678 -19.26498
   0.62413   3.32428 -20.28038
   0.40043   3.23908 -21.13878
  -0.14387   2.80868 -22.03798
  -0.36067   2.38948 -22.88088
  -0.69967   2.09418 -23.51638
  -1.25617   1.66398 -23.99498
  -1.55727   1.30738 -24.42868
  -1.90867   1.09838 -24.81488
  -2.07867   1.10378 -25.11908
  -2.20777   1.47718 -25.55538
  -1.99917   1.23728 -26.01178
  -1.88247   1.17338 -26.31968
  -1.55377   1.16568 -26.60188
  -1.32857   0.99528 -27.08638
  -1.04457   1.09468 -27.32068
  -0.76347   0.83508 -27.78708
  -0.32627   0.68778 -28.17008
  -0.00107   0.98868 -28.52198
   0.64683   0.91668 -28.85678
   1.00343   1.02008 -29.17778
   1.63143   1.36118 -29.47898
   2.16263   1.32308 -29.73288
   2.47333   1.23538 -29.82448
   2.95593   1.36958 -29.86608
   3.41633   1.50378 -30.20138
   3.89403   1.37708 -30.21498
   4.22063   1.44228 -30.21168
   4.50683   1.32378 -30.50158
   4.66273   0.93238 -30.59378
   5.05723   0.87348 -30.67978
   5.34433   0.65928 -30.92718
   5.64243   0.40888 -31.03308
   5.86593   0.18438 -31.13378
   6.14323   0.17878 -31.12188
   6.35573  -0.02272 -30.79808
   6.67703  -0.09872 -30.67818
   6.80043  -0.04982 -30.42398
   7.04103  -0.21282 -29.96688
   7.29613  -0.04452 -29.49228
   7.38893  -0.33302 -29.04758
   7.57693  -0.27852 -28.62548
   7.28723  -0.36482 -27.88808
   7.24913  -0.36852 -27.23908
   7.23483  -0.26332 -26.60498
   7.16243  -0.14572 -25.62808
   7.05763  -0.24672 -24.72768
   7.00243   0.19208 -23.87338
   6.93933   0.35908 -23.13668
   6.71323   0.30318 -22.01718
   6.59003   0.39068 -21.04778
   6.40233   0.42058 -19.97878
   6.14163   0.36768 -19.00008
   5.80253   0.11618 -18.09078
   5.48603  -0.16672 -16.94838
   5.27743  -0.35892 -15.90278
   5.01253  -0.49432 -14.69098
   4.74743  -0.59042 -13.79738
   4.37233  -0.87362 -12.58278
   3.98193  -1.05902 -11.58088
   3.63563  -1.10362 -10.49558
   3.39593  -1.04562  -9.44498
   3.26693  -1.23412  -8.28508
   3.07473  -1.19762  -7.21798
   2.94593  -1.22172  -6.15788
   2.60963  -1.08262  -4.87848
   2.35293  -0.82542  -3.75908
