********************************************************************************
              CENTRO DE INSTRUMENTACION Y REGISTRO SISMICO  A.C.

    Anaxagoras 814, Col. Narvarte, Benito Juarez, C.P. 03020 Mexico, D.F.
           Tels. 5687 45 42/ 5687 45  82             Fax. 5669 25 12
********************************************************************************
ARCHIVO ESTANDAR DE ACELERACION:
VERSION DEL FORMATO                    : 2.0
NOMBRE DEL ARCHIVO                     : EX1220210908014746
FECHA Y HORA DE CREACION               : 08/SEP/21, 01:49
REF. CATALOGO ACELEROGRAMAS, SMIS 1996 : REGISTRO No.     /PAG.


================================================================================
DATOS DE LA ESTACION:
NOMBRE DE LA ESTACION                  : ESC. SEC. NO. 3, P. B. - CENTRO EDIF.
CLAVE DE LA ESTACION                   : EX12
LOCALIZACION DE LA ESTACION            : Del. Cuauhtémoc, Col. Juárez,          
                                       : Av. Chapultepec, entre Venecia         
                                       : y Niza.                                
                                       :                                        
                                       : 
COORDENADAS DE LA ESTACION             : 19.4236 LAT. N
                                       : 99.1602 LONG. W
ALTITUD (msnm)                         : 2232
TIPO DE SUELO                          : Alto riesgo sísmico                 
                                       :                           
                                       : 
INSTITUCION RESPONSABLE                : CIRES, A. C.
                                       : 

================================================================================
DATOS DEL ACELEROGRAFO:
MODELO DEL ACELEROGRAFO                : RAD_IO14
NUMERO DE SERIE DEL ACELEROGRAFO       : 
NUMERO DE CANALES                      : 3
ORIENTACION C1-C6 (rumbo;orientacion)  : /N00E/+V/N90W
ORIENTACION C7-C12 (rumbo;orientacion) : 
VEL. DE MUESTREO, C1-C6 (muestras/s)   : /100/100/100
VEL. DE MUESTREO, C7-C12 (muestras/s)  : 
ESC. COMPLETA DE SENSORES, C1-C6, (g)  : /2.0/2.0/2.0
ESC. COMPLETA DE SENSORES, C7-C12, (g) : 
FREC. NAT. DE SENSORES, C1-C6, (Hz)    : /30/30/30
FREC. NAT. DE SENSORES, C7-C12, (Hz)   : 
AMORTIGUAMIENTO DE SENSORES, C1-C6     : /0.700/0.700/0.700
AMORTIGUAMIENTO DE SENSORES, C7-C12    : 
INTERVALO DE MUESTREO, C1-C6, (s)      : /0.01/0.01/0.01
INTERVALO DE MUESTREO, C7-C12, (s)     : 
UMBRAL DE DISPARO, C1-C6, (Gal)        : / / /
UMBRAL DE DISPARO, C7-C12, (Gal)       : 
MEMORIA DE PREEVENTO (s)               : 60
TIEMPO DE POSEVENTO (s)                : 90


================================================================================
DATOS DEL SISMO:
FECHA DEL SISMO (GMT)                  : 08/SEP/21
HORA EPICENTRO (GMT)                   : 01:47:46.0
MAGNITUD(ES)                           : /Mc=7.1
COORDENADAS DEL EPICENTRO              : 16.78 LAT. N
                                       : 99.93 LONG. W
PROFUNDIDAD FOCAL (km)                 : 10
FUENTE DE LOS DATOS EPICENTRALES       : SSN
                                       : INSTITUTO DE GEOFISICA, UNAM

================================================================================
DATOS DE ESTE REGISTRO:
HORA DE LA PRIMERA MUESTRA (GMT)       : 20:45:19.00
EXACTITUD DEL TIEMPO (s)               : 
DURACION DEL REGISTRO (s), C1-C6       : /540.2/540.2/540.2
DURACION DEL REGISTRO (s), C7-C12      : 
NUM. TOTAL DE MUESTRAS, C1-C6          : /54020/54020/54020
NUM. TOTAL DE MUESTRAS, C7-C12         : 
ACEL. MAX. (Gal), C1-C6                : /33.47416/13.50469/43.66564
ACEL. MAX., C1-C6, EN LA MUESTRA       : /15036/14875/16174
ACEL. MAX. (Gal), C7-C12               : 
ACEL. MAX., C7-C12, EN LA MUESTRA      : 
UNIDADES DE LOS DATOS                  : Gal (cm/s/s)
FACTOR DE DECIMACION                   : 1
FORMATO DATOS (FORTRAN,10 campos/dato) : 3F10.5


================================================================================
CALIDAD DEL ACELEROGRAMA:
REGISTRO DIGITAL COMPLETO CON TIEMPO ABSOLUTO CORRECTO.


================================================================================
COMENTARIOS:














================================================================================
DATOS DE ACELERACION:
---------+---------+---------+---------+---------+---------+---------+---------+
   CANAL-1   CANAL-2   CANAL-3   CANAL-4   CANAL-5   CANAL-6   CANAL-7   CANAL-8
      N00E        +V      N90W
---------+---------+---------+---------+---------+---------+---------+---------+
[...]
  17.56634  -0.85609  -7.57046
  18.18314  -0.59019  -6.93056
  18.61804  -0.99819  -5.86746
  19.25444  -0.94209  -5.00446
  19.67854  -1.11769  -4.01806
  20.46864  -0.83409  -3.22166
  21.04844  -1.24579  -2.34796
  21.88734  -1.24329  -1.66096
  22.62994  -1.36509  -1.00466
  23.28804  -1.28999  -0.35886
  23.78264  -0.80349   0.30814
  24.48334  -0.99119   1.06714
  25.40944  -0.74619   1.58104
  26.02434  -0.45089   2.12814
  26.63084  -0.14899   2.87214
  27.19064  -0.24329   3.26654
  27.75664   0.16121   3.59524
  28.42274   0.34691   4.09144
  28.86724   0.75251   4.37084
  29.36944   1.15841   4.85664
  29.68484   1.62071   4.81944
  29.85694   1.71631   5.31794
  30.02994   2.16381   5.40614
  30.12114   2.20731   5.63224
  29.94444   2.49701   5.80614
  29.92194   2.52181   6.08794
  29.70844   2.81001   6.21654
  29.29864   2.98381   6.54644
  28.67414   3.19441   6.65234
  28.05664   3.47451   6.94294
  27.33714   3.47341   7.21584
  26.47464   3.45721   7.39394
  25.69164   3.44181   7.66564
  24.52374   3.41981   7.91584
  23.25534   3.22581   8.23054
  21.87824   3.28491   8.30164
  20.47774   2.95711   8.44474
  18.93134   3.11631   8.66374
  17.20364   2.45541   9.06564
  15.83824   2.35441   9.29714
  14.09874   1.79841   9.49894
  12.44334   1.48321   9.94764
  10.83824   0.94031  10.14874
   9.26194   0.36581  10.66124
   7.49874  -0.30639  11.30624
   6.03744  -1.01949  11.63874
   4.42024  -1.72819  12.37124
   3.03744  -2.63259  13.32774
   1.52024  -3.52589  13.94034
   0.20204  -4.54069  14.84634
  -1.26956  -5.36789  15.62094
  -2.50196  -6.61599  16.64414
  -3.53306  -7.22109  17.62704
  -4.73946  -8.12329  18.36454
  -5.91206  -8.61129  19.15124
  -6.79516  -9.31009  19.96004
  -7.86556  -9.71719  20.53894
  -8.67336 -10.24679  21.01234
  -9.38126 -10.64849  21.48674
 -10.27636 -11.00269  21.69064
 -10.82386 -11.40299  21.95484
 -11.38906 -11.39359  21.94244
 -11.95416 -11.42729  21.89964
 -12.43886 -11.46839  21.81384
 -13.08246 -11.56449  21.34814
 -13.53166 -11.32159  20.84664
 -14.08206 -11.34499  20.42664
 -14.62076 -11.00309  19.70844
 -15.17716 -11.08589  19.20504
 -15.70416 -10.85299  18.55454
 -16.19546 -10.62549  17.84844
 -16.68856 -10.40619  17.18264
 -17.22066  -9.99449  16.71754
 -17.90766  -9.44989  16.02364
 -18.71776  -8.87619  15.30414
 -19.42106  -8.16959  14.71874
 -19.91436  -7.55049  14.02544
 -20.64456  -6.56689  13.51674
 -21.37456  -5.68819  12.69624
 -22.06476  -5.02539  12.16384
 -22.89986  -3.82189  11.17864
 -23.47946  -2.70689  10.64484
 -24.32686  -1.81839   9.88944
 -24.94106  -0.72089   9.12974
 -25.35696   0.33451   8.28104
 -26.10006   1.44531   7.62214
 -26.60766   2.23531   6.81064
 -26.82346   3.21991   5.96304
 -27.25056   4.18091   5.31934
 -27.65976   5.16681   4.32124
 -28.15476   5.89491   3.47744
 -28.40006   6.51081   2.47864
 -28.53046   7.34691   1.65654
 -28.61046   7.93721   0.76804
 -28.79396   8.45751  -0.26606
 -28.84756   8.79161  -1.00916
 -28.91536   9.26461  -1.73696
 -29.11076   9.40181  -2.82276
 -28.97986   9.53741  -3.66236
 -29.10756   9.67021  -4.48356
 -28.96206   9.47061  -5.20766
 -28.94436   9.42261  -5.87866
 -28.78436   9.21711  -6.59156
 -28.73696   8.67051  -7.14216
 -28.58586   8.29151  -7.80616
 -28.62916   8.03731  -8.17376
 -28.19636   7.37821  -8.52636
 -27.96376   6.71961  -9.14376
 -27.79846   6.19841  -9.48516
 -27.35936   5.59331  -9.88916
 -27.07266   4.76751 -10.15476
 -26.62426   4.14651 -10.53616
 -26.08766   3.58401 -10.86816
 -25.40306   2.69781 -11.35656
 -24.67776   2.02521 -11.59596
 -23.90976   1.27511 -11.66216
 -23.09306   0.67911 -11.76246
 -22.13506   0.04531 -11.82516
 -21.21666  -0.65899 -12.23616
 -20.33666  -1.03749 -12.40846
 -19.42896  -1.77769 -12.41736
 -18.38106  -2.33139 -12.57186
 -17.36636  -2.76649 -12.55206
 -16.35536  -3.38189 -12.54716
 -15.44536  -3.68839 -12.44096
 -14.46246  -4.08919 -12.30026
 -13.30976  -4.35339 -11.98876
 -12.41006  -4.61569 -11.60656
 -11.41616  -4.40009 -11.07926
 -10.60346  -4.54879 -10.43026
  -9.82276  -4.30779  -9.94696
  -8.95486  -4.12289  -9.09496
  -8.30856  -3.89559  -8.23826
  -7.73596  -3.66649  -7.20176
  -7.11546  -3.31179  -5.88826
  -6.47366  -3.04549  -5.21956
  -5.99136  -2.86729  -3.77466
  -5.47156  -2.53649  -2.66776
  -4.93056  -2.58789  -1.49916
  -4.50986  -2.32279  -0.39886
  -3.72336  -2.23929   0.74254
  -3.15846  -1.69429   1.40124
  -2.50246  -1.70249   2.40774
  -1.84146  -1.35849   3.25694
  -1.04746  -1.32179   3.96604
  -0.11806  -0.78239   4.34624
   0.68954  -0.58879   5.03064
   1.57424  -0.39619   5.31494
   2.54624  -0.21449   5.67994
   3.38114   0.07891   5.99814
   4.47774   0.10001   6.11734
   5.42064   0.16031   6.27544
   6.28244   0.17621   6.41074
   7.39964   0.21921   6.70164
   8.31474   0.13851   6.65374
   8.95444  -0.21399   6.87564
  10.07584  -0.26129   7.16414
  10.81694  -0.60959   7.36284
  11.69774  -0.81889   7.52184
  12.46484  -0.98579   7.64814
  13.20484  -1.19419   8.06784
  13.92034  -1.55869   8.22884
  14.55304  -1.80649   8.67874
  14.86184  -2.31059   9.23544
  15.14034  -2.49879   9.56484
  15.73494  -2.96809  10.22514
  15.96424  -3.03119  10.61534
  16.15624  -3.54649  11.30674
  16.37644  -3.55239  11.78464
  16.48284  -3.81329  12.16644
  16.66664  -4.04199  12.48774
  16.88714  -3.82709  12.88404
  16.92474  -3.90589  13.12554
  17.17724  -4.00879  13.27794
  17.10264  -3.80509  13.39744
  17.13054  -3.45559  13.35934
  17.36924  -3.28139  13.60064
  17.65194  -3.26729  13.30694
  17.93294  -2.80209  13.34694
  18.17214  -2.32719  13.12854
  18.43934  -1.99919  12.97704
  18.73514  -1.44879  12.68624
  18.99914  -1.08679  12.41294
  19.15924  -0.49549  11.93824
  19.56634  -0.16729  11.49984
  19.72534   0.31441  11.12464
  20.00794   0.63731  10.68134
  20.07884   1.10911  10.07344
  20.24434   1.38221   9.69024
  20.25414   1.42891   9.07274
  20.49084   1.44441   8.62374
  20.60494   1.81261   7.97314
  20.42344   1.41911   7.38974
  20.36194   1.51921   6.62684
  21.01384   1.39251   6.23734
  21.34674   1.04271   5.73854
  21.11994   1.25801   5.42904
  20.56914   0.94921   5.18584
  20.41554   1.09721   4.77714
  20.49754   0.95431   4.13534
  20.98224   0.79601   3.30534
  21.54804   0.25731   2.83824
  21.69894   0.34661   2.14564
  21.46134   0.26671   1.90674
  21.16064   0.53701   1.38954
  20.78144   0.56641   1.04934
  21.00824   0.64401   0.24264
  21.45854   0.33561  -0.52046
  21.77794  -0.02629  -0.97756
  21.71154   0.12641  -1.50436
  21.14544   0.40861  -1.84406
  20.56674   0.55821  -2.29816
  20.26544   0.64261  -3.21586
  20.52304   0.33891  -3.93826
  20.67134   0.22271  -4.69676
  20.67924   0.30011  -5.38066
  20.25234   0.26291  -5.92796
  19.68324   0.69781  -6.31286
  19.08604   0.90221  -7.13516
  18.92924   1.34851  -8.09376
  19.25534   1.07821  -8.83396
  19.32554   1.32791  -9.70586
  18.92684   1.28511 -10.22606
  18.47004   1.63471 -11.12626
  17.93874   1.93891 -12.01846
  17.58224   2.22831 -13.14546
  17.63014   2.34501 -14.36476
  17.66594   2.45491 -15.33626
  17.28694   2.23491 -16.56536
  16.72554   2.34271 -17.64886
  16.07694   2.33051 -18.98456
  15.63394   2.36001 -20.62706
  15.36014   2.28351 -22.25786
  15.01364   2.11421 -23.60296
  14.31244   1.88931 -24.37436
  13.80314   1.32891 -25.07506
  13.05284   1.28261 -25.42576
  12.06944   0.78971 -25.85436
  10.81394   0.81121 -26.22186
   9.88964   0.51781 -26.53406
   8.82464   0.39691 -26.75316
   8.11974   0.16471 -26.95276
   7.10504   0.06351 -27.55556
   5.55374  -0.00709 -27.87376
   4.39614  -0.03279 -27.98596
   3.20344  -0.35829 -28.08096
   2.34884  -0.61219 -27.91446
   1.43144  -0.73539 -27.92356
   0.81884  -0.69609 -27.83636
  -0.07246  -0.76509 -27.64836
  -1.15876  -0.63419 -27.67756
  -1.65276  -0.26569 -27.56096
  -2.28946  -0.10059 -27.38396
  -3.08906   0.30201 -27.20906
  -3.47486   0.39621 -27.14986
  -4.35676   0.72751 -26.99326
  -4.88256   1.13041 -27.08676
  -5.49166   1.55191 -26.96536
  -6.10636   1.89351 -27.01376
  -6.77196   2.12521 -27.13516
  -7.37736   2.51941 -27.00846
  -7.94756   2.69451 -26.78376
  -8.51296   3.05721 -26.73396
  -9.24266   3.38401 -26.50976
 -10.04836   3.66391 -26.24556
 -10.58686   3.94991 -25.91986
 -11.32476   4.18131 -25.58106
 -11.84686   4.35951 -25.06616
 -12.61696   4.64851 -24.74586
 -13.40916   4.54841 -24.10496
 -14.04136   4.87291 -23.82206
 -14.72386   5.01281 -22.94486
 -15.40116   5.20751 -22.45006
 -15.94946   5.21431 -21.81956
 -16.63426   5.48811 -21.38786
 -17.22656   5.59331 -20.59136
 -17.75746   5.85491 -19.95256
 -18.48446   6.22601 -19.27096
 -18.84726   6.07141 -18.52256
 -19.35626   6.47411 -17.69516
 -19.73576   6.24801 -16.91916
 -20.17926   6.19791 -16.09916
 -20.48676   6.23231 -15.03696
 -20.79396   5.94641 -13.97706
 -21.24876   5.89751 -12.93806
 -21.73806   5.55801 -11.72716
 -22.02386   5.32721 -10.38256
 -22.33896   4.69711  -9.08416
 -22.68016   4.30851  -7.66146
 -23.02916   4.02401  -6.33486
 -23.27166   3.40131  -4.78746
 -23.53726   2.96321  -3.39426
 -23.67306   2.29541  -1.92446
 -23.70586   1.92021  -0.34226
 -23.65786   1.42541   1.34534
 -23.68966   1.10371   2.51924
 -23.51196   0.46281   4.26864
 -23.30996   0.16591   5.60904
 -23.29996  -0.38419   6.88334
 -22.76526  -0.67789   8.31474
 -22.37546  -1.19459   9.59084
 -21.77086  -1.65729  10.84474
 -21.34576  -1.99399  12.11314
 -20.56416  -2.54839  13.45264
 -19.77196  -2.74759  14.62474
 -18.94826  -3.25639  15.97284
 -18.08416  -3.37049  17.13774
 -17.30296  -3.92199  18.50504
 -16.20216  -3.93809  19.61114
 -15.39816  -4.24749  21.02594
 -14.52226  -4.42909  22.08584
 -13.50826  -4.58599  23.28664
 -12.61796  -4.67509  24.43134
 -11.68716  -4.65939  25.56164
 -10.87586  -4.66249  26.72664
 -10.02966  -4.63019  27.95414
  -9.28546  -4.79199  29.25644
  -8.54946  -4.75059  30.36264
  -7.90736  -4.96199  31.53004
  -7.23326  -4.77629  32.58054
  -6.57696  -4.98979  33.90394
  -6.05816  -4.77189  35.02474
  -5.49776  -4.94279  36.22024
  -4.75256  -4.78379  37.11664
  -4.46646  -4.89609  38.36474
  -4.37876  -4.66529  39.09164
  -4.35936  -4.96639  40.06874
  -4.27326  -4.70669  40.78274
  -3.88636  -4.65339  41.70754
  -3.87726  -4.49339  42.34884
  -3.60136  -4.50609  42.93594
  -3.49826  -4.28749  43.28054
  -3.27216  -4.22639  43.45144
  -2.85616  -4.22199  43.66564
  -2.54966  -4.10929  43.35444
  -2.06166  -3.88179  43.03714
  -1.78256  -3.70289  42.65374
  -1.10546  -3.82749  41.86574
  -0.51406  -3.54229  41.01964
   0.06204  -3.67229  40.22884
   0.59204  -3.36039  39.11384
   1.16794  -3.26009  37.98694
   1.59784  -2.91729  36.99554
   2.00304  -3.02839  35.95414
   2.90344  -2.72329  34.96604
   3.50784  -2.50399  33.89594
   3.59814  -2.22199  32.57894
   3.74824  -2.07799  31.42384
   4.23084  -1.93489  30.07344
   4.66454  -1.55939  28.71594
   4.98064  -1.37959  27.55884
   5.30214  -1.13029  26.37434
   5.55694  -1.23549  25.49754
   5.70824  -0.88619  24.27984
   6.05614  -0.68959  23.28454
   6.08774  -0.60779  22.25994
   6.40124  -0.71769  21.46714
   6.72134  -0.26429  20.30024
   7.15224  -0.49369  19.60484
   7.55134  -0.08869  18.63244
   7.63784  -0.29399  17.82134
   8.04144   0.04181  16.83424
   8.31264  -0.40829  16.30974
   8.42374  -0.36979  15.29244
   8.95324  -0.59069  14.77104
   9.14824  -0.44689  13.63874
   9.48804  -0.54789  12.76964
   9.78684  -0.72509  11.86324
  10.19244  -0.63469  11.18544
  10.64444  -0.61289  10.50434
  10.91704  -0.72489   9.67574
  11.21584  -0.63819   9.09564
  11.38374  -0.77939   8.12344
  11.67064  -0.68959   7.48864
  11.72084  -0.40759   6.72524
  11.88084  -0.53969   6.03744
  11.86374   0.03821   5.07244
  11.80384  -0.13129   4.67244
  11.78654   0.23671   3.93474
  11.73634   0.23111   3.11644
  11.57144   0.76351   2.25854
  11.45664   0.90821   1.75304
  11.15904   1.24051   0.80684
  11.03584   1.26531  -0.07346
  10.70074   1.50281  -0.93336
  10.47564   1.45091  -1.82096
  10.34044   1.66181  -2.85456
   9.83914   1.41561  -3.85716
   9.70594   1.41821  -4.86906
   9.41384   1.47991  -5.96866
   9.26334   0.99221  -6.97336
   9.04444   1.13551  -8.05356
   8.53034   0.74431  -9.15366
   8.34634   1.16921 -10.32106
   8.27894   0.63961 -11.56836
   7.79524   0.82521 -12.83166
   7.58014   0.77101 -13.93056
   7.20974   0.76141 -15.35586
   7.06414   0.69691 -16.55556
   6.65544   0.67701 -17.75966
   6.20044   0.71181 -18.99016
   5.78824   1.02001 -20.68366
   5.38064   0.66341 -21.70866
   4.95214   0.70651 -23.15156
   4.68484   0.73411 -24.75876
   4.30864   0.55361 -26.21976
   4.12394   0.64541 -27.52986
   4.11364   0.29011 -28.46226
   3.75264   0.33421 -29.15806
   3.57214   0.15611 -29.42746
   3.69894   0.07891 -29.57116
   3.39654   0.29611 -29.27656
   3.07604   0.29361 -28.94316
   2.70334   0.54421 -28.66706
   2.60604   0.95131 -28.48166
   2.41904   1.58441 -28.36666
   2.16654   1.97821 -28.29556
   2.03934   2.46681 -28.54646
   1.80574   3.04361 -28.70586
   1.55514   3.22321 -28.70116
   1.28734   3.83601 -28.82976
   1.13794   3.89231 -28.87256
   0.67804   4.35901 -29.06926
   0.70634   4.42851 -29.05446
   0.40524   4.97021 -29.06966
   0.41624   4.98101 -28.92336
   0.30074   5.54281 -29.23636
   0.10944   5.44671 -29.17956
  -0.10326   5.92201 -29.45596
  -0.25016   5.70021 -29.26776
  -0.30156   5.99291 -29.57566
  -0.32966   6.06861 -29.50126
  -0.19126   5.65951 -29.42696
  -0.26746   5.77331 -29.41086
  -0.10636   5.20471 -29.12856
   0.00794   5.57761 -29.53546
   0.32204   4.98891 -29.18266
   0.34884   5.16221 -29.27776
   0.71404   4.12311 -28.63926
   0.61214   4.45301 -28.56186
   1.01334   3.54471 -27.69186
   0.97684   3.67581 -27.70096
   1.07954   2.79701 -26.93666
   1.26194   2.59871 -26.58966
   1.39894   2.16501 -25.82326
   1.42044   1.79841 -25.35896
   1.53144   1.28331 -24.67316
   1.50224   1.16941 -23.85386
   1.66854   0.88671 -23.24716
   1.85904   0.42151 -22.18706
   1.91614   0.28161 -21.59596
   1.90374  -0.57319 -20.55576
   1.87334  -0.59329 -19.73976
   1.81014  -1.05409 -18.63526
   1.66104  -1.23409 -17.98666
   1.71624  -1.82429 -16.90576
   1.54294  -1.66809 -15.94456
   1.48404  -2.24369 -14.41996
   1.34984  -2.14109 -13.52746
   1.06484  -2.71769 -12.23986
   0.90134  -2.48569 -11.25206
   0.67804  -2.70689 -10.06616
   0.43534  -2.50929  -9.05146
   0.24224  -2.68609  -7.67666
  -0.05346  -2.36199  -6.69256
  -0.09486  -2.38049  -5.48606
  -0.27816  -2.05789  -4.38856
  -0.34066  -1.95379  -3.41876
  -0.53356  -1.88879  -2.27756
  -0.48416  -1.57919  -1.16326
  -0.64876  -1.49509  -0.13816
  -0.59176  -1.12849   0.74724
  -0.54846  -1.22549   1.82014
  -0.79606  -1.03889   2.44934
  -0.62326  -1.16749   3.53774
  -0.60926  -1.02319   4.29454
  -0.47786  -1.40369   5.32964
