********************************************************************************
              CENTRO DE INSTRUMENTACION Y REGISTRO SISMICO  A.C.

    Anaxagoras 814, Col. Narvarte, Benito Juarez, C.P. 03020 Mexico, D.F.
           Tels. 5687 45 42/ 5687 45  82             Fax. 5669 25 12
********************************************************************************
ARCHIVO ESTANDAR DE ACELERACION:
VERSION DEL FORMATO                    : 2.0
NOMBRE DEL ARCHIVO                     : GA6220210908014746
FECHA Y HORA DE CREACION               : 07/SEP/21, 23:17
REF. CATALOGO ACELEROGRAMAS, SMIS 1996 : REGISTRO No.     /PAG.


================================================================================
DATOS DE LA ESTACION:
NOMBRE DE LA ESTACION                  : ESC. SEC. TÉC. NO. 2
CLAVE DE LA ESTACION                   : GA62
LOCALIZACION DE LA ESTACION            : Del. Cuauhtémoc, Col.  Guerrero,       
                                       : Calle 2 de Abril entre Pensador        
                                       : Mexicano y Mina.                       
                                       :                                        
                                       : 
COORDENADAS DE LA ESTACION             : 19.4385 LAT. N
                                       : 99.1401 LONG. W
ALTITUD (msnm)                         : 2232
TIPO DE SUELO                          : Arcilloso, zona lago                
                                       :                           
                                       : 
INSTITUCION RESPONSABLE                : CIRES, A. C.
                                       : 

================================================================================
DATOS DEL ACELEROGRAFO:
MODELO DEL ACELEROGRAFO                : RAD_IO14
NUMERO DE SERIE DEL ACELEROGRAFO       : 
NUMERO DE CANALES                      : 3
ORIENTACION C1-C6 (rumbo;orientacion)  : /N00E/+V/N90W
ORIENTACION C7-C12 (rumbo;orientacion) : 
VEL. DE MUESTREO, C1-C6 (muestras/s)   : /100/100/100
VEL. DE MUESTREO, C7-C12 (muestras/s)  : 
ESC. COMPLETA DE SENSORES, C1-C6, (g)  : /2.0/2.0/2.0
ESC. COMPLETA DE SENSORES, C7-C12, (g) : 
FREC. NAT. DE SENSORES, C1-C6, (Hz)    : /30/30/33
FREC. NAT. DE SENSORES, C7-C12, (Hz)   : 
AMORTIGUAMIENTO DE SENSORES, C1-C6     : /0.795/0.733/0.790
AMORTIGUAMIENTO DE SENSORES, C7-C12    : 
INTERVALO DE MUESTREO, C1-C6, (s)      : /0.01/0.01/0.01
INTERVALO DE MUESTREO, C7-C12, (s)     : 
UMBRAL DE DISPARO, C1-C6, (Gal)        : / / /
UMBRAL DE DISPARO, C7-C12, (Gal)       : 
MEMORIA DE PREEVENTO (s)               : 60
TIEMPO DE POSEVENTO (s)                : 90


================================================================================
DATOS DEL SISMO:
FECHA DEL SISMO (GMT)                  : 08/SEP/21
HORA EPICENTRO (GMT)                   : 01:47:46.0
MAGNITUD(ES)                           : /Mc=7.1
COORDENADAS DEL EPICENTRO              : 16.78 LAT. N
                                       : 99.93 LONG. W
PROFUNDIDAD FOCAL (km)                 : 10
FUENTE DE LOS DATOS EPICENTRALES       : SSN
                                       : INSTITUTO DE GEOFISICA, UNAM

================================================================================
DATOS DE ESTE REGISTRO:
HORA DE LA PRIMERA MUESTRA (GMT)       : 20:55:25.00
EXACTITUD DEL TIEMPO (s)               : 
DURACION DEL REGISTRO (s), C1-C6       : /573.41/573.41/573.41
DURACION DEL REGISTRO (s), C7-C12      : 
NUM. TOTAL DE MUESTRAS, C1-C6          : /57341/57341/57341
NUM. TOTAL DE MUESTRAS, C7-C12         : 
ACEL. MAX. (Gal), C1-C6                : /42.12577/12.42275/35.24405
ACEL. MAX., C1-C6, EN LA MUESTRA       : /5554/4886/5973
ACEL. MAX. (Gal), C7-C12               : 
ACEL. MAX., C7-C12, EN LA MUESTRA      : 
UNIDADES DE LOS DATOS                  : Gal (cm/s/s)
FACTOR DE DECIMACION                   : 1
FORMATO DATOS (FORTRAN,10 campos/dato) : 3F10.5


================================================================================
CALIDAD DEL ACELEROGRAMA:
REGISTRO DIGITAL COMPLETO CON TIEMPO ABSOLUTO CORRECTO.


================================================================================
COMENTARIOS:














================================================================================
DATOS DE ACELERACION:
---------+---------+---------+---------+---------+---------+---------+---------+
   CANAL-1   CANAL-2   CANAL-3   CANAL-4   CANAL-5   CANAL-6   CANAL-7   CANAL-8
      N00E        +V      N90W
---------+---------+---------+---------+---------+---------+---------+---------+
[...]
 -11.03513  -8.35985 -10.45945
 -10.85643  -7.43465 -11.87605
 -10.87523  -6.44005 -13.28615
 -10.67743  -5.53615 -14.08905
 -10.68323  -4.41435 -15.02215
 -10.77393  -3.57635 -15.49655
 -10.83593  -2.83585 -15.74885
 -10.75993  -2.55205 -16.01915
 -10.80203  -2.10785 -16.03555
 -10.85113  -1.79845 -15.98015
 -10.86653  -1.42905 -15.74345
 -11.27333  -1.19615 -15.71475
 -11.42303  -0.80315 -15.67355
 -11.68203  -0.72275 -15.37005
 -12.18383  -0.53145 -15.06615
 -12.44593  -0.53635 -14.61585
 -12.68583  -0.62775 -14.31005
 -13.08843  -0.74515 -14.01045
 -13.14333  -1.01565 -13.81695
 -13.37413  -1.17675 -13.58125
 -13.34493  -1.49895 -13.52485
 -13.37223  -1.75005 -13.65395
 -13.22543  -1.83215 -13.75125
 -12.99493  -1.65005 -14.30395
 -12.69473  -1.26745 -15.02705
 -12.21493  -0.75145 -16.04045
 -11.72393  -0.25975 -17.36145
 -11.05423   0.31565 -18.42575
 -10.35383   0.80705 -19.65275
  -9.61633   1.12415 -20.92045
  -8.99493   1.65395 -22.12855
  -8.15083   1.82045 -23.16735
  -7.31613   2.33335 -23.92005
  -6.45293   2.76615 -24.47465
  -5.54243   3.11155 -24.72925
  -4.87873   3.54425 -24.52395
  -4.57703   3.67545 -24.00255
  -3.90673   3.99205 -23.20825
  -3.51653   3.80075 -22.15805
  -3.07653   3.67195 -20.74935
  -2.78193   3.19705 -19.29455
  -2.17963   2.84215 -17.57025
  -1.91913   2.39975 -15.90975
  -1.78723   2.01615 -14.17975
  -1.38113   1.67215 -12.16735
  -1.14333   1.55435 -10.24615
  -1.19033   1.41805  -8.32335
  -1.01053   1.32005  -6.46085
  -0.93173   1.13095  -4.75795
  -0.92543   0.98435  -3.23985
  -0.85483   0.86225  -1.86535
  -0.99653   0.46435  -0.65555
  -0.83633   0.16555   0.32995
  -0.66383   0.02455   1.27965
  -1.01053  -0.11835   2.01425
  -1.16253  -0.33295   2.54875
  -1.41293  -0.39515   2.89205
  -1.71453  -0.81835   2.98415
  -2.09263  -1.24065   2.87165
  -2.43333  -1.61445   2.55785
  -2.75123  -1.99025   2.23405
  -3.06643  -2.36405   1.34655
  -3.39233  -2.75125   0.71265
  -3.72763  -2.99235  -0.10095
  -4.14033  -2.92805  -0.67775
  -4.54273  -2.92685  -1.18045
  -5.07653  -2.92685  -1.62755
  -5.78563  -2.91515  -1.50615
  -6.62543  -2.64115  -1.60535
  -7.24503  -2.74865  -1.32095
  -8.21983  -2.63415  -0.91955
  -9.13913  -2.47465  -0.10005
 -10.02953  -2.36245   0.85785
 -10.53893  -2.21885   1.84685
 -11.04583  -1.97455   3.19175
 -11.36013  -1.58015   4.76925
 -11.26873  -0.98835   6.38605
 -10.73183  -0.69095   8.16225
  -9.99443  -0.13605  10.13705
  -9.01383   0.33995  12.12205
  -7.81183   0.90295  13.82235
  -6.56333   1.23795  15.18355
  -4.93363   1.51295  16.67645
  -3.36833   1.56135  17.85785
  -2.00983   1.61675  18.80435
  -0.24113   1.58355  19.48305
   1.51647   1.36755  19.95065
   3.36257   1.47275  20.42695
   5.08597   1.51415  20.63205
   7.04887   1.88235  20.70875
   8.69247   2.08325  20.84335
  10.44237   2.62545  20.72105
  12.01187   3.32055  20.65215
  13.41567   3.78745  20.51725
  14.68717   4.29295  20.11765
  15.81197   4.84915  19.95915
  16.99037   5.22025  19.40665
  17.74607   5.74985  19.27565
  18.33707   6.04865  19.04745
  18.73387   6.32545  19.16885
  19.19407   6.55015  19.50015
  19.51597   6.44445  19.58825
  19.50337   6.37525  20.10665
  19.52677   6.30085  20.93295
  19.36777   5.76575  21.30425
  18.90787   5.60885  22.01385
  18.58967   5.29995  23.11105
  18.35587   4.81765  23.81115
  17.71027   4.85595  24.57655
  17.40427   4.60955  25.26895
  16.96467   4.59895  25.60415
  16.68617   4.64085  26.15505
  16.56437   4.55575  26.17565
  16.25407   4.52115  26.42765
  16.23937   4.47065  26.36545
  16.20927   4.36025  26.06755
  16.28077   4.37475  25.60935
  16.40817   4.31025  25.03795
  16.61677   4.05565  24.05315
  16.74327   3.79355  23.05735
  16.84757   3.56675  21.51235
  17.12407   2.94905  19.55625
  17.44467   2.28735  17.74915
  17.55457   1.98825  15.66965
  18.08857   1.56115  13.52605
  18.31767   1.36545  11.56185
  18.56717   1.11575   9.64325
  18.87017   1.17795   7.49245
  18.96067   1.36165   5.47135
  19.14777   1.55225   3.38935
  19.02707   1.73345   0.95065
  18.86017   1.98525  -1.16485
  18.49847   1.92465  -3.05115
  18.24267   2.09935  -4.74375
  17.93197   1.99785  -6.45705
  17.41707   1.98575  -7.93525
  17.03037   2.08045  -9.34085
  16.59387   2.05585 -10.51155
  16.30157   1.94665 -11.29715
  15.92397   2.06105 -11.75725
  15.88427   1.85125 -12.27045
  15.71147   1.64875 -12.63055
  15.56437   1.46875 -12.91415
  15.58897   1.08135 -12.98525
  15.69647   0.65605 -12.83915
  15.87957   0.14755 -12.79305
  16.29647  -0.52705 -12.56085
  17.01497  -1.29815 -12.39045
  17.54197  -2.18285 -12.28615
  18.31467  -2.71055 -12.05305
  18.70767  -3.00825 -12.10635
  19.50077  -3.37135 -12.12575
  19.79447  -3.50275 -12.37805
  20.08437  -3.62495 -12.67195
  20.13257  -3.54365 -13.12765
  20.19797  -3.39165 -13.97145
  20.07527  -3.09915 -14.68175
  19.80567  -2.72995 -15.66005
  19.58497  -2.01405 -16.36075
  19.43207  -1.38255 -17.02355
  19.01637  -0.72315 -17.81055
  18.80427  -0.11205 -18.57095
  18.19657   0.64805 -19.08855
  17.54427   1.11615 -19.47035
  16.86057   1.70655 -19.78625
  15.94477   2.22565 -19.98385
  14.65537   2.68155 -20.30225
  13.24287   3.11155 -20.41735
  11.94457   3.52625 -20.55505
  10.64367   4.00485 -20.79115
   9.15357   4.58985 -20.84825
   7.82837   4.84775 -20.64275
   6.52717   5.06265 -20.41985
   5.03227   5.41775 -20.05605
   3.83327   5.83095 -19.32965
   2.35137   5.97425 -18.59175
   0.86087   6.22045 -17.82645
  -0.65233   6.37295 -16.86575
  -2.39793   6.51015 -16.11105
  -4.10313   6.53305 -15.25595
  -5.70103   6.30955 -14.62725
  -7.59253   6.13975 -13.90835
  -9.35943   5.68975 -13.43555
 -11.22703   5.19195 -12.82785
 -12.84293   4.41005 -12.24715
 -14.35053   3.39255 -11.60675
 -15.97343   2.44725 -10.99715
 -17.41203   1.54685 -10.36825
 -18.87543   0.63435  -9.71825
 -20.37253  -0.14875  -9.06705
 -22.09683  -0.89015  -8.66745
 -23.49103  -1.65185  -8.20435
 -24.74543  -1.99535  -8.03365
 -25.82003  -2.57635  -7.69435
 -26.98883  -3.01495  -7.48485
 -27.64723  -3.37065  -7.46525
 -28.53173  -3.86235  -7.25175
 -29.07763  -4.16855  -6.96775
 -29.36873  -4.56325  -6.62985
 -29.54833  -4.90135  -6.15005
 -29.50883  -5.20365  -5.56575
 -29.37273  -5.04935  -5.18655
 -29.33533  -5.17885  -4.61605
 -28.93433  -5.47865  -3.97215
 -28.66433  -5.69495  -3.20125
 -28.16043  -5.87935  -2.41495
 -27.91283  -6.08845  -1.72455
 -27.44423  -6.26775  -0.93685
 -26.82093  -6.50205  -0.08325
 -26.20083  -6.79895   0.91655
 -25.42723  -7.02785   1.63205
 -24.72153  -7.08845   2.22335
 -23.91263  -6.99395   2.68675
 -22.96473  -7.05145   3.50225
 -22.40543  -6.74005   3.90255
 -21.45383  -6.42645   4.27565
 -20.94093  -6.04285   4.68575
 -20.23263  -5.28385   5.21045
 -19.69353  -4.69025   5.50155
 -19.22733  -3.92145   5.71365
 -18.80783  -3.13355   5.89015
 -18.33883  -2.40755   5.87185
 -18.05873  -1.99795   5.81225
 -17.71103  -1.16975   5.95635
 -17.45133  -0.66615   5.91885
 -17.33673  -0.09755   5.89205
 -16.96613   0.37545   6.17705
 -16.58523   1.14145   6.22195
 -16.34563   1.95225   6.23145
 -16.18263   2.53705   6.14635
 -15.68833   3.34675   6.03065
 -15.66313   3.98545   5.96935
 -15.47863   4.58775   5.84265
 -15.34183   5.01215   5.69495
 -15.34653   5.17585   5.64695
 -15.40963   5.48025   5.56605
 -15.59273   5.37995   5.51745
 -16.03063   5.28035   5.97225
 -16.44193   5.21505   6.38725
 -17.07443   4.94595   7.07575
 -17.69423   4.73715   7.73025
 -18.40223   4.57955   8.18735
 -18.91683   4.41005   8.71965
 -19.49693   4.00935   9.47835
 -20.19083   3.54055   9.96055
 -20.62873   3.13395  10.56495
 -20.95513   2.57355  10.90865
 -21.37813   2.03135  11.41695
 -21.67693   1.55875  12.05735
 -21.89043   1.19945  12.62195
 -22.11713   0.61815  13.23825
 -22.41083   0.23025  13.88525
 -22.45663  -0.05055  14.42835
 -22.61173  -0.45875  14.93755
 -22.50903  -0.83095  15.56325
 -22.24113  -0.93295  16.08165
 -21.77633  -1.05735  16.50135
 -21.11013  -1.17605  16.84475
 -20.36713  -1.15555  17.32155
 -19.30683  -1.35055  17.77185
 -18.24413  -1.22915  18.19895
 -17.06503  -1.20295  18.44845
 -15.85043  -1.31585  18.55045
 -14.51933  -1.35405  18.72415
 -13.27613  -1.52775  18.71265
 -11.95843  -1.46295  18.47375
 -10.81483  -1.51465  18.53965
  -9.60183  -1.69865  18.02065
  -8.48213  -1.74185  17.66035
  -7.38953  -2.15015  17.37415
  -6.42743  -2.20205  16.93945
  -5.34423  -2.36805  16.55135
  -4.48963  -2.51655  16.12255
  -3.57383  -2.41645  15.54455
  -2.56613  -2.46035  15.09795
  -1.78003  -2.50455  14.82745
  -0.64813  -2.58245  14.30815
   0.05627  -2.63225  13.92145
   0.90157  -2.84525  13.49285
   1.82837  -2.98365  12.75265
   2.91437  -3.22025  12.32175
   3.72357  -3.45735  11.48775
   4.78297  -3.77725  10.63575
   5.93867  -4.00965   9.63505
   6.72877  -4.55295   8.41625
   7.60857  -4.62455   7.02135
   8.48867  -4.85995   5.71505
   9.34927  -5.18705   4.32035
  10.01147  -5.22215   2.74335
  10.69277  -5.12415   1.09375
  11.25087  -5.12045  -0.51765
  11.84007  -4.97335  -2.02125
  12.35137  -4.81465  -3.56645
  12.81897  -4.77655  -4.98965
  13.55927  -4.74545  -6.28005
  14.20427  -4.66175  -7.26485
  14.77407  -4.82885  -8.38975
  15.57627  -4.62455  -9.22325
  16.47277  -4.63555 -10.11825
  17.40987  -4.51445 -10.56955
  18.07897  -4.35005 -10.98855
  18.76777  -3.98135 -11.39415
  19.33737  -3.73835 -11.89215
  19.72757  -3.33485 -12.34225
  20.02097  -2.84365 -12.67005
  20.47597  -2.41945 -12.87815
  20.65227  -2.02055 -13.06735
  20.90387  -1.61025 -13.09165
  21.29387  -1.36895 -13.32825
  21.77927  -1.19015 -13.16695
  22.39697  -0.83305 -13.29455
  22.99247  -0.60205 -13.19055
  23.64617  -0.55435 -12.98665
  24.33947  -0.55835 -13.00205
  24.98387  -0.52165 -12.81855
  25.90457  -0.44125 -12.68265
  26.39047  -0.79635 -12.55975
  27.10427  -1.07555 -12.56625
  28.13557  -1.41385 -12.43905
  29.12647  -1.82165 -12.14305
  29.87907  -2.18495 -11.87135
  31.15847  -2.60485 -11.33855
  32.14287  -2.78235 -10.80805
  33.01187  -2.99415 -10.29735
  34.19287  -2.98695  -9.37055
  35.43627  -3.44615  -8.66115
  36.33457  -3.59885  -7.83045
  37.50967  -3.81745  -7.07615
  38.58707  -4.04255  -6.35555
  39.56627  -4.20605  -5.63665
  40.50357  -4.46245  -5.02995
  41.18027  -4.57165  -4.67035
  41.77717  -4.66685  -4.51295
  41.98357  -4.57565  -4.27395
  42.12577  -4.45245  -4.31585
  41.79657  -4.12235  -4.56715
  41.59847  -3.98665  -4.78205
  41.21697  -3.62175  -5.06735
  40.46757  -3.21885  -5.37435
  39.80637  -2.90485  -5.63125
  38.85707  -2.58455  -6.15525
  37.95157  -1.95135  -6.78695
  36.73297  -1.35335  -7.21155
  35.50337  -1.00375  -7.89615
  33.90387  -0.49105  -8.18795
  32.31797  -0.14475  -8.88005
  30.52997   0.12505  -9.49825
  28.70657   0.23915  -9.96515
  26.78577   0.58305 -10.45635
  24.56667   0.53915 -10.89565
  22.55457   0.69415 -11.40565
  20.44837   0.86485 -12.12015
  18.48367   0.87905 -12.68875
  16.67497   0.94945 -13.18375
  14.70517   1.28615 -13.91275
  12.83377   1.48745 -14.63245
  11.21667   1.93665 -15.30255
   9.59547   2.23425 -16.05425
   7.86297   2.52515 -16.46505
   6.23237   2.94645 -16.92885
   4.79447   3.18985 -17.22675
   3.29387   3.53465 -17.46405
   2.03787   3.68245 -17.35185
   0.75777   3.66025 -16.89145
  -0.14473   3.71635 -16.48725
  -1.10503   3.65725 -15.84425
  -1.85863   3.80175 -15.02075
  -2.47003   3.97265 -13.71445
  -2.92873   3.97005 -12.29155
  -3.45063   4.11895 -10.89945
  -3.70913   4.29715  -9.25485
  -4.13913   4.43555  -7.47995
  -4.49123   4.46055  -5.52185
  -4.91333   4.73085  -3.57075
  -5.55253   4.78655  -1.55555
  -5.87773   4.73835   0.52935
  -6.33393   4.79705   2.64515
  -6.76363   4.72645   4.56885
  -7.27663   4.65305   6.71035
  -7.40713   4.50335   8.76645
  -7.67833   4.22165  10.44055
  -7.88313   4.21185  11.83165
  -8.22423   4.20875  13.16275
  -8.48593   4.13165  13.77225
  -9.02063   4.04745  14.43325
  -9.50133   3.90035  14.74865
 -10.06553   3.98155  15.03655
 -10.73653   3.88355  14.96845
 -11.29653   3.88655  15.06825
 -12.09453   4.09465  14.93645
 -12.71593   4.28965  14.77065
 -13.47213   4.45705  14.55885
 -13.93573   4.67665  14.03365
 -14.68693   4.66305  13.59135
 -15.24643   4.87135  13.06685
 -15.98553   5.22675  12.28945
 -16.59863   5.47645  11.48495
 -17.41153   5.65045  10.46415
 -18.08303   6.09375   9.24595
 -18.88573   6.15145   8.09865
 -19.52443   6.41195   6.93405
 -20.44053   6.30835   5.61795
 -21.24153   6.41405   4.62035
 -21.92053   6.44075   3.67505
 -22.81253   6.44325   2.85525
 -23.57523   6.26275   2.08935
 -24.24643   6.25345   1.32875
 -25.05923   6.17675   0.98315
 -26.02103   5.96705   0.18615
 -26.92453   5.48915  -0.27005
 -27.60913   5.34135  -0.60715
 -28.41203   4.70115  -1.07645
 -29.24433   4.38415  -1.26975
 -29.99703   4.22725  -1.32215
 -30.88593   3.71405  -1.40025
 -31.72413   3.39605  -1.26555
 -32.42113   3.28615  -1.28945
 -33.42833   2.89495  -1.19945
 -34.30633   2.40075  -1.05445
 -35.19133   2.09135  -0.99785
 -36.27853   1.55995  -1.17725
 -37.00773   1.10475  -1.12905
 -37.84973   0.44585  -1.11435
 -38.54243  -0.06785  -1.33505
 -39.02033  -0.67455  -1.44445
 -39.40473  -1.23475  -1.40725
 -39.16303  -1.65425  -0.85475
 -39.61873  -1.78375  -1.34015
 -39.38583  -1.87475  -1.03035
 -38.86813  -1.77725  -0.46055
 -38.48563  -1.61265   0.06685
 -37.74263  -1.31545   0.83475
 -37.26823  -0.81765   1.47745
 -36.12813  -0.38935   2.43935
 -35.11463   0.11645   3.32475
 -33.82893   0.36775   4.16185
 -32.67693   0.77175   4.95115
 -31.21723   1.16645   6.01595
 -29.86143   1.48675   7.03045
 -28.61683   1.88215   7.95205
 -27.17963   2.20155   8.91535
 -25.88453   2.83425   9.61145
 -24.61873   3.26235  10.49855
 -23.37783   3.92535  11.32715
 -22.27663   4.36725  12.09545
 -20.99533   4.90065  12.89505
 -19.78983   5.10005  13.23785
 -18.56983   5.22955  13.68045
 -17.19973   5.12815  13.86585
 -16.08753   4.95535  13.99975
 -15.00983   4.69225  13.90295
 -13.98343   4.13725  13.86795
 -13.12393   3.73625  13.37785
 -12.12183   3.04445  12.95495
 -11.23503   2.60275  12.39675
 -10.58783   2.08855  11.60625
  -9.84523   1.42205  10.78955
  -9.54313   0.97965   9.95415
  -8.86303   0.51295   9.01755
  -8.31453   0.16855   8.47065
  -7.73743  -0.08675   7.60935
  -7.05663  -0.31265   6.99765
  -6.36123  -0.47515   6.59065
  -5.49013  -0.40705   5.98815
  -4.77273  -0.46835   5.29225
  -4.17963  -0.53265   4.77185
  -3.19083  -0.34795   4.47325
  -2.51863   0.05535   3.52565
  -2.10223   0.50035   3.12555
  -1.33883   1.25085   2.56305
  -1.09053   1.93845   2.36315
  -0.65233   2.69435   2.04095
  -0.39263   3.18705   2.22285
   0.18027   3.54875   2.26305
   0.25367   3.86325   2.44125
   0.56417   4.05815   2.72625
   0.78977   3.54755   3.10735
   0.84377   3.13115   3.38205
