********************************************************************************
              CENTRO DE INSTRUMENTACION Y REGISTRO SISMICO  A.C.

    Anaxagoras 814, Col. Narvarte, Benito Juarez, C.P. 03020 Mexico, D.F.
           Tels. 5687 45 42/ 5687 45  82             Fax. 5669 25 12
********************************************************************************
ARCHIVO ESTANDAR DE ACELERACION:
VERSION DEL FORMATO                    : 2.0
NOMBRE DEL ARCHIVO                     : GR0620210908014746
FECHA Y HORA DE CREACION               : 13/SEP/21, 17:52
REF. CATALOGO ACELEROGRAMAS, SMIS 1996 : REGISTRO No.     /PAG.


================================================================================
DATOS DE LA ESTACION:
NOMBRE DE LA ESTACION                  : EL JARDÍN
CLAVE DE LA ESTACION                   : GR06
LOCALIZACION DE LA ESTACION            : El Jardín Palmas, Guerrero.            
                                       :                                        
                                       :                                        
                                       :                                        
                                       : 
COORDENADAS DE LA ESTACION             : 16.89 LAT. N
                                       : 99.94 LONG. W
ALTITUD (msnm)                         : 0
TIPO DE SUELO                          : Rocas igneas intrusivas             
                                       :                           
                                       : 
INSTITUCION RESPONSABLE                : CIRES
                                       : 

================================================================================
DATOS DEL ACELEROGRAFO:
MODELO DEL ACELEROGRAFO                : RADESD
NUMERO DE SERIE DEL ACELEROGRAFO       : 6
NUMERO DE CANALES                      : 3
ORIENTACION C1-C6 (rumbo;orientacion)  : /N00E/+V/N90W
ORIENTACION C7-C12 (rumbo;orientacion) : 
VEL. DE MUESTREO, C1-C6 (muestras/s)   : /100/100/100
VEL. DE MUESTREO, C7-C12 (muestras/s)  : 
ESC. COMPLETA DE SENSORES, C1-C6, (g)  : /1.0/1.0/1.0
ESC. COMPLETA DE SENSORES, C7-C12, (g) : 
FREC. NAT. DE SENSORES, C1-C6, (Hz)    : /0/0/0
FREC. NAT. DE SENSORES, C7-C12, (Hz)   : 
AMORTIGUAMIENTO DE SENSORES, C1-C6     : /0.000/0.000/0.000
AMORTIGUAMIENTO DE SENSORES, C7-C12    : 
INTERVALO DE MUESTREO, C1-C6, (s)      : /0.01/0.01/0.01
INTERVALO DE MUESTREO, C7-C12, (s)     : 
UMBRAL DE DISPARO, C1-C6, (Gal)        : /0.48/0.48/0.48
UMBRAL DE DISPARO, C7-C12, (Gal)       : 
MEMORIA DE PREEVENTO (s)               : 24.0
TIEMPO DE POSEVENTO (s)                : 0.0


================================================================================
DATOS DEL SISMO:
FECHA DEL SISMO (GMT)                  : 08/SEP/21
HORA EPICENTRO (GMT)                   : 01:47:46.0
MAGNITUD(ES)                           : /Mw=7.1
COORDENADAS DEL EPICENTRO              : 16.78 LAT. N
                                       : 99.93 LONG. W
PROFUNDIDAD FOCAL (km)                 : 10
FUENTE DE LOS DATOS EPICENTRALES       : SSN
                                       : INSTITUTO DE GEOFISICA, UNAM

================================================================================
DATOS DE ESTE REGISTRO:
HORA DE LA PRIMERA MUESTRA (GMT)       : 20:47:28.92
EXACTITUD DEL TIEMPO (s)               : 0.01
DURACION DEL REGISTRO (s), C1-C6       : /130.75/130.75/130.75
DURACION DEL REGISTRO (s), C7-C12      : 
NUM. TOTAL DE MUESTRAS, C1-C6          : /13075/13075/13075
NUM. TOTAL DE MUESTRAS, C7-C12         : 
ACEL. MAX. (Gal), C1-C6                : /421.98109/279.99085/712.59546
ACEL. MAX., C1-C6, EN LA MUESTRA       : /2602/2568/2595
ACEL. MAX. (Gal), C7-C12               : 
ACEL. MAX., C7-C12, EN LA MUESTRA      : 
UNIDADES DE LOS DATOS                  : Gal (cm/s/s)
FACTOR DE DECIMACION                   : 1
FORMATO DATOS (FORTRAN,10 campos/dato) : 3F10.5


================================================================================
CALIDAD DEL ACELEROGRAMA:
REGISTRO DIGITAL COMPLETO CON TIEMPO ABSOLUTO CORRECTO.


================================================================================
COMENTARIOS:














================================================================================
DATOS DE ACELERACION:
---------+---------+---------+---------+---------+---------+---------+---------+
   CANAL-1   CANAL-2   CANAL-3   CANAL-4   CANAL-5   CANAL-6   CANAL-7   CANAL-8
      N00E        +V      N90W
---------+---------+---------+---------+---------+---------+---------+---------+
[...]
  -3.22912 -34.82460   4.39061
 -28.60766   4.44031  -8.05924
 -11.36941   6.35567 -21.46677
  19.75521  -6.09418   1.99641
  17.83985 -20.93823  27.37494
  -4.66564 -19.50171   2.95409
 -21.42506   1.56726 -24.81865
 -17.11549  -0.34810 -20.98793
   8.74188   8.27103   2.47525
  18.31869  17.36899  13.96742
   7.30536  20.24204  -3.27084
   8.26304   9.22871   2.95409
   6.34768  -0.82694  11.57321
   8.74188   1.56726   6.30597
  15.44565   9.70755   0.08105
  16.88217  31.73420   5.82713
  22.62825   4.91915   1.99641
  13.53029 -53.02053 -13.32648
 -13.28477 -53.02053 -12.36880
 -38.18447  -3.22114 -21.46677
 -26.21346  43.22637 -32.48010
  11.61493  21.19972   4.86945
  25.50130 -22.37475  48.92276
   3.47464 -14.71331  29.29031
 -17.11549 -24.76895 -32.95894
 -23.34042 -18.06519 -60.25284
  -5.62333  41.78985 -20.98793
  26.45898  44.66289  24.50190
  43.69723 -23.81127  55.62652
  13.53029 -53.49937  58.49957
 -30.04418   3.96147  -7.10156
 -30.04418  19.28436 -68.39312
   8.26304 -19.02287 -41.09922
  36.51462  15.93247  31.68451
  38.90883  40.83217  35.03639
   2.99580   2.04610 -14.28416
 -33.87490 -30.99388 -13.80532
 -36.26911 -23.81127  -9.01692
  -5.62333  29.34000 -16.19953
  22.62825  38.91681  -0.87663
  40.34535  -0.82694  18.75582
  22.62825   8.27103  23.06538
 -10.41173  34.12841  -5.18620
   4.43232   3.96147 -13.32648
  21.67057 -12.31911  20.67118
  -4.18680   1.08842  26.89610
 -14.24245 -19.98055 -10.93228
  -2.27144 -16.62867 -15.24184
   4.43232   9.70755  -3.27084
   8.26304  -8.48838 -18.59373
   2.51696 -42.00721  -2.31316
 -15.67897 -13.75563   4.86945
  -6.10217  32.69189 -15.72069
  -1.31376  31.25536 -22.90329
   7.78420   6.35567  16.84046
   6.82652   3.96147  34.55755
  -9.45405  11.62291  15.88278
  -8.49637   2.52494  -9.97460
  22.14941 -10.88258   1.99641
  33.16274  -4.17882   4.39061
   8.74188   1.08842 -13.80532
 -16.63665  -4.17882 -25.29749
  -5.62333  -9.92490  -2.31316
   6.82652 -37.21880  11.09437
 -11.84825 -31.95156  -5.18620
 -20.46738  -5.61534 -19.07257
   2.03812  14.49595  -8.53808
  21.67057   3.00378  18.27698
   2.51696   2.04610   7.74249
 -10.89057  24.55160  -2.31316
  10.65725   8.27103   1.99641
  25.02246 -17.58635   6.30597
   9.22073 -38.65532  -8.53808
  -9.93289  13.05943 -35.35314
  -5.62333  42.26869  -9.97460
  11.13609 -14.71331  26.41726
   6.34768  -4.65766  46.04972
  -8.01753   6.83451  24.98074
  -1.79260 -25.24779 -17.63605
   6.82652  14.49595 -25.77633
  -6.58101  21.19972 -43.49342
   4.91116  -9.44606 -44.45111
  12.57261  63.33767  25.93842
  17.36101  63.81651  61.37261
  25.50130 -30.03620  28.33263
  -5.62333 -36.73996  17.31930
 -28.12882 -25.72664 -28.64937
  -3.22912   3.96147 -82.27949
 -14.24245  39.87449 -51.15487
 -20.94622  24.55160  16.36162
   6.82652   3.96147  77.65318
 -18.07317  -0.82694  69.99173
 -47.28243 -38.65532  11.57321
 -34.35374   5.39799 -20.03025
 -17.11549  46.57825  12.05205
   6.82652 -21.41707  34.07871
  21.19173 -42.96489  65.68217
  17.83985 -39.13416  53.71116
  15.92449 -53.02053   0.55989
   0.12276  -5.13650 -23.38213
 -14.72129  60.46462 -46.84531
  14.96681  26.46696 -42.53574
  19.75521 -15.19215  -7.58040
  -9.93289  24.55160 -23.86097
  -9.45405  16.41131 -89.94094
   9.69957   6.83451 -87.06789
  16.88217  74.82983  44.13436
  35.55694  57.59158 145.64851
  29.33202  -8.96722 141.33894
 -29.56534 -10.40374  84.35694
 -68.83025  13.53827 -56.90095
 -39.62099   7.31335-165.59771
 -17.11549 -31.47272-145.00757
 -36.26911 -28.59968 -39.66270
 -35.79027  -8.96722  81.00506
 -28.60766  24.07276 129.84678
 -29.08650  48.49362  92.49723
 -24.29810 -11.84027  76.69550
 -48.71895 -61.16082  62.33029
 -59.25344 -34.34576  -9.01692
  -2.75028  22.15740 -84.19485
  77.69489  50.88782 -89.46210
  98.28503   5.87683 -15.24184
  39.38767   0.60958  86.27231
   0.12276   8.27103 109.73548
 -39.14215  17.84783  29.76915
 -78.40706  22.63624   9.17901
  -4.18680  54.23970  11.09437
  92.06010  50.40898 -27.21285
  67.16041 -23.81127 -65.99892
 -51.11316  10.18639-129.20584
 -90.85690  34.12841-127.29048
 -55.42272 -28.12084 -65.52008
 -15.67897 -38.65532  65.68217
   8.74188  -6.09418 185.87109
 -32.43838  30.29768 151.39459
 -70.26677  46.09941  55.14768
 -27.17114 -37.21880  38.86711
  88.22938-102.81993  95.37027
 138.50761 -33.86692 160.49256
  93.49662  12.58059 103.51056
  23.10709  -3.22114 -72.22384
 -31.00186  25.98812-207.25682
 -16.15781  28.38232-270.46374
  62.37200   8.74987-213.96058
  55.18940  23.11508 -69.35080
 -45.36707  44.66289   0.55989
 -79.36474  13.53827 -35.35314
   2.99580 -74.08951   1.51757
  76.73721 -76.00487 142.77546
  33.16274  28.38232 226.09368
 -21.42506  94.46229 165.28096
   9.22073  82.97012  37.43059
  33.64158  14.01711 -67.43544
   8.74188 -30.03620-124.41744
 -11.84825 -40.57069-165.59771
  23.10709 -48.71097-153.14786
  55.18940  41.78985 -35.83198
  -8.01753 111.22170  65.20333
 -86.54734  32.69189  32.64219
-127.72761 -65.47038 -15.24184
-152.14847 -65.47038  -9.97460
 -73.13981  41.31101  63.28797
  22.62825  66.68955  41.26131
  53.75288 -66.90690 -37.74734
  93.01778 -45.83793  19.23466
  13.53029 103.08141 137.02938
-110.96820 135.64256 189.22298
-151.19079  23.11508 156.18299
-140.65630 -25.72664  69.99173
-103.78559 -45.83793 -83.71601
  -9.45405 -94.67964-173.25915
 126.53661 -75.52603 -75.09689
 190.22237 -17.58635 177.25197
  99.72155   2.52494 331.91740
 -31.48070 -45.83793 312.28494
 -92.29343 -55.41474 161.45024
 -91.33574 -18.06519 -91.37746
  -1.79260 -12.31911-280.04055
 113.60792-104.25645-378.68166
 258.69654 -84.14516-386.82194
 419.58689 102.12373-211.56638
 327.17071 126.54459  45.57088
 -25.73462  20.72088 137.02938
-210.56699   9.70755 133.19866
-150.23311  53.28202 110.69316
 -89.89922  41.78985 -11.88996
  -8.49637  26.94580-146.44410
  85.35634  11.62291-218.27015
 139.46530 -78.39907-260.40809
 161.97079 -70.25879-158.89394
  31.24738 118.40430 152.83111
-182.31541 137.55792 292.65249
-214.39771  22.15740  94.41259
-116.71428  18.32668 -74.61805
 -64.99953  -3.22114-161.76699
 -79.36474-101.38341-203.42610
 -90.37806-129.63499 -99.03890
  -6.58101 -52.06285 118.83345
  72.90649  -3.69998 263.44323
  20.23405  28.86116 278.28728
 -74.57633  78.66056 225.13600
-116.71428  81.05476 111.65084
 -97.56067  37.48029 -16.67837
 -25.25578 -56.37242-108.61571
  91.58126-101.86225-114.36179
 158.61891 -31.95156  24.98074
  97.32735  59.02810 132.24098
 -45.36707  57.11274  58.49957
 -81.75894 -14.23447 -25.29749
   9.22073 -17.58635 -73.66037
  76.25837  40.83217-122.50208
  22.14941  42.26869 -53.07023
 -67.87257  -0.34810  24.02306
 -31.95954  13.53827 -12.84764
  33.64158 -19.98055 -37.26850
  57.58360 -85.58168  -0.39779
  64.28736 -39.13416 120.26997
  -8.97521   7.79219 280.68148
 -93.25111  40.83217 279.72380
 -42.01519  85.36432  84.83578
  20.71289  43.22637 -81.80065
  22.62825 -78.39907-188.58205
  93.01778 -72.17415-256.57737
 156.70355  -0.82694-136.38845
 116.00212  67.16839  80.04738
  29.81086  82.49128  70.47057
   2.99580  23.59392 -76.05457
  -2.75028  12.58059-134.95193
 -52.54968   9.22871-196.24349
 -76.01285 -42.00721-199.11653
 -10.89057  17.36899 -99.99658
  36.99346  95.41997 -33.91662
 -45.36707  -4.17882 -16.19953
-160.28875 -77.44139  34.07871
-122.93921 -75.04719 146.60619
  -5.14448 -44.88025 220.34760
 -44.88823  16.89015 233.27629
-160.28875 102.12373 254.34526
-207.69395  47.05710 171.98472
-101.87023 -11.84027  19.23466
  87.27170  51.36666 -76.53341
 129.88849  10.18639-187.14552
  20.71289  -2.74230-262.32346
 -66.43605  27.42464-121.54440
 -45.36707  -8.48838  95.37027
 -39.14215 -51.10517 168.63284
 -73.13981 -39.13416 179.64617
 -90.85690  49.93014  98.24331
 -94.20879  97.81417  54.66884
 -53.02852  56.63390  44.61320
  20.23405  56.15506  -0.39779
  99.72155  14.01711  65.20333
  97.32735-145.91556  87.70883
 -26.21346-183.26510  76.21666
-112.88356 -20.45939 149.00039
 -93.72995  76.26636 174.85777
 -29.08650  70.04143 114.04504
   4.91116 111.70054  22.58654
 -40.57867  92.54693 -75.09689
 -84.63198  17.36899-225.93159
 -22.86158 -54.93590-362.87993
 164.84383-136.33875-341.33211
 306.58057 -98.03153-120.58672
 138.02877  84.40664 189.22298
-196.68062  70.52027 388.42056
-248.39537 -84.62400 318.50987
-130.60065 -80.79327 124.57953
 -11.36941   4.44031 -32.95894
 138.50761 -35.30344-185.70900
 204.58758 -95.63732-251.31013
  87.27170 -16.62867-211.56638
 -52.54968  76.26636-113.88295
 -89.42038  29.81884  -5.66504
 -10.41173 -60.20314  43.17668
 102.11575 -67.38574 117.87577
 137.07109  18.32668 213.16499
  74.34301  70.52027 164.80212
  11.13609  39.39565  -7.10156
   7.30536  41.78985-173.73799
  66.68157  42.26869-329.36110
 166.28035 -73.61067-428.00221
 261.56958-173.20946-377.72398
 292.21536 -32.90924-202.94725
 152.39398 255.83148  36.95175
-163.64063 234.76251 266.79511
-281.91420 -92.28544 381.71679
-168.42904-127.71963 324.73479
-138.74094  56.63390 103.51056
-148.79658 146.65588 -86.11021
 -27.17114  85.36432-170.86495
 186.87049-109.04485-205.34146
 318.07274-132.02919 -79.88529
 148.08442  49.45130  80.04738
-209.60931  71.95679 -37.74734
-344.16344 -84.14516-210.12986
-278.08347-188.05351-228.32579
-105.22211-115.26978  -0.39779
 122.70588 131.33299 429.60082
  85.35634  84.88548 602.94102
 -61.64764-144.47904 454.50052
  -5.14448-144.00020 253.86642
  45.61259  40.35333   7.26365
 104.50995 139.47328-189.53973
 230.44496 108.82750-324.09386
 227.09308  37.00145-488.81493
  55.66824-121.97354-556.81026
 -47.76127-279.99085-416.51004
   9.22073 -87.49704-145.96526
 -86.54734 233.80482 225.61484
-268.02783 125.10807 460.72545
-173.69628 -42.48605 429.12198
  55.66824  83.92780 488.49818
  97.32735  25.50928 391.77244
  62.85084-100.42573  79.56854
  98.76387 -87.01820-121.54440
 195.96845 -28.12084-265.67534
 338.18403   0.13074-401.66599
 315.67854 -20.45939-406.45440
  43.21839  -2.26346-357.61268
-237.38205  -8.48838-341.81095
-265.15479 -75.52603-243.64868
   7.78420  31.25536   7.74249
 149.04210 166.28834 434.38923
 -67.39373 -26.68432 632.15028
-179.92121-164.59033 440.61415
 -27.17114 -16.62867 205.98239
  68.59693 108.82750  -6.14388
 109.29835 117.44662-186.66668
 119.35400 -16.62867-355.21848
  17.83985-168.42105-519.46071
-120.54500-166.98453-491.20913
-176.09048 -70.73763-235.02956
-103.30675  84.40664 182.04037
   5.39000 233.32598 712.59546
 -68.83025 -28.59968 675.24591
 -99.95487-167.94221 262.00671
 -36.74795  43.70521  36.95175
 -78.40706 147.61356-137.34613
 -12.32709 -20.93823-332.23414
 257.73886-245.03551-439.01554
 421.98109-220.61465-322.17850
 138.50761  26.46696 -43.49342
-290.05448 194.06108 224.65716
-258.92986  37.48029 195.44790
  -8.01753  -1.78462  22.58654
 -22.38274 148.09241 118.35461
 -67.87257  73.39331  85.79347
  50.87983 -50.62633-136.38845
  85.35634 -88.93356-174.21684
 -25.25578-107.60833 -97.60238
 -54.46504 -30.03620  35.03639
  -5.62333 172.51326 214.12267
 -27.64998 240.50859 249.07802
 -35.79027  92.54693 107.82012
  24.06478 -71.69531 -43.97226
  72.42765-163.63265-158.89394
 160.05543-244.55667-306.85561
 287.90580-217.26277-392.56803
 229.96612 -57.33010-236.94492
 -41.05751 120.31967 112.12968
-167.47136 139.47328 379.80143
 -24.77694  14.49595 284.03336
  39.86651  30.29768 117.39693
 -32.91722  24.07276  65.68217
 -13.76361  20.72088 -80.36413
  77.69489  38.43797-259.45041
 163.40731 -68.34342-306.85561
 179.68788 -68.34342-145.48642
 -29.56534  41.78985 122.18533
-223.49568   0.60958 322.81943
-123.41805  -7.53070 259.61251
 -46.32475 110.26402  57.54189
 -75.53401 105.95446 -30.56474
 -19.98854  20.72088-117.23484
  47.52795 -34.82460-236.46608
  55.66824 -75.52603-277.64635
  62.85084 -96.59500-164.16119
  18.79753 -61.16082  22.10770
 -82.71662   9.70755 123.14301
 -64.04185  17.84783 206.94007
  84.39866  19.76320 292.17365
 167.71688  72.43563 205.02471
 123.66356 102.60257  37.90943
   7.78420  80.09708 -69.35080
 -65.47837 -12.79795-178.52640
 -92.77227-177.04018-290.09620
 -26.69230-173.68830-258.49273
  94.93314  50.40898 -71.74500
  48.96447 100.20837  63.28797
 -23.81926 -14.23447 151.87343
  70.03345  80.57592 252.90874
 117.43864  91.58925 144.69083
  89.18706 -24.29011 -16.67837
  82.96214 -53.49937 -37.26850
 -23.81926   7.31335 -86.58905
-231.63596   5.87683-157.45742
-348.47300 -31.95156-107.65803
-262.76058  -1.30578  19.23466
 -42.97287  45.62057 207.89775
 112.17140   4.44031 304.62350
  26.45898 -25.24779 166.23864
-144.00818  10.66523  -9.01692
-219.66495   7.31335 -42.05690
-205.29974  27.90348  33.59987
-131.55833  14.01711  66.63985
 -76.49169 -31.95156  61.37261
 -52.07084 -16.62867  29.29031
  -5.62333  21.19972 -16.19953
  67.63925  40.83217 -88.98326
  80.56793  -1.30578-171.34379
  16.40333 -37.69764-136.38845
 -42.97287   7.79219  28.81147
 -53.50736  33.17073 126.01605
 -57.81692  18.80552 103.51056
 -92.77227   6.83451  76.21666
 -90.85690  56.15506  54.66884
 -38.18447  46.09941   5.82713
  36.99346 -63.07618 -26.25517
 167.23803-106.65065  10.13669
 321.90346 -99.94689  92.01839
 324.29766  18.32668  99.20099
  15.92449 144.74052 -26.25517
-286.70260  63.33767-161.28815
-261.80290 -24.76895-276.20983
 -57.33808 -45.83793-326.96690
 107.38299 -88.45472-227.84695
 126.05777 -39.61300 -27.69169
 -33.87490  88.23736 256.73946
-152.62731  25.98812 431.51618
 -42.01519  -5.13650 330.00203
   1.08044 145.21936 133.19866
-118.62964  61.90115 -53.07023
-102.34907 -80.79327-190.01857
  71.46997 -80.79327-314.51705
 172.98412-108.08717-386.82194
 114.08676 -88.45472-293.92692
 -65.47837  86.80084 -15.24184
-222.05916 219.91846 342.45188
-218.70727  82.01244 369.74578
-129.64297 -47.27445 124.10069
 -24.29810  -8.48838  51.31696
  76.25837  23.11508  35.51523
 176.81484 -52.06285 -63.12588
 178.25136-165.54801-105.26383
  44.17607 -74.08951 -26.73401
 -80.32242  83.44896  45.09204
-134.91021  78.66056  84.35694
-188.54033  37.00145 103.51056
-240.73393  42.74753  39.34595
-149.27542  78.66056 -66.47776
  36.03578  20.72088-148.83830
 119.83284-119.10050-209.17218
  48.00679 -73.61067 -80.36413
 -69.78793  71.47795 255.78178
 -68.83025 -49.18981 320.90407
  51.83751 -47.75329 146.60619
 109.77719  63.33767 181.08269
   6.82652 -57.80894 170.54820
 -65.47837 -96.59500  -5.18620
  24.54362  40.83217 -39.66270
 109.77719  57.59158  -7.10156
  98.76387  -3.69998 -94.25050
  80.08909  18.80552-185.23016
  66.20272  47.05710-185.70900
 -19.98854  37.00145-112.92527
-133.47369  18.32668 -63.60472
-148.31774  41.78985 -19.07257
 -63.56301  58.07042 102.07404
  -6.58101 -53.49937 150.43691
  20.71289 -87.01820  99.67983
  19.27637  70.99911 113.08736
 -65.95721  79.13940  93.93375
 -56.85924 -22.37475 -22.90329
  37.47230 -44.88025-108.61571
  39.38767 -66.90690-140.69801
  -0.83492 -70.25879-191.93393
  21.67057 -46.79561-220.18551
