********************************************************************************
              CENTRO DE INSTRUMENTACION Y REGISTRO SISMICO  A.C.

    Anaxagoras 814, Col. Narvarte, Benito Juarez, C.P. 03020 Mexico, D.F.
           Tels. 5687 45 42/ 5687 45  82             Fax. 5669 25 12
********************************************************************************
ARCHIVO ESTANDAR DE ACELERACION:
VERSION DEL FORMATO                    : 2.0
NOMBRE DEL ARCHIVO                     : GR0920210908014746
FECHA Y HORA DE CREACION               : 17/SEP/21, 22:52
REF. CATALOGO ACELEROGRAMAS, SMIS 1996 : REGISTRO No.     /PAG.


================================================================================
DATOS DE LA ESTACION:
NOMBRE DE LA ESTACION                  : LAS VIGAS
CLAVE DE LA ESTACION                   : GR09
LOCALIZACION DE LA ESTACION            : La Caridad y Cruz Grande, Guerrero.    
                                       :                                        
                                       :                                        
                                       :                                        
                                       : 
COORDENADAS DE LA ESTACION             : 16.76 LAT. N
                                       : 99.24 LONG. W
ALTITUD (msnm)                         : 0
TIPO DE SUELO                          : Rocas Metamórficas                  
                                       :                           
                                       : 
INSTITUCION RESPONSABLE                : CIRES
                                       : 

================================================================================
DATOS DEL ACELEROGRAFO:
MODELO DEL ACELEROGRAFO                : RADESD
NUMERO DE SERIE DEL ACELEROGRAFO       : 9
NUMERO DE CANALES                      : 3
ORIENTACION C1-C6 (rumbo;orientacion)  : /N00E/+V/N90W
ORIENTACION C7-C12 (rumbo;orientacion) : 
VEL. DE MUESTREO, C1-C6 (muestras/s)   : /100/100/100
VEL. DE MUESTREO, C7-C12 (muestras/s)  : 
ESC. COMPLETA DE SENSORES, C1-C6, (g)  : /1.0/1.0/1.0
ESC. COMPLETA DE SENSORES, C7-C12, (g) : 
FREC. NAT. DE SENSORES, C1-C6, (Hz)    : /0/0/0
FREC. NAT. DE SENSORES, C7-C12, (Hz)   : 
AMORTIGUAMIENTO DE SENSORES, C1-C6     : /0.000/0.000/0.000
AMORTIGUAMIENTO DE SENSORES, C7-C12    : 
INTERVALO DE MUESTREO, C1-C6, (s)      : /0.01/0.01/0.01
INTERVALO DE MUESTREO, C7-C12, (s)     : 
UMBRAL DE DISPARO, C1-C6, (Gal)        : /0.48/0.96/0.48
UMBRAL DE DISPARO, C7-C12, (Gal)       : 
MEMORIA DE PREEVENTO (s)               : 24.0
TIEMPO DE POSEVENTO (s)                : 0.0


================================================================================
DATOS DEL SISMO:
FECHA DEL SISMO (GMT)                  : 08/SEP/21
HORA EPICENTRO (GMT)                   : 01:47:46.0
MAGNITUD(ES)                           : /Mw=71
COORDENADAS DEL EPICENTRO              : 16.78 LAT. N
                                       : 99.93 LONG. W
PROFUNDIDAD FOCAL (km)                 : 10
FUENTE DE LOS DATOS EPICENTRALES       : SSN
                                       : INSTITUTO DE GEOFISICA, UNAM

================================================================================
DATOS DE ESTE REGISTRO:
HORA DE LA PRIMERA MUESTRA (GMT)       : 20:47:37.80
EXACTITUD DEL TIEMPO (s)               : 0.01
DURACION DEL REGISTRO (s), C1-C6       : /118.25/118.25/118.25
DURACION DEL REGISTRO (s), C7-C12      : 
NUM. TOTAL DE MUESTRAS, C1-C6          : /11825/11825/11825
NUM. TOTAL DE MUESTRAS, C7-C12         : 
ACEL. MAX. (Gal), C1-C6                : /158.27327/133.67145/156.47457
ACEL. MAX., C1-C6, EN LA MUESTRA       : /3272/3225/3272
ACEL. MAX. (Gal), C7-C12               : 
ACEL. MAX., C7-C12, EN LA MUESTRA      : 
UNIDADES DE LOS DATOS                  : Gal (cm/s/s)
FACTOR DE DECIMACION                   : 1
FORMATO DATOS (FORTRAN,10 campos/dato) : 3F10.5


================================================================================
CALIDAD DEL ACELEROGRAMA:
REGISTRO DIGITAL COMPLETO CON TIEMPO ABSOLUTO CORRECTO.


================================================================================
COMENTARIOS:














================================================================================
DATOS DE ACELERACION:
---------+---------+---------+---------+---------+---------+---------+---------+
   CANAL-1   CANAL-2   CANAL-3   CANAL-4   CANAL-5   CANAL-6   CANAL-7   CANAL-8
      N00E        +V      N90W
---------+---------+---------+---------+---------+---------+---------+---------+
[...]
   3.09592   3.90572  -3.45810
   8.36316  -1.84037  -8.24650
   5.96896 -15.72674  -6.33114
  -2.17132 -16.20558   1.80915
  -9.83277  -1.36153   9.47059
  -8.87509  11.08832   8.99175
  -3.12900   7.73644   2.28799
   3.57476  -6.62877  -2.97926
   6.92664 -19.07862  -6.80998
   5.49012 -19.07862  -5.37346
   6.44780   3.90572  -6.80998
   6.44780  21.14397  -6.33114
  -3.12900   8.69412   2.76683
 -11.74813   3.90572  11.38595
 -13.18465  -1.84037  12.82247
  -6.00205  -1.84037   6.11871
   4.05360  21.14397  -3.93694
   5.96896  10.60948  -5.85230
   1.18056  -7.58645  -1.06390
  -1.69248   4.38456   1.80915
  -0.73480   3.90572   0.37262
   2.13824   1.03268  -2.02158
   2.61708  -0.88269  -2.50042
  -3.12900 -10.45949   2.76683
  -6.95973 -12.37485   7.07639
  -3.12900   2.46920   2.76683
   4.53244  15.39789  -4.41578
   8.84200  12.52484  -8.72534
   3.09592   5.34224  -3.45810
  -9.83277  -8.54413   9.47059
 -12.22697  -4.23457  11.86479
  -3.12900  14.91904   2.28799
   9.32084  17.31325  -9.20418
  16.50345   3.42688 -16.38679
  12.67273 -16.20558 -12.55606
   3.09592 -19.07862  -3.45810
   0.70172  -5.19225  -1.06390
   2.61708  12.04600  -2.97926
  -1.21364  10.60948   1.33031
 -10.79045  -4.23457  10.42827
 -16.05769  -5.19225  15.69552
  -8.87509  -7.10761   8.51291
   2.61708  -9.98065  -2.50042
   3.09592 -12.37485  -2.50042
  -6.95973  -9.02297   6.59755
 -14.14233   1.51152  13.78015
  -9.35393   9.65180   8.99175
   0.70172  11.08832  -0.58506
   5.49012   6.29992  -5.37346
   6.92664   2.94804  -6.33114
   2.61708   2.46920  -2.97926
  -8.39625   0.55384   8.51291
 -11.74813   4.86340  11.38595
  -0.73480   1.51152   0.37262
   9.79969 -13.33253  -9.68302
   9.79969 -22.90934  -9.68302
   2.13824 -21.47282  -2.50042
   2.13824  -7.58645  -2.50042
   8.36316   9.17296  -8.24650
   5.96896   5.82108  -6.33114
  -0.25596 -10.45949   0.37262
  -0.25596 -24.82470  -0.10622
   2.61708 -18.59978  -2.97926
   2.61708  -5.67109  -2.02158
   0.70172   3.90572  -0.58506
   0.22288  18.27093  -0.58506
   0.22288  16.83441  -0.58506
  -2.17132  -0.88269   1.80915
  -6.00205 -17.16326   5.63987
  -3.60784 -12.85369   3.72451
   6.92664   7.73644  -6.80998
   8.36316  10.60948  -8.24650
  -0.25596   4.38456   0.37262
 -10.31161  -0.88269   9.94943
 -16.05769  -1.84037  15.69552
 -17.49421  11.56716  17.13204
 -19.40958   4.38456  19.04740
 -16.05769  -7.58645  16.17436
  -5.04437   2.94804   4.20335
   6.44780   2.94804  -6.33114
  12.67273   0.07499 -12.07722
   9.79969   1.99036  -9.68302
   2.13824   2.46920  -2.02158
  -2.65016  21.14397   2.28799
  -5.52321  21.14397   5.16103
  -8.87509   1.51152   8.51291
  -5.52321  10.60948   5.16103
   2.61708  16.35557  -2.97926
   8.36316  -0.88269  -8.24650
   6.44780 -10.45949  -6.33114
  -1.21364 -16.20558   1.33031
  -1.21364 -17.64210   0.85147
   5.49012  -4.23457  -5.85230
   1.18056  -6.14993  -1.06390
  -5.52321 -18.12094   5.63987
  -3.60784 -11.89601   3.24567
  -3.60784  -8.54413   3.24567
  -9.35393  -8.54413   9.47059
 -13.66349  -6.62877  13.30131
 -13.18465  -8.54413  12.82247
  -9.83277  -8.06529   9.47059
  -9.35393  -8.06529   8.99175
 -14.62117 -15.24790  14.25899
 -19.88842  -7.58645  20.00508
 -18.93073   3.42688  18.56856
 -12.70581   1.03268  12.82247
  -2.65016  -0.88269   2.76683
   6.44780  -3.27689  -6.33114
  12.67273  -9.02297 -12.55606
  17.46113 -12.37485 -17.82331
  21.29185 -18.59978 -21.17519
  26.08026 -13.33253 -25.96359
  28.95330  -0.88269 -28.83664
  19.85533   0.07499 -19.73867
   1.18056   2.46920  -1.06390
 -14.62117  -1.84037  13.78015
 -16.53653  -8.06529  16.17436
  -9.83277  -6.14993   9.47059
  -1.69248  -9.02297   1.80915
   3.57476  -1.36153  -3.45810
   3.57476   7.25760  -3.45810
  -3.12900  11.08832   3.24567
 -10.31161  26.41121   9.94943
 -11.74813  25.93237  11.86479
  -6.48089  14.44020   6.11871
  -0.25596   6.77876   0.37262
   1.65940  -5.19225  -1.54274
   1.18056 -14.76906  -1.06390
   2.13824 -14.29022  -2.50042
   9.79969  -9.50181  -9.68302
  17.46113  -2.31921 -16.86563
  13.63041   0.55384 -13.51374
   4.05360   0.07499  -3.93694
   2.13824  -1.84037  -2.50042
  10.75737  -5.67109 -10.64070
  18.89765  -4.71341 -18.78099
  14.58809 -19.55746 -14.47143
   1.65940 -42.06295  -2.02158
  -7.91741 -47.33020   7.55523
  -7.43857 -24.34586   7.07639
  -4.08668  13.00368   3.72451
  -8.39625  16.35557   8.03407
 -18.45189   2.94804  18.56856
 -23.71914   2.46920  23.35696
 -17.97305   0.07499  17.61088
  -8.39625  -1.84037   8.51291
  -5.52321  -1.84037   5.63987
 -13.18465  -4.71341  12.82247
 -21.80378  -8.06529  21.44160
 -18.93073   1.03268  18.56856
   0.70172   9.17296  -1.06390
  34.22054 -10.45949 -33.62504
  64.86632 -17.16326 -64.27082
  73.96429  -0.40385 -72.41111
  61.99328  19.22861 -61.39778
  46.67039  48.91671 -46.55373
  29.91098  40.77642 -30.27316
  13.15157  -6.62877 -13.51374
   5.01128 -50.20324  -5.85230
   9.32084 -69.83569  -9.68302
  10.75737 -51.63976 -11.11954
  -8.87509 -20.03630   8.51291
 -43.83043   1.51152  42.98941
 -71.60317   3.90572  70.28331
 -77.82810   2.46920  76.50824
 -59.15332  12.52484  59.26999
 -29.94406   1.51152  30.06073
  -8.87509 -18.12094   9.94943
  -5.04437 -15.24790   5.63987
 -11.26929  -4.23457  10.90711
 -17.01537  13.00368  16.65320
 -19.40958  24.01701  19.04740
 -19.40958  24.49585  19.52624
 -16.53653  28.80541  16.65320
 -12.22697  34.07266  12.34363
  -6.00205  40.77642   6.11871
   5.96896  44.60715  -5.85230
  21.77069  29.76310 -21.65403
  33.74170   5.82108 -33.14620
  36.61474  -2.79805 -36.01924
  33.26286   6.29992 -32.66736
  28.95330  18.74977 -28.83664
  19.85533  29.76310 -19.73867
  -1.69248  30.72078   1.80915
 -27.54986  24.01701  27.18768
 -43.83043  18.27093  42.98941
 -46.22463  18.74977  45.38362
 -36.64783   9.65180  36.28565
 -20.36726  -1.84037  20.48392
  -2.17132 -14.76906   2.76683
  16.50345 -40.14759 -15.90795
  25.12258 -57.86469 -24.52707
  11.71505 -50.20324 -11.11954
 -11.74813 -10.45949  11.38595
 -17.97305  29.28425  17.13204
   2.13824  41.73410  -2.50042
  33.74170  27.84773 -33.14620
  56.24720 -22.90934 -55.17285
  61.03560 -70.31453 -60.44010
  51.45879 -70.79337 -51.34213
  27.03794 -27.69774 -27.40011
  -6.48089  14.91904   5.63987
 -26.59218  23.53817  25.27232
 -28.50754  21.14397  27.18768
 -22.28262  25.45353  22.39928
 -17.01537  19.70745  17.13204
  -5.04437 -21.47282   4.68219
  18.41881 -71.27221 -18.30215
  33.26286-102.39684 -33.14620
  30.38982-113.88900 -29.79432
  16.02461 -86.11627 -16.38679
  -5.52321 -25.78238   4.68219
 -31.38058  20.66513  30.53957
 -56.75912  58.49352  55.91810
 -80.22230 102.54683  79.38128
 -87.40490 127.44652  86.56388
 -73.03969  93.92770  72.67751
 -50.05536   9.65180  50.65086
 -21.32494 -60.73773  21.92044
  13.15157 -92.82003 -12.07722
  41.40315 -86.11627 -40.32880
  58.64140 -35.35919 -57.56706
  63.42980  35.98802 -62.83430
  59.59908  73.81641 -59.48242
  60.55676  65.67612 -60.44010
  64.38748  50.35323 -63.79198
  54.81068  49.39555 -54.69401
  32.78402  56.57815 -32.66736
  12.19389  64.71844 -13.03490
  -0.73480  33.59382   0.37262
   3.09592 -24.82470  -2.97926
  25.60142 -51.63976 -25.48475
  40.44547 -41.10527 -39.84996
  24.64374 -18.12094 -24.52707
 -10.31161  -4.71341   9.94943
 -45.26695 -16.68442  43.94710
 -73.51853 -20.03630  72.19867
 -85.48954  -1.36153  84.16968
 -70.64549  19.22861  70.28331
 -44.78811  36.94570  44.90478
 -21.80378  19.22861  22.87812
   0.22288 -10.93833   0.85147
  19.37649 -18.59978 -18.78099
  33.26286 -14.29022 -32.66736
  39.48779   9.65180 -38.89228
  38.53010  28.32657 -37.93460
  33.26286  25.45353 -32.66736
  31.34750  24.49585 -31.23084
  39.00895   8.21528 -38.89228
  47.14923 -31.52847 -47.51141
  58.64140 -61.69541 -58.04590
  75.40081 -60.25889 -74.80531
  71.09125 -24.82470 -70.49574
  33.74170  11.08832 -34.10388
  -7.91741  23.53817   7.07639
 -32.81710  38.86106  31.01841
 -38.08435  35.50918  37.24333
 -27.54986  -7.58645  27.66652
  -6.48089 -45.41484   6.59755
  10.75737 -48.76672 -10.16186
  11.71505 -45.41484 -11.59838
  -9.35393 -55.47048   9.47059
 -30.90174 -55.94932  30.06073
 -22.28262 -31.04963  21.92044
  15.54577   2.46920 -15.42911
  54.81068  15.39789 -53.73633
  81.14689  34.07266 -79.59371
  96.94863  83.87205 -95.87428
 103.17355 114.99667-102.09921
  97.90631  82.91437 -97.31080
  83.06226  19.22861 -82.94559
  65.82400 -19.07862 -66.66502
  52.89531 -46.85136 -53.25749
  52.41647 -71.75106 -52.29981
  64.86632 -71.75106 -64.74966
  58.64140 -64.56845 -58.52474
  14.58809 -66.96265 -14.95027
 -38.08435 -56.90700  36.76449
 -71.60317 -24.34586  69.80447
 -91.23563  -9.50181  89.91577
-107.99504 -13.33253 107.15402
-120.44489  -9.02297 119.60387
-118.05068   0.55384 117.20967
 -92.19331  19.22861  91.83113
 -62.50521  46.04367  63.57955
 -49.09768  71.90104  50.17202
 -39.52087 105.41987  40.11637
 -26.11334 133.67145  26.23000
 -15.57885 132.71377  15.69552
 -13.18465  99.67378  13.78015
  -4.56552  50.35323   4.68219
  24.64374  13.48252 -24.52707
  57.68372 -18.12094 -57.08822
  56.72604 -39.66875 -56.13053
  14.58809 -34.88035 -14.95027
 -36.16899 -25.30354  34.37029
 -62.50521 -15.72674  60.70651
 -45.74579  -1.36153  44.90478
   8.84200  -6.62877  -8.24650
  64.86632 -30.09195 -63.31314
  84.97762 -62.17425 -83.42443
  51.93763 -91.38351 -51.82097
 -18.93073 -93.29887  17.61088
 -94.58751 -65.52613  91.83113
-141.99270 -22.43050 140.19400
-139.59850  29.28425 138.27864
 -75.91273  45.08599  76.02940
  16.98229  12.04600 -14.95027
  68.69705 -22.90934 -65.70734
  41.40315 -33.92267 -40.32880
 -35.21131   1.51152  34.37029
 -89.32026  44.12831  86.56388
 -86.44722  52.74743  84.64852
 -48.61884  48.91671  48.73550
   8.36316  27.84773  -6.80998
  65.82400   0.55384 -64.27082
 105.08891  -7.58645-103.05689
 122.80600  18.74977-121.25282
 124.72136  53.70511-123.64702
 114.18688  49.39555-114.07021
  95.99094   7.73644 -96.35312
  80.18921 -33.92267 -80.07255
  64.38748 -47.33020 -65.22850
  35.65706 -39.66875 -36.01924
  -4.08668 -19.07862   3.24567
 -40.95739  18.74977  39.63753
 -64.42057  44.60715  63.10071
 -59.63216  32.15730  59.26999
 -28.50754 -11.89601  29.10304
  -5.52321 -63.13193   6.11871
 -15.57885-106.70640  16.17436
 -51.97072-111.49480  51.60854
 -97.46055 -44.93600  95.66185
-136.24662  20.18629 134.44792
-158.27327  42.21294 156.47457
-152.04835  65.19728 150.72849
-123.79677  71.42220 122.95575
 -88.84142  60.40888  89.43693
 -53.88608  58.01467  55.91810
 -17.49421  66.63380  17.61088
  26.55910  87.70278 -25.48475
  64.38748 102.06799 -62.35546
  69.17589  92.49118 -68.58038
  29.91098  65.19728 -30.27316
 -27.54986  63.76076  27.18768
 -59.63216  72.85873  57.35462
 -49.09768  40.77642  48.25666
 -12.70581  -9.98065  13.30131
  36.61474 -44.93600 -35.06156
  74.44313 -74.14526 -72.88995
  65.34516 -90.90467 -64.27082
   8.36316 -47.33020  -9.20418
 -51.49188  35.98802  50.17202
 -79.26462  69.02800  76.98708
 -83.57418  65.67612  82.25432
 -78.78578  42.69178  78.42360
 -65.37825  10.13064  65.01607
 -54.36492   9.65180  54.96042
 -57.23796  26.89005  57.35462
 -65.37825  23.53817  65.49491
 -56.75912 -11.41717  56.39694
 -25.15566 -55.94932  25.75116
   5.96896 -70.31453  -4.89462
  14.58809 -40.62643 -13.99259
   8.36316  26.89005  -7.76766
  10.75737  87.22394 -11.11954
  18.41881  94.40654 -18.30215
  12.67273  55.62047 -12.55606
  13.63041   6.77876 -13.03490
  35.17822 -22.43050 -35.54040
  56.72604 -43.49948 -55.65169
  59.12024 -60.25889 -58.52474
  42.36083 -46.85136 -42.24416
  16.98229 -14.76906 -17.82331
   8.36316  -4.23457  -9.20418
  34.22054 -26.26122 -34.10388
  78.27385 -54.99164 -77.67835
 108.44079 -56.42816-106.40877
 123.28484 -51.63976-121.73166
 130.46745 -45.89368-129.39311
 116.10224  -5.67109-115.50674
  77.31617  36.94570 -77.67835
  42.36083  46.04367 -43.20185
  24.16490  36.94570 -25.48475
  10.27853   4.86340 -10.64070
 -17.49421 -34.40151  17.13204
 -56.75912 -54.99164  55.43926
 -91.23563 -54.99164  89.91577
-111.82576 -46.37252 110.50590
 -98.89707 -38.23223  98.05605
 -49.57652 -37.27455  50.17202
   6.44780 -46.85136  -4.89462
  47.62807 -38.71107 -45.59605
  59.59908  -3.75573 -58.04590
  41.88199  21.62281 -41.76532
  20.81301  24.49585 -21.17519
  13.15157   8.69412 -13.99259
  20.81301 -13.81137 -21.17519
  28.47446 -18.59978 -28.35780
  28.95330 -23.38818 -28.83664
  32.78402 -20.51514 -32.66736
  30.38982   7.73644 -30.27316
   8.84200  20.18629  -8.72534
 -27.07102  20.18629  26.23000
 -66.81477  31.19962  65.49491
-100.33359  35.50918  99.01373
-110.86808  25.45353 109.54822
 -94.58751  17.79209  94.22533
 -68.25129   1.51152  68.84679
 -48.14000  -9.50181  48.73550
 -30.42290  -0.88269  31.01841
  -5.04437  -0.88269   5.16103
  28.47446  -6.14993 -27.87895
  60.55676  -7.10761 -59.48242
  80.66805  -9.02297 -80.07255
  70.61241  -6.14993 -70.01690
  31.34750   7.25760 -31.70968
  -1.21364  18.27093   0.37262
  -8.87509  -1.36153   7.55523
  -7.43857 -43.97832   7.55523
   5.01128 -82.28554  -4.89462
  39.00895 -85.63742 -38.41344
  59.59908 -52.11860 -59.00358
  32.30518 -26.26122 -32.18852
 -10.31161  -5.67109   8.99175
 -20.36726  33.59382  19.04740
  -5.04437  46.52251   4.68219
   1.18056  25.93237  -0.58506
 -21.80378  36.94570  21.92044
 -56.75912  73.33757  55.91810
 -67.77245 101.58915  66.45259
 -35.21131  90.57582  34.84913
  14.10925  49.39555 -12.55606
  42.83967   1.99036 -41.28648
  47.14923 -43.49948 -46.07489
  27.51678 -48.76672 -27.40011
 -10.31161 -30.57079   9.47059
 -42.39391 -19.07862  41.07405
 -47.18231  -1.84037  46.34130
 -19.88842   6.77876  19.52624
  16.50345  -4.71341 -15.90795
  37.57242 -23.38818 -36.01924
  36.13590 -25.30354 -35.54040
  15.54577 -19.07862 -15.90795
 -13.18465  -6.14993  12.34363
 -32.33826  17.79209  31.01841
 -21.80378  20.66513  20.96276
  21.77069  -4.71341 -21.65403
  58.16256 -13.33253 -57.08822
  63.90864 -18.12094 -62.35546
  58.64140 -38.71107 -58.52474
  44.27619 -23.86702 -44.63837
  21.77069   9.65180 -22.13287
  17.93997  19.70745 -18.30215
  27.03794  15.39789 -27.87895
  35.17822   2.94804 -35.06156
  32.30518   1.03268 -31.70968
   9.79969  -2.79805 -10.16186
 -15.10001 -17.64210  14.25899
 -18.45189  -3.27689  17.61088
  -3.12900   8.69412   3.24567
  18.89765   0.55384 -18.30215
  36.61474   1.51152 -36.01924
  41.88199  -8.54413 -41.28648
  32.30518 -17.16326 -31.70968
   5.96896  -1.36153  -6.33114
 -20.36726  -0.88269  19.52624
 -27.07102 -13.33253  26.23000
  -9.83277  -4.71341   9.47059
  12.67273  -6.62877 -12.07722
  18.89765 -32.00731 -18.30215
   5.49012 -31.52847  -5.37346
 -17.97305  -0.40385  17.61088
 -32.81710  25.45353  32.45493
 -33.29594  35.50918  32.93377
 -28.50754  34.55150  29.10304
 -18.45189  24.97469  18.56856
  -8.39625  12.04600   8.51291
