********************************************************************************
              CENTRO DE INSTRUMENTACION Y REGISTRO SISMICO  A.C.

    Anaxagoras 814, Col. Narvarte, Benito Juarez, C.P. 03020 Mexico, D.F.
           Tels. 5687 45 42/ 5687 45  82             Fax. 5669 25 12
********************************************************************************
ARCHIVO ESTANDAR DE ACELERACION:
VERSION DEL FORMATO                    : 2.0
NOMBRE DEL ARCHIVO                     : GR1020210908014746
FECHA Y HORA DE CREACION               : 17/SEP/21, 22:52
REF. CATALOGO ACELEROGRAMAS, SMIS 1996 : REGISTRO No.     /PAG.


================================================================================
DATOS DE LA ESTACION:
NOMBRE DE LA ESTACION                  : EL CARRIZO
CLAVE DE LA ESTACION                   : GR10
LOCALIZACION DE LA ESTACION            : Las Peñas y Copala, Guerrero.          
                                       :                                        
                                       :                                        
                                       :                                        
                                       : 
COORDENADAS DE LA ESTACION             : 16.64 LAT. N
                                       : 99.03 LONG. W
ALTITUD (msnm)                         : 0
TIPO DE SUELO                          : Rocas Metamórficas                  
                                       :                           
                                       : 
INSTITUCION RESPONSABLE                : CIRES
                                       : 

================================================================================
DATOS DEL ACELEROGRAFO:
MODELO DEL ACELEROGRAFO                : RADESD
NUMERO DE SERIE DEL ACELEROGRAFO       : 10
NUMERO DE CANALES                      : 3
ORIENTACION C1-C6 (rumbo;orientacion)  : /N00E/+V/N90W
ORIENTACION C7-C12 (rumbo;orientacion) : 
VEL. DE MUESTREO, C1-C6 (muestras/s)   : /100/100/100
VEL. DE MUESTREO, C7-C12 (muestras/s)  : 
ESC. COMPLETA DE SENSORES, C1-C6, (g)  : /1.0/1.0/1.0
ESC. COMPLETA DE SENSORES, C7-C12, (g) : 
FREC. NAT. DE SENSORES, C1-C6, (Hz)    : /0/0/0
FREC. NAT. DE SENSORES, C7-C12, (Hz)   : 
AMORTIGUAMIENTO DE SENSORES, C1-C6     : /0.000/0.000/0.000
AMORTIGUAMIENTO DE SENSORES, C7-C12    : 
INTERVALO DE MUESTREO, C1-C6, (s)      : /0.01/0.01/0.01
INTERVALO DE MUESTREO, C7-C12, (s)     : 
UMBRAL DE DISPARO, C1-C6, (Gal)        : /0.48/0.48/0.48
UMBRAL DE DISPARO, C7-C12, (Gal)       : 
MEMORIA DE PREEVENTO (s)               : 24.0
TIEMPO DE POSEVENTO (s)                : 0.0


================================================================================
DATOS DEL SISMO:
FECHA DEL SISMO (GMT)                  : 08/SEP/21
HORA EPICENTRO (GMT)                   : 01:47:46.0
MAGNITUD(ES)                           : /Mw=71
COORDENADAS DEL EPICENTRO              : 16.78 LAT. N
                                       : 99.93 LONG. W
PROFUNDIDAD FOCAL (km)                 : 10
FUENTE DE LOS DATOS EPICENTRALES       : SSN
                                       : INSTITUTO DE GEOFISICA, UNAM

================================================================================
DATOS DE ESTE REGISTRO:
HORA DE LA PRIMERA MUESTRA (GMT)       : 20:47:41.88
EXACTITUD DEL TIEMPO (s)               : 0.01
DURACION DEL REGISTRO (s), C1-C6       : /107.75/107.75/107.75
DURACION DEL REGISTRO (s), C7-C12      : 
NUM. TOTAL DE MUESTRAS, C1-C6          : /10775/10775/10775
NUM. TOTAL DE MUESTRAS, C7-C12         : 
ACEL. MAX. (Gal), C1-C6                : /40.62908/50.95412/32.36601
ACEL. MAX., C1-C6, EN LA MUESTRA       : /3505/3470/3603
ACEL. MAX. (Gal), C7-C12               : 
ACEL. MAX., C7-C12, EN LA MUESTRA      : 
UNIDADES DE LOS DATOS                  : Gal (cm/s/s)
FACTOR DE DECIMACION                   : 1
FORMATO DATOS (FORTRAN,10 campos/dato) : 3F10.5


================================================================================
CALIDAD DEL ACELEROGRAMA:
REGISTRO DIGITAL COMPLETO CON TIEMPO ABSOLUTO CORRECTO.


================================================================================
COMENTARIOS:














================================================================================
DATOS DE ACELERACION:
---------+---------+---------+---------+---------+---------+---------+---------+
   CANAL-1   CANAL-2   CANAL-3   CANAL-4   CANAL-5   CANAL-6   CANAL-7   CANAL-8
      N00E        +V      N90W
---------+---------+---------+---------+---------+---------+---------+---------+
[...]
   4.71606   0.28179  -0.67398
   1.84301   1.71831  -1.15282
   0.40649  -0.67589  -2.58934
   0.40649  -5.46429  -3.06818
   1.84301  -4.02777  -1.15282
   2.32185  -5.46429  -0.19514
   0.88533  -6.42197   1.24139
   1.84301  -3.54893   2.67791
   3.75837  -2.11241   3.15675
   5.67374  -0.19705   1.24139
   6.15258  -0.19705  -1.63166
   6.63142  -1.15473  -4.02586
   6.15258  -2.11241  -2.58934
   6.63142  -4.02777   0.28370
   7.58910  -4.50661   1.24139
   6.15258  -2.11241  -0.19514
   4.23721  -3.54893  -2.58934
   3.75837  -2.59125  -3.06818
   6.15258   0.28179  -2.11050
   7.11026  -3.07009  -1.63166
   3.75837  -4.50661   1.24139
  -0.55119  -1.15473   5.55095
  -1.98771   0.28179   5.55095
  -2.46655   0.28179   2.19907
  -2.94539   3.15484  -1.63166
  -1.98771   1.71831  -3.06818
  -1.50887  -1.15473  -1.63166
  -1.50887  -1.15473   0.28370
  -1.98771  -0.67589   0.76254
  -1.03003   1.71831  -0.67398
   0.40649   3.15484  -3.54702
   0.40649  -0.67589  -5.46238
  -2.46655  -7.85849  -4.98354
  -6.29727  -9.29501  -1.15282
  -7.25495  -5.94313   4.11443
  -3.90307  -2.59125   7.94515
  -1.50887  -1.63357   8.90283
  -1.03003  -3.54893   9.86051
  -1.50887  -0.19705  12.25471
  -0.07235   0.76063  11.29703
   3.75837   1.71831   6.98747
   5.19490   1.71831   6.02979
   4.23721   4.11252   9.38167
   4.23721   6.98556   9.86051
   2.32185   5.54904   6.50863
  -0.55119   3.15484   1.72023
  -2.46655   6.50672   1.24139
  -3.90307   2.67600   2.19907
  -2.46655  -1.63357   0.28370
  -3.90307   0.76063  -2.11050
  -6.29727  -3.07009  -1.63166
  -1.98771  -5.94313   1.72023
   5.19490  -4.02777   5.07211
   9.50446   1.71831   5.07211
   8.54678   2.67600   2.19907
   7.58910   1.23947   0.28370
   7.58910   5.07020   3.15675
   5.19490   5.54904   6.50863
   2.80069   3.63368   5.07211
  -0.07235  -0.67589   1.24139
  -4.38191  -4.50661   1.24139
  -7.25495  -3.54893   0.28370
  -8.21263  -6.90081  -1.63166
  -6.77611  -4.02777  -0.19514
  -3.90307   0.28179   2.19907
  -1.03003  -2.11241   0.76254
   0.88533  -0.67589  -1.63166
   0.88533   0.28179  -3.06818
  -0.55119  -1.15473   0.28370
  -2.46655  -2.11241   3.15675
  -2.94539  -2.59125   4.11443
  -0.55119  -1.63357   3.15675
   0.40649   4.59136   3.15675
   0.40649   3.63368   1.24139
  -0.07235   0.28179  -1.15282
  -1.50887   1.71831  -3.54702
  -2.46655  -2.11241  -6.89890
  -1.98771  -6.90081  -8.81426
   1.36417  -4.50661  -7.37774
   5.19490  -3.54893  -3.06818
   6.63142  -0.19705  -0.67398
   3.75837  -3.54893  -0.67398
  -1.03003  -6.90081  -0.19514
  -4.38191   0.28179   3.15675
  -5.81843   3.63368   3.15675
  -5.81843  -1.15473   0.76254
  -4.86075  -2.11241   0.76254
  -2.94539  -3.07009   2.19907
  -1.03003  -4.98545   1.72023
  -0.07235  -9.29501   1.72023
  -0.55119  -4.50661   3.15675
  -0.55119   1.23947   4.11443
   1.36417  -2.11241   4.11443
   3.27953   0.76063   2.67791
   1.36417   7.46440  -0.19514
  -2.46655   7.46440  -4.50470
  -2.46655   6.02788  -6.89890
   1.36417   4.11252  -5.94122
   3.27953   2.19715  -2.58934
   2.32185   0.28179  -1.63166
   1.84301  -1.63357  -2.11050
   0.40649  -1.63357  -3.54702
  -1.50887  -4.02777  -5.94122
  -0.07235  -6.42197  -5.94122
   3.27953  -5.46429  -1.63166
   4.23721  -5.46429   1.24139
   3.27953  -5.94313  -0.19514
  -1.03003  -5.94313  -2.11050
  -1.98771  -3.07009   0.28370
   0.88533  -0.67589   5.07211
   3.75837  -1.63357   6.50863
   6.15258   2.19715   6.50863
   4.71606   4.11252   4.59327
   1.36417  -1.15473   3.15675
  -0.55119  -5.94313   1.72023
   1.36417  -3.54893   0.76254
   5.19490   0.28179   0.28370
   6.63142  -2.59125  -1.63166
   3.75837  -5.46429  -2.58934
  -3.42423  -4.02777  -3.06818
  -9.17031  -4.98545  -2.58934
  -7.73379  -7.37965  -2.58934
  -2.94539  -6.42197  -4.02586
   1.84301  -2.59125  -4.02586
   4.23721  -0.67589  -0.19514
   2.80069   2.19715   3.63559
  -1.03003   5.07020   5.55095
  -5.33959   3.15484   2.19907
  -8.21263  -0.19705   0.76254
  -9.17031  -4.02777   5.55095
  -8.69147  -3.07009  11.29703
 -10.12800  -2.11241  10.33935
 -13.00104  -4.02777   4.11443
 -14.43756  -4.02777  -1.15282
 -12.04336   6.98556  -3.54702
  -5.33959  13.21048  -4.98354
   1.84301  11.29512  -6.42006
   4.23721   7.94324  -7.37774
   0.88533   4.11252  -6.89890
  -1.03003   3.15484  -3.54702
  -2.46655  -2.11241  -2.58934
  -4.38191  -3.54893  -0.67398
  -5.81843  -1.63357   1.24139
  -5.33959  -3.07009   1.24139
  -3.90307  -4.98545   1.24139
  -3.90307  -4.50661  -0.19514
  -4.86075  -2.11241  -1.63166
  -3.42423  -1.15473  -2.58934
  -0.07235  -5.94313  -2.11050
   1.84301  -5.46429   3.63559
   1.84301  -1.15473   9.38167
   0.40649   1.23947  10.33935
  -1.03003   3.15484   6.98747
  -1.50887   2.19715  -1.15282
   1.84301  -3.07009  -7.85658
   5.19490  -5.46429  -8.33542
   6.15258  -3.54893  -5.46238
   4.71606  -3.54893  -2.58934
   3.27953  -3.54893   0.76254
   2.80069  -4.02777   1.72023
   2.80069  -3.07009  -2.58934
   1.84301   4.11252  -6.42006
   0.40649  12.73164  -1.15282
  -1.03003  12.73164   6.02979
  -1.03003   8.42208   7.94515
  -1.50887   6.02788   3.15675
  -0.55119   3.15484   0.28370
   1.36417   3.63368   5.55095
   2.32185   4.59136   8.90283
   0.40649   6.50672   6.02979
  -2.46655   2.19715  -2.58934
  -3.42423   0.76063  -9.77194
  -1.50887   3.15484 -13.60267
   3.27953  -2.11241 -18.86991
  10.94098  -4.98545 -25.09483
  16.68706  -4.50661 -27.01019
  16.20822  -2.11241 -24.13715
  11.41982  -0.67589 -17.43339
   8.06794  -4.98545  -8.81426
   4.71606 -10.25269  -4.98354
   2.80069 -11.68921  -9.29310
   0.40649 -14.08342 -14.08151
  -1.50887  -9.29501  -9.29310
  -1.50887  -3.54893  -0.19514
   0.88533  -1.63357   3.15675
   1.84301   1.71831   1.24139
   1.36417   5.54904  -1.63166
   0.88533   3.63368   0.28370
  -0.07235   3.63368   4.11443
   0.88533   2.67600   2.19907
   3.75837  -3.54893  -2.11050
   6.63142 -12.64690  -2.11050
   5.19490 -21.74486  -0.19514
  -0.55119 -20.78718   1.24139
  -6.77611 -14.08342  -1.15282
  -9.64915  -5.46429  -0.67398
  -9.17031   1.23947   5.07211
  -9.17031   6.02788   6.98747
 -12.04336  11.29512   5.07211
 -15.39524  10.81628   6.50863
 -16.35292   6.50672  11.77587
 -14.91640   8.90092  12.73355
 -13.95872  13.21048   7.46631
 -12.04336  21.82961   5.55095
  -8.69147  29.96989   7.46631
  -3.90307  33.32178   9.38167
  -0.07235  33.32178   6.50863
   1.36417  30.44873   0.76254
   3.27953  22.78729  -6.42006
   7.58910  11.77396 -15.03919
   9.50446   2.19715 -23.65831
   7.58910  -4.02777 -27.96788
   3.27953  -8.33733 -23.65831
  -0.55119 -12.16805 -12.64498
  -1.98771 -15.04110  -2.11050
   2.32185 -13.12574   2.67791
   9.02562 -12.16805   4.59327
  11.41982 -15.04110   6.98747
   9.98330 -17.91414   9.86051
   5.67374 -13.60458  12.73355
   4.71606  -9.29501  12.25471
   7.58910  -6.90081   8.42399
   8.54678  -6.90081   3.63559
   8.06794  -6.42197  -0.67398
   7.58910  -0.67589  -1.15282
   4.71606   2.67600   1.24139
  -2.94539   7.94324   4.59327
 -10.12800  15.60468   7.46631
 -12.04336  23.74497  10.81819
  -9.17031  25.66033  11.29703
  -6.29727  23.26613   9.38167
  -7.73379  15.60468   6.98747
 -13.95872   5.54904   4.59327
 -21.14132  -1.15473   5.55095
 -22.57784  -5.46429   8.42399
 -17.78944 -10.25269   6.02979
 -11.08568  -9.77385   1.24139
  -7.25495  -6.90081  -3.06818
  -7.73379  -2.59125  -4.50470
  -6.77611   4.59136  -6.42006
  -0.55119   9.37976 -10.72962
   9.98330  12.73164 -13.12382
  13.81402  10.81628 -12.64498
   9.50446   5.07020  -7.85658
   1.84301  -3.54893  -4.98354
   0.88533   0.76063  -5.46238
   6.15258  13.68932  -6.42006
   9.50446  19.91425  -5.94122
   8.06794  19.43541  -3.54702
   2.32185  15.12584  -3.54702
  -2.94539   9.85860  -6.42006
  -3.90307   6.02788  -7.85658
  -0.55119  -0.19705  -2.58934
   5.19490  -4.02777  11.29703
   7.11026  -0.67589  22.78920
   3.75837   5.07020  18.47964
   3.75837  10.33744   4.11443
   9.02562   9.37976  -9.29310
  13.81402  -1.63357 -15.51803
  13.33518 -14.08342 -16.95455
   9.50446 -23.18138 -21.26411
   4.23721 -25.09674 -21.26411
  -0.07235 -15.99878 -11.20846
   0.88533   4.11252   1.24139
   3.27953  22.30845   8.90283
   2.32185  31.40642  13.21239
  -2.94539  37.15250  15.12775
 -10.12800  38.11018  15.12775
 -19.70480  30.92757  17.04312
 -25.92973  14.64700  15.60660
 -27.36625   6.98556  10.33935
 -26.40857   7.94324   3.15675
 -17.78944   6.02788  -2.11050
  -2.94539  -2.59125  -4.02586
   8.54678 -17.91414  -5.46238
  10.94098 -22.70254 -10.25078
   7.58910 -23.18138 -14.56035
   0.88533 -24.13906  -6.89890
  -5.81843 -17.91414   8.42399
 -12.52220  -7.85849  17.52196
 -18.26828   7.46440  15.12775
 -18.26828  23.26613   4.59327
 -11.56452  30.44873  -4.50470
  -4.86075  26.61801 -12.64498
  -4.86075  18.47773 -14.08151
 -10.60684  12.73164  -4.98354
 -16.83176   9.37976   7.94515
 -23.53552   2.19715  17.04312
 -27.36625  -3.07009  20.87384
 -28.32393  -7.85849  19.43732
 -29.28161 -11.68921  11.77587
 -27.36625 -12.64690   1.24139
 -21.62016 -15.51994  -4.02586
 -13.95872 -20.78718  -2.11050
  -3.90307 -28.44863   6.02979
   5.67374 -34.19471  12.25471
   8.06794 -34.19471   8.90283
   1.36417 -28.44863   2.67791
  -4.38191 -24.13906   3.15675
  -4.86075 -19.82950   5.07211
  -7.25495 -10.25269   3.15675
 -14.91640   1.71831  -0.19514
 -24.97205  10.81628   1.24139
 -31.67581  15.60468   5.07211
 -33.59117  18.95657   8.42399
 -29.76045  17.99889  11.77587
 -21.62016  16.08352  13.69123
 -20.66248  14.64700  10.81819
 -26.40857   6.50672   6.02979
 -29.28161  -2.11241   7.94515
 -28.80277  -6.42197  15.60660
 -24.97205 -10.73153  20.87384
 -20.18364 -11.68921  16.08544
 -15.39524 -15.04110   2.67791
  -7.73379 -15.04110  -8.81426
   0.88533  -8.81617 -13.60267
   8.54678  -0.19705 -14.56035
  16.20822  12.25280 -10.25078
  20.51779  21.82961  -1.63166
  20.03895  27.09685   4.11443
  16.68706  30.44873   7.46631
  14.77170  32.84294   7.46631
  14.29286  27.57569   6.50863
  12.37750  19.43541   6.50863
   6.63142  13.68932   8.90283
   0.40649   7.46440  13.21239
  -2.94539   9.37976  18.47964
  -1.98771  16.08352  18.00080
   6.15258  24.22381  13.69123
  14.29286  27.57569   7.46631
  18.60242  20.87193   0.28370
  20.99663   3.63368  -5.46238
  20.99663 -22.22370 -10.72962
  12.85634 -40.41963 -18.39107
  -1.03003 -50.95412 -25.09483
 -10.12800 -47.12340 -20.30643
 -13.47988 -39.46195  -6.89890
 -13.95872 -35.15239   6.50863
 -13.47988 -29.40631  11.77587
 -13.95872 -26.05442   5.55095
 -12.04336 -17.43530  -5.94122
  -3.42423  -5.46429 -17.43339
   6.63142   5.07020 -24.61599
  10.94098  13.68932 -23.65831
  12.37750  23.74497 -14.08151
  17.16590  26.61801  -2.11050
  26.26387  19.91425   2.19907
  34.40416   6.02788  -2.11050
  32.96763 -13.12574  -2.58934
  20.99663 -20.78718   4.59327
   9.98330 -20.30834   8.90283
  11.41982 -14.08342   7.94515
  18.12358  -4.98545   4.59327
  20.51779   0.28179   2.19907
  16.68706   6.02788  -0.19514
   8.06794   6.98556  -7.85658
  -0.07235   3.63368 -12.16614
  -6.77611   2.19715 -12.16614
 -10.12800   2.19715 -11.68730
 -12.04336   0.28179 -11.68730
 -13.00104  -0.67589 -11.20846
  -8.21263   4.11252  -9.29310
   4.71606  11.29512  -5.46238
  21.47547  17.04121   2.19907
  30.09459  13.21048  11.29703
  30.57343  10.33744  14.64891
  31.05227   9.85860   7.46631
  34.40416   6.50672  -6.89890
  40.15024   0.28179 -17.91223
  40.62908  -2.59125 -20.30643
  36.31952  -7.37965 -14.08151
  29.61575 -14.08342  -5.46238
  20.03895 -13.60458  -0.67398
   8.54678 -10.25269  -2.58934
  -2.94539  -8.81617  -3.54702
  -9.17031 -11.68921  -3.06818
  -4.38191 -12.16805  -2.58934
   7.58910 -13.12574  -4.98354
  17.64474 -15.51994  -9.29310
  23.39083 -10.73153 -10.25078
  26.26387 -11.68921  -8.33542
  28.17923 -16.95646  -7.37774
  25.78503 -17.91414  -8.33542
  12.85634 -15.04110 -11.68730
  -8.21263  -9.29501 -15.03919
 -24.97205  -3.54893  -7.85658
 -26.88741  -3.54893   7.94515
 -18.74712  -1.63357  20.87384
  -7.73379   3.63368  26.14108
   0.40649  12.73164  25.18340
   3.27953  26.61801  17.52196
   5.19490  35.23714   6.98747
   7.58910  39.06786   5.55095
   6.63142  38.58902   8.90283
   0.40649  30.92757   9.86051
  -6.29727  22.30845   7.94515
  -9.17031  11.77396   3.15675
 -12.04336   0.28179  -0.67398
 -19.70480 -10.25269  -0.67398
 -30.23929 -15.04110   0.28370
 -35.98537 -13.12574  -0.19514
 -31.19697 -10.25269  -4.02586
 -14.91640  -4.50661  -4.50470
   2.32185  -0.19705  -2.11050
  15.25054  -0.19705  -0.67398
  23.86967  -1.63357   0.76254
  27.70039  -7.37965   5.55095
  28.17923 -12.64690   9.86051
  16.68706 -11.68921   5.07211
  -3.42423 -11.68921  -1.15282
 -15.39524 -14.08342   0.28370
 -18.74712 -20.30834   3.63559
 -18.26828 -24.61790   5.55095
 -16.35292 -24.13906   6.50863
 -13.00104 -21.26602   7.94515
  -7.73379 -17.43530   8.90283
  -1.03003 -13.12574   3.63559
   1.84301  -7.37965  -6.89890
  -0.55119  -1.15473 -12.16614
  -2.46655   5.54904  -6.42006
   2.32185  11.77396   3.63559
  13.33518  15.60468  10.81819
  23.39083  21.82961  14.64891
  28.17923  20.87193  12.25471
  26.26387   9.37976   6.50863
  19.56011  -4.50661   1.72023
   5.67374 -18.39298  -1.15282
  -9.64915 -28.44863  -0.67398
 -15.39524 -28.92747  -4.50470
 -10.12800 -18.39298 -15.03919
  -1.98771  -5.94313 -21.74295
   6.15258  -1.63357 -17.91223
  10.94098  -1.15473  -8.81426
   6.63142   1.23947  -2.58934
  -2.46655  12.25280  -2.58934
 -12.04336  18.95657  -6.89890
 -19.70480  17.52005  -8.81426
 -23.05668  18.95657  -7.85658
 -20.66248  14.64700  -5.46238
 -13.00104   6.50672  -0.67398
  -7.73379   3.63368  -0.67398
  -9.64915   3.15484  -6.89890
 -14.43756   3.63368 -14.08151
 -14.91640   2.67600 -17.43339
  -9.64915  -2.59125 -13.12382
   0.88533  -5.94313  -5.94122
   9.98330  -7.37965  -4.02586
  14.77170 -10.25269  -4.98354
  14.29286  -6.42197  -2.11050
  13.81402  -0.67589   2.19907
  10.94098   1.23947   3.63559
   7.11026   2.67600  -4.50470
   0.88533  -0.67589 -17.91223
  -6.29727  -0.67589 -24.13715
 -11.56452   6.50672 -18.86991
  -9.17031   9.85860  -5.46238
   1.36417   8.90092   4.11443
  12.37750   9.37976   1.72023
  16.20822   7.94324  -2.58934
  10.94098   7.46440  -0.67398
   2.32185   3.63368   2.67791
  -1.03003   1.23947   2.19907
   0.88533   0.28179  -1.63166
   2.80069  -0.19705  -4.50470
  -1.03003   7.94324  -0.67398
 -10.12800  14.16816  12.73355
 -18.26828  13.21048  29.01412
 -22.57784  11.29512  32.36601
 -22.09900  12.25280  21.83152
 -16.35292  15.12584   3.63559
  -4.86075  14.16816 -15.03919
  10.94098  11.29512 -23.65831
  23.86967  10.81628 -16.47571
  26.26387   9.85860  -1.15282
  19.08127   4.11252  10.33935
   7.58910  -4.02777  10.81819
  -1.03003 -15.51994   4.59327
  -8.69147 -23.18138  -1.15282
