********************************************************************************
              CENTRO DE INSTRUMENTACION Y REGISTRO SISMICO  A.C.

    Anaxagoras 814, Col. Narvarte, Benito Juarez, C.P. 03020 Mexico, D.F.
           Tels. 5687 45 42/ 5687 45  82             Fax. 5669 25 12
********************************************************************************
ARCHIVO ESTANDAR DE ACELERACION:
VERSION DEL FORMATO                    : 2.0
NOMBRE DEL ARCHIVO                     : GR2920210908014746
FECHA Y HORA DE CREACION               : 13/SEP/21, 17:52
REF. CATALOGO ACELEROGRAMAS, SMIS 1996 : REGISTRO No.     /PAG.


================================================================================
DATOS DE LA ESTACION:
NOMBRE DE LA ESTACION                  : PTO PROVIDENCIA
CLAVE DE LA ESTACION                   : GR29
LOCALIZACION DE LA ESTACION            : Providencia, Guerrero.                 
                                       :                                        
                                       :                                        
                                       :                                        
                                       : 
COORDENADAS DE LA ESTACION             : 17.09 LAT. N
                                       : 99.80 LONG. W
ALTITUD (msnm)                         : 0
TIPO DE SUELO                          : Rocas Metamórficas                  
                                       :                           
                                       : 
INSTITUCION RESPONSABLE                : CIRES
                                       : 

================================================================================
DATOS DEL ACELEROGRAFO:
MODELO DEL ACELEROGRAFO                : RADESD
NUMERO DE SERIE DEL ACELEROGRAFO       : 29
NUMERO DE CANALES                      : 3
ORIENTACION C1-C6 (rumbo;orientacion)  : /N00E/+V/N90W
ORIENTACION C7-C12 (rumbo;orientacion) : 
VEL. DE MUESTREO, C1-C6 (muestras/s)   : /100/100/100
VEL. DE MUESTREO, C7-C12 (muestras/s)  : 
ESC. COMPLETA DE SENSORES, C1-C6, (g)  : /1.0/1.0/1.0
ESC. COMPLETA DE SENSORES, C7-C12, (g) : 
FREC. NAT. DE SENSORES, C1-C6, (Hz)    : /0/0/0
FREC. NAT. DE SENSORES, C7-C12, (Hz)   : 
AMORTIGUAMIENTO DE SENSORES, C1-C6     : /0.000/0.000/0.000
AMORTIGUAMIENTO DE SENSORES, C7-C12    : 
INTERVALO DE MUESTREO, C1-C6, (s)      : /0.01/0.01/0.01
INTERVALO DE MUESTREO, C7-C12, (s)     : 
UMBRAL DE DISPARO, C1-C6, (Gal)        : /0.48/0.96/0.96
UMBRAL DE DISPARO, C7-C12, (Gal)       : 
MEMORIA DE PREEVENTO (s)               : 24.0
TIEMPO DE POSEVENTO (s)                : 0.0


================================================================================
DATOS DEL SISMO:
FECHA DEL SISMO (GMT)                  : 08/SEP/21
HORA EPICENTRO (GMT)                   : 01:47:46.0
MAGNITUD(ES)                           : /Mw=7.1
COORDENADAS DEL EPICENTRO              : 16.78 LAT. N
                                       : 99.93 LONG. W
PROFUNDIDAD FOCAL (km)                 : 10
FUENTE DE LOS DATOS EPICENTRALES       : SSN
                                       : INSTITUTO DE GEOFISICA, UNAM

================================================================================
DATOS DE ESTE REGISTRO:
HORA DE LA PRIMERA MUESTRA (GMT)       : 20:47:31.98
EXACTITUD DEL TIEMPO (s)               : 0.01
DURACION DEL REGISTRO (s), C1-C6       : /195.5/195.5/195.5
DURACION DEL REGISTRO (s), C7-C12      : 
NUM. TOTAL DE MUESTRAS, C1-C6          : /19550/19550/19550
NUM. TOTAL DE MUESTRAS, C7-C12         : 
ACEL. MAX. (Gal), C1-C6                : /404.50832/209.93279/321.39464
ACEL. MAX., C1-C6, EN LA MUESTRA       : /2773/2816/3107
ACEL. MAX. (Gal), C7-C12               : 
ACEL. MAX., C7-C12, EN LA MUESTRA      : 
UNIDADES DE LOS DATOS                  : Gal (cm/s/s)
FACTOR DE DECIMACION                   : 1
FORMATO DATOS (FORTRAN,10 campos/dato) : 3F10.5


================================================================================
CALIDAD DEL ACELEROGRAMA:
REGISTRO DIGITAL COMPLETO CON TIEMPO ABSOLUTO CORRECTO.


================================================================================
COMENTARIOS:














================================================================================
DATOS DE ACELERACION:
---------+---------+---------+---------+---------+---------+---------+---------+
   CANAL-1   CANAL-2   CANAL-3   CANAL-4   CANAL-5   CANAL-6   CANAL-7   CANAL-8
      N00E        +V      N90W
---------+---------+---------+---------+---------+---------+---------+---------+
[...]
 -19.26538  15.04477  -5.65330
   2.28244  27.01578   1.52930
  38.19546  75.37865   8.23307
  60.22212 115.60124   7.75423
  64.05284  58.14040   4.40234
  63.57400 -18.47405   7.27538
  54.95488 -21.82593   9.66959
  31.49170 -22.30477   6.79654
  -1.54828 -80.24445   3.44466
 -33.63059-112.32676   4.40234
 -59.48796 -50.55635  11.58495
 -60.44564   7.86217  28.34436
 -37.94015  17.91781  36.48465
 -28.84218  44.25403  14.93683
 -27.88450  62.92880 -15.23011
   8.98620  30.36766 -16.66663
  57.34908  33.24070   5.36002
  68.36241  40.90215  16.85219
  59.26444   8.34101  10.14843
  45.85691   0.67956   1.52930
  19.99953   3.07376  -1.34374
 -11.12509 -22.78361  -4.69562
 -38.41899 -49.11983 -15.23011
 -64.27637 -41.93723 -22.41272
 -67.14941 -42.89491  -9.48403
 -43.68623 -50.07751   9.66959
 -23.09610 -33.31810   9.66959
  -8.73089 -23.74130   0.57162
  18.56301 -35.71230  -2.30142
  54.47604 -30.44506   0.09278
  71.71429  -3.15116   0.09278
  55.91256   4.03144  -4.21678
  10.90157   5.46796  -4.21678
 -35.06711  13.60825  -1.82258
 -53.74188  11.21405  -6.61098
 -43.20739   4.03144 -16.18779
 -26.92682  -9.85493 -30.07416
 -25.96914 -13.20681 -42.04517
 -34.10943  28.93114 -43.00285
 -35.06711  66.28069 -34.38372
 -23.57494  49.04243 -28.15880
 -11.12509  40.90215 -28.63764
   2.76128  20.79086 -24.32808
  26.70330 -52.95056 -10.44171
  37.23778-103.22879   3.44466
  18.08417 -88.86358   9.19075
  -7.29437 -49.59867  11.58495
 -26.92682 -30.92390  14.45799
 -42.72855 -36.66998  18.76755
 -48.95348 -34.75462  23.07712
 -43.20739 -16.55869  20.68291
 -16.87117   7.86217  15.89451
  19.99953  47.12707  19.72523
  43.94155  62.44996  23.55596
  61.65864  10.73521  21.16175
  71.23545 -17.99521  16.37335
  51.12415  37.07143  13.02147
  17.60533  56.22504  15.41567
   1.32476   9.29869  18.76755
 -14.47697   5.94681   6.79654
 -42.72855  28.93114 -16.18779
 -58.05144   8.81985 -27.67996
 -47.99580 -11.77029 -20.01851
 -26.92682  34.19838  -3.73794
  -9.68857  13.12941   7.75423
   4.67664 -78.32909  10.62727
  14.25345 -59.17548   3.44466
  13.29577  19.83317  -2.30142
  19.99953   9.77753   4.88118
  33.40706 -17.99521  15.89451
  13.29577  -7.93956  24.03480
 -19.74422 -27.09318  31.69624
 -19.74422  -1.71464  31.69624
  -7.77321  76.81517  21.16175
   1.32476  50.00012  10.62727
  17.60533 -64.92156   3.44466
  27.66098 -68.75229 -14.27243
  22.87257  24.62158 -39.17213
  16.16881  32.76186 -45.39705
   8.50736 -10.81261 -29.11648
  -2.50596  41.85983 -19.53967
 -14.47697  87.34966 -18.58199
 -10.64625  27.01578 -10.92055
   2.76128 -41.45839 -12.83591
  -1.54828 -41.93723 -25.76460
  -9.68857  13.12941 -32.46836
 -13.04045  24.62158 -30.55300
 -21.18074 -33.79694 -25.28576
 -27.88450 -83.11750 -20.01851
 -28.36334 -42.89491 -12.35707
 -19.26538  40.90215  -0.38606
 -11.12509  35.15607  15.89451
 -13.04045 -20.86825  28.34436
 -10.16741 -45.76795  22.11944
  -1.54828 -15.12217  17.80987
  -3.46364  68.19605  30.73856
 -18.78654 101.71487  35.52696
 -16.39233  56.70388  26.90784
  17.12649  18.39665  14.93683
  37.23778  19.35433   0.57162
  18.08417  36.11375 -16.18779
 -11.12509  67.23837 -24.80692
  -9.20973  38.50795 -11.87823
  14.73229 -37.14882  18.28871
  14.73229 -51.51403  25.95016
  -4.90017 -35.71230   2.48698
   1.80360 -68.27345 -17.62431
  29.57634 -84.55402 -14.75127
  35.80126  -3.15116  -3.25910
  26.70330  55.74620   0.09278
  29.57634  16.00245  -2.30142
  37.71662 -22.30477   0.09278
  29.09750  19.35433   8.71191
  22.39373  62.92880  22.11944
  36.75894  62.44996  32.65392
  41.06851   6.42565  19.72523
  25.26678 -54.86592  -8.04751
   8.98620 -49.11983 -18.58199
  -4.90017 -27.57202  -3.73794
 -19.74422 -48.16215   8.71191
 -26.44798 -83.11750  -1.34374
 -25.49030 -54.86592 -24.32808
 -23.57494  19.83317 -38.69329
 -19.74422  75.37865 -27.67996
 -15.91349  91.18038  -5.65330
  -7.77321  79.20938   2.96582
  19.99953  38.02911   8.23307
  54.47604 -24.69898  23.55596
  58.30676 -76.41373  29.78088
  38.19546 -83.59634  17.33103
  16.64765 -59.65432  12.06379
  -8.25205 -44.33143  21.16175
 -37.94015 -37.14882  17.80987
 -51.34768 -36.66998  -4.21678
 -34.58827 -23.74130 -21.93388
  -3.46364  10.73521 -18.58199
  10.42273  36.11375  -1.34374
  12.81693  34.19838   6.31770
  18.56301  29.88882  -7.08983
  20.95721  38.50795 -20.49735
   3.71896  53.83084 -15.70895
 -25.01146  52.87316   3.44466
 -45.60159  33.24070  17.80987
 -63.31869   9.77753  18.76755
 -82.47230  17.43897   7.27538
 -86.30302  21.74854  -3.25910
 -71.93781  -7.46072   0.57162
 -43.68623 -38.10651   9.19075
  -8.73089 -47.68331   7.27538
  15.21113 -48.16215  -5.65330
  19.04185 -45.76795 -20.97619
  19.52069 -39.54303 -25.28576
  21.91489  -3.15116 -10.44171
  18.56301  37.07143  15.41567
  23.35141  21.74854  38.40001
  34.36474   0.20072  36.48465
  31.97054  -7.46072  11.58495
  31.97054 -35.71230 -12.83591
  46.33575 -41.93723 -28.63764
  47.77227  -4.10884 -47.79125
  32.92822  23.18506 -66.94487
  20.47837   3.55260 -67.90255
  11.85925 -24.22014 -42.52401
   5.15548  19.83317 -11.87823
   0.36708  63.40764   4.40234
  -2.50596  42.33867  14.93683
  -2.98480  22.70622  18.28871
  -4.90017  -4.58768  13.50031
   2.76128 -44.81027  17.80987
   9.94388 -29.48738  34.09044
  -1.06944  29.40998  44.14609
  -7.77321  24.14274  45.10377
  -2.98480 -23.74130  40.31537
   6.59200 -38.10651  26.42900
  22.39373  -3.15116  12.54263
  36.28010  12.65057   6.31770
  45.85691 -33.31810   0.09278
  51.12415 -65.87924  -9.96287
  41.54735 -63.96388 -19.06083
  24.78794 -29.48738 -23.84924
  19.04185  -7.93956 -18.58199
   5.15548  -6.98188  -1.34374
 -14.95581   5.46796   6.31770
 -19.26538  19.35433   2.48698
 -16.39233  14.56593   2.00814
 -19.26538   1.63724   2.96582
 -20.70190  13.60825  -0.86490
 -13.99813  24.62158  -5.17446
  -8.73089  36.11375  -1.82258
 -13.04045  37.07143   3.44466
 -14.95581  14.08709   2.48698
  -7.29437  -9.37609   5.83886
  -5.37901 -30.44506  19.72523
 -11.60393 -47.68331  30.73856
 -17.35001 -37.14882  23.07712
 -25.49030   8.34101   1.05046
 -28.36334  55.74620 -20.01851
 -13.99813  81.12474 -24.80692
  -0.59060  74.89981 -13.79359
   4.19780  34.67722 -10.92055
   3.71896  19.35433 -15.23011
  -3.94248  10.73521 -17.62431
 -21.18074 -20.86825 -13.31475
 -40.33435 -38.58535  -7.08983
 -51.82652 -50.07751  -7.08983
 -44.64391 -46.72563  -9.48403
 -36.02479 -25.65666 -13.79359
 -38.89783 -11.77029 -19.06083
 -35.54595  16.48129 -19.53967
 -28.84218  51.91548  -5.65330
 -18.78654  47.12707  17.80987
   3.71896  37.55027  27.38668
  31.01286  41.38099  14.93683
  60.70096  20.31201   3.44466
  93.26210 -40.97955  10.14843
 115.76760 -62.04852  25.47132
 114.80992 -48.64099  31.21740
  92.30442 -66.35809  28.82320
  55.91256 -67.31577  22.11944
  20.47837 -30.92390   9.66959
   3.71896   4.98912  -1.82258
   6.59200  22.22738  -6.61098
   8.98620  34.67722  -5.65330
   4.19780  46.16939   4.88118
   3.24012  46.64823  20.20407
  13.29577  58.14040  21.16175
  32.44938  49.04243   2.96582
  51.60299  -7.93956  -5.65330
  53.99720 -56.78128   1.52930
  38.19546 -62.52736  -2.78026
  16.64765 -58.21780 -30.55300
  -1.06944 -50.55635 -56.41038
  -7.29437 -33.79694 -55.93154
   6.59200  -6.50304 -39.17213
  35.32242   4.03144 -29.11648
  58.78560  -1.71464 -24.80692
  62.61632  -6.02420 -21.93388
  48.25111  10.25637 -22.89156
  26.70330  54.78852 -30.07416
   7.54968  63.40764 -43.00285
  -7.77321  31.32534 -47.79125
 -14.95581  33.71954 -30.55300
 -25.96914  58.61924   8.23307
 -48.47464  39.46563  44.62493
 -71.93781 -15.12217  46.06145
 -77.68390 -50.55635  15.89451
 -57.09376 -67.31577 -11.87823
 -37.94015 -42.89491 -12.35707
 -39.37667  16.96013   6.79654
 -34.58827 -21.34709  28.34436
 -12.08277 -97.00387  33.61160
  -0.59060 -41.45839  13.97915
  -8.25205  92.61691 -14.27243
  -3.94248 100.27835 -27.67996
   4.67664  31.80418 -26.72228
  -1.54828   3.55260 -16.18779
   2.28244 -28.05086   9.66959
  19.99953 -55.82360  32.65392
  24.30909 -41.93723  34.56928
  20.47837 -55.34476  29.30204
  31.49170 -97.00387  43.18841
  42.50503 -85.99054  71.91883
  26.70330 -41.93723  94.42433
  -5.85785  -1.23580  93.46664
 -16.39233  52.87316  67.13043
   2.28244 109.85516  39.35769
  30.53402  83.99778  31.69624
  60.70096  -7.93956  36.48465
  85.12182 -25.65666  34.09044
  88.95254  -2.67232  22.59828
  86.07950 -28.52970  26.42900
  69.32009 -33.31810  40.31537
  23.83025  -2.67232  44.14609
 -14.47697  25.57926  42.23073
 -26.92682  65.80185  52.76522
 -33.15174  94.53227  70.48231
 -40.81319  88.30734  71.91883
 -37.94015  65.32301  54.20174
 -26.92682  29.88882  33.13276
 -17.82885  14.08709  14.93683
 -22.61726   8.34101  -4.69562
 -34.58827 -29.48738 -20.97619
 -44.16507 -57.73896 -29.11648
 -68.58593 -18.95289 -34.38372
-105.45664  27.49462 -37.73561
-131.31401  13.12941 -33.42604
-140.89082 -42.41607 -27.20112
-154.77719 -47.20447 -20.49735
-182.54993  25.10042 -11.87823
-196.91514  82.08242  -0.86490
-179.67689  77.77285  11.10611
-156.21371  34.19838  15.41567
-146.15806  25.10042  13.02147
-128.91981  78.25170  12.06379
 -93.96447  89.74386  18.76755
 -50.39000   8.34101  37.44233
 -24.05378 -25.17782  60.42666
 -32.67290  59.09808  80.53796
 -53.26304 118.47428 109.74722
 -58.05144  91.65922 140.39300
 -60.44564  77.77285 150.92748
 -72.41665 118.95312 140.87184
 -64.27637 139.06442 127.94315
 -25.49030  90.70154 105.91649
  -2.02712  46.64823  58.99014
 -15.91349  60.05576   1.52930
 -31.71522  80.16706 -47.79125
 -31.23638  68.67489 -91.84456
 -33.63059  48.08475-141.16512
 -47.51695  64.36533-188.57031
 -67.14941  91.18038-212.03349
 -90.61258  65.80185-189.04915
-109.76620  33.24070-128.23643
-118.86416  63.88649 -73.16979
-122.69489 117.51660 -46.35473
-109.28736  90.70154 -24.32808
 -60.92448   0.67956   3.92350
 -12.56161 -38.10651  25.95016
  13.77461 -31.40274  37.92117
  44.89923 -37.14882  53.72290
  87.99486 -79.28677  76.70723
 122.47136-131.48037 101.12809
 145.93454-136.26877 119.32402
 174.18612 -80.72330 125.54895
 212.49335 -51.51403 116.92982
 253.67361-108.97487  92.03012
 289.58664-147.76094  59.46898
 319.27474 -88.38474  21.64059
 338.90719  -3.63000 -15.70895
 350.87820   3.07376 -41.56633
 362.37037 -42.41607 -53.05850
 370.03181 -46.72563 -64.07182
 378.65094 -44.33143 -87.53500
 394.93151 -85.03286-109.56166
 404.50832-119.03052-119.13846
 401.15644-127.64965-128.23643
 391.10079-115.67864-149.30540
 375.29906 -96.52503-173.72626
 344.17444 -94.13082-186.17611
 303.95185 -89.82126-182.82423
 273.30607 -71.14649-179.47234
 249.84289 -63.00620-178.03582
 225.42203 -81.20214-168.93786
 185.67829 -94.60966-152.17845
 124.38672 -84.07518-125.36339
  59.74328 -75.93489 -79.87356
  12.81693 -66.83693 -31.51068
 -19.74422 -43.37375  -1.82258
 -50.86884 -14.64333  13.97915
 -81.03578  20.31201  25.47132
-105.45664  36.59259  33.61160
-123.65257  37.07143  35.52696
-133.22937  25.10042  24.03480
-132.27169   9.77753   1.05046
-130.83517  42.81751 -18.58199
-138.49662  92.61691 -33.42604
-151.42531  72.50561 -38.69329
-165.31168  26.53694 -33.90488
-185.90181  31.32534 -36.29909
-210.80151  61.49228 -55.45270
-228.51860  76.33633 -74.12747
-240.96845  53.35200 -84.18312
-255.81250  15.04477 -88.49268
-276.40263   4.51028 -90.40804
-296.99277  -3.15116 -87.05616
-305.13305 -48.64099 -69.33907
-302.73885 -85.51170 -37.25677
-313.75218 -68.75229  -5.17446
-337.21536 -34.75462  23.07712
-345.83448 -29.96622  57.55362
-333.86347 -45.76795  97.29737
-324.28667 -41.45839 131.29503
-326.20203  -5.06652 158.11009
-322.85015  61.49228 183.00979
-305.61189 122.78385 203.12108
-277.36031 141.45862 214.61325
-256.29134 169.23136 219.88049
-243.36265 209.93279 221.31701
-199.78818 202.27134 223.23237
-118.86416 153.42963 209.34601
 -51.34768 102.19371 161.94081
 -25.49030  45.69055 105.91649
  -8.73089 -13.20681  71.91883
  20.95721 -62.52736  58.51130
  46.81459 -86.94822  47.01913
  62.61632 -84.55402  37.44233
  80.33341 -62.04852  30.73856
  99.96587 -16.55869  24.51364
 119.11948  24.62158  17.80987
 144.49802  28.45230  13.50031
 179.45336  30.36766  10.14843
 209.62030  56.22504   3.92350
 231.64696  63.40764  -5.65330
 254.63129  17.43897 -12.83591
 276.17911 -33.79694  -8.52635
 288.62896 -40.97955   5.36002
 299.16345 -23.26246  19.24639
 315.92286 -20.38941  27.86552
 329.80923 -37.62767  35.04812
 332.20343 -47.68331  44.62493
 326.45734 -51.99288  54.68058
 309.21909 -69.70997  61.86318
 266.60230 -79.76561  59.46898
 194.29741 -63.00620  35.52696
 120.55600 -45.76795   7.27538
  82.24878 -51.99288   0.09278
  71.23545 -65.40040   2.00814
  64.53168 -36.19114  -9.96287
  58.30676  24.62158 -30.55300
  54.95488  30.36766 -49.22777
  59.74328 -34.27578 -65.50835
  66.44704 -60.13316 -88.49268
  59.26444 -34.75462-124.88455
  49.68763 -34.27578-161.27641
  45.85691 -59.65432-189.52799
  31.97054 -56.78128-210.11813
   8.50736 -29.00854-226.87754
  -8.73089  -5.06652-230.70826
 -27.40566  22.22738-213.94885
 -60.92448  29.88882-177.07814
-101.14707  23.18506-130.63063
-141.84850  58.61924 -93.28108
-192.60558 123.26269 -77.00051
-250.54526 148.16238 -65.50835
-296.99277 132.36065 -39.65097
-326.68087 122.78385  -5.17446
-341.04608 127.57225  25.47132
-333.38463  95.96879  56.11710
-305.13305  26.53694  90.59360
-282.14872 -19.43173 122.67590
-281.19104 -10.33377 143.74488
-287.89480  22.70622 164.33501
-291.72552  50.95780 191.15007
-298.42929  70.11141 218.44397
-308.48494  65.32301 238.07642
-316.62522  57.66156 250.52627
-315.18870  50.95780 258.66656
-289.33132   4.98912 266.32800
-223.25136 -72.58301 278.77785
-133.70821-133.87457 269.20105
 -62.83985-155.90123 217.96513
 -25.49030-140.57834 156.19473
 -14.95581-101.79227 109.26838
 -26.92682 -63.48504  60.42666
 -40.81319 -41.45839  10.14843
 -36.02479 -23.74130 -22.89156
 -16.39233  10.25637 -39.17213
   9.46504  39.46563 -51.14314
  45.85691  46.16939 -60.71994
  87.03718  57.18272 -62.15646
 127.73861  52.87316 -58.80458
 175.62264  15.04477 -53.53734
 222.07015 -17.03753 -49.70661
 257.50434 -18.47405 -53.53734
 287.67128 -12.72797 -63.11414
 325.49966 -14.64333 -68.86023
 359.97617 -20.86825 -65.02951
 374.82022 -30.92390 -56.88922
 370.98950 -27.09318 -53.05850
 354.70892  20.31201 -54.49502
 322.14778  68.19605 -56.88922
 274.74259  50.00012 -51.62198
 227.33740   8.34101 -42.04517
 192.38205   3.07376 -40.60865
 172.27076  15.04477 -52.10082
 165.56699  12.65057 -69.33907
 159.82091  12.17173 -88.49268
 147.37106  17.91781-114.35006
 135.87889 -11.77029-144.03816
 131.09049 -70.18881-166.06482
 126.78093 -81.68098-183.30307
 114.33108 -49.11983-205.80856
 103.79659 -49.59867-226.39870
  93.74094 -59.65432-223.52566
  75.06617 -61.56968-208.68160
  55.91256 -58.21780-196.71060
  64.05284 -54.86592-190.96451
  97.09283 -78.80793-186.17611
