**************************************************************************************
                       INSTITUTO DE INGENIERIA, UNAM
                 Grupo de Procesamiento y Analisis Sismico
                   Coordinacion de Ingenieria Sismologica
           Ciudad Universitaria, Coyoacan, Mexico D.F., C.P. 04510
**************************************************************************************
ARCHIVO ESTANDAR DE ACELERACION:
VERSION DEL FORMATO                    : 2.0
NOMBRE DEL ARCHIVO                     : HMTT2109.081
FECHA Y HORA DE CREACION               : Wed Sep 08 15:06:04 2021
REF. CATALOGO ACELEROGRAMAS, SMIS 1995 : REGISTRO NO.      /PAG.    


================================================================================
DATOS DE LA ESTACION:
NOMBRE DE LA ESTACION                  : HUAMUXTITLAN
CLAVE DE LA ESTACION                   : HMTT
LOCALIZACION DE LA ESTACION            : CAPILLA EL CALVARIO, EN EL KM 142 DE LA CARRETERA
                                       : FEDERAL IZUCAR DE MATAMOROS A TLAPA DE COMONFORT.
                                       : 
                                       : 
                                       : 
COORDENADAS DE LA ESTACION             : 17.798341 LAT. N
                                       : 98.559717 LONG. W
ALTITUD (msnm)                         : 898
TIPO DE SUELO                          : ROCA
                                       : 
                                       : 
INSTITUCION RESPONSABLE                : INSTITUTO DE INGENIERIA UNAM
                                       : 

================================================================================
DATOS DEL ACELEROGRAFO: 
MODELO DEL ACELEROGRAFO                : ETNA EpiSensor
NUMERO DE SERIE DEL ACELEROGRAFO       : 4548
NUMERO DE CANALES                      : 3
ORIENTACION C1-C6 (rumbo;orientacion)  : /ENZ/ENN/ENE
ORIENTACION C7-C12 (rumbo;orientacion) : 
VEL. DE MUESTREO, C1-C6 (muestras/s)   : /100/100/100
VEL. DE MUESTREO, C7-C12 (muestras/s)  : 
ESC. COMPLETA DE SENSORES, C1-C6, (g)  : /2/2/2
ESC. COMPLETA DE SENSORES, C7-C12 (g)  : 
FREC. NAT. DE SENSORES, C1-C6, (Hz)    : /208/196/206
FREC. NAT. DE SENSORES, C7-C12 (Hz)    : 
AMORTIGUAMIENTO DE SENSORES, C1-C6     : /0.7/0.7/0.7
AMORTIGUAMIENTO DE SENSORES, C7-C12    : 
INTERVALO DE MUESTREO, C1-C6 (s)       : /0.01/0.01/0.01
INTERVALO DE MUESTREO, C7-C12 (s)      : 
UMBRAL DE DISPARO, C1-C6 (Gal)         : /0.5/0.5/0.5
UMBRAL DE DISPARO, C7-C12 (Gal)        : 
MEMORIA DE PREEVENTO (s)               : 60
TIEMPO DE POSEVENTO (s)                : 70


================================================================================
DATOS DEL SISMO:
FECHA DEL SISMO [GMT]                  : 2021/09/08
HORA EPICENTRO (GMT)                   : 01:47:46
MAGNITUD(ES)                           : /M=7.1
COORDENADAS DEL EPICENTRO              : 16.78 LAT. N
                                       : 99.93 LONG. W
PROFUNDIDAD FOCAL (Km)                 : 10
FUENTE DE LOS DATOS EPICENTRALES       : SSN
                                       : INSTITUTO DE GEOFISICA, UNAM

================================================================================
DATOS DE ESTE REGISTRO:
HORA DE LA PRIMERA MUESTRA (GMT)       : 01:47:30.000
EXACTITUD DEL TIEMPO (s)               : 0.0005
DURACION DEL REGISTRO (s), C1-C6       : /299.9/299.9/299.9
DURACION DEL REGISTRO (s), C7-C12      : 
NUM. TOTAL DE MUESTRAS, C1-C6          : /29990/29990/29990
NUM. TOTAL DE MUESTRAS, C7-C12         : 
ACEL. MAX.(Gal), C1-C6                 : /-23.1501/-26.4704/27.9698
ACEL. MAX., C1-C6, EN LA MUESTRA       : /7039/6933/7058
ACEL. MAX.(Gal), C7-C12                : 
ACEL. MAX., C7-C12,EN LA MUESTRA       : 
UNIDADES DE LOS DATOS                  : Gal (cm/s/s)
FACTOR DE DECIMACION                   : 1
FORMATO DATOS (FORTRAN,10 campos/dato) : 3F10.4


================================================================================
CALIDAD DEL ACELEROGRAMA:
Registro digital completo con tiempo absoluto correcto


================================================================================
COMENTARIOS:
Archivo de origen en formato SEISAN: 2021-09-08-0147-30S.NSN___336













================================================================================
DATOS DE ACELERACION:
---------+---------+---------+---------+---------+---------+---------+---------+
   CANAL-1   CANAL-2   CANAL-3
       ENZ       ENN       ENE
---------+---------+---------+---------+---------+---------+---------+---------+
[...]
   10.6705   -8.2887    0.2992
   12.2269   -8.9671   -0.6802
   14.4439   -9.0808   -1.8859
   16.7325   -8.9316   -2.8821
   18.6196   -8.8225   -2.8962
   20.1601   -8.7893   -2.4743
   21.0995   -8.4314   -2.6497
   20.8941   -7.6085   -3.3339
   19.8308   -6.2788   -4.1300
   18.6758   -3.7908   -5.4208
   17.6218   -0.4737   -7.6087
   17.1109    2.9898   -9.7634
   17.2789    6.3695  -10.6974
   17.4543    9.1500  -10.0894
   17.0197   10.8464   -8.2682
   15.8067   11.3049   -5.7403
   14.4734   10.5961   -3.6286
   13.2505    9.2754   -2.5538
   12.0234    8.0201   -1.7564
   11.1547    6.9394   -0.9664
   10.5344    5.9962   -0.8364
    9.8645    5.1555   -1.3579
    9.6324    4.3919   -1.9145
    9.4537    3.4885   -1.9486
    8.6599    2.1355   -0.7789
    8.1902    0.0568    0.7603
    7.8379   -2.4017    1.2608
    6.8293   -4.5866    0.4203
    5.2977   -6.8258   -1.1736
    3.3127   -9.1973   -2.7877
    1.4915  -11.8720   -4.6388
    0.2762  -14.5907   -6.5176
   -0.2628  -16.0991   -8.5380
   -0.3287  -16.1669  -10.8738
   -0.4920  -14.8106  -12.9691
   -1.1843  -12.4521  -15.0302
   -2.4245   -9.5164  -16.7252
   -3.1089   -5.6304  -17.8954
   -2.6884   -1.4787  -18.4473
   -1.8674    2.3259  -17.1527
   -0.7755    5.3623  -13.9727
    0.4801    7.1920   -9.8270
    1.8092    8.6732   -5.6547
    2.7125   10.2162   -1.9140
    2.3972   12.0039    2.0503
    1.7147   13.9974    5.7933
    1.3100   15.4931    8.3366
    1.4167   15.8159    9.4591
    2.5147   14.4475    9.1509
    3.9359   12.1204    8.3427
    4.6156    8.8997    7.7614
    4.0365    4.7115    7.3273
    2.2443    0.8007    6.3784
   -0.3900   -1.8829    4.5160
   -2.8329   -2.9379    1.8272
   -5.0536   -3.3286   -1.8410
   -7.6505   -3.6593   -5.8852
  -10.1205   -3.7772   -9.8579
  -12.0306   -3.5901  -13.4227
  -12.3150   -3.1246  -16.4254
  -10.6169   -3.4100  -18.3327
   -7.6453   -4.4243  -18.0530
   -4.2237   -5.8194  -16.0269
   -1.3621   -6.9507  -13.0256
    0.4530   -7.1977  -10.1764
    0.6298   -6.7008   -7.8893
   -0.6169   -4.8103   -5.5508
   -3.0388   -2.3049   -3.1548
   -6.5174    0.1013   -0.4024
  -10.5154    2.3675    2.2256
  -14.5984    4.6450    3.6606
  -17.6261    7.7413    3.1550
  -19.4108   10.7748    1.0863
  -20.5495   13.0224   -0.9295
  -21.4819   13.8266   -2.1525
  -22.3136   13.1122   -2.5384
  -22.1017   12.5957   -2.3475
  -20.6103   12.9157   -1.9238
  -18.6427   13.8322   -1.2578
  -16.9581   14.4685   -0.5029
  -15.7656   14.1410   -0.0156
  -14.4417   13.1978   -0.2036
  -12.3651   11.5510   -1.0263
   -9.8333    8.9619   -1.3223
   -7.2898    5.6378    0.3548
   -4.7248    2.1341    3.4440
   -2.2257   -0.6571    5.7545
    0.4418   -1.6925    6.2834
    3.4966   -0.6581    5.8714
    6.5800    1.5394    5.6123
    9.1464    3.4370    6.0875
   10.8661    4.3517    7.4934
   11.4845    4.6871    9.3806
   11.1753    4.9847   11.0236
   10.4834    5.3510   11.7233
    8.9134    5.0020   11.2448
    6.3353    3.5479    9.3473
    3.1055    1.8651    5.9677
   -0.8269    0.6444    2.1691
   -4.9002    0.3221   -1.6553
   -8.4261    1.3911   -5.4133
  -10.6543    3.2738   -8.5717
  -11.7761    5.1255  -10.7161
  -12.8872    6.6676  -10.8686
  -13.5033    7.5953   -9.4164
  -12.2463    8.1904   -8.2420
   -9.4413    8.4571   -7.3318
   -6.8482    7.7226   -4.6023
   -5.0836    5.8231    0.1841
   -3.9323    2.9402    4.2092
   -3.8125   -0.3530    5.7334
   -4.6616   -3.2350    5.4794
   -5.9149   -5.2257    4.2279
   -7.7169   -6.0978    1.9441
   -9.8745   -5.8639   -1.2765
  -11.3733   -4.7302   -5.0270
  -12.1607   -3.0493   -8.7265
  -12.4615   -0.8691  -10.7578
  -11.9436    1.9933   -9.5815
  -10.4307    5.0184   -5.3783
   -8.3223    7.6501    0.4264
   -6.6330    9.3193    6.6422
   -5.3717    9.1355   12.5661
   -3.7480    6.9562   17.0485
   -1.4706    3.2649   19.5199
    1.4448   -1.0001   20.7532
    5.0521   -4.8697   21.2939
    8.8868   -8.3566   21.3140
   11.8270  -11.5899   21.1671
   13.4606  -14.3624   20.5053
   13.6945  -16.4055   19.1948
   12.6522  -17.3955   17.8600
   10.6953  -17.7122   16.7515
    7.8150  -17.4207   15.8554
    4.5716  -15.9999   14.5594
    1.6820  -13.2929   12.0020
   -0.5781   -9.2226    8.1524
   -1.7682   -5.1270    3.8617
   -1.4440   -2.2076    0.0948
   -0.0143    0.0461   -2.1534
    1.7367    1.2162   -1.7320
    3.9003    0.8274    0.9301
    6.4471   -0.8859    4.1848
    9.0832   -4.1525    6.5804
   11.3835   -8.3463    7.5191
   12.2124  -11.9478    7.8114
   11.3563  -14.6571    7.8591
    9.0870  -16.9131    7.1618
    5.8778  -18.3504    5.3462
    2.4192  -18.8795    2.3744
   -1.6115  -18.7775   -0.6601
   -5.8550  -18.0631   -2.3868
   -9.5456  -17.1349   -2.6338
  -12.5981  -16.4326   -2.1595
  -15.5411  -15.8665   -1.6282
  -18.4631  -14.8733   -1.6170
  -19.8623  -12.8882   -3.2619
  -18.8869   -9.9131   -6.6331
  -16.3139   -6.1628   -9.9683
  -13.4654   -1.6719  -11.3592
  -11.0122    3.1395  -10.7400
   -9.6391    7.1855   -9.6479
   -9.7098    9.5355   -8.7831
   -9.9685   10.1456   -7.7902
   -9.8225    9.7390   -6.3604
   -9.3716    9.3353   -5.0930
   -8.3564    9.4503   -4.6617
   -7.2753    9.8424   -4.2488
   -6.7771   10.3196   -2.9972
   -6.2999   10.6504   -1.1198
   -4.8988   10.7907    0.2837
   -3.0776   10.9049    0.7594
   -2.0208   10.9213    1.5358
   -2.3352   11.0060    3.2499
   -3.5370   10.9264    5.3621
   -4.5339   11.0046    6.6230
   -5.1318   12.1091    6.7329
   -4.7500   13.6245    6.4200
   -3.7391   13.8290    6.0033
   -2.8806   12.0376    5.3990
   -1.3369    9.1645    3.4772
    0.3679    5.9588    0.8815
    1.8564    3.3074   -0.7312
    3.0068    1.6321   -0.8635
    2.6550    0.4821    0.2496
    0.7982   -0.4138    1.2000
   -1.6699   -1.1283    1.2182
   -4.1564   -1.1774    0.3553
   -6.4360   -0.3937   -1.3172
   -8.3728    0.6781   -4.0374
  -10.2777    0.5883   -7.6990
  -11.7471   -1.4983  -12.2231
  -12.3459   -4.4182  -17.3987
  -12.1242   -6.8566  -21.7778
  -10.3165   -8.1704  -24.3796
   -7.3380   -8.5863  -24.2809
   -5.1467   -8.7332  -20.4139
   -4.6223   -8.4169  -13.4302
   -4.5961   -7.3427   -6.5831
   -4.6303   -6.0739   -2.8110
   -5.3268   -4.7536   -1.3925
   -5.8012   -3.0525   -0.3841
   -5.1542   -1.5577    0.2225
   -3.6076   -1.4960   -0.0572
   -1.4215   -3.6299   -0.1840
    1.0331   -7.5224    0.5457
    2.8590  -12.3048    1.7982
    3.8348  -17.4525    3.1695
    4.8186  -22.2887    4.0001
    6.0934  -25.7026    4.1381
    7.2391  -26.4704    3.9589
    7.6601  -24.6912    3.6484
    7.4183  -21.2903    3.2724
    7.3631  -16.8930    2.8533
    6.9135  -13.3036    3.1316
    5.5119  -11.8000    4.5726
    3.9331  -11.9623    5.7760
    2.6134  -12.8812    5.3892
    2.0763  -13.4805    3.2279
    1.5177  -13.5904    0.8398
   -0.1706  -12.7296   -0.0914
   -1.9352  -10.6154   -1.0483
   -3.2235   -8.4066   -3.8559
   -4.6452   -6.6148   -8.0816
   -6.5011   -5.1275  -11.7661
   -8.8883   -3.8245  -12.7455
  -11.6980   -2.6235  -11.2021
  -14.2803   -1.7645   -8.9707
  -15.9645   -0.7568   -7.4053
  -16.9567    0.1434   -7.1878
  -17.3216   -0.1364   -8.2579
  -16.4463   -0.7507  -10.3046
  -14.8104   -0.7165  -12.5173
  -12.7983    0.5293  -13.9325
   -9.6742    3.2438  -14.6271
   -5.6407    6.3887  -14.4535
   -1.1465    9.0110  -13.1215
    3.1270   10.3510  -10.5651
    6.1655   10.6134   -6.3838
    7.9324   10.5985   -1.6483
    8.2706   10.4997    2.3009
    7.2471   10.7571    5.4271
    5.5456   11.4336    7.3409
    3.9649   12.2500    7.4630
    3.1761   13.4926    5.5141
    2.7303   15.3603    2.6223
    1.8995   17.6555    1.0587
    0.8067   19.8011    1.4876
    0.3070   21.2772    3.1461
    0.9545   22.3542    5.3770
    2.4786   22.6751    7.9807
    4.2423   22.1502   10.5526
    5.8422   21.6313   12.1260
    7.3476   21.1378   12.0979
    8.3899   20.7733   11.1700
    8.6472   20.4187   10.5727
    8.5612   19.7880   10.1041
    8.7417   18.7063    8.8483
    8.9382   16.3891    7.2623
    8.4638   12.5171    6.1408
    7.0974    7.2978    5.1029
    4.8673    1.8641    3.5913
    2.4754   -1.8712    1.2206
    0.4736   -3.1929   -1.8967
   -0.3381   -2.7133   -4.9779
    0.3936   -1.6663   -7.2392
    1.6267   -0.7694   -7.9001
    2.8833   -0.0606   -7.5358
    3.6903    0.0058   -7.3651
    4.0304   -0.3895   -7.6340
    3.7890   -0.9439   -8.1756
    2.1278   -2.0214   -8.5100
   -0.6057   -3.3674   -9.0558
   -3.5127   -4.5216  -10.6895
   -5.5467   -5.0634  -13.1978
   -6.3747   -4.6652  -15.9020
   -6.0922   -3.5915  -17.5114
   -4.4918   -2.5571  -17.5137
   -2.7211   -2.4570  -16.2402
   -1.5717   -3.4437  -13.2024
   -0.2436   -4.8425   -8.5970
    1.3461   -6.0828   -2.6455
    3.2496   -7.4747    3.9229
    6.0771   -9.6380    9.1579
    9.7349  -11.5483   12.3121
   13.7852  -11.9141   13.3443
   17.1778  -10.9920   13.9935
   19.7503   -9.3386   15.5827
   21.6534   -7.7212   16.7796
   21.7446   -6.4417   17.4872
   20.1101   -5.0460   17.3493
   17.5287   -3.0614   16.1042
   14.7929    0.5088   14.7077
   12.0847    5.1901   13.6394
    9.4575    9.8508   13.2583
    7.7093   14.3497   12.6339
    6.1243   17.6237   11.5357
    4.4285   19.0170   10.3164
    2.9736   18.5599    8.2394
    1.3100   17.2125    5.3055
   -0.7151   16.1341    2.0250
   -3.1786   14.9780   -0.7943
   -6.2236   14.3380   -1.8789
   -9.9577   14.4924   -0.6877
  -13.4752   14.5485    1.0681
  -15.5242   13.9735    0.8796
  -16.2905   12.3730   -1.4692
  -16.7845   10.0164   -4.1950
  -17.4877    7.4021   -6.2084
  -18.3812    5.2935   -7.5367
  -19.3514    4.0967   -8.4454
  -20.3236    3.0684   -9.2990
  -21.2292    2.3661  -10.2564
  -21.8468    2.2913  -11.4986
  -22.4133    1.7673  -12.5523
  -23.0401    0.0418  -12.9316
  -23.1501   -2.7274  -12.6272
  -22.0409   -5.2865  -11.7231
  -19.3800   -6.4632  -10.9397
  -15.5851   -6.3949  -10.8087
  -11.3228   -5.6613  -11.3302
   -7.1050   -5.0839  -11.7904
   -3.8813   -5.0133  -10.7283
   -2.1518   -5.5345   -7.3300
   -0.9532   -6.7444   -2.7189
    0.5929   -8.0454    1.4366
    3.3661   -8.5657    4.4327
    6.7633   -8.1484    7.2011
    9.3171   -6.7640   10.7972
   11.8111   -4.4626   13.4650
   14.1894   -2.2558   14.5290
   15.9245   -0.4887   15.7628
   16.7802    0.5490   18.4661
   15.9615    0.5846   22.8008
   14.0786   -0.0470   26.4868
   11.5042   -1.3280   27.9698
    8.0152   -2.3199   27.8538
    3.7436   -2.5898   26.3848
   -0.4686   -1.7117   23.6595
   -2.9910    1.2204   19.2168
   -3.7540    4.8345   13.6666
   -4.4829    7.6664    8.9704
   -6.0407    9.1355    5.3808
   -7.2781    9.3348    1.5063
   -8.0935    9.2267   -3.3068
   -9.9245    9.5369   -6.9918
  -12.4156   10.9264   -8.6957
  -14.6784   12.6682  -10.5969
  -16.3364   13.9871  -13.9400
  -16.6601   14.1789  -18.0876
  -15.2398   12.9981  -21.3405
  -12.4254   11.7395  -23.5761
   -9.3351   10.7112  -25.1190
   -6.5226    9.6548  -25.5245
   -4.5535    7.3721  -24.9394
   -4.0385    4.0284  -23.1664
   -4.7004    0.6440  -20.1081
   -6.1072   -2.8083  -15.7785
   -6.6203   -4.8842  -11.9373
   -5.1973   -5.6276  -10.0829
   -2.8184   -6.5876   -8.4922
    0.1718   -8.3168   -5.7304
    3.5925  -10.1831   -1.8088
    6.3372  -11.6774    2.4964
    7.8599  -13.2302    6.9466
    8.7155  -14.4887   11.5376
    9.9276  -15.1633   15.1094
   11.4013  -15.5400   17.3684
   12.1423  -15.8810   18.9539
   12.3874  -16.4144   19.9586
   12.6115  -16.9155   20.1064
   12.7069  -16.9557   19.1653
   12.2690  -16.1276   17.7987
   11.4490  -14.3231   16.4157
   10.8001  -12.4704   13.5889
    9.1941  -11.1314    9.1808
    6.2357   -9.5936    5.4140
    2.9801   -7.6852    3.2256
   -0.1940   -6.2073    2.0124
   -2.8063   -5.4652    1.7187
   -4.2532   -4.5412    2.6335
   -4.0464   -2.9585    4.2358
   -2.2790   -1.1624    5.1516
    0.4493    0.6762    5.1904
    3.4849    2.4527    5.9724
    6.2188    3.9007    7.9209
    8.5962    4.3648    9.6934
   10.1330    3.2583   10.7939
   10.7028    0.5677   11.8234
   10.5863   -3.2846   13.1240
   10.0530   -6.6180   14.4598
    9.9800   -7.8125   15.0023
    9.2713   -6.9114   14.5384
    6.5556   -4.9464   14.2933
    3.1485   -2.9945   14.5898
    0.7580   -1.2382   13.2882
   -0.6889    0.0320    9.3707
   -2.0484    0.9724    4.7713
   -3.2647    1.9624    0.6256
   -4.0067    2.6904   -2.9308
   -3.9954    3.4408   -5.7688
   -3.5187    4.0331   -7.8112
   -3.0650    5.0867   -8.4609
   -2.5550    6.8739   -7.8622
   -2.1756    8.0281   -7.3856
   -2.1321    8.1235   -7.8299
   -2.5115    7.4961   -7.7434
   -3.4228    7.0096   -6.5545
   -3.6839    6.8650   -5.8156
   -2.2192    6.0130   -6.1635
   -0.5266    3.2143   -6.4053
    0.7225   -0.3081   -5.3305
    2.7874   -2.3629   -3.4345
    5.4539   -2.9328   -1.0459
    7.3257   -2.3732    2.7097
    8.3455   -1.4183    8.0364
    9.4706   -0.5102   12.6334
   10.4212    0.0152   14.7212
   10.6326   -0.2117   15.5715
   10.8469   -0.0545   15.9078
   11.6553    1.6498   15.7478
   12.3093    4.3784   15.8264
   12.1961    7.0301   16.1384
   11.9107    9.6642   15.6361
   11.5547   11.6235   13.3111
   10.2111   11.7442   10.0115
    8.0096   10.4937    6.7619
    5.7786    9.0779    2.8832
    3.6725    8.5521   -1.1699
    1.4822    8.9025   -3.9695
   -0.7100   10.3893   -5.5985
   -2.1878   13.1599   -7.7046
   -3.1828   15.5212  -10.7723
   -4.1554   16.4775  -13.4882
   -4.4679   15.4356  -15.3239
   -3.8500   12.9059  -16.1466
   -2.2177   10.1671  -16.0185
    0.4104    6.9824  -14.8782
    3.8573    3.9746  -12.5874
    7.8024    1.5352   -9.7522
   11.6272   -0.5341   -6.8810
   14.5178   -2.6633   -4.3371
   15.8263   -5.4671   -2.2044
   16.1379   -8.3266   -0.9037
   15.5611  -11.0112   -0.7672
   14.6006  -12.6992   -1.5258
   14.2956  -12.8531   -2.9930
   13.4203  -12.3801   -4.2894
   11.5219  -11.6690   -5.1425
    8.8250  -10.2944   -6.1476
    5.0292   -8.0366   -7.9759
    0.9185   -6.0454  -11.4546
   -2.9260   -4.1567  -15.4876
   -5.7114   -0.6693  -18.5258
   -7.0110    4.8177  -20.2488
   -7.7029   10.9629  -20.4111
   -8.1529   15.9334  -19.2017
   -9.0740   18.8588  -16.5690
  -11.4192   19.5489  -13.3891
  -13.8382   18.4135  -11.9008
  -14.7051   16.3699  -12.6028
  -14.2050   13.9422  -14.7580
  -12.9396   11.1089  -17.1026
  -11.4791    8.8655  -17.7981
  -10.0859    8.3088  -16.1303
   -8.3817    9.3703  -12.5145
   -6.2218   11.2235   -8.2551
   -3.5351   12.8530   -4.4377
   -0.1589   14.1148   -1.1638
    2.6106   14.1771    1.7182
    3.7459   12.6491    4.9631
    4.7424   11.0275    7.8970
    6.4855   10.1138    9.3024
    8.5144    9.1926   10.5423
   10.7603    7.0526   12.8565
   12.4417    3.0848   16.2740
   12.7710   -1.7369   19.5194
   11.3156   -5.5831   21.2808
    7.9918   -7.7287   21.2480
