********************************************************************************
              CENTRO DE INSTRUMENTACION Y REGISTRO SISMICO  A.C.

    Anaxagoras 814, Col. Narvarte, Benito Juarez, C.P. 03020 Mexico, D.F.
           Tels. 5687 45 42/ 5687 45  82             Fax. 5669 25 12
********************************************************************************
ARCHIVO ESTANDAR DE ACELERACION:
VERSION DEL FORMATO                    : 2.0
NOMBRE DEL ARCHIVO                     : JA4320210908014746
FECHA Y HORA DE CREACION               : 07/SEP/21, 23:17
REF. CATALOGO ACELEROGRAMAS, SMIS 1996 : REGISTRO No.     /PAG.


================================================================================
DATOS DE LA ESTACION:
NOMBRE DE LA ESTACION                  : JAMAICA
CLAVE DE LA ESTACION                   : JA43
LOCALIZACION DE LA ESTACION            : Del. Venustiano Carranza, Col. Jamaica,
                                       : Calzada de la Viga esq. con            
                                       : Calle Guillermo Prieto.                
                                       :                                        
                                       : 
COORDENADAS DE LA ESTACION             : 19.4053 LAT. N
                                       : 99.1250 LONG. W
ALTITUD (msnm)                         : 2234
TIPO DE SUELO                          : Terreno blando, material compresible
                                       : (arcillas)                
                                       : 
INSTITUCION RESPONSABLE                : CIRES, A. C.
                                       : 

================================================================================
DATOS DEL ACELEROGRAFO:
MODELO DEL ACELEROGRAFO                : RAD_IO14
NUMERO DE SERIE DEL ACELEROGRAFO       : 
NUMERO DE CANALES                      : 3
ORIENTACION C1-C6 (rumbo;orientacion)  : /S00E/+V/N90W
ORIENTACION C7-C12 (rumbo;orientacion) : 
VEL. DE MUESTREO, C1-C6 (muestras/s)   : /100/100/100
VEL. DE MUESTREO, C7-C12 (muestras/s)  : 
ESC. COMPLETA DE SENSORES, C1-C6, (g)  : /2.0/2.0/2.0
ESC. COMPLETA DE SENSORES, C7-C12, (g) : 
FREC. NAT. DE SENSORES, C1-C6, (Hz)    : /52.47/55.39/55.39
FREC. NAT. DE SENSORES, C7-C12, (Hz)   : 
AMORTIGUAMIENTO DE SENSORES, C1-C6     : /0.5698/0.5589/0.5715
AMORTIGUAMIENTO DE SENSORES, C7-C12    : 
INTERVALO DE MUESTREO, C1-C6, (s)      : /0.01/0.01/0.01
INTERVALO DE MUESTREO, C7-C12, (s)     : 
UMBRAL DE DISPARO, C1-C6, (Gal)        : / / /
UMBRAL DE DISPARO, C7-C12, (Gal)       : 
MEMORIA DE PREEVENTO (s)               : 60
TIEMPO DE POSEVENTO (s)                : 90


================================================================================
DATOS DEL SISMO:
FECHA DEL SISMO (GMT)                  : 08/SEP/21
HORA EPICENTRO (GMT)                   : 01:47:46.0
MAGNITUD(ES)                           : /Mc=7.1
COORDENADAS DEL EPICENTRO              : 16.78 LAT. N
                                       : 99.93 LONG. W
PROFUNDIDAD FOCAL (km)                 : 10
FUENTE DE LOS DATOS EPICENTRALES       : SSN
                                       : INSTITUTO DE GEOFISICA, UNAM

================================================================================
DATOS DE ESTE REGISTRO:
HORA DE LA PRIMERA MUESTRA (GMT)       : 20:55:00.00
EXACTITUD DEL TIEMPO (s)               : 
DURACION DEL REGISTRO (s), C1-C6       : /599.2/599.2/599.2
DURACION DEL REGISTRO (s), C7-C12      : 
NUM. TOTAL DE MUESTRAS, C1-C6          : /59920/59920/59920
NUM. TOTAL DE MUESTRAS, C7-C12         : 
ACEL. MAX. (Gal), C1-C6                : /39.36992/11.06616/33.16825
ACEL. MAX., C1-C6, EN LA MUESTRA       : /7944/7746/9596
ACEL. MAX. (Gal), C7-C12               : 
ACEL. MAX., C7-C12, EN LA MUESTRA      : 
UNIDADES DE LOS DATOS                  : Gal (cm/s/s)
FACTOR DE DECIMACION                   : 1
FORMATO DATOS (FORTRAN,10 campos/dato) : 3F10.5


================================================================================
CALIDAD DEL ACELEROGRAMA:
REGISTRO DIGITAL COMPLETO CON TIEMPO ABSOLUTO CORRECTO.


================================================================================
COMENTARIOS:














================================================================================
DATOS DE ACELERACION:
---------+---------+---------+---------+---------+---------+---------+---------+
   CANAL-1   CANAL-2   CANAL-3   CANAL-4   CANAL-5   CANAL-6   CANAL-7   CANAL-8
      N00E        +V      N90W
---------+---------+---------+---------+---------+---------+---------+---------+
[...]
  -2.79522   3.35054   8.49465
  -2.47302   3.61654   8.28635
  -2.33352   3.68294   7.87065
  -2.16682   3.42834   7.30395
  -2.11232   3.44614   6.51155
  -2.11742   3.41994   5.69625
  -2.58222   3.29834   5.14425
  -3.22522   3.28364   4.53465
  -4.15792   3.53634   4.06475
  -5.27102   3.59104   3.58755
  -6.68632   3.57094   3.39395
  -8.22472   3.67714   3.40025
  -9.78002   3.26824   3.29665
 -11.11932   3.07954   3.25625
 -12.08872   2.59344   3.44255
 -13.05782   2.26754   3.69675
 -13.91662   1.95744   3.76615
 -14.23992   1.93404   3.84915
 -14.45622   1.77744   3.86035
 -14.20912   1.91164   3.64695
 -13.73262   2.06694   3.23585
 -12.90352   2.19904   2.49565
 -11.89482   2.34794   1.64365
 -10.77262   2.38834   0.63265
  -9.56172   2.22264  -0.57565
  -8.14362   2.18174  -1.61475
  -7.12932   1.71684  -2.75965
  -5.99092   1.16224  -3.72855
  -5.25962   0.53594  -4.85345
  -4.65522  -0.24856  -5.69745
  -4.26992  -0.80966  -6.42235
  -4.46372  -1.93126  -6.94605
  -4.70312  -2.69466  -7.23785
  -5.30492  -3.46366  -7.39055
  -5.83082  -3.83776  -7.12985
  -6.56402  -3.98856  -6.79035
  -7.20652  -4.03416  -6.12605
  -7.71502  -4.15706  -5.35355
  -8.21212  -4.03086  -4.45975
  -8.75922  -4.11946  -3.47375
  -9.14312  -4.13046  -2.38255
  -9.70782  -4.46966  -1.29725
 -10.45862  -4.54896  -0.30375
 -11.03162  -4.80056   0.90595
 -11.79362  -5.08086   2.18955
 -12.57082  -5.04436   3.07405
 -13.25022  -5.49656   4.08385
 -13.95752  -5.53986   5.18555
 -14.55352  -5.56296   5.97965
 -15.22802  -5.68156   6.84585
 -15.59112  -6.07616   7.41895
 -15.88812  -6.21906   7.84935
 -15.83992  -6.40606   8.16595
 -15.66362  -6.90836   8.34245
 -15.36392  -7.07476   8.68715
 -14.85462  -7.36566   8.61555
 -14.39852  -7.75896   8.47315
 -13.49692  -8.23196   7.99575
 -12.44272  -8.69716   7.01325
 -11.21212  -8.84166   5.91675
  -9.85532  -8.98896   4.70955
  -8.42162  -8.90016   3.58215
  -6.99192  -8.60956   2.40185
  -5.80202  -8.07946   1.66285
  -4.46562  -7.45376   1.00225
  -3.44942  -6.91816   0.25805
  -1.99022  -5.93666  -0.42865
  -0.89342  -5.08506  -1.01385
  -0.40432  -4.25996  -1.62525
   0.22648  -3.31046  -1.97765
   0.53578  -2.18676  -2.51695
   0.67188  -1.24426  -2.58225
   0.71818  -0.57256  -2.62945
   0.26648   0.11274  -2.58385
  -0.11702   0.85134  -2.58105
  -0.61082   1.35514  -2.30075
  -0.64562   1.93434  -2.34775
  -0.63342   2.13824  -2.60585
  -0.36882   2.15344  -2.97645
  -0.10532   2.12604  -3.61355
   0.34788   2.16534  -4.29235
   0.61088   2.09264  -5.12275
   0.79538   2.17094  -5.96315
   1.13948   2.19664  -6.78515
   1.37168   2.27214  -7.40475
   1.64828   2.21414  -7.99565
   1.82948   1.78004  -8.28455
   2.30878   1.41314  -8.19415
   2.48178   1.12274  -7.59205
   2.89568   0.70684  -6.98855
   2.89048   0.29464  -6.25675
   2.87278  -0.26186  -5.53055
   2.51108  -0.74346  -4.71945
   2.12848  -0.92116  -3.87055
   1.66138  -0.99176  -3.29115
   0.93708  -0.92076  -2.70075
   0.60078  -0.75966  -2.19365
   0.29028  -0.29086  -1.80435
   0.06278   0.11274  -1.41995
   0.08578   0.52774  -1.01225
  -0.05012   0.96094  -1.15315
   0.15608   1.30884  -1.46205
   0.00558   1.64274  -1.97405
  -0.25772   1.85204  -2.43685
  -0.52052   1.88314  -3.12235
  -1.13572   1.99764  -3.35165
  -1.93762   1.92984  -3.87515
  -2.87922   1.85244  -4.10685
  -3.73332   1.91564  -4.33575
  -4.95382   2.07064  -4.29065
  -6.64722   2.26894  -4.29345
  -8.11132   2.99444  -4.09965
  -9.90632   3.34414  -3.62595
 -11.83552   3.93084  -3.02245
 -13.94652   4.59764  -2.21355
 -15.65432   4.94784  -1.35875
 -17.22242   5.47584  -0.59435
 -18.45182   5.88494   0.16295
 -18.97782   6.15134   1.10465
 -19.31902   6.12324   1.63075
 -19.39382   5.97664   2.03755
 -19.10812   5.50014   2.56345
 -18.31922   4.72994   3.08085
 -17.49012   3.62384   3.51085
 -16.32082   2.71244   3.72945
 -14.90932   1.71544   3.96815
 -13.24442   0.55344   4.06545
 -11.38142  -0.79236   4.13605
  -9.67372  -2.19076   3.92375
  -7.95612  -3.50876   3.54475
  -5.67812  -4.93946   2.88985
  -3.80692  -6.54736   1.76615
  -1.95542  -8.09116   0.90155
  -0.19062  -9.46106  -0.47655
   0.84938 -10.57956  -1.81975
   1.85358 -11.05776  -3.17865
   2.16338 -11.06616  -4.24465
   2.44978 -11.06026  -5.22425
   2.66958 -10.59196  -5.82585
   2.72638  -9.79986  -6.40105
   2.88768  -8.70986  -6.93435
   3.04688  -7.40636  -7.52355
   3.34178  -6.06056  -8.19805
   3.52628  -4.59436  -8.87655
   3.69478  -3.35136  -8.91045
   3.60968  -2.20476  -8.87875
   3.69438  -1.27356  -8.17845
   3.73928  -0.26486  -7.18995
   3.81568   0.57004  -5.77585
   3.61438   1.52634  -4.22635
   3.60708   2.32104  -2.91845
   3.25148   3.21344  -1.50995
   3.07148   3.83094  -0.47635
   2.94828   4.33184   0.26275
   2.93208   4.73584   0.53255
   2.55058   5.06664   0.39645
   2.51078   5.22054   0.02305
   2.44038   5.36054  -0.79075
   2.12108   5.29764  -1.50555
   1.73388   5.04394  -2.25115
   1.44838   4.65354  -3.17355
   1.13368   4.28174  -3.81535
   0.93488   3.48304  -4.41485
   0.79838   2.96794  -4.66055
   0.69228   1.99904  -5.06245
   0.65198   0.95234  -5.20885
   0.54518  -0.08326  -5.11255
   0.74878  -1.05676  -4.70615
   0.73968  -1.64106  -4.36545
   0.79578  -1.99416  -3.70775
   0.87438  -2.09956  -2.87125
   1.03598  -2.35206  -2.16205
   1.11918  -1.96446  -1.40875
   1.94938  -1.47176  -0.82235
   2.45418  -0.55246  -0.09755
   3.26228   0.27004   0.30065
   4.03128   1.21044   0.53935
   4.82158   2.24414   0.66955
   5.84098   3.06784   0.60595
   6.72448   3.62334   0.14635
   7.48768   3.92404  -0.12305
   8.20308   4.05984  -0.31405
   8.81448   3.65964  -0.78375
   9.24638   3.05264  -1.21325
   9.58938   2.45174  -1.26165
   9.50078   1.82704  -1.53475
   9.21968   1.21514  -2.25795
   8.99598   0.65604  -2.70685
   8.36658   0.71734  -3.50205
   7.86128   0.70984  -4.11955
   7.18538   0.89034  -4.54245
   6.58418   1.06194  -5.19835
   6.49138   1.56534  -5.34425
   6.26158   2.14284  -5.57055
   6.62818   2.67224  -5.33465
   6.81548   3.17744  -5.39145
   7.22628   3.55134  -5.23155
   7.49488   3.86274  -5.09615
   7.85728   3.94954  -4.64955
   7.94218   3.75104  -4.40005
   7.98008   3.75874  -3.92895
   7.98518   3.44304  -3.69915
   7.52788   3.03394  -3.30075
   7.65268   2.78394  -2.88335
   7.64808   2.45894  -2.36015
   7.87278   2.14684  -2.04495
   7.76188   1.61514  -1.65915
   8.05858   1.36034  -1.19735
   7.98898   0.83354  -0.95305
   8.49628   0.46134  -0.25165
   8.66978   0.13334   0.15305
   9.06918  -0.09886   0.59425
   9.33338  -0.05606   1.28945
  10.01278  -0.17136   1.71615
  10.81218  -0.17626   2.11775
  11.59898  -0.14326   2.35585
  12.47758  -0.02266   2.60315
  13.18628   0.10264   2.82245
  13.75188   0.24034   2.99155
  14.17018   0.36474   3.23755
  14.50168   0.44164   3.39065
  15.07288   0.39844   3.37315
  15.68828   0.64114   3.46575
  16.38428   1.03584   3.24825
  17.32048   1.07434   2.96235
  18.06558   1.15224   2.62445
  18.78178   1.37134   2.29335
  19.21948   1.40334   1.91465
  19.37358   1.58874   1.32725
  19.23608   1.30324   0.77715
  19.02288   1.48144   0.36755
  18.80258   1.58224   0.02825
  18.67638   1.45734  -0.35895
  18.36378   1.72714  -0.90445
  18.00138   1.63154  -1.28995
  17.89518   1.84034  -1.99815
  18.05958   1.92844  -2.65825
  18.02538   2.57524  -3.41415
  18.26878   3.01314  -4.07885
  18.32888   3.40384  -4.75315
  18.57578   3.93194  -5.02575
  18.91998   4.38884  -5.19695
  19.65738   4.76594  -4.94795
  20.15118   5.21884  -4.74285
  20.51758   5.90764  -4.20295
  20.81778   6.28204  -3.77485
  21.09038   6.81014  -3.17325
  21.19728   7.03554  -2.40875
  21.07708   7.12674  -1.69325
  21.09558   7.19084  -1.02435
  20.93748   6.94394  -0.54995
  20.70648   6.92424  -0.15695
  20.61558   6.75104   0.13135
  20.18958   6.24974   0.42365
  19.66348   5.84854   0.52485
  18.46028   5.35144   0.46715
  17.10398   4.88034   0.35305
  15.95928   4.12674   0.18395
  14.51148   3.78284  -0.18665
  13.11168   3.48404  -0.70195
  11.81498   3.21134  -1.13655
  10.61738   3.25744  -1.42465
   9.32938   3.22894  -1.38675
   7.78478   3.09494  -1.22165
   6.37868   3.12204  -0.62875
   5.12128   3.17844  -0.02205
   3.93988   2.76994   0.77615
   2.90058   2.74704   1.63705
   2.11308   2.57264   2.63545
   1.35318   2.44334   3.45825
   0.57138   2.28714   4.33945
   0.09858   2.43514   5.18445
  -0.05972   2.55604   5.91225
  -0.14222   2.47724   6.98495
   0.28888   2.42814   8.00725
   0.46828   2.02804   9.19775
   0.72548   1.58994  10.55825
   1.08858   1.10474  11.67305
   1.49538   0.67804  12.83835
   1.65088   0.28524  13.65435
   1.69178   0.21884  14.00435
   1.66508  -0.05236  14.19125
   1.53978  -0.43556  14.33545
   1.39508  -0.60766  14.23325
   1.18488  -1.13256  14.20665
   0.88768  -1.27446  14.09935
   0.64408  -1.36756  13.82385
   0.17598  -1.31236  13.81995
  -0.20462  -1.06916  13.46075
  -0.70382  -0.64856  13.14815
  -1.19082  -0.53376  12.83375
  -1.33882  -0.22916  12.40515
  -1.04732  -0.30186  11.62445
  -0.66782   0.00514  10.92915
  -0.08702   0.07854  10.26835
   0.64248   0.13334   9.49895
   1.47598   0.32854   8.63215
   2.28708   0.50714   7.58635
   2.94198   0.47954   6.11615
   3.57858   0.25114   5.03735
   4.13858  -0.07126   3.77015
   4.81168  -0.63896   2.70185
   5.02048  -1.45216   1.40775
   5.20658  -2.51646   0.20805
   5.17108  -3.37426  -0.64865
   5.11918  -4.41426  -1.54665
   4.59798  -5.41406  -2.49195
   4.00038  -6.01096  -3.35545
   3.28888  -6.82926  -4.06225
   2.29008  -7.30626  -4.80715
   1.46338  -7.65656  -5.34325
   0.47788  -7.80216  -5.90025
  -0.54392  -7.81806  -6.30475
  -1.93692  -7.72546  -6.69495
  -3.68372  -7.89036  -6.92215
  -5.78642  -8.01916  -7.27315
  -7.92172  -8.11996  -7.52515
 -10.22432  -8.21926  -7.52915
 -12.63932  -8.21606  -7.30705
 -15.05972  -8.24176  -6.86185
 -17.57872  -7.98006  -6.10945
 -19.93742  -7.89356  -5.34325
 -22.34522  -7.58146  -4.34775
 -25.03842  -7.33316  -2.94465
 -27.93672  -7.18236  -1.78235
 -30.46442  -6.90806   0.11335
 -32.43542  -6.88166   1.76215
 -34.19722  -6.86016   3.38105
 -35.61852  -6.93686   4.65205
 -36.73352  -6.84006   5.63565
 -37.68092  -6.55156   6.40865
 -38.41812  -6.39796   7.01215
 -38.93272  -5.89756   7.75955
 -39.14762  -5.60036   8.42925
 -39.36992  -5.16246   8.80705
 -39.06152  -4.54566   9.05045
 -38.71762  -4.00416   9.18985
 -38.09432  -3.68036   9.18065
 -37.18312  -3.28316   9.21385
 -35.78402  -2.93166   9.33895
 -33.83452  -2.47766   9.41895
 -31.72562  -1.99086   9.31745
 -30.19582  -1.87696   8.80355
 -28.76552  -1.40936   8.07785
 -27.40312  -1.36196   6.90835
 -26.26572  -1.22936   5.69225
 -25.22992  -1.03626   4.62775
 -24.12702  -0.59546   3.18255
 -22.94162  -0.05046   1.94405
 -22.05082   0.37344   0.66465
 -21.17472   0.72954  -0.77375
 -20.44802   0.87864  -2.16205
 -19.86122   1.16064  -3.41415
 -19.11982   1.21654  -4.72155
 -18.21842   1.21914  -5.58345
 -17.28722   1.19924  -6.32155
 -16.48612   1.05704  -6.95815
 -15.59392   1.09194  -7.26705
 -15.09242   0.80104  -7.27145
 -14.65032   0.52864  -7.01455
 -14.20882   0.42694  -6.76625
 -13.81582   0.14594  -6.16235
 -13.29542  -0.19686  -5.63395
 -12.99192  -0.68196  -4.73235
 -12.70872  -1.04016  -3.94485
 -12.72392  -1.33616  -3.14085
 -13.10672  -1.78696  -2.06245
 -13.61472  -1.98596  -0.83075
 -14.51442  -2.31726   0.12835
 -15.43872  -2.68366   0.97895
 -16.24842  -3.23866   2.04465
 -17.14502  -3.47676   2.72685
 -17.96922  -3.84846   3.15215
 -18.81722  -3.97146   3.49635
 -19.55632  -4.09706   3.40985
 -20.31872  -4.07526   2.87115
 -21.18642  -4.25276   2.68805
 -22.36712  -4.45476   1.91645
 -23.36012  -4.56576   1.03525
 -24.48822  -4.54896   0.20715
 -25.21842  -4.27256  -0.89905
 -26.01742  -3.81716  -2.29115
 -26.42002  -3.62046  -3.52755
 -26.56052  -3.37736  -4.94085
 -26.51912  -2.96726  -6.24045
 -26.33982  -2.59806  -7.66615
 -25.79292  -2.25136  -8.87915
 -25.21052  -1.78796 -10.02455
 -24.58152  -1.48626 -11.04145
 -23.54272  -0.97166 -11.88595
 -22.38562  -0.45616 -12.86375
 -20.72492   0.04514 -13.50955
 -19.12942   0.22264 -14.25445
 -16.87102   0.57984 -14.85465
 -14.58902   0.49594 -15.61595
 -11.93832   0.82704 -16.61895
  -9.53802   0.66634 -17.60915
  -7.15112   0.90464 -18.44035
  -4.68162   0.92684 -19.37065
  -2.82492   0.68184 -20.04355
  -1.10572   0.49684 -20.38745
   0.57068   0.32124 -20.53825
   2.18088  -0.06546 -20.42465
   3.46378  -0.39306 -19.83215
   4.48108  -0.67056 -19.21115
   5.25288  -0.94056 -18.28135
   5.39878  -1.08396 -16.99495
   5.31538  -1.18076 -15.39725
   4.96108  -0.82746 -13.50275
   4.17998  -0.68036 -11.55045
   3.45278  -0.38276  -9.68465
   2.53188  -0.19236  -8.03045
   1.44888   0.17744  -6.63745
   1.01938   0.57284  -5.47005
   0.64078   0.66524  -4.26775
   0.29378   1.07574  -3.54995
  -0.10712   1.45854  -3.09895
  -0.25682   1.75384  -2.61565
  -0.44762   1.89344  -2.28525
  -0.61682   1.95464  -1.96335
  -0.51302   2.02734  -1.71805
  -0.62462   1.62004  -1.42555
  -0.55422   1.52774  -1.36995
  -0.18172   1.37454  -0.98995
   0.38638   1.08744  -1.08285
   1.30018   1.18594  -1.02525
   2.13998   1.26564  -0.99725
   3.33758   1.49544  -1.10755
   4.39268   1.98294  -1.22355
   5.78948   2.13234  -1.22895
   7.31978   2.48074  -1.48635
   9.02958   3.01634  -1.58735
  10.76048   3.25184  -1.63415
  12.65928   3.52004  -1.80245
  14.93328   3.63524  -2.06805
  17.02378   3.80504  -2.38955
  19.19628   3.87424  -2.75855
  21.12848   4.21814  -3.13235
  22.65668   4.06614  -3.56675
  24.27698   3.79944  -4.11465
  25.54708   3.48984  -4.65285
  26.65178   3.24764  -5.00755
  27.77948   3.13934  -5.28505
  28.57248   2.97684  -5.65795
  29.37148   2.89364  -5.97405
  30.01838   2.93334  -5.85955
  30.11048   2.98764  -5.69145
  30.22628   3.13024  -5.48125
  30.11498   3.20294  -5.18705
  29.62208   3.26374  -5.18705
  28.95928   3.43424  -4.91235
  28.21528   3.58054  -4.81485
  27.32558   3.77254  -4.79615
  26.49278   3.77204  -4.51465
  25.35508   3.95864  -4.11955
  24.71258   4.44964  -3.74075
  24.11218   4.71524  -3.34075
  23.65618   4.95744  -2.95165
  23.39648   5.03604  -2.53195
  23.29918   5.02484  -2.47675
  23.59728   4.88594  -2.44895
  23.84908   4.99204  -2.27545
  24.49208   4.90864  -2.13375
  25.17158   4.62964  -2.05495
  26.08968   4.42534  -1.86845
  27.00348   4.22474  -1.70565
  27.96788   4.19194  -1.19875
  28.86568   4.16204  -0.58435
  29.63888   4.51274   0.14675
  30.52408   4.72744   0.99975
  31.47218   5.23824   1.91555
  32.19488   5.78794   2.66465
  32.82688   6.54694   3.61695
  33.24918   7.19644   4.61015
  33.85098   7.90694   5.24895
  34.29598   8.47464   6.20615
  34.72268   8.68904   7.14845
  35.25948   8.77904   8.02285
