********************************************************************************
              CENTRO DE INSTRUMENTACION Y REGISTRO SISMICO  A.C.

    Anaxagoras 814, Col. Narvarte, Benito Juarez, C.P. 03020 Mexico, D.F.
           Tels. 5687 45 42/ 5687 45  82             Fax. 5669 25 12
********************************************************************************
ARCHIVO ESTANDAR DE ACELERACION:
VERSION DEL FORMATO                    : 2.0
NOMBRE DEL ARCHIVO                     : LV1720210908014746
FECHA Y HORA DE CREACION               : 07/SEP/21, 23:17
REF. CATALOGO ACELEROGRAMAS, SMIS 1996 : REGISTRO No.     /PAG.


================================================================================
DATOS DE LA ESTACION:
NOMBRE DE LA ESTACION                  : LINDAVISTA
CLAVE DE LA ESTACION                   : LV17
LOCALIZACION DE LA ESTACION            : Del. Gustavo A. Madero, Col. Lindavista
                                       : Av. Lindavista entre calles Matanzas   
                                       : y Lima.                                
                                       :                                        
                                       : 
COORDENADAS DE LA ESTACION             : 19.4931 LAT. N
                                       : 99.1275 LONG. W
ALTITUD (msnm)                         : 2233
TIPO DE SUELO                          : Terreno blando, material compresible
                                       : (arcillas)                
                                       : 
INSTITUCION RESPONSABLE                : CIRES, A. C.
                                       : 

================================================================================
DATOS DEL ACELEROGRAFO:
MODELO DEL ACELEROGRAFO                : RAD_IO14
NUMERO DE SERIE DEL ACELEROGRAFO       : 
NUMERO DE CANALES                      : 3
ORIENTACION C1-C6 (rumbo;orientacion)  : /S00E/+V/N90W
ORIENTACION C7-C12 (rumbo;orientacion) : 
VEL. DE MUESTREO, C1-C6 (muestras/s)   : /100/100/100
VEL. DE MUESTREO, C7-C12 (muestras/s)  : 
ESC. COMPLETA DE SENSORES, C1-C6, (g)  : /2.0/2.0/2.0
ESC. COMPLETA DE SENSORES, C7-C12, (g) : 
FREC. NAT. DE SENSORES, C1-C6, (Hz)    : /52.91/51.46/52.61
FREC. NAT. DE SENSORES, C7-C12, (Hz)   : 
AMORTIGUAMIENTO DE SENSORES, C1-C6     : /0.5928/0.5783/0.5766
AMORTIGUAMIENTO DE SENSORES, C7-C12    : 
INTERVALO DE MUESTREO, C1-C6, (s)      : /0.01/0.01/0.01
INTERVALO DE MUESTREO, C7-C12, (s)     : 
UMBRAL DE DISPARO, C1-C6, (Gal)        : / / /
UMBRAL DE DISPARO, C7-C12, (Gal)       : 
MEMORIA DE PREEVENTO (s)               : 60
TIEMPO DE POSEVENTO (s)                : 90


================================================================================
DATOS DEL SISMO:
FECHA DEL SISMO (GMT)                  : 08/SEP/21
HORA EPICENTRO (GMT)                   : 01:47:46.0
MAGNITUD(ES)                           : /Mc=7.1
COORDENADAS DEL EPICENTRO              : 16.78 LAT. N
                                       : 99.93 LONG. W
PROFUNDIDAD FOCAL (km)                 : 10
FUENTE DE LOS DATOS EPICENTRALES       : SSN
                                       : INSTITUTO DE GEOFISICA, UNAM

================================================================================
DATOS DE ESTE REGISTRO:
HORA DE LA PRIMERA MUESTRA (GMT)       : 20:54:01.00
EXACTITUD DEL TIEMPO (s)               : 
DURACION DEL REGISTRO (s), C1-C6       : /657.26/657.26/657.26
DURACION DEL REGISTRO (s), C7-C12      : 
NUM. TOTAL DE MUESTRAS, C1-C6          : /65726/65726/65726
NUM. TOTAL DE MUESTRAS, C7-C12         : 
ACEL. MAX. (Gal), C1-C6                : /34.04943/9.78685/41.45688
ACEL. MAX., C1-C6, EN LA MUESTRA       : /14758/14387/14451
ACEL. MAX. (Gal), C7-C12               : 
ACEL. MAX., C7-C12, EN LA MUESTRA      : 
UNIDADES DE LOS DATOS                  : Gal (cm/s/s)
FACTOR DE DECIMACION                   : 1
FORMATO DATOS (FORTRAN,10 campos/dato) : 3F10.5


================================================================================
CALIDAD DEL ACELEROGRAMA:
REGISTRO DIGITAL COMPLETO CON TIEMPO ABSOLUTO CORRECTO.


================================================================================
COMENTARIOS:














================================================================================
DATOS DE ACELERACION:
---------+---------+---------+---------+---------+---------+---------+---------+
   CANAL-1   CANAL-2   CANAL-3   CANAL-4   CANAL-5   CANAL-6   CANAL-7   CANAL-8
      N00E        +V      N90W
---------+---------+---------+---------+---------+---------+---------+---------+
[...]
   4.68747   8.00595  -4.31242
   4.64327   7.88175  -4.33412
   4.75347   7.73395  -4.22052
   4.84537   7.64655  -3.75122
   5.23087   7.61845  -3.28502
   5.20567   7.59815  -2.49782
   4.93397   7.71875  -1.83212
   4.53877   7.83755  -0.97412
   3.95077   7.89065  -0.38002
   2.91317   7.87315   0.11638
   1.85937   7.74665   0.27168
   0.81307   7.62875   0.35838
  -0.42963   7.16915   0.19218
  -1.43643   6.96215  -0.18612
  -2.40343   6.54345  -0.66172
  -3.04873   6.12935  -1.09282
  -3.66343   6.00195  -1.50222
  -3.94003   5.54435  -1.63362
  -4.16283   5.18805  -1.71622
  -4.28253   5.11625  -1.69932
  -4.20633   4.75035  -1.75472
  -4.09503   4.58385  -1.97732
  -3.67143   4.28995  -1.98462
  -3.42683   4.13705  -2.07202
  -2.87453   3.84995  -2.28602
  -2.07703   3.79665  -2.77772
  -1.37493   3.80105  -3.23172
  -0.60333   3.67815  -3.55392
   0.22127   3.52495  -4.21912
   1.01107   3.35055  -4.93242
   1.65967   3.16935  -5.67342
   2.24327   2.85045  -6.61942
   2.70197   2.54505  -7.55112
   2.96827   2.14575  -8.84972
   3.41887   1.50955  -9.88852
   3.76767   0.81675 -11.07722
   3.86797   0.19225 -12.31472
   3.72707  -0.55475 -13.34682
   3.69287  -1.11335 -14.23572
   3.47687  -1.65275 -14.93902
   2.96177  -2.03435 -15.30652
   2.33747  -2.36045 -15.20832
   1.65527  -2.48225 -15.04472
   0.95707  -2.83585 -14.92242
   0.02957  -2.88305 -14.63642
  -0.76423  -2.93565 -14.50042
  -1.42243  -3.11355 -14.37012
  -1.72093  -2.96955 -14.42062
  -1.93093  -2.92655 -14.22282
  -1.71983  -2.97795 -14.16232
  -1.68663  -3.12905 -14.16722
  -1.24913  -3.17485 -14.08822
  -0.82263  -3.35465 -14.17842
  -0.37773  -3.35295 -14.10172
   0.04387  -3.48115 -14.03742
   0.42497  -3.62935 -13.82142
   0.90777  -3.73315 -13.45872
   1.07917  -3.58725 -12.91262
   1.20137  -3.15335 -12.36832
   1.44757  -2.90055 -11.52072
   1.36207  -2.44305 -10.75172
   1.50137  -1.89195  -9.91122
   1.39337  -1.45005  -9.05752
   1.05737  -0.97845  -7.86932
   0.78947  -0.43625  -6.55092
   0.32977   0.20795  -4.64112
  -0.17763   0.75105  -2.65162
  -0.63323   1.23505  -0.00752
  -1.17453   2.02155   2.69418
  -1.70533   2.98815   5.65888
  -2.19043   3.94485   8.46428
  -3.07733   4.63815  10.93968
  -3.88183   5.57735  13.27818
  -4.78593   6.23415  15.12408
  -5.91243   6.74025  16.83228
  -7.09153   7.08845  17.98638
  -8.13033   7.11225  19.30488
  -9.25683   6.98275  20.11668
 -10.32863   6.47965  20.94458
 -11.43293   6.09385  22.00608
 -12.21923   5.26545  23.02238
 -12.91943   4.42835  24.35398
 -13.59913   3.43265  25.73718
 -14.00873   2.56145  27.02638
 -14.20443   1.86535  28.40188
 -14.53273   1.14365  29.65108
 -14.77913   0.69585  30.45848
 -14.81333   0.30055  31.12298
 -14.95753  -0.10655  31.63828
 -15.33633  -0.53115  31.58728
 -15.59143  -0.59335  31.16548
 -15.74643  -0.61885  30.56948
 -15.93493  -0.66235  29.81268
 -16.33793  -0.66255  28.66588
 -16.58883  -0.77155  27.72008
 -16.56753  -1.01025  26.74978
 -16.60383  -1.32915  25.73668
 -16.49233  -1.90295  24.98528
 -16.45583  -2.63755  24.26608
 -16.34193  -3.42965  23.67658
 -16.29913  -4.26155  23.05958
 -16.09783  -4.77405  22.73598
 -15.93353  -5.20455  22.29928
 -15.95223  -5.59035  21.87718
 -15.75833  -5.98475  21.45608
 -15.38403  -6.03545  20.95558
 -14.80323  -6.10535  20.68808
 -14.04593  -6.36255  20.39958
 -13.35453  -6.47055  20.21088
 -12.41393  -6.52035  19.76708
 -11.37793  -6.71515  19.52328
 -10.20443  -6.91555  19.25128
  -9.03103  -7.06775  19.10918
  -7.64493  -7.17695  18.81928
  -6.34173  -7.09655  18.71238
  -5.01623  -6.78815  18.32258
  -3.58813  -6.50265  18.22958
  -2.26783  -5.87345  17.93968
  -0.73573  -5.24845  17.80848
   0.47447  -4.67165  17.37758
   1.60377  -3.87885  17.01568
   2.81567  -3.05625  16.62258
   3.80067  -2.12435  16.29388
   4.75317  -1.18025  16.08488
   5.41327  -0.53045  15.83208
   6.03497   0.30495  15.31938
   6.70597   0.95185  14.98638
   7.18647   1.48565  14.21578
   7.59117   2.22825  13.01258
   8.11957   2.89435  11.70608
   8.46587   3.57665   9.80848
   9.07327   4.22825   8.01728
   9.60867   5.04775   5.81478
  10.27997   5.87965   3.64368
  10.90687   6.53055   1.51738
  11.67137   7.12235  -0.31752
  12.51337   7.83475  -2.01942
  13.31477   8.28135  -3.73792
  14.19927   8.55835  -5.16582
  14.99917   8.70195  -6.70782
  15.90987   8.53265  -8.14972
  16.61077   8.53875  -9.77022
  17.28817   8.48455 -11.69792
  17.88527   8.13405 -13.61382
  18.32857   7.75645 -15.81042
  18.56317   7.49405 -18.22822
  18.73967   6.76885 -20.48962
  18.89067   5.89085 -22.96262
  18.72307   5.38445 -25.33812
  18.50557   4.50065 -27.54882
  18.14437   3.71085 -29.48772
  17.71157   2.91515 -31.10202
  17.21027   1.94605 -32.28832
  16.68797   1.13055 -33.52842
  16.13527   0.34915 -34.48772
  15.86827  -0.31465 -34.94482
  15.36067  -1.00605 -35.23362
  14.99617  -1.56715 -35.41082
  14.89607  -2.17925 -35.63692
  14.62997  -2.57605 -35.18992
  14.41797  -3.08155 -35.23802
  14.37067  -3.43155 -35.02622
  14.42657  -3.43505 -34.83072
  14.56407  -3.82275 -34.38182
  14.78757  -3.59895 -34.05362
  14.85747  -3.67055 -33.72762
  15.23697  -3.63165 -33.29132
  15.51587  -3.64085 -32.75802
  16.04107  -3.64945 -32.41502
  16.27717  -3.77385 -31.67572
  16.77657  -3.96205 -30.82982
  16.96177  -4.19755 -30.06902
  17.27277  -4.26505 -28.77372
  17.18157  -4.44675 -27.44432
  17.00577  -4.44745 -26.20442
  16.77217  -4.34205 -24.84992
  16.13737  -4.17575 -23.54572
  15.63097  -3.85705 -22.38252
  14.96877  -3.65695 -21.44352
  14.37977  -3.31535 -20.78422
  13.82077  -2.93045 -20.05782
  12.90097  -2.61465 -19.62172
  11.91007  -2.24145 -18.90702
  11.09197  -1.88445 -18.36782
  10.03097  -1.69505 -17.74032
   8.88577  -1.31205 -16.87682
   7.84397  -1.00745 -15.87942
   6.94657  -0.93165 -14.41132
   6.17287  -0.63405 -12.87682
   5.45467  -0.52645 -10.97502
   4.62087  -0.19405  -9.09452
   3.97997  -0.19005  -7.10622
   3.01737  -0.22765  -5.07762
   2.06607  -0.52855  -3.01362
   1.11047  -0.70625  -0.91302
   0.05267  -0.86525   1.28098
  -1.05813  -1.09485   3.38968
  -2.01513  -1.17135   5.29808
  -3.11563  -1.43205   7.12898
  -4.13293  -1.44275   8.56808
  -5.02323  -1.64875  10.00648
  -6.05973  -1.75655  11.24198
  -6.96253  -1.84285  12.18518
  -7.81493  -1.90435  12.90998
  -8.89513  -1.66675  13.26208
  -9.79483  -1.46945  13.67198
 -10.84253  -1.25435  13.72778
 -11.86663  -1.07875  13.73578
 -12.90983  -0.63025  13.85248
 -13.59333  -0.43295  13.77248
 -14.40693  -0.42805  13.52228
 -14.80463  -0.37455  13.38688
 -15.01373  -0.30835  13.19828
 -15.04013  -0.31345  12.97378
 -14.80043  -0.49985  12.79608
 -14.54793  -0.81805  12.76688
 -14.02143  -0.77385  12.71328
 -13.60473  -0.97465  12.64878
 -13.05393  -1.15725  13.09468
 -12.41513  -1.12945  13.32398
 -11.88063  -0.89825  13.63688
 -11.54513  -0.76615  13.77528
 -11.10723  -0.62605  13.93588
 -10.80533  -0.49585  14.15288
 -10.71703  -0.49795  14.31068
 -10.68003  -0.68075  14.18558
 -10.60543  -0.96695  14.13648
 -10.73313  -1.10495  13.88938
 -10.78173  -1.68615  13.81968
 -10.97763  -2.02165  13.65678
 -11.07373  -2.60085  13.41238
 -11.49583  -3.12505  13.08368
 -12.01233  -3.55455  12.89618
 -12.35063  -4.05725  12.17908
 -12.96323  -4.27865  11.76058
 -13.44553  -4.25735  11.19518
 -13.80183  -4.49535  10.46178
 -14.20823  -4.41405   9.85108
 -14.68143  -4.40955   9.12598
 -15.07163  -4.37735   8.38178
 -15.46373  -4.55755   7.47878
 -15.66343  -4.45025   6.86438
 -15.73993  -4.44955   5.80478
 -15.94803  -4.49655   5.05208
 -16.01463  -4.06935   4.46408
 -16.17573  -3.86945   3.53588
 -15.93303  -3.38315   2.88238
 -15.87293  -2.95345   2.19398
 -15.59373  -2.21695   1.75428
 -15.25923  -1.54055   1.18138
 -14.85863  -0.57345   0.88358
 -14.22063   0.20745   0.46128
 -13.63443   0.77095   0.05938
 -12.65223   1.62765  -0.28222
 -11.88973   2.32505  -0.78962
 -10.99993   2.89815  -1.45412
 -10.37283   3.54225  -2.14922
  -9.68283   3.86285  -2.82332
  -9.11193   4.34305  -3.89182
  -8.72913   4.90775  -4.46462
  -8.54933   5.49105  -5.29342
  -8.17833   6.15325  -6.03722
  -8.15093   6.96425  -6.59762
  -7.96503   7.58715  -7.27682
  -8.00083   8.07135  -7.68532
  -8.00273   8.71015  -8.36502
  -7.68733   8.92755  -8.76622
  -7.39413   9.36765  -9.20202
  -6.87433   9.68865  -9.96402
  -6.30993   9.78685 -10.74752
  -5.65943   9.70475 -11.39542
  -4.79153   9.38285 -11.95112
  -3.64893   9.25635 -12.96002
  -2.58203   8.92405 -13.53992
  -1.12353   8.32735 -13.92542
   0.40367   7.84385 -14.59832
   2.01277   7.59375 -14.96032
   3.57247   7.24765 -15.13872
   5.32367   7.17215 -15.16342
   6.91177   7.21965 -15.28832
   8.31177   7.34845 -15.17422
   9.49487   7.57615 -15.10572
  10.60127   7.87145 -15.08022
  11.71257   8.06835 -15.05872
  12.48527   8.23415 -15.00822
  13.36437   8.40295 -14.82142
  14.22057   8.43775 -14.65402
  14.91147   8.28185 -14.34912
  15.65267   8.18895 -14.18732
  16.53697   8.05505 -13.76952
  17.17847   7.78825 -13.38672
  17.87287   7.50975 -13.17372
  18.30147   7.25635 -12.78792
  18.52477   6.90185 -12.41742
  18.51097   6.59935 -11.85272
  18.50347   6.01925 -11.41692
  18.15537   5.60115 -10.86562
  17.61007   4.79385 -10.36642
  17.30217   3.93035 -10.04372
  17.07357   3.17355  -9.80242
  16.88507   2.24015  -9.11832
  16.77987   1.26235  -8.78332
  16.80187   0.32505  -8.04842
  16.60057  -0.72615  -7.29882
  16.83647  -1.77085  -6.45482
  16.98027  -2.72525  -5.19992
  17.08807  -3.70605  -4.05592
  16.96967  -4.36815  -2.43352
  16.92157  -5.16685  -0.78582
  16.65917  -5.85335   1.09818
  16.57877  -6.07875   3.18138
  16.29867  -6.64125   5.08158
  15.99867  -7.02075   7.29108
  15.50587  -7.22345   9.50968
  14.99727  -7.45305  11.80308
  14.46067  -7.86525  14.15898
  13.58207  -8.25755  16.74678
  12.58227  -8.32845  19.16268
  11.31477  -8.55575  21.50358
   9.75717  -8.75375  23.66798
   8.12587  -8.75745  25.85688
   6.39217  -8.83815  27.88728
   4.21567  -8.75145  29.58468
   1.99897  -8.75165  31.11318
   0.08127  -8.58535  32.76008
  -1.98443  -8.54615  34.29808
  -3.95263  -8.28075  35.44518
  -5.81283  -7.92115  36.77268
  -7.26853  -7.69015  38.04558
  -8.81893  -7.37985  39.15708
 -10.24473  -7.07315  40.01708
 -11.20823  -6.87255  40.71868
 -12.20613  -6.45615  41.28568
 -13.25893  -6.19305  41.45688
 -14.20983  -5.86265  41.31098
 -15.00363  -5.30645  40.75608
 -15.82473  -4.79815  40.12198
 -16.36233  -4.03365  39.16178
 -16.67253  -3.34205  38.04318
 -17.14833  -2.57165  37.19148
 -17.46933  -1.88565  36.07668
 -17.81423  -1.21525  34.92728
 -17.99893  -0.60555  33.81568
 -18.02183   0.05455  32.56528
 -18.24403   0.57995  31.24668
 -18.37403   0.96805  29.68668
 -18.21313   1.53365  27.85478
 -17.99003   1.80995  25.96488
 -17.54373   2.06245  23.81218
 -16.92013   2.37835  21.45098
 -16.36203   2.76905  19.00228
 -15.44463   2.98205  16.66628
 -14.28673   3.17965  14.12648
 -13.55543   3.23945  11.65488
 -12.30663   3.02855   9.20218
 -11.23203   2.72585   6.83558
 -10.27933   2.47005   4.47058
  -9.46333   1.87025   1.87368
  -8.83393   1.45295  -0.78772
  -8.04833   0.80485  -3.52262
  -7.46963   0.33255  -6.24552
  -6.99503  -0.22325  -8.87942
  -6.48693  -0.47645 -11.70562
  -6.05503  -0.75355 -14.44002
  -5.56783  -0.91415 -16.88972
  -4.93793  -1.15725 -19.18072
  -4.48833  -1.07775 -21.35212
  -3.73033  -1.10675 -23.18592
  -3.08643  -1.11635 -24.54672
  -2.42663  -1.15005 -25.74962
  -1.53673  -1.13065 -26.21042
  -0.56503  -0.88445 -26.52872
   0.59237  -0.74745 -26.46652
   1.84297  -0.33805 -26.50642
   3.16987  -0.16365 -26.46792
   4.58557   0.20535 -26.12182
   5.95667   0.35105 -25.76672
   7.15797   0.44965 -25.34772
   8.32507   0.47075 -24.89992
   9.55327   0.63675 -24.21652
  10.53177   0.38025 -23.72832
  11.55117   0.47935 -23.03722
  12.42677   0.61845 -22.49482
  13.27627   0.68135 -21.56892
  13.98277   0.98205 -20.80102
  14.50277   1.07815 -20.24272
  15.02817   1.27455 -19.60932
  15.25497   1.23455 -19.00542
  15.56917   1.46865 -18.54132
  15.55867   1.36735 -17.97852
  15.80067   1.34045 -17.59012
  15.76747   1.11465 -16.84572
  15.69217   0.73045 -16.29092
  15.71367   0.29485 -15.35522
  15.59817  -0.12525 -14.24062
  15.59117  -0.72405 -13.22072
  15.50537  -1.30275 -12.11292
  15.29917  -1.88205 -11.11672
  15.34287  -2.53765 -10.01612
  15.03537  -2.78645  -9.33762
  14.77027  -3.26415  -8.61962
  14.54537  -3.28825  -7.92542
  14.06257  -3.23025  -7.35982
  13.57127  -3.09255  -6.67882
  13.08517  -2.90615  -6.24832
  12.68307  -2.60785  -5.52562
  12.22787  -2.42645  -4.87662
  11.82917  -2.03685  -4.19312
  11.41347  -1.62535  -3.58242
  10.97977  -1.17955  -3.01012
  10.78057  -0.82295  -2.31642
  10.20357  -0.48415  -1.92472
   9.62107  -0.11495  -1.40782
   8.96387   0.05295  -0.98952
   8.45607   0.40085  -0.62292
   7.73827   0.46325  -0.29462
   7.03847   0.39005   0.01138
   6.30317   0.19205   0.63708
   5.51047  -0.02265   0.99248
   4.89517  -0.21245   1.64458
   3.99967  -0.33565   2.42438
   2.97997  -0.51315   3.04388
   1.89957  -0.50165   3.65208
   0.78037  -0.33845   4.28518
  -0.30053  -0.22115   5.05978
  -1.35833   0.03935   5.60108
  -2.31223   0.46235   5.96328
  -3.20143   0.97385   6.37878
  -3.93393   1.39095   6.57258
  -4.75043   1.98815   6.73058
  -5.49323   2.46465   6.71028
  -5.77803   2.90775   6.81668
  -6.48273   3.41275   6.91528
  -7.04713   3.67855   6.93658
  -7.56803   4.13075   7.24308
  -8.13483   4.39585   7.49378
  -8.81233   4.33835   7.91108
  -9.24073   4.50695   8.36328
  -9.63793   4.34655   8.74888
  -9.97793   4.16795   8.98338
 -10.30383   3.80345   8.97678
 -10.47263   3.72625   8.68758
 -10.22343   3.67135   8.27398
 -10.09243   3.37675   7.84658
  -9.76683   3.45905   6.85828
  -9.25563   3.78305   5.86018
  -8.63473   3.95325   4.77158
  -7.96433   4.25815   3.48678
  -7.16803   4.48145   2.36358
  -6.24793   4.72345   1.15478
  -5.54003   5.09635  -0.03722
  -4.75723   5.01995  -1.36852
  -4.02323   5.14405  -2.22522
  -3.34963   4.89575  -2.94882
  -2.59843   4.63295  -3.53012
  -2.13553   4.24465  -4.20532
  -1.74663   3.88545  -4.81022
  -1.17593   3.35525  -5.38212
  -0.79433   2.91025  -5.92122
  -0.30383   2.57685  -6.44642
  -0.12123   2.33465  -7.23762
   0.22297   1.91685  -7.79472
   0.27037   1.62405  -8.49782
   0.43407   1.45205  -8.93342
   0.41117   1.42045  -9.28342
   0.43597   1.44895  -9.73882
   0.23387   1.23295 -10.20342
  -0.06843   1.25915 -10.47302
  -0.27153   0.87705 -10.76322
  -0.82153   0.44335 -11.25322
  -1.57883  -0.12105 -11.50482
  -2.29633  -0.69155 -11.62712
  -3.30123  -1.14465 -11.67202
  -4.06093  -1.61715 -11.78472
  -5.02443  -2.13045 -12.11152
  -5.89213  -2.39925 -12.00562
  -6.59843  -2.35815 -12.24832
