********************************************************************************
              CENTRO DE INSTRUMENTACION Y REGISTRO SISMICO  A.C.

    Anaxagoras 814, Col. Narvarte, Benito Juarez, C.P. 03020 Mexico, D.F.
           Tels. 5687 45 42/ 5687 45  82             Fax. 5669 25 12
********************************************************************************
ARCHIVO ESTANDAR DE ACELERACION:
VERSION DEL FORMATO                    : 2.0
NOMBRE DEL ARCHIVO                     : MT5020210908014746
FECHA Y HORA DE CREACION               : 07/SEP/21, 23:17
REF. CATALOGO ACELEROGRAMAS, SMIS 1996 : REGISTRO No.     /PAG.


================================================================================
DATOS DE LA ESTACION:
NOMBRE DE LA ESTACION                  : MARISCAL TITO
CLAVE DE LA ESTACION                   : MT50
LOCALIZACION DE LA ESTACION            : Del. Miguel Hidalgo, Col. Bosque       
                                       : de Chapultepec, Av. Paseo de la        
                                       : Reforma, entre Rubén Darío             
                                       : y Gandhi.                              
                                       : 
COORDENADAS DE LA ESTACION             : 19.4253 LAT. N
                                       : 99.1900 LONG. W
ALTITUD (msnm)                         : 2234
TIPO DE SUELO                          : Arenoso, limoso, compacto           
                                       :                           
                                       : 
INSTITUCION RESPONSABLE                : CIRES, A. C.
                                       : 

================================================================================
DATOS DEL ACELEROGRAFO:
MODELO DEL ACELEROGRAFO                : RAD_IO14
NUMERO DE SERIE DEL ACELEROGRAFO       : 
NUMERO DE CANALES                      : 3
ORIENTACION C1-C6 (rumbo;orientacion)  : /N00E/+V/N90W
ORIENTACION C7-C12 (rumbo;orientacion) : 
VEL. DE MUESTREO, C1-C6 (muestras/s)   : /100/100/100
VEL. DE MUESTREO, C7-C12 (muestras/s)  : 
ESC. COMPLETA DE SENSORES, C1-C6, (g)  : /2.0/2.0/2.0
ESC. COMPLETA DE SENSORES, C7-C12, (g) : 
FREC. NAT. DE SENSORES, C1-C6, (Hz)    : /30/30/30
FREC. NAT. DE SENSORES, C7-C12, (Hz)   : 
AMORTIGUAMIENTO DE SENSORES, C1-C6     : /0.790/0.667/0.733
AMORTIGUAMIENTO DE SENSORES, C7-C12    : 
INTERVALO DE MUESTREO, C1-C6, (s)      : /0.01/0.01/0.01
INTERVALO DE MUESTREO, C7-C12, (s)     : 
UMBRAL DE DISPARO, C1-C6, (Gal)        : / / /
UMBRAL DE DISPARO, C7-C12, (Gal)       : 
MEMORIA DE PREEVENTO (s)               : 60
TIEMPO DE POSEVENTO (s)                : 90


================================================================================
DATOS DEL SISMO:
FECHA DEL SISMO (GMT)                  : 08/SEP/21
HORA EPICENTRO (GMT)                   : 01:47:46.0
MAGNITUD(ES)                           : /Mc=7.1
COORDENADAS DEL EPICENTRO              : 16.78 LAT. N
                                       : 99.93 LONG. W
PROFUNDIDAD FOCAL (km)                 : 10
FUENTE DE LOS DATOS EPICENTRALES       : SSN
                                       : INSTITUTO DE GEOFISICA, UNAM

================================================================================
DATOS DE ESTE REGISTRO:
HORA DE LA PRIMERA MUESTRA (GMT)       : 20:55:25.00
EXACTITUD DEL TIEMPO (s)               : 
DURACION DEL REGISTRO (s), C1-C6       : /573.26/573.26/573.26
DURACION DEL REGISTRO (s), C7-C12      : 
NUM. TOTAL DE MUESTRAS, C1-C6          : /57326/57326/57326
NUM. TOTAL DE MUESTRAS, C7-C12         : 
ACEL. MAX. (Gal), C1-C6                : /20.19655/7.66618/16.49434
ACEL. MAX., C1-C6, EN LA MUESTRA       : /4963/4998/4804
ACEL. MAX. (Gal), C7-C12               : 
ACEL. MAX., C7-C12, EN LA MUESTRA      : 
UNIDADES DE LOS DATOS                  : Gal (cm/s/s)
FACTOR DE DECIMACION                   : 1
FORMATO DATOS (FORTRAN,10 campos/dato) : 3F10.5


================================================================================
CALIDAD DEL ACELEROGRAMA:
REGISTRO DIGITAL COMPLETO CON TIEMPO ABSOLUTO CORRECTO.


================================================================================
COMENTARIOS:














================================================================================
DATOS DE ACELERACION:
---------+---------+---------+---------+---------+---------+---------+---------+
   CANAL-1   CANAL-2   CANAL-3   CANAL-4   CANAL-5   CANAL-6   CANAL-7   CANAL-8
      N00E        +V      N90W
---------+---------+---------+---------+---------+---------+---------+---------+
[...]
  -2.39665  -1.01182   0.26914
  -2.05295  -0.77312   0.62614
  -1.58115  -0.52412   0.84194
  -0.87085  -0.14912   0.83194
   0.12795   0.14198   1.00964
   1.31575   0.14928   0.86374
   2.25215   0.35848   0.59764
   3.58645   0.44458   0.50554
   4.85845   0.50748   0.21884
   5.85025   0.47078   0.01074
   6.67865   0.55798  -0.22836
   7.34545   0.54088  -0.39906
   7.82705   0.70808  -0.65346
   7.96035   0.83668  -0.47156
   7.97785   0.84648  -0.36916
   7.87895   0.94698  -0.18606
   7.79595   0.81728   0.08394
   7.54185   0.79108   0.31194
   7.39945   0.70568   0.60164
   7.19835   0.67488   1.07224
   7.00685   0.54788   1.32474
   6.66135   0.38818   1.63034
   5.93345   0.13098   1.64814
   5.49365   0.11628   1.86414
   4.99425  -0.06792   1.93454
   4.35175  -0.26882   2.03374
   3.77265  -0.23322   2.15294
   3.09685  -0.51122   2.09684
   2.77075  -0.35222   2.24974
   2.27035  -0.32422   2.51534
   2.05625  -0.19682   2.72364
   1.85445  -0.09882   3.12394
   1.56915   0.04938   3.31314
   1.34915   0.07048   3.72484
   0.95075   0.32528   4.22074
   0.46725   0.17288   4.45644
  -0.03545   0.14898   4.74164
  -0.32885   0.11328   4.84854
  -0.69665   0.04128   4.86394
  -0.84025   0.30778   5.00774
  -1.08365   0.37208   4.76994
  -0.85095   0.63108   4.76974
  -1.01555   0.82098   4.67344
  -0.94375   1.08888   4.56564
  -0.77965   1.28998   4.35614
  -0.63865   1.35028   3.95184
  -0.44205   1.38988   3.75754
  -0.33165   1.57128   3.48004
  -0.21175   1.63438   3.43114
  -0.12775   1.64888   3.10734
  -0.00415   1.53718   3.30654
   0.17265   1.80528   3.38094
   0.61315   2.06978   3.05054
   1.00575   2.15928   2.59714
   1.47235   2.58108   2.46604
   2.06745   2.76348   2.14824
   2.57265   2.53528   1.86604
   3.21755   2.41018   1.58524
   3.98025   2.25538   1.45314
   4.67955   2.13948   1.20814
   5.37345   2.07628   1.08374
   5.99165   1.81418   0.95144
   6.95215   1.73728   0.94324
   7.53765   1.70038   0.94274
   8.49975   1.81938   0.91654
   9.57415   1.77048   1.12674
  10.30475   1.92948   1.26794
  10.92695   2.04798   1.43494
  11.52175   1.97508   1.95254
  11.62905   2.16068   2.03794
  11.71645   2.09318   2.24414
  11.38585   2.06558   2.24784
  10.88315   2.01088   2.37224
  10.26755   2.27878   2.38134
   9.71855   2.51798   1.93484
   8.57875   2.76488   1.47464
   7.51825   2.80438   1.03934
   6.33865   2.55308   0.69724
   5.02865   2.42818   0.29674
   3.88345   2.00028   0.13774
   2.73985   1.89318  -0.17086
   1.79975   1.89088  -0.22096
   0.86915   1.72908  -0.22886
   0.01505   1.58908  -0.17276
  -0.87695   1.35668   0.45504
  -1.80165   1.04778   0.78754
  -2.57295   0.56778   1.20434
  -3.08315   0.40648   1.70734
  -3.46215   0.24578   2.15644
  -3.66855   0.19508   2.57054
  -3.85775   0.01478   2.81644
  -3.88205  -0.16962   2.96564
  -3.44275  -0.37282   3.01524
  -3.12335  -0.59002   2.80124
  -2.71165  -0.64802   2.58924
  -2.18275  -0.84722   2.28064
  -2.05955  -0.74932   1.94534
  -1.94685  -0.68102   1.65584
  -1.92885  -0.44792   1.28924
  -2.21005  -0.03822   0.99864
  -2.17175   0.54858   0.47634
  -2.58415   0.90628   0.00754
  -2.95005   1.26448  -0.52326
  -3.27555   1.57988  -1.20786
  -3.83785   1.34008  -1.69836
  -4.16405   0.89928  -2.42596
  -4.88155   0.77558  -2.83236
  -5.47285   0.70778  -3.35396
  -5.97535   1.04938  -3.47676
  -6.42845   1.20538  -3.84266
  -6.82155   1.23038  -3.87186
  -7.25525   1.24278  -4.20786
  -7.32065   1.24818  -4.19826
  -7.22135   0.93158  -4.39326
  -6.77265   0.62438  -4.52226
  -6.45605  -0.06022  -4.52816
  -5.93255  -0.79862  -4.50756
  -5.17195  -1.24772  -4.38386
  -4.63935  -1.59632  -4.03736
  -4.17085  -1.80422  -3.66046
  -3.60405  -1.94142  -2.87346
  -3.32865  -2.03402  -2.28776
  -2.65155  -2.05162  -1.62256
  -1.92785  -2.47502  -1.20856
  -1.15465  -2.83372  -0.99156
  -0.31035  -2.75562  -1.00256
   0.50985  -2.45042  -1.26586
   1.37555  -1.95952  -1.56016
   2.07635  -1.41442  -1.70496
   2.58255  -0.64222  -2.09326
   2.72215   0.01018  -2.44186
   2.85935   0.48308  -2.74466
   2.67955   0.99778  -2.86436
   2.32715   1.50468  -2.49076
   1.74995   1.85068  -2.46646
   1.29445   2.18598  -2.19616
   1.06485   2.45598  -2.35516
   0.68725   2.67138  -2.48606
   0.26055   2.79668  -2.96416
  -0.03665   2.79148  -3.38766
  -0.32305   2.79688  -4.05866
  -0.86995   2.50278  -4.46996
  -1.52055   1.95608  -4.99716
  -2.12825   1.45388  -5.39276
  -2.72585   0.73148  -5.83676
  -3.21125   0.03028  -6.08536
  -3.57175  -0.40562  -6.64416
  -3.64105  -1.06912  -6.94366
  -3.52015  -1.58352  -7.36656
  -3.19935  -1.82342  -8.02146
  -3.03595  -2.54442  -8.40886
  -2.55655  -2.78482  -8.70346
  -2.60105  -2.98262  -8.81176
  -2.33335  -3.12592  -8.78676
  -2.71045  -3.33542  -8.58516
  -2.81305  -3.21592  -8.06406
  -2.85115  -2.94142  -7.38346
  -3.07865  -2.81192  -6.65326
  -3.06555  -2.60622  -5.87206
  -2.87945  -2.15892  -5.19756
  -2.34665  -1.97632  -4.28946
  -1.64315  -1.56642  -3.59156
  -0.99035  -1.58862  -2.69906
  -0.21665  -1.47642  -1.56226
   0.45115  -1.40162  -0.34536
   0.86795  -1.02562   1.20554
   1.06865  -0.96832   2.97014
   0.93625  -1.01562   4.77394
   0.82845  -0.97912   6.77794
   0.50535  -1.00202   8.79334
   0.21075  -0.90242  10.78284
  -0.01885  -0.88812  12.51374
  -0.23955  -1.04222  14.03344
  -0.43365  -1.14912  15.09944
  -0.58515  -1.32582  15.97104
  -0.50075  -1.46492  16.49434
  -0.54025  -1.64872  16.46364
  -0.57035  -1.69062  16.32104
  -0.81545  -1.50962  15.99414
  -1.29525  -1.27632  15.29154
  -2.15815  -0.89752  14.30654
  -3.06305  -0.78782  13.51374
  -4.21685  -0.39432  12.36224
  -5.44905  -0.32682  10.86864
  -6.86565  -0.07122   9.23244
  -7.88065   0.32578   7.33154
  -9.04435   0.52898   5.19174
  -9.80065   0.86168   3.16904
 -10.47125   1.38538   1.09494
 -11.09245   1.75688  -1.03786
 -11.52335   2.04708  -3.01516
 -11.93775   2.34748  -5.01496
 -11.96815   2.45948  -6.80386
 -11.87805   2.35598  -8.42546
 -11.66645   2.24138  -9.99206
 -11.18325   1.97768 -11.28706
 -10.68145   1.37908 -12.33896
  -9.97535   1.14578 -12.89706
  -9.20515   0.62318 -13.43016
  -8.49065  -0.03872 -13.53236
  -7.56855  -0.61692 -13.39976
  -6.75955  -1.12122 -12.91046
  -5.92225  -1.80162 -12.41546
  -5.15325  -2.21832 -11.52536
  -4.37915  -2.36392 -10.52536
  -3.78175  -2.55192  -9.29036
  -3.06675  -2.57902  -7.95556
  -2.47685  -2.43222  -6.50666
  -1.76255  -2.20102  -4.99176
  -1.30925  -1.68822  -3.69156
  -0.64355  -0.94752  -2.66726
  -6.5E-40  -0.24072  -1.57066
   0.56005   0.55838  -0.58026
   0.93205   1.36128   0.28484
   0.80605   1.77098   1.07784
   0.74365   1.93558   2.11384
   0.41815   1.90168   3.14854
   0.09365   1.80418   3.85714
  -0.23445   1.39548   4.33904
  -0.76955   1.10718   5.02314
  -1.05345   0.88198   5.46084
  -1.47245   0.43778   5.63624
  -1.92045   0.42138   5.90444
  -1.97535  -0.06262   6.05424
  -2.17545  -0.35012   6.19104
  -2.45865  -0.54372   6.28344
  -2.28635  -0.86382   6.36384
  -2.26105  -1.18512   6.33414
  -1.96905  -1.20422   6.14214
  -1.68705  -1.35622   6.01734
  -1.67045  -1.28372   5.88384
  -1.32485  -1.16082   5.76014
  -0.96205  -1.23742   5.68274
  -0.81545  -0.93862   5.62264
  -0.44065  -0.46522   5.63204
   0.35805   0.00448   5.88404
   1.13855   0.42958   5.84644
   2.02465   0.54228   5.85274
   3.14065   0.64068   5.96074
   4.55515   0.39828   5.78044
   6.02605   0.31318   5.56634
   7.06485   0.19138   5.22264
   8.30985   0.09458   4.76714
   9.43755   0.35408   4.37994
  10.49555   0.42398   3.95064
  11.49345   0.31198   3.29744
  12.55045   0.46608   2.55834
  13.38475   0.29188   1.85604
  14.19325   0.03728   0.94114
  14.69965  -0.49092   0.00334
  14.83475  -0.97492  -0.95556
  14.97015  -1.36142  -1.74516
  14.87055  -1.62952  -2.78296
  14.55375  -1.96162  -3.85266
  14.05485  -2.06612  -4.82416
  13.43525  -2.44862  -5.98286
  12.61525  -2.59002  -7.07156
  11.74155  -2.56902  -8.29646
  10.64095  -2.29242  -8.94456
   9.46215  -2.00712  -9.65116
   8.07215  -1.46922  -9.88966
   6.68465  -0.72262  -9.85146
   5.26825  -0.10022  -9.84986
   3.80815   0.67158  -9.40966
   2.03115   1.44528  -8.99386
   0.47735   1.91708  -8.41496
  -0.93495   2.35778  -7.53426
  -2.32675   2.64558  -6.70276
  -3.50495   2.48988  -5.67986
  -4.41025   2.23578  -4.98176
  -5.12195   1.56728  -4.03716
  -5.57955   0.78338  -3.22096
  -5.80425  -0.07962  -2.45586
  -5.64055  -0.82832  -1.83586
  -5.36975  -1.37102  -1.18116
  -5.02915  -1.92202  -0.53466
  -4.17805  -2.27912   0.15594
  -3.78875  -2.41142   0.74774
  -3.29755  -2.47852   1.42204
  -2.87175  -2.33312   1.75074
  -2.65925  -1.96062   2.23944
  -2.30195  -1.67122   2.59884
  -2.15005  -1.70692   2.73794
  -1.72705  -1.33782   2.87654
  -1.49695  -1.16502   2.67384
  -1.35455  -1.05512   2.42794
  -1.32395  -0.85772   1.89924
  -1.15795  -0.56272   1.58804
  -1.22695  -0.37682   1.21724
  -1.43085  -0.05322   0.71314
  -1.62515   0.15388   0.13864
  -2.13525   0.62018  -0.11896
  -2.46075   0.87688  -0.49846
  -3.20285   1.04378  -0.98006
  -3.75975   1.20908  -1.56626
  -3.97325   1.12028  -2.12176
  -4.61435   1.13868  -2.56366
  -5.19395   0.99748  -3.27006
  -5.60265   0.78498  -3.76636
  -6.32135   0.48148  -4.32196
  -6.84205  -0.07402  -4.82786
  -7.38845  -0.51942  -5.41566
  -8.00715  -1.01212  -5.48676
  -8.56925  -1.50172  -5.62756
  -9.29285  -1.85312  -5.76616
  -9.74105  -2.65572  -5.45336
 -10.30925  -3.04082  -5.52976
 -10.77355  -3.47482  -5.25226
 -10.96665  -3.81312  -4.92676
 -10.93305  -4.27722  -4.83886
 -10.90145  -4.43012  -4.75756
 -10.55655  -4.76962  -4.41596
 -10.15655  -4.91152  -4.04226
  -9.67185  -4.94712  -3.74096
  -9.03565  -4.48882  -3.40606
  -8.25125  -4.18182  -2.71586
  -7.17405  -3.62072  -2.08906
  -6.21615  -2.91852  -1.50456
  -5.10935  -2.37142  -1.03596
  -3.86265  -1.76022  -0.60416
  -2.31575  -1.05252  -0.00586
  -0.46235  -0.27632   0.44404
   1.60495   0.31458   0.73934
   3.85025   0.86098   0.94014
   6.11375   1.43308   1.31424
   8.55565   2.00378   1.62994
  10.64845   2.30428   1.72624
  12.88455   2.51818   1.93574
  15.12355   2.80108   2.15664
  16.87245   2.61478   2.11784
  18.15795   2.29588   2.01454
  19.08705   2.17988   2.00334
  19.76205   2.02788   1.79774
  20.15655   1.74758   1.74684
  20.19655   1.50608   1.27824
  20.08075   0.94488   0.97264
  19.82985   0.52938   0.78284
  19.10505   0.02648   0.73044
  18.50915  -0.23302   0.74864
  17.55895  -0.62372   1.03694
  16.67235  -0.36632   1.60374
  15.73355  -0.33192   2.20764
  14.39665  -0.26882   2.73934
  12.93325  -0.09132   3.39424
  11.20885   0.51798   4.05214
   9.16685   0.91498   4.62004
   7.80695   1.38028   5.13894
   6.32695   1.81068   5.75994
   5.08005   2.34028   6.47584
   4.17125   2.69538   7.20224
   3.25425   2.75368   8.04774
   2.49415   2.95728   8.88574
   1.93585   2.90588   9.72714
   1.31835   2.65058  10.20884
   0.64265   2.74378  10.77604
   0.16215   2.81558  11.22544
  -0.56965   3.05788  11.08934
  -1.30195   3.22848  11.14804
  -2.17085   3.43688  11.08304
  -3.05575   3.74478  10.56164
  -4.07965   3.96878  10.28994
  -4.91435   4.23298   9.69464
  -5.60965   4.50648   8.76134
  -6.19375   4.97338   7.75824
  -6.91855   5.64728   6.89364
  -7.42985   6.10578   5.78444
  -7.93345   6.36248   4.42394
  -8.31275   6.81818   3.12724
  -8.69085   7.27788   1.83164
  -8.90495   7.66618   0.56074
  -9.28935   7.55678  -0.57516
  -9.31155   7.18898  -1.72826
  -9.20965   6.51448  -2.74556
  -8.59935   5.84768  -3.68226
  -8.16475   4.78828  -4.27356
  -7.55635   3.66688  -5.05446
  -6.80305   2.72188  -5.75046
  -6.00455   1.71578  -6.30116
  -5.50915   1.02488  -6.64016
  -5.07825   0.47468  -6.99456
  -4.75365  -0.17832  -7.11006
  -4.60055  -0.84612  -7.00396
  -4.54865  -1.43172  -6.69186
  -4.54465  -2.03172  -6.28756
  -4.58765  -2.39462  -5.64696
  -4.59075  -2.68712  -4.98686
  -4.67535  -3.03122  -3.94386
  -4.76745  -2.99362  -2.87236
  -4.72985  -3.08942  -1.58776
  -4.45585  -3.07452  -0.45546
  -4.17035  -2.94402   0.60464
  -3.81095  -2.99872   1.72364
  -3.45535  -2.80492   2.43674
  -3.19345  -2.35742   3.12764
  -3.02235  -1.76542   4.08234
  -3.12915  -1.24982   4.85154
  -3.27295  -0.91502   5.43234
  -3.59985  -0.74082   6.18024
  -3.86125  -0.67892   6.75384
  -4.35015  -0.63452   6.89734
  -4.64245  -0.88492   6.96894
  -4.97675  -0.98122   6.81884
  -5.36485  -0.95312   6.62874
  -5.57815  -0.55102   6.43214
  -5.98025  -0.36652   6.33134
  -6.24145  -0.05532   5.97664
  -6.21215   0.43048   5.65534
  -5.81585   0.62088   5.41274
  -5.53185   0.71018   4.83514
  -4.77455   0.92108   3.90864
  -4.12495   1.26128   2.83094
  -3.04945   1.34148   1.41664
  -1.73215   1.66388   0.02294
  -0.40855   1.97858  -1.16226
   1.20445   1.93598  -2.44046
   2.59095   2.25238  -3.55406
   4.05505   2.49898  -4.77666
   5.64335   2.65498  -5.63686
   6.95145   2.67998  -6.50686
   8.20845   2.54298  -7.08956
   8.97225   1.99398  -7.52326
   9.53905   1.38328  -7.93916
   9.95285   0.73098  -8.49026
  10.41255   0.09358  -9.03666
  10.83405  -0.48552  -9.77996
  10.73655  -1.01742 -10.17856
  10.71785  -1.61222 -10.76686
  10.50275  -2.02142 -11.18566
   9.88605  -2.30882 -11.38296
   9.02205  -2.69172 -11.50176
   8.18995  -3.04712 -11.45096
   7.12145  -3.45982 -11.59156
   5.74365  -3.78292 -11.32006
   4.06815  -3.71072 -10.89496
   2.40155  -3.76682 -10.43746
   0.53485  -3.56412  -9.73106
  -1.37845  -3.52482  -8.65906
  -3.25425  -3.19052  -7.63076
  -4.85115  -2.86452  -6.34856
  -6.18045  -2.33402  -5.00956
  -7.30545  -1.89162  -3.60106
  -7.98935  -1.32022  -2.06736
  -8.32275  -0.68662  -0.54966
  -8.51755  -0.30812   1.17864
  -8.80815  -0.18482   3.03534
  -8.81775  -0.25732   4.54384
  -8.62445   0.01128   6.29324
  -8.33845  -0.02912   7.80244
  -7.90705  -0.08132   9.21814
  -7.70995  -0.44272  10.38094
  -7.29915  -0.75232  11.36294
  -6.80205  -1.05582  12.05914
  -6.64495  -1.12662  12.46924
  -6.41655  -1.35832  12.71054
  -5.96835  -1.51432  12.36614
  -5.66535  -2.00362  11.85904
  -5.41355  -2.37592  11.15834
  -5.21945  -2.52222  10.17794
  -5.22945  -3.06632   9.17774
  -5.25845  -3.29382   7.76244
  -5.32045  -3.71302   6.59344
  -5.43435  -4.16122   5.19244
  -5.42585  -4.30782   3.85644
  -5.44105  -4.56712   2.36434
  -5.17875  -4.42192   0.84504
  -4.94355  -4.42312  -0.70816
  -4.70205  -4.25992  -2.21016
  -4.28845  -3.81382  -3.54356
  -3.63915  -3.50612  -4.74346
  -2.93775  -3.28872  -5.60206
  -1.90405  -2.74952  -6.40286
  -0.82685  -2.56882  -6.98546
   0.22155  -2.41302  -7.40586
   1.54935  -2.12362  -7.65936
   2.72185  -1.92042  -7.67706
   3.62995  -1.71232  -7.63966
   4.36185  -1.73942  -7.23096
   5.17965  -1.50422  -6.88216
