********************************************************************************
              CENTRO DE INSTRUMENTACION Y REGISTRO SISMICO  A.C.

    Anaxagoras 814, Col. Narvarte, Benito Juarez, C.P. 03020 Mexico, D.F.
           Tels. 5687 45 42/ 5687 45  82             Fax. 5669 25 12
********************************************************************************
ARCHIVO ESTANDAR DE ACELERACION:
VERSION DEL FORMATO                    : 2.0
NOMBRE DEL ARCHIVO                     : PE1020210908014746
FECHA Y HORA DE CREACION               : 07/SEP/21, 23:37
REF. CATALOGO ACELEROGRAMAS, SMIS 1996 : REGISTRO No.     /PAG.


================================================================================
DATOS DE LA ESTACION:
NOMBRE DE LA ESTACION                  : ESC. PRIM. "PLUTARCO ELÍAS CALLES"
CLAVE DE LA ESTACION                   : PE10
LOCALIZACION DE LA ESTACION            : Del. Iztacalco, Col. Barrio San Pedro, 
                                       : Av. Plutarco Elias Calles,             
                                       : Entre Av. Santiago y Playa Caletilla.  
                                       :                                        
                                       : 
COORDENADAS DE LA ESTACION             : 19.3809 LAT. N
                                       : 99.1318 LONG. W
ALTITUD (msnm)                         : 2232
TIPO DE SUELO                          : Arcilloso, zona lago                
                                       :                           
                                       : 
INSTITUCION RESPONSABLE                : CIRES, A. C.
                                       : 

================================================================================
DATOS DEL ACELEROGRAFO:
MODELO DEL ACELEROGRAFO                : RAD_IO14
NUMERO DE SERIE DEL ACELEROGRAFO       : 
NUMERO DE CANALES                      : 3
ORIENTACION C1-C6 (rumbo;orientacion)  : /N00E/+V/N90W
ORIENTACION C7-C12 (rumbo;orientacion) : 
VEL. DE MUESTREO, C1-C6 (muestras/s)   : /100/100/100
VEL. DE MUESTREO, C7-C12 (muestras/s)  : 
ESC. COMPLETA DE SENSORES, C1-C6, (g)  : /2.0/2.0/2.0
ESC. COMPLETA DE SENSORES, C7-C12, (g) : 
FREC. NAT. DE SENSORES, C1-C6, (Hz)    : /30/31/30
FREC. NAT. DE SENSORES, C7-C12, (Hz)   : 
AMORTIGUAMIENTO DE SENSORES, C1-C6     : /0.732/0.733/0.666
AMORTIGUAMIENTO DE SENSORES, C7-C12    : 
INTERVALO DE MUESTREO, C1-C6, (s)      : /0.01/0.01/0.01
INTERVALO DE MUESTREO, C7-C12, (s)     : 
UMBRAL DE DISPARO, C1-C6, (Gal)        : / / /
UMBRAL DE DISPARO, C7-C12, (Gal)       : 
MEMORIA DE PREEVENTO (s)               : 60
TIEMPO DE POSEVENTO (s)                : 90


================================================================================
DATOS DEL SISMO:
FECHA DEL SISMO (GMT)                  : 08/SEP/21
HORA EPICENTRO (GMT)                   : 01:47:46.0
MAGNITUD(ES)                           : /Mc=7.1
COORDENADAS DEL EPICENTRO              : 16.78 LAT. N
                                       : 99.93 LONG. W
PROFUNDIDAD FOCAL (km)                 : 10
FUENTE DE LOS DATOS EPICENTRALES       : SSN
                                       : INSTITUTO DE GEOFISICA, UNAM

================================================================================
DATOS DE ESTE REGISTRO:
HORA DE LA PRIMERA MUESTRA (GMT)       : 20:55:00.00
EXACTITUD DEL TIEMPO (s)               : 
DURACION DEL REGISTRO (s), C1-C6       : /599.17/599.17/599.17
DURACION DEL REGISTRO (s), C7-C12      : 
NUM. TOTAL DE MUESTRAS, C1-C6          : /59917/59917/59917
NUM. TOTAL DE MUESTRAS, C7-C12         : 
ACEL. MAX. (Gal), C1-C6                : /48.36881/9.86434/40.88193
ACEL. MAX., C1-C6, EN LA MUESTRA       : /7882/4018/8458
ACEL. MAX. (Gal), C7-C12               : 
ACEL. MAX., C7-C12, EN LA MUESTRA      : 
UNIDADES DE LOS DATOS                  : Gal (cm/s/s)
FACTOR DE DECIMACION                   : 1
FORMATO DATOS (FORTRAN,10 campos/dato) : 3F10.5


================================================================================
CALIDAD DEL ACELEROGRAMA:
REGISTRO DIGITAL COMPLETO CON TIEMPO ABSOLUTO CORRECTO.


================================================================================
COMENTARIOS:














================================================================================
DATOS DE ACELERACION:
---------+---------+---------+---------+---------+---------+---------+---------+
   CANAL-1   CANAL-2   CANAL-3   CANAL-4   CANAL-5   CANAL-6   CANAL-7   CANAL-8
      N00E        +V      N90W
---------+---------+---------+---------+---------+---------+---------+---------+
[...]
  -0.05241   6.19786   2.23263
   0.67219   5.51206   1.73023
   1.54309   4.64636   1.11993
   2.33029   3.75506   0.37413
   3.52139   2.76696  -0.51087
   4.71449   1.60186  -1.35377
   6.03779   0.54346  -2.28657
   7.32029  -0.25314  -3.11807
   8.79579  -1.13484  -4.04347
  10.20899  -1.96794  -4.62117
  11.50619  -2.69224  -5.68477
  12.67329  -3.36564  -6.75047
  13.71539  -3.66564  -8.07737
  14.64709  -3.84684  -9.43417
  15.26369  -4.16964 -10.36147
  15.38719  -4.36304 -11.43507
  15.50869  -4.58584 -12.09517
  14.95649  -4.98284 -12.73947
  14.15189  -5.56784 -13.38547
  13.02939  -5.86994 -13.99997
  11.76339  -6.25624 -14.30297
  10.34999  -6.57164 -14.68997
   8.78909  -6.78644 -14.80407
   7.23819  -6.69084 -14.59737
   5.60089  -6.53064 -14.14887
   3.87349  -6.54164 -13.49607
   1.97119  -6.34784 -12.98217
  -0.22241  -6.03154 -12.23257
  -2.08981  -5.59194 -11.04697
  -3.98761  -4.98384  -9.85147
  -5.89791  -4.38944  -8.06167
  -7.88801  -3.43224  -6.15967
  -9.73211  -2.53394  -4.25177
 -11.46671  -1.55034  -2.21277
 -13.34511  -0.53204  -0.15947
 -15.36481   0.64706   1.97853
 -17.24861   1.69186   4.25183
 -18.81461   2.91406   6.37783
 -20.44681   3.79246   8.02623
 -21.85161   4.49576   9.50623
 -23.20321   5.13096  10.71083
 -24.26121   5.31496  11.34373
 -24.98391   5.39426  11.67133
 -25.68791   5.41746  11.74423
 -25.96431   5.31566  11.76743
 -26.08211   5.27056  11.55953
 -25.69401   4.98556  11.28833
 -25.12191   4.45136  10.90583
 -24.23451   4.06156  10.79033
 -23.11741   3.44286  10.57613
 -21.79191   2.88576  10.40923
 -20.01591   2.21986  10.25093
 -18.21771   1.61666   9.80973
 -16.07111   1.00336   9.44593
 -13.76691   0.54956   8.94763
 -11.12651  -0.22084   8.34513
  -8.39821  -0.86454   7.76153
  -5.92731  -1.24944   7.21183
  -3.40831  -1.68404   6.91053
  -1.25751  -2.03294   6.59013
   0.88449  -2.33924   6.37183
   2.76969  -2.63474   5.96963
   4.59289  -3.21924   5.71573
   6.09699  -3.53184   5.65563
   7.39629  -3.94214   5.83053
   8.52809  -4.24704   5.96283
   9.40659  -4.72614   6.31073
  10.19429  -4.97254   6.68133
  10.91229  -5.44204   6.79123
  11.40799  -5.59264   7.22243
  11.75539  -5.70604   7.35613
  11.92749  -5.55754   7.57473
  11.75139  -5.27604   7.79573
  11.59919  -5.15734   8.04213
  11.18019  -5.00294   8.28623
  10.65139  -5.20054   8.57033
   9.98359  -5.22044   8.93383
   9.51739  -5.31164   9.12603
   8.73809  -5.29924   9.75193
   7.93379  -5.29594  10.21563
   7.27309  -5.31094  10.73143
   6.14169  -4.97254  11.11623
   5.12669  -4.80124  11.44263
   3.92729  -4.25834  11.52003
   2.82999  -3.54304  11.50433
   1.48629  -3.13184  11.35823
   0.08899  -2.77544  10.96893
  -1.51421  -2.31794  10.52353
  -3.29791  -1.80584   9.91513
  -5.06481  -1.38924   9.20013
  -6.60211  -0.95084   8.53333
  -8.16301  -0.64384   7.52423
  -9.68861  -0.54564   6.53403
 -11.30451  -0.54654   5.53783
 -12.88131  -0.57114   4.38673
 -14.36451  -0.69924   3.42763
 -15.54181  -0.89914   2.30043
 -16.89551  -0.91464   1.25093
 -17.83311  -0.96584   0.28853
 -18.64861  -0.98984  -0.70397
 -19.30631  -1.15074  -1.67847
 -19.88341  -1.09304  -2.62237
 -20.49271  -1.29544  -3.49777
 -21.10971  -1.50284  -4.05447
 -21.31081  -1.76734  -4.68457
 -21.69751  -2.16014  -4.97147
 -22.27081  -2.35794  -5.20217
 -22.47861  -2.73644  -5.41517
 -22.61641  -3.03294  -5.58497
 -22.94161  -3.39044  -5.67057
 -23.03161  -3.76214  -5.91627
 -22.96641  -3.99034  -5.85107
 -22.72601  -4.28794  -5.57727
 -22.20601  -4.53984  -5.40847
 -21.68671  -4.68964  -5.00677
 -21.06201  -4.67304  -4.63197
 -20.51351  -4.63704  -4.34837
 -19.87611  -4.41074  -4.02707
 -18.92101  -4.32234  -3.53937
 -18.17961  -4.25194  -3.20337
 -17.40781  -4.39184  -2.62007
 -16.65031  -4.34734  -1.99597
 -15.99071  -4.65434  -1.52327
 -15.64281  -4.81644  -1.09977
 -14.96051  -4.77474  -0.77057
 -14.31151  -4.52854  -0.57537
 -13.68741  -3.86974  -0.47317
 -12.87661  -3.16644  -0.53747
 -11.82161  -2.68664  -0.86017
 -10.60491  -2.04134  -1.32097
  -9.15081  -1.32934  -1.77157
  -7.54571  -0.54234  -2.07037
  -5.89411   0.23506  -2.29527
  -3.75941   0.82236  -2.31067
  -1.43401   1.34466  -2.15447
   0.75589   1.90396  -2.03387
   2.69039   2.34706  -1.67867
   4.81339   2.80486  -1.30297
   6.52599   3.39826  -0.72827
   7.89779   4.01786  -0.20757
   9.30789   4.56116   0.04093
  10.44719   4.93386   0.20603
  11.35819   5.19156  -0.01187
  12.10849   5.10106  -0.58867
  12.91019   5.02856  -1.35727
  13.53229   5.09076  -2.13717
  14.17269   4.86536  -2.95107
  14.83649   4.48546  -4.03087
  15.58399   4.00196  -5.19447
  16.08129   3.57196  -6.30837
  16.50779   3.27086  -7.54377
  16.99599   2.77626  -8.86127
  17.38149   2.35566  -9.94197
  17.51829   1.85536 -10.76057
  17.57419   1.48806 -11.63597
  17.61529   1.26026 -12.47017
  17.49679   0.85156 -12.82297
  17.23799   0.66786 -12.90897
  16.43559   0.77096 -12.88747
  15.37379   0.88616 -12.92237
  13.65699   1.29326 -13.12267
  11.46099   1.90536 -13.23607
   9.23069   2.55096 -12.92627
   7.27869   3.18946 -12.21947
   5.23699   3.78516 -11.67517
   3.08299   4.17496 -10.81147
   0.88889   4.40946  -9.87467
  -1.23221   4.41926  -9.28687
  -3.71881   4.50626  -8.95807
  -5.84171   4.40316  -8.76667
  -7.37531   4.40736  -8.74467
  -8.98251   4.40316  -8.72247
 -10.22991   4.34286  -8.61297
 -11.24441   4.22966  -8.98567
 -12.41271   4.42556  -9.50287
 -13.05241   4.41296  -9.88377
 -13.07721   4.47916 -10.15357
 -12.88271   4.63486 -10.31237
 -12.60821   4.89436 -10.13627
 -12.24511   5.04756  -9.61887
 -11.79151   5.06016  -8.85947
 -11.24971   5.17726  -7.58497
 -10.45761   5.54456  -6.14797
  -9.60931   5.71036  -4.41267
  -8.61311   5.89996  -2.72287
  -7.81981   6.06766  -0.64687
  -7.06181   6.18596   1.40783
  -6.07771   6.05476   3.54833
  -5.08891   6.00806   5.55203
  -3.79221   5.85716   7.29443
  -2.65701   5.49716   9.16583
  -0.87821   4.95966  10.70263
   0.95829   4.28626  12.09703
   2.77009   3.61266  13.44073
   5.06329   2.74146  14.69753
   7.01469   2.03306  15.48843
   9.56699   1.16446  15.98623
  12.10279   0.71576  16.39213
  15.04629   0.48316  16.55323
  18.09419   0.18176  16.47673
  20.88469   0.12606  16.21303
  23.68949  -0.10374  15.93623
  26.24939   0.08516  15.43493
  28.62139   0.10296  14.71103
  31.06099   0.13356  13.75893
  33.09769   0.36546  12.83913
  34.91909   0.44076  11.90793
  36.33639   0.57896  11.29233
  37.25579   0.42306  10.70243
  38.18719   0.42586  10.30893
  38.61489   0.15996   9.76693
  38.99719  -0.28334   9.25883
  39.15219  -0.83584   8.77203
  39.12129  -1.44204   8.46903
  39.02009  -1.97254   8.24363
  38.72829  -2.45754   8.06063
  38.45729  -2.76704   7.66333
  38.05679  -3.08294   6.94043
  37.57489  -2.96044   6.28623
  37.26859  -2.91434   5.46793
  36.65579  -2.68124   4.20323
  36.22649  -2.24424   3.11153
  35.73719  -1.87574   2.09143
  35.32499  -1.26854   0.85973
  34.99409  -0.96974  -0.16087
  34.47509  -0.71754  -1.45497
  33.99809  -0.25764  -2.54407
  33.48719   0.04196  -3.68947
  32.70139   0.59746  -4.91857
  31.91979   1.03446  -5.90107
  31.02589   1.58526  -6.81337
  30.13319   2.29346  -7.30207
  28.96069   3.26336  -7.81787
  27.76919   4.01366  -7.81617
  26.35039   4.81516  -7.95457
  24.81599   5.57316  -7.93757
  23.19399   6.29556  -7.73417
  21.30039   6.61806  -7.19287
  19.20099   6.89276  -6.53657
  16.90179   6.89766  -5.48867
  14.51409   6.59676  -4.46857
  11.82689   6.49336  -3.21577
   9.57089   6.31686  -1.56747
   7.16529   6.05826  -0.18587
   4.82949   5.77776   1.42113
   2.68179   5.41416   2.96963
   0.69619   4.78796   4.50133
  -1.13211   4.18476   5.74493
  -2.57241   3.52166   6.91423
  -3.68461   2.78056   7.63363
  -4.64891   2.08986   8.11063
  -5.31081   1.58086   8.48683
  -5.74121   1.13236   8.48613
  -6.04191   0.63746   8.24293
  -6.25611   0.57266   7.99283
  -6.40801   0.61406   7.90533
  -6.62641   0.91796   7.59623
  -6.63671   0.93996   7.40123
  -6.43701   1.33326   7.25423
  -6.20491   1.42866   7.29653
  -5.75661   1.49266   7.36733
  -5.47631   1.81026   7.44033
  -5.00891   2.05406   7.82073
  -4.92901   2.20676   8.27823
  -4.85461   2.37716   9.00263
  -4.94021   2.50326   9.78633
  -4.95001   2.53876  10.71523
  -5.28181   2.56376  11.42793
  -5.49151   2.43426  12.11223
  -5.86511   2.20676  12.71413
  -6.45271   1.81206  13.10593
  -7.00711   1.33276  13.25883
  -7.54931   0.78516  13.24853
  -8.00401  -0.04484  12.83803
  -8.15901  -0.73924  12.43353
  -8.03161  -1.31094  11.71873
  -7.82021  -1.87414  10.60953
  -7.39681  -2.41334   9.59133
  -7.07161  -2.49584   8.25323
  -6.29301  -2.90034   7.04823
  -5.87611  -2.72244   6.15953
  -5.38821  -2.94944   5.10783
  -4.88291  -2.91534   4.39983
  -4.43981  -2.87764   3.70353
  -3.93461  -2.45334   3.01013
  -3.89601  -2.08344   2.05593
  -3.50271  -1.52254   1.54203
  -3.48891  -0.92274   0.99183
  -3.46321  -0.23844   0.52403
  -3.63741   0.30166  -0.07787
  -3.69771   0.93016  -0.74117
  -3.94861   1.48426  -1.24667
  -4.20741   1.59326  -2.01917
  -4.30911   1.45436  -2.72247
  -4.57661   1.30376  -3.67407
  -4.70381   1.18706  -4.22557
  -5.01381   0.82536  -4.76097
  -5.42251   0.66176  -5.36567
  -5.95141  -0.07354  -6.16437
  -6.65611  -0.66704  -6.84867
  -7.26141  -1.29104  -7.64477
  -8.11811  -2.04364  -8.67757
  -8.98671  -2.65974  -9.41777
  -9.93341  -3.12194 -10.25127
 -10.87541  -3.56204 -11.16617
 -11.87541  -3.83234 -12.22327
 -12.88011  -3.82664 -13.34107
 -13.57311  -3.93584 -14.40887
 -14.62381  -3.94434 -15.53027
 -15.31401  -3.74184 -16.21067
 -16.00631  -3.39834 -16.83627
 -16.88291  -3.19074 -17.21927
 -17.83661  -3.04744 -17.17437
 -19.34651  -3.01214 -17.08767
 -20.76901  -2.99554 -16.58097
 -22.58181  -3.11874 -16.03757
 -24.47161  -3.32684 -15.03247
 -26.45551  -3.37264 -14.03967
 -28.52241  -3.40204 -13.08227
 -30.61431  -3.20784 -11.56927
 -33.04421  -3.20264 -10.24197
 -35.42561  -3.27864  -8.74067
 -37.64581  -3.30064  -6.67027
 -39.73631  -3.48324  -4.74837
 -41.48921  -3.77244  -3.17767
 -43.12351  -3.95294  -1.68737
 -44.46911  -4.44694  -0.39157
 -45.68321  -4.75164   0.69653
 -46.81351  -5.27444   1.53643
 -47.55721  -5.71704   2.23173
 -47.88501  -6.19704   2.88383
 -48.12001  -6.74254   3.20763
 -48.27381  -7.23324   3.25533
 -48.36881  -7.81074   3.14033
 -48.21471  -8.27374   2.81763
 -47.87421  -8.59544   2.18543
 -47.03561  -8.85384   1.50043
 -45.79031  -9.06584   0.68393
 -44.43451  -8.88864  -0.03407
 -42.78401  -8.71844  -1.12557
 -40.76411  -8.40604  -2.12227
 -38.58991  -8.04884  -3.38627
 -36.10081  -7.51054  -4.41917
 -33.29981  -7.03824  -5.34347
 -30.38041  -6.56644  -6.31467
 -27.13521  -6.35184  -7.21627
 -23.91631  -5.93894  -8.02057
 -20.43471  -5.65694  -8.82247
 -17.29511  -5.65784  -9.56227
 -14.32971  -5.77174 -10.25387
 -11.33841  -5.99834 -10.92257
  -8.54951  -6.05164 -11.48137
  -5.96401  -6.18394 -12.02847
  -3.33441  -6.18134 -12.80657
  -0.91681  -6.11474 -13.55717
   1.24059  -5.62794 -14.49587
   3.39019  -5.57184 -15.14027
   5.30559  -5.07194 -15.89147
   7.04909  -4.82244 -16.60487
   8.60689  -4.46734 -17.19057
   9.99999  -4.08784 -17.75917
  11.25199  -3.72944 -18.14987
  12.24709  -3.64524 -18.19657
  13.04579  -3.41824 -18.01727
  13.42619  -3.02474 -17.66957
  13.64619  -2.66654 -16.99627
  13.66469  -2.18484 -16.60437
  13.36449  -1.91084 -16.08667
  12.77149  -1.51784 -15.46997
  12.18329  -1.19234 -14.74867
  11.25529  -0.78294 -14.31517
  10.35369  -0.44604 -13.58567
   9.57139  -0.04034 -13.15967
   8.53979   0.05426 -12.45427
   7.43739   0.16346 -11.94897
   6.35889   0.21676 -11.53427
   5.58499   0.16556 -10.88937
   4.85849   0.26706 -10.43507
   4.22159   0.29206  -9.87817
   3.56269   0.51706  -9.28377
   2.95509   0.86886  -8.69957
   2.54469   1.21186  -8.12037
   2.05489   1.45456  -7.70817
   1.54539   1.82516  -7.02947
   0.89379   2.16376  -6.26297
   0.28009   2.48496  -5.84797
  -0.30351   2.73236  -4.99907
  -1.06041   2.79996  -4.46007
  -1.64981   2.97386  -4.01257
  -2.24481   3.01406  -3.54897
  -2.69871   3.22736  -3.18837
  -2.67131   3.35456  -2.92067
  -2.67691   3.57406  -2.56627
  -2.33701   3.72046  -2.42667
  -1.72741   3.92006  -2.19267
  -0.84501   3.95606  -2.12267
   0.23989   4.15676  -1.90337
   1.83629   3.86816  -1.90827
   3.50149   3.59956  -1.72947
   5.12859   3.43256  -1.58077
   6.75239   3.29656  -1.39507
   8.52649   3.21496  -1.15877
  10.18649   3.31966  -1.06777
  11.81409   3.37976  -0.76307
  13.46269   3.31686  -0.47697
  14.96649   3.29816   0.16793
  16.30109   3.24506   0.52703
  17.52739   3.02996   1.22103
  18.87839   2.88826   1.91633
  19.78579   2.88476   2.64373
  20.67589   2.80876   3.58553
  21.24689   2.73726   4.31873
  21.56879   2.58666   4.96123
  21.80379   2.36316   5.46953
  21.56299   2.22896   5.74163
  21.12879   2.08746   6.07443
  20.59549   2.13516   6.51533
  19.84919   2.06766   6.73423
  19.00929   2.13566   7.44873
  18.08299   1.93416   8.20743
  17.31469   2.02396   8.93453
  16.61209   2.05266   9.57453
  16.16899   2.37716  10.19663
  15.81709   2.34866  10.62083
  15.99009   2.82826  11.01783
  16.12509   2.91586  11.42863
  16.66019   3.16766  11.73423
  17.21159   3.03836  11.83333
  18.11639   3.15156  11.76253
  18.86899   2.52166  11.35823
  21.05299   2.59396  10.91423
  23.61609   1.87596  10.42933
  21.52509   2.50206  10.36103
  23.83399   1.10716   9.26073
  24.68269   1.02396   8.28853
  26.10779   0.26266   7.27173
  26.51459   0.65726   6.41783
  28.00789  -0.14814   5.44803
  28.28379  -0.18094   3.31803
  29.30109  -0.47944   2.68763
  30.34899  -0.36184   1.82963
  31.51319  -0.50474   1.23943
  32.59519  -0.66564   0.87913
  33.31279  -0.74764   0.87423
  34.33449  -0.69574   0.77133
  34.95159  -0.30434   1.09103
  35.54379   0.05286   1.66713
  35.81269   0.69216   2.21603
  36.06239   1.13216   3.19133
  35.95509   1.70496   4.23313
  35.71429   2.20466   5.56963
  35.32239   2.57526   6.93923
  34.50799   2.96876   8.49643
  33.62139   3.33746  10.54663
  32.19589   3.49546  12.50603
  30.44679   3.88036  14.35523
  28.77929   3.69776  16.72953
  26.81879   3.44286  19.01263
  24.52559   3.23786  21.30843
  21.99759   2.74756  23.39303
  19.09889   2.30776  25.23473
  16.13629   1.83616  26.76903
  13.03569   1.79106  28.05923
  10.02589   1.60076  29.18243
   7.01889   1.36056  29.83103
   3.99899   1.24136  30.38133
   1.01869   1.03796  30.73933
  -1.91121   1.29556  30.89903
  -4.84621   1.50366  30.76363
  -7.56731   1.75876  30.69613
 -10.05121   2.31896  30.49103
 -12.37371   2.84366  29.87913
 -14.17261   3.31106  29.40153
 -15.87101   3.48316  28.93413
 -17.04911   3.86986  28.17633
 -18.14691   4.29796  27.22633
 -18.98371   4.67836  26.47073
