********************************************************************************
              CENTRO DE INSTRUMENTACION Y REGISTRO SISMICO  A.C.

    Anaxagoras 814, Col. Narvarte, Benito Juarez, C.P. 03020 Mexico, D.F.
           Tels. 5687 45 42/ 5687 45  82             Fax. 5669 25 12
********************************************************************************
ARCHIVO ESTANDAR DE ACELERACION:
VERSION DEL FORMATO                    : 2.0
NOMBRE DEL ARCHIVO                     : RM4820210908014746
FECHA Y HORA DE CREACION               : 07/SEP/21, 23:37
REF. CATALOGO ACELEROGRAMAS, SMIS 1996 : REGISTRO No.     /PAG.


================================================================================
DATOS DE LA ESTACION:
NOMBRE DE LA ESTACION                  : ESC. PRIM. "RODOLFO MENENDEZ"
CLAVE DE LA ESTACION                   : RM48
LOCALIZACION DE LA ESTACION            : Del. Cuauhtémoc, Col. Centro, entre    
                                       : Loreto y San Ildefonso.                
                                       :                                        
                                       :                                        
                                       : 
COORDENADAS DE LA ESTACION             : 19.4359 LAT. N
                                       : 99.1280 LONG. W
ALTITUD (msnm)                         : 2232
TIPO DE SUELO                          : Arcilloso, zona lago                
                                       :                           
                                       : 
INSTITUCION RESPONSABLE                : CIRES, A. C.
                                       : 

================================================================================
DATOS DEL ACELEROGRAFO:
MODELO DEL ACELEROGRAFO                : RAD_IO14
NUMERO DE SERIE DEL ACELEROGRAFO       : 
NUMERO DE CANALES                      : 3
ORIENTACION C1-C6 (rumbo;orientacion)  : /N00E/+V/N90W
ORIENTACION C7-C12 (rumbo;orientacion) : 
VEL. DE MUESTREO, C1-C6 (muestras/s)   : /100/100/100
VEL. DE MUESTREO, C7-C12 (muestras/s)  : 
ESC. COMPLETA DE SENSORES, C1-C6, (g)  : /2.0/2.0/2.0
ESC. COMPLETA DE SENSORES, C7-C12, (g) : 
FREC. NAT. DE SENSORES, C1-C6, (Hz)    : /32/33/30
FREC. NAT. DE SENSORES, C7-C12, (Hz)   : 
AMORTIGUAMIENTO DE SENSORES, C1-C6     : /0.800/0.795/0.700
AMORTIGUAMIENTO DE SENSORES, C7-C12    : 
INTERVALO DE MUESTREO, C1-C6, (s)      : /0.01/0.01/0.01
INTERVALO DE MUESTREO, C7-C12, (s)     : 
UMBRAL DE DISPARO, C1-C6, (Gal)        : / / /
UMBRAL DE DISPARO, C7-C12, (Gal)       : 
MEMORIA DE PREEVENTO (s)               : 60
TIEMPO DE POSEVENTO (s)                : 90


================================================================================
DATOS DEL SISMO:
FECHA DEL SISMO (GMT)                  : 08/SEP/21
HORA EPICENTRO (GMT)                   : 01:47:46.0
MAGNITUD(ES)                           : /Mc=7.1
COORDENADAS DEL EPICENTRO              : 16.78 LAT. N
                                       : 99.93 LONG. W
PROFUNDIDAD FOCAL (km)                 : 10
FUENTE DE LOS DATOS EPICENTRALES       : SSN
                                       : INSTITUTO DE GEOFISICA, UNAM

================================================================================
DATOS DE ESTE REGISTRO:
HORA DE LA PRIMERA MUESTRA (GMT)       : 20:55:25.00
EXACTITUD DEL TIEMPO (s)               : 
DURACION DEL REGISTRO (s), C1-C6       : /573.28/573.28/573.28
DURACION DEL REGISTRO (s), C7-C12      : 
NUM. TOTAL DE MUESTRAS, C1-C6          : /57328/57328/57328
NUM. TOTAL DE MUESTRAS, C7-C12         : 
ACEL. MAX. (Gal), C1-C6                : /29.9564/11.24623/29.49381
ACEL. MAX., C1-C6, EN LA MUESTRA       : /6092/5984/5988
ACEL. MAX. (Gal), C7-C12               : 
ACEL. MAX., C7-C12, EN LA MUESTRA      : 
UNIDADES DE LOS DATOS                  : Gal (cm/s/s)
FACTOR DE DECIMACION                   : 1
FORMATO DATOS (FORTRAN,10 campos/dato) : 3F10.5


================================================================================
CALIDAD DEL ACELEROGRAMA:
REGISTRO DIGITAL COMPLETO CON TIEMPO ABSOLUTO CORRECTO.


================================================================================
COMENTARIOS:














================================================================================
DATOS DE ACELERACION:
---------+---------+---------+---------+---------+---------+---------+---------+
   CANAL-1   CANAL-2   CANAL-3   CANAL-4   CANAL-5   CANAL-6   CANAL-7   CANAL-8
      N00E        +V      N90W
---------+---------+---------+---------+---------+---------+---------+---------+
[...]
  23.31670  -2.73107  -9.91751
  23.44950  -3.06027  -9.81321
  23.26190  -3.40887 -10.01751
  23.00550  -3.80567  -9.72151
  22.71970  -4.24267  -9.77561
  22.23810  -4.49327  -9.63041
  21.71440  -4.60197  -9.26281
  21.45510  -4.41867  -8.89971
  21.02600  -4.18817  -8.27941
  20.68190  -4.15727  -8.24201
  20.14130  -4.05117  -7.89431
  19.75530  -4.01397  -7.46621
  19.17240  -3.92347  -7.30911
  18.76490  -3.57487  -6.74591
  18.09760  -3.39997  -6.28741
  17.61760  -2.89127  -5.75401
  17.03050  -2.81477  -5.18121
  16.64820  -2.65457  -4.70521
  16.34800  -2.59807  -4.06171
  15.81070  -2.52957  -3.65021
  15.63440  -2.44277  -3.12071
  15.81910  -2.51407  -3.10151
  15.70780  -2.60477  -3.10311
  15.63000  -2.66237  -3.31891
  15.74340  -2.39767  -3.84361
  15.95940  -2.05047  -4.32711
  16.12660  -1.62817  -4.74801
  16.34840  -1.09137  -5.39301
  16.46350  -0.69717  -5.73461
  16.54020  -0.08057  -6.12301
  16.63560   0.72583  -6.32431
  16.50000   1.43613  -6.32801
  16.36110   2.09633  -6.55181
  16.07260   2.99303  -6.53401
  15.73140   3.96873  -6.51281
  15.45270   5.01123  -6.75871
  14.95140   5.64863  -6.78421
  14.73350   6.12443  -7.08751
  14.32650   6.36573  -7.25811
  14.12170   6.70803  -7.22421
  13.78590   6.98463  -7.02621
  13.42210   7.10483  -7.00911
  12.97460   7.04943  -6.47581
  12.77770   6.76063  -6.00701
  12.64190   6.34723  -5.58241
  12.29610   5.88473  -4.87631
  12.24600   5.37673  -4.30021
  12.31550   4.37363  -3.78561
  12.24740   3.72233  -3.41411
  12.25490   2.79473  -3.26301
  12.36500   2.20623  -3.11951
  12.51910   1.81723  -2.96751
  12.62570   1.48613  -2.90771
  12.54110   1.34283  -2.90231
  12.43800   1.22143  -2.56021
  12.33490   0.95333  -2.17371
  12.14850   0.87313  -1.61871
  11.90280   0.73843  -1.32901
  11.48920   0.89183  -0.96281
  11.07700   1.15533  -0.32571
  10.36200   1.43613   0.00369
   9.85700   1.61703   0.36079
   9.09430   1.79313   0.66699
   8.27320   1.82893   0.69949
   7.11280   1.85623   0.99649
   6.28180   1.89883   1.24149
   5.05360   1.98903   1.68269
   4.01920   2.15763   1.81389
   2.89110   2.39663   2.39109
   1.59820   2.48563   3.19799
   0.67580   2.78163   3.69929
  -0.54380   2.76903   4.14989
  -1.41490   2.80083   4.54799
  -2.23980   2.88833   4.74839
  -3.23190   2.95633   4.82349
  -4.00510   3.17843   5.06029
  -4.75580   3.43213   4.87189
  -5.43810   3.76393   4.82389
  -6.13580   4.00983   4.76659
  -7.16970   4.04303   4.50429
  -8.03870   4.11223   4.53469
  -9.20150   3.83873   4.46339
 -10.14070   3.91873   4.50709
 -10.97940   3.93273   4.40889
 -11.70910   4.36873   4.59779
 -12.56340   4.51603   4.76339
 -13.48950   4.81603   5.22579
 -14.39250   5.21613   5.29149
 -15.09370   5.45663   5.51319
 -15.89280   5.57363   5.74349
 -16.58280   5.88053   5.92749
 -17.37850   6.08143   6.47299
 -18.01140   6.39023   6.56139
 -18.31110   6.54013   6.95839
 -18.62820   6.70683   7.20479
 -19.10510   6.74103   7.76989
 -19.37070   6.74353   7.96909
 -19.38430   6.72233   8.48069
 -19.46240   6.68443   8.75429
 -19.48250   6.56403   9.23469
 -19.69200   6.61893   9.54939
 -19.99780   6.46253   9.85709
 -20.16780   6.54643   9.95699
 -20.71540   6.46653  10.12619
 -21.03970   6.23713  10.20059
 -21.40350   5.87003  10.42809
 -21.56740   5.71413  10.71359
 -21.93350   5.41673  10.83259
 -22.33220   4.72933  11.20389
 -22.38270   4.34843  11.74929
 -22.35230   3.51843  12.21089
 -22.53110   2.87263  12.97449
 -22.57280   2.09493  13.44749
 -22.71840   1.57053  13.91649
 -22.57070   0.87943  14.32619
 -22.51880   0.27903  14.77599
 -22.39390  -0.42667  14.96769
 -22.54820  -0.97607  14.96209
 -22.54140  -1.64227  14.98879
 -22.36280  -2.43837  14.95579
 -22.22560  -3.10607  15.24409
 -21.94500  -3.81527  15.28639
 -21.58230  -4.70907  15.55649
 -21.14580  -5.29947  15.74439
 -20.85290  -5.46757  16.01499
 -20.41680  -5.71307  16.19899
 -19.86530  -5.59757  16.48439
 -19.24360  -5.51247  16.73229
 -18.64480  -5.42597  17.04019
 -18.27490  -5.32677  17.20619
 -17.87340  -5.41237  17.46429
 -17.38310  -5.38017  17.83539
 -16.74600  -5.12157  18.38299
 -16.09370  -4.84307  18.94199
 -15.58050  -4.56067  19.63169
 -14.88140  -4.20427  20.23779
 -14.24190  -3.88887  20.69279
 -13.79910  -3.57867  21.27049
 -13.26460  -3.36727  21.61609
 -12.54590  -3.41007  21.91319
 -11.88400  -3.34857  22.06239
 -11.42730  -3.65607  22.52929
 -11.07400  -3.50377  22.83659
 -10.85400  -3.48577  23.03179
 -10.54800  -3.93357  23.09419
 -10.27420  -3.91927  23.01099
  -9.81380  -3.96537  23.09699
  -9.49490  -4.07177  23.14469
  -9.01490  -4.13677  23.14209
  -8.46570  -4.48537  22.99549
  -7.80840  -4.46777  22.51829
  -7.22390  -4.52297  22.66749
  -6.70790  -4.36867  22.47629
  -6.36840  -4.51367  22.24899
  -6.10820  -4.42357  22.33689
  -5.80170  -4.35697  22.13749
  -5.70770  -4.42197  21.92519
  -5.59470  -4.39037  21.63449
  -5.49470  -4.23517  21.46319
  -5.49630  -4.01467  21.18049
  -5.34830  -4.04807  20.73769
  -5.32910  -3.89127  20.18629
  -5.13930  -3.59877  19.63409
  -5.05770  -3.33337  18.90789
  -4.97230  -3.01307  18.43649
  -4.86810  -2.62727  17.76779
  -5.02070  -2.46827  17.15869
  -4.83980  -2.20317  16.64619
  -4.88090  -2.02357  15.97799
  -4.92740  -1.64457  15.36259
  -5.00650  -1.17437  14.51669
  -4.98330  -0.72217  14.06969
  -5.05980  -0.24807  13.46479
  -5.06120   0.09423  12.70279
  -5.03920   0.49273  12.08559
  -5.17970   0.83283  11.36099
  -5.06560   0.84273  10.66539
  -5.13600   0.91843  10.11709
  -5.02310   1.06623   9.27309
  -4.93140   1.18963   8.55269
  -4.83910   1.21003   7.68689
  -4.58280   1.24653   6.42619
  -4.50800   0.95913   5.29369
  -4.06030   0.80083   3.82019
  -3.60640   0.27173   2.41919
  -3.09810  -0.10747   0.94249
  -2.32090  -0.49307  -0.52331
  -1.60570  -1.18697  -1.95581
  -1.19450  -1.49447  -3.11151
  -0.41750  -2.12947  -4.30141
   0.04120  -2.55527  -5.35381
   0.87870  -3.06777  -6.44501
   1.73100  -3.67757  -7.54131
   2.36410  -4.10327  -8.70781
   3.02460  -4.49727  -9.52441
   3.75810  -4.59127 -10.65611
   4.05740  -4.73387 -12.11411
   4.51750  -4.99647 -13.01361
   5.36060  -5.14887 -14.19221
   6.19130  -5.17457 -15.48871
   6.87100  -4.96577 -16.80811
   8.00900  -4.84777 -17.65751
   8.99120  -4.36067 -18.57781
  10.02300  -3.60947 -19.40241
  11.07330  -3.05067 -20.07301
  11.88480  -2.53747 -20.53821
  12.81000  -1.95647 -20.99021
  13.69940  -1.12087 -21.53641
  14.74170  -0.13957 -22.23341
  15.54440   1.01643 -23.11221
  16.26590   2.30123 -23.82631
  16.68230   3.79033 -24.28831
  17.05310   5.13493 -25.08281
  17.41390   6.05453 -25.71451
  17.87430   6.94343 -26.21281
  18.08990   7.63933 -26.58731
  18.57030   8.17823 -26.84291
  18.84040   8.64353 -27.07601
  19.19250   9.10593 -27.24291
  19.29210   9.62643 -27.50811
  19.58200  10.22033 -27.79801
  19.78680  10.43193 -28.01501
  19.74360  10.77443 -28.25981
  19.64470  11.13983 -28.58221
  19.46860  11.24413 -28.70311
  18.99680  11.24623 -29.02321
  18.63860  11.12603 -29.18031
  18.26170  10.65893 -29.35001
  17.83990  10.10873 -29.44141
  17.95140   9.58083 -29.49381
  17.84740   8.78053 -29.46411
  17.77770   8.22353 -29.44891
  17.86120   7.23903 -29.43791
  17.79500   6.23763 -29.44571
  17.80860   5.44143 -29.17471
  17.78610   4.68513 -28.99301
  17.73960   3.90863 -28.70031
  17.60540   3.22493 -28.47391
  17.47420   2.46973 -28.22351
  17.68840   1.72653 -27.69841
  17.55280   1.14903 -27.18051
  17.51260   0.11043 -26.55981
  17.54390  -0.73177 -25.95181
  17.54580  -1.85217 -25.21651
  17.66640  -2.74227 -24.24741
  17.96780  -3.46427 -23.51511
  18.32300  -3.95627 -22.86791
  18.62390  -4.44307 -22.17561
  18.85670  -4.91577 -21.42861
  19.18270  -5.32747 -20.84691
  19.54840  -5.69997 -20.08301
  19.55610  -5.93477 -19.25231
  19.93880  -5.99787 -18.27941
  20.00190  -5.96187 -17.45501
  20.35710  -6.25547 -16.79681
  20.84390  -6.20007 -16.04441
  20.99890  -6.24217 -15.20321
  21.02810  -6.48117 -14.27681
  20.91400  -6.58917 -13.44571
  20.86470  -6.50847 -12.53471
  21.08400  -6.54757 -11.79851
  20.70970  -6.61437 -11.06151
  20.44170  -6.65997 -10.57591
  20.05220  -6.13487  -9.81301
  19.62620  -5.38577  -9.30211
  19.06720  -4.85567  -8.63531
  18.26570  -4.21627  -8.27611
  17.48060  -3.68007  -7.77421
  16.88970  -3.18397  -7.36691
  16.34910  -2.75377  -6.92261
  15.44380  -2.12107  -6.89851
  14.76630  -1.35817  -6.79051
  14.10950  -0.85527  -6.68161
  13.25280  -0.37497  -6.76781
  12.32200   0.08493  -7.00701
  11.46090   0.16953  -7.16951
  10.32650   0.23083  -7.26301
   9.31200   0.28953  -7.46441
   8.33630   0.29513  -7.36831
   7.52960   0.24043  -7.22891
   6.82280   0.25843  -7.02481
   6.15110  -0.00397  -6.67781
   5.85000  -0.17177  -6.37881
   5.45950  -0.59547  -6.19571
   4.78380  -0.90147  -5.53081
   4.45230  -1.16617  -5.32621
   4.20040  -1.43297  -4.87381
   3.91570  -1.39627  -4.24671
   3.60070  -1.67427  -3.60601
   3.44640  -1.73477  -2.88081
   3.55470  -1.52107  -2.16771
   3.44730  -1.35537  -1.23901
   3.71200  -1.42947  -0.28221
   3.72490  -1.42037   0.35049
   3.92360  -1.45867   1.08909
   3.99380  -1.31187   1.70679
   4.04080  -1.08787   2.27279
   4.04870  -0.81637   2.73059
   3.78190  -0.49847   3.54449
   3.48550  -0.14187   3.96629
   3.13760  -0.01817   4.45589
   2.56120  -0.09957   4.99019
   2.01760   0.00213   5.67759
   1.26660  -0.09117   6.11779
   0.64750  -0.24827   6.63829
   0.04610  -0.24547   7.08879
  -0.78160  -0.54567   7.27939
  -1.63920  -0.63337   7.79799
  -2.59820  -0.99597   8.19219
  -3.72870  -1.11617   8.52929
  -4.74250  -1.38127   8.80009
  -6.14000  -1.51407   9.12509
  -7.58660  -1.67827   9.76829
  -9.07570  -1.67967  10.18489
 -10.55620  -1.77297  10.66559
 -12.06770  -2.04787  11.35629
 -13.65620  -2.47477  11.98199
 -15.38480  -3.14917  12.49919
 -16.93890  -3.34507  13.10799
 -18.44790  -3.67187  13.40819
 -19.86130  -3.86527  13.79799
 -21.16690  -4.13327  14.10679
 -22.48630  -4.21247  14.17509
 -23.79070  -4.27027  14.29829
 -24.67240  -4.02687  14.26089
 -25.57320  -3.68547  14.41009
 -26.50100  -3.29337  14.53209
 -27.22560  -3.09607  14.71989
 -28.07010  -2.70087  14.82929
 -28.53540  -2.26817  15.19799
 -28.96300  -1.65907  15.27049
 -29.24710  -1.12717  15.62539
 -29.54820  -0.29787  15.92329
 -29.95640   0.50253  15.93149
 -29.80310   1.21543  16.04159
 -29.63890   2.11013  16.28869
 -29.74460   2.46533  16.41869
 -29.43390   3.11013  16.69389
 -29.19330   3.61803  16.49919
 -29.07780   4.04423  16.52609
 -28.91200   4.20743  16.53729
 -28.54820   4.24973  16.46779
 -27.87720   4.41113  16.46339
 -27.10960   4.24953  16.43209
 -26.40860   4.23483  16.36589
 -25.57880   4.08843  16.53239
 -24.92580   3.48593  16.46779
 -24.23260   2.70523  16.24079
 -23.26200   1.91143  16.23659
 -22.44140   1.20063  16.21529
 -21.54520   0.51933  16.09229
 -20.75750  -0.26297  16.46079
 -20.21010  -0.83977  16.65089
 -19.45160  -1.51807  16.70729
 -18.92720  -2.27627  16.79909
 -18.35090  -2.76427  16.93289
 -17.73220  -3.30107  17.12059
 -17.30480  -3.71097  17.25019
 -16.93890  -4.10847  17.54619
 -16.47250  -4.17997  17.64719
 -16.21130  -4.12087  17.84939
 -15.56390  -4.27027  18.19359
 -15.02920  -4.18377  18.49049
 -14.65760  -4.19757  18.86199
 -14.12340  -3.79697  19.12369
 -13.82080  -3.79587  19.14959
 -13.25310  -3.48117  19.22889
 -12.68240  -3.22927  18.91649
 -12.13180  -2.80187  18.68649
 -11.55970  -2.37967  18.55289
 -10.99100  -1.82837  18.01639
 -10.63260  -1.46987  17.54449
  -9.86480  -1.20407  17.02619
  -9.23260  -0.92867  16.49639
  -8.76730  -0.51947  16.18419
  -8.31950   0.06783  15.93939
  -7.91180   0.52003  15.58099
  -7.36020   0.92033  15.14069
  -7.01720   1.26753  14.68219
  -6.49930   1.73183  14.27589
  -6.14370   2.22563  13.66119
  -5.03220   2.60793  13.20669
  -3.96230   3.37623  12.51269
  -4.75930   3.67503  12.00649
  -5.77620   4.11223  11.45939
  -5.27280   4.48213  10.87929
  -4.68730   4.36943  10.15619
  -4.36560   4.16603   9.52489
  -4.00620   3.89253   8.69859
  -3.72330   3.74803   7.72689
  -3.39020   3.58223   6.98549
  -3.28820   3.28043   6.19359
  -3.17880   3.18363   5.15569
  -3.26690   3.01803   4.44519
  -2.96490   2.64513   3.45799
  -2.91370   2.38303   2.60409
  -2.88860   2.08613   1.93239
  -2.89490   1.74333   1.33639
  -3.04480   1.39353   0.60019
  -2.93120   1.26283  -0.07041
  -3.02540   1.03233  -0.63691
  -3.20780   1.19883  -1.25281
  -3.04580   0.94673  -1.74401
  -3.13810   0.81183  -2.21721
  -3.07660   0.51913  -2.59441
  -3.05790   0.25493  -2.88971
  -2.90660   0.25183  -3.03271
  -2.85890   0.41503  -2.98621
  -2.53370   0.65023  -2.89671
  -2.49420   0.64673  -2.91911
  -2.23280   0.60393  -2.83071
  -1.74760   0.70173  -3.03741
  -1.37070   0.89133  -3.03411
  -0.90060   0.97203  -2.90041
  -0.60570   0.67103  -2.88241
  -0.16310   0.45853  -2.70961
   0.61380   0.30773  -2.31501
   1.14410   0.05193  -1.80921
   1.79200   0.12143  -1.41811
   2.30730   0.20883  -1.30561
   3.04850   0.13983  -1.21281
   3.70940  -0.01347  -1.32761
   4.34540  -0.09957  -1.39891
   4.93090  -0.31067  -1.38581
   5.53880  -0.53627  -1.56701
   6.40340  -0.78367  -1.66751
   7.01220  -1.09067  -1.87631
   7.66110  -1.41867  -1.82041
   8.24300  -1.68807  -1.71991
   8.85560  -1.73647  -1.54241
   9.35920  -1.80187  -1.60251
   9.80930  -1.78347  -1.87051
  10.37880  -2.05097  -2.26771
  11.21400  -2.35327  -2.59671
  11.58670  -2.38577  -2.86951
  12.21520  -2.36917  -3.53591
  12.87050  -2.40537  -4.30931
  13.23900  -2.35467  -5.13801
  13.65080  -2.06937  -5.80411
  14.01620  -1.75467  -6.66011
  14.19090  -1.44187  -7.17211
  14.52330  -1.20597  -7.74401
  14.69330  -0.95857  -8.39231
  14.60470  -0.74467  -9.04071
  15.02230  -0.66027  -9.80921
  15.47940  -0.01817 -10.54321
  15.84720   0.29863 -11.22421
  16.15560   0.77093 -11.65071
  16.59180   1.17633 -12.44501
  16.96430   1.40293 -13.27501
  17.13640   1.77883 -13.92641
  17.31130   1.92643 -14.64931
  17.46210   2.13333 -15.03041
  17.31570   2.16093 -15.36871
  17.50280   2.25283 -15.76291
  17.52310   2.47683 -15.94971
  17.50980   2.47113 -16.26211
  17.31880   2.53153 -16.53781
  17.27410   2.58923 -16.62621
  17.19160   2.32483 -17.01521
  16.93720   2.12843 -17.31431
  16.86450   1.68793 -17.48351
  16.35450   1.44873 -17.64371
  15.83340   1.36273 -17.69331
  15.41860   1.36453 -17.78541
  15.26310   1.06363 -17.88871
  15.03840   0.76553 -17.99841
  14.66010   0.41183 -18.00001
  14.24320   0.06553 -18.26351
  14.18170  -0.13157 -18.20251
  13.90540  -0.32707 -18.47001
  13.52290  -0.24687 -18.36851
  12.75710  -0.37307 -18.48611
  12.18100  -0.36797 -18.72151
  11.73000  -0.36567 -18.77351
  11.22710  -0.24967 -18.88691
  10.53200  -0.28477 -18.85651
