********************************************************************************
              CENTRO DE INSTRUMENTACION Y REGISTRO SISMICO  A.C.

    Anaxagoras 814, Col. Narvarte, Benito Juarez, C.P. 03020 Mexico, D.F.
           Tels. 5687 45 42/ 5687 45  82             Fax. 5669 25 12
********************************************************************************
ARCHIVO ESTANDAR DE ACELERACION:
VERSION DEL FORMATO                    : 2.0
NOMBRE DEL ARCHIVO                     : SP5120210908014746
FECHA Y HORA DE CREACION               : 07/SEP/21, 23:38
REF. CATALOGO ACELEROGRAMAS, SMIS 1996 : REGISTRO No.     /PAG.


================================================================================
DATOS DE LA ESTACION:
NOMBRE DE LA ESTACION                  : SECTOR POPULAR
CLAVE DE LA ESTACION                   : SP51
LOCALIZACION DE LA ESTACION            : Del. Iztapalapa, Col. Sector Popular,  
                                       : Calle Sur 103A esq. con Av.            
                                       : Agustín Yañes.                         
                                       :                                        
                                       : 
COORDENADAS DE LA ESTACION             : 19.3656 LAT. N
                                       : 99.1189 LONG. W
ALTITUD (msnm)                         : 2234
TIPO DE SUELO                          : Terreno blando, material compresible
                                       : (arcillas)                
                                       : 
INSTITUCION RESPONSABLE                : CIRES, A. C.
                                       : 

================================================================================
DATOS DEL ACELEROGRAFO:
MODELO DEL ACELEROGRAFO                : RAD_IO14
NUMERO DE SERIE DEL ACELEROGRAFO       : 
NUMERO DE CANALES                      : 3
ORIENTACION C1-C6 (rumbo;orientacion)  : /S00E/+V/N90W
ORIENTACION C7-C12 (rumbo;orientacion) : 
VEL. DE MUESTREO, C1-C6 (muestras/s)   : /100/100/100
VEL. DE MUESTREO, C7-C12 (muestras/s)  : 
ESC. COMPLETA DE SENSORES, C1-C6, (g)  : /2.0/2.0/2.0
ESC. COMPLETA DE SENSORES, C7-C12, (g) : 
FREC. NAT. DE SENSORES, C1-C6, (Hz)    : /52.67/53.32/56.11
FREC. NAT. DE SENSORES, C7-C12, (Hz)   : 
AMORTIGUAMIENTO DE SENSORES, C1-C6     : /0.6053/0.5865/0.6038
AMORTIGUAMIENTO DE SENSORES, C7-C12    : 
INTERVALO DE MUESTREO, C1-C6, (s)      : /0.01/0.01/0.01
INTERVALO DE MUESTREO, C7-C12, (s)     : 
UMBRAL DE DISPARO, C1-C6, (Gal)        : / / /
UMBRAL DE DISPARO, C7-C12, (Gal)       : 
MEMORIA DE PREEVENTO (s)               : 60
TIEMPO DE POSEVENTO (s)                : 90


================================================================================
DATOS DEL SISMO:
FECHA DEL SISMO (GMT)                  : 08/SEP/21
HORA EPICENTRO (GMT)                   : 01:47:46.0
MAGNITUD(ES)                           : /Mc=7.1
COORDENADAS DEL EPICENTRO              : 16.78 LAT. N
                                       : 99.93 LONG. W
PROFUNDIDAD FOCAL (km)                 : 10
FUENTE DE LOS DATOS EPICENTRALES       : SSN
                                       : INSTITUTO DE GEOFISICA, UNAM

================================================================================
DATOS DE ESTE REGISTRO:
HORA DE LA PRIMERA MUESTRA (GMT)       : 20:54:01.00
EXACTITUD DEL TIEMPO (s)               : 
DURACION DEL REGISTRO (s), C1-C6       : /657.4/657.4/657.4
DURACION DEL REGISTRO (s), C7-C12      : 
NUM. TOTAL DE MUESTRAS, C1-C6          : /65740/65740/65740
NUM. TOTAL DE MUESTRAS, C7-C12         : 
ACEL. MAX. (Gal), C1-C6                : /39.7612/9.96827/39.00794
ACEL. MAX., C1-C6, EN LA MUESTRA       : /13925/13819/13863
ACEL. MAX. (Gal), C7-C12               : 
ACEL. MAX., C7-C12, EN LA MUESTRA      : 
UNIDADES DE LOS DATOS                  : Gal (cm/s/s)
FACTOR DE DECIMACION                   : 1
FORMATO DATOS (FORTRAN,10 campos/dato) : 3F10.5


================================================================================
CALIDAD DEL ACELEROGRAMA:
REGISTRO DIGITAL COMPLETO CON TIEMPO ABSOLUTO CORRECTO.


================================================================================
COMENTARIOS:














================================================================================
DATOS DE ACELERACION:
---------+---------+---------+---------+---------+---------+---------+---------+
   CANAL-1   CANAL-2   CANAL-3   CANAL-4   CANAL-5   CANAL-6   CANAL-7   CANAL-8
      N00E        +V      N90W
---------+---------+---------+---------+---------+---------+---------+---------+
[...]
   5.74810  -4.89403   6.18656
   4.40820  -5.10523   5.05616
   2.84070  -5.15783   3.72276
   1.12310  -5.49703   2.33506
  -0.10650  -5.48633   0.85366
  -1.80910  -5.49983  -0.44114
  -3.07960  -5.32873  -1.91064
  -4.44310  -5.51573  -3.34224
  -5.95430  -5.25713  -4.50824
  -7.30850  -5.14793  -5.46244
  -8.56780  -5.19263  -6.46244
  -9.93600  -5.14353  -7.17514
 -11.29560  -4.80423  -7.55924
 -12.65850  -4.65043  -7.67804
 -13.90260  -4.39063  -7.66614
 -14.99190  -4.01213  -7.50824
 -16.02580  -3.84333  -7.15924
 -16.83410  -3.53493  -6.83884
 -17.21610  -3.10403  -6.35024
 -17.88860  -2.75583  -5.80474
 -18.25890  -2.19663  -5.17464
 -18.76630  -1.87493  -4.50334
 -19.10620  -1.43533  -3.61274
 -19.57830  -1.05703  -2.79354
 -20.02720  -0.84193  -2.03904
 -20.42300  -0.43793  -1.15854
 -20.70590  -0.14283  -0.34744
 -20.93130  -0.08763   0.47416
 -21.10110  -0.19313   1.49706
 -21.03980  -0.37993   2.19036
 -21.07510  -0.57753   2.84126
 -20.90000  -0.71523   3.49846
 -20.45650  -0.90883   4.15036
 -20.09340  -1.10983   4.56256
 -19.38450  -1.27023   4.94346
 -18.71180  -1.23493   5.10476
 -18.03910  -1.27773   5.17656
 -17.28670  -1.11663   5.11786
 -16.82360  -1.25413   4.94536
 -16.20980  -1.29783   4.44006
 -15.59210  -1.44843   3.89786
 -15.05950  -1.61883   3.40056
 -14.58810  -1.71733   2.89436
 -14.32160  -1.96443   2.29186
 -14.21050  -2.15873   1.71216
 -13.79920  -2.37713   1.28646
 -13.51310  -2.63433   1.01636
 -13.17660  -3.08953   0.85016
 -12.99840  -3.73533   0.69816
 -12.74780  -4.28293   0.53596
 -12.69780  -4.69863   0.03086
 -12.33910  -5.14093  -0.46034
 -11.89110  -5.39703  -1.08484
 -11.46820  -5.60133  -2.22654
 -10.96410  -5.72873  -3.16454
 -10.49930  -5.83563  -4.31964
 -10.07070  -5.89853  -5.67684
  -9.56220  -6.26583  -6.62474
  -9.21050  -6.24243  -7.61654
  -9.16490  -6.46123  -8.46334
  -8.86260  -6.65653  -9.28424
  -8.91170  -6.95603  -9.89194
  -9.19670  -7.03363 -10.74884
  -9.42980  -7.33153 -11.33034
  -9.73100  -7.38743 -12.03854
 -10.09220  -7.58193 -12.62984
 -10.37740  -7.73533 -13.10824
 -10.57740  -7.79443 -13.77204
 -10.88320  -7.99603 -14.40934
 -10.96990  -8.08693 -14.89454
 -10.97270  -8.61213 -15.21884
 -10.97690  -8.58773 -15.70094
 -11.07420  -8.75893 -15.91814
 -11.15070  -8.60273 -15.96184
 -11.56500  -8.44213 -16.00464
 -11.98020  -8.09353 -15.86364
 -12.46980  -7.85173 -15.60624
 -13.11350  -7.22703 -15.37824
 -13.98770  -6.92583 -14.96144
 -14.66810  -6.64573 -14.51904
 -15.48200  -6.17443 -13.96004
 -16.15250  -5.84423 -13.56374
 -16.76040  -5.40793 -13.10144
 -17.16730  -4.98013 -12.83584
 -17.47330  -4.48953 -12.51764
 -17.99750  -4.19593 -12.24874
 -18.27200  -3.85363 -12.14494
 -18.35760  -3.61393 -12.10194
 -18.48520  -3.22213 -11.97894
 -18.88250  -3.16973 -12.08814
 -18.90840  -3.01123 -12.17954
 -18.72470  -2.70863 -12.15264
 -18.76230  -2.64483 -12.24894
 -18.65330  -2.36543 -12.30274
 -18.28930  -2.03553 -12.24664
 -17.95000  -1.66753 -12.26794
 -17.60310  -1.43183 -12.21114
 -16.82500  -0.80963 -12.07804
 -16.11530  -0.45213 -11.94694
 -15.25140   0.02647 -11.72664
 -14.14110   0.46157 -11.34714
 -13.07140   0.88167 -10.82604
 -11.80200   1.35867 -10.32384
 -10.53500   1.57757  -9.95324
  -9.15350   1.60677  -9.40824
  -7.84810   1.57517  -8.74114
  -6.45460   1.44027  -8.21574
  -5.09240   1.21467  -7.61884
  -3.74100   1.22167  -7.07104
  -2.39260   1.13117  -6.49824
  -1.07300   1.08067  -5.90154
   0.29290   1.16487  -5.59124
   1.76520   1.24107  -5.26984
   3.20680   1.10667  -5.17304
   4.60460   1.04917  -5.02754
   6.09300   0.78207  -5.23194
   7.57530   0.51507  -5.38994
   8.78080   0.27237  -5.48254
  10.02820  -0.11833  -5.92254
  11.27630  -0.35373  -6.39534
  12.25940  -0.54193  -7.04534
  13.19890  -0.56133  -7.74794
  14.07240  -0.54823  -8.44884
  14.78480  -0.35953  -8.96164
  15.62720  -0.29503  -9.40544
  16.25270  -0.03413  -9.96234
  16.91180   0.26007 -10.27564
  17.81570   0.54087 -10.44514
  18.41980   0.85387 -10.42484
  19.10050   0.87537 -10.58664
  19.70530   1.28037 -10.56154
  20.44670   1.43887 -10.56864
  20.79250   1.86657 -10.52064
  20.92210   2.00797 -10.50244
  21.13480   2.27097 -10.42384
  21.16380   2.65747 -10.36024
  20.86620   3.11437 -10.22234
  20.34530   3.15927 -10.08784
  19.86200   3.29837  -9.65624
  19.32800   3.29157  -9.23424
  18.81430   3.42227  -8.84944
  18.32700   3.65167  -8.27634
  17.71700   3.92267  -7.59854
  17.18250   4.27517  -6.90974
  16.62930   4.62357  -6.04814
  15.83390   4.90117  -4.99834
  14.85850   4.96307  -4.05534
  13.86220   5.05217  -2.96374
  12.80890   5.04047  -1.73744
  11.71560   4.93577  -0.57214
  10.56220   4.97337   0.88456
   9.54630   5.13237   2.41456
   8.65760   5.09867   3.94296
   7.86080   5.02337   5.83216
   7.16900   4.79847   7.74586
   6.45750   4.95417   9.76176
   5.80280   4.54157  11.52046
   5.31580   4.59947  13.40776
   5.07120   4.56167  15.34396
   4.71700   4.69747  17.03296
   4.70300   4.90467  18.72226
   4.42710   5.06927  19.98946
   4.37380   5.14457  21.26866
   4.46170   5.20997  22.28226
   4.54170   5.23567  23.25326
   4.94120   5.11737  24.22446
   5.40180   4.84337  24.77086
   5.88160   4.63597  25.51866
   6.47950   4.41647  26.28436
   7.13270   4.25117  26.63856
   7.88750   4.09327  27.07996
   8.75210   3.61377  27.53896
   9.49420   3.33717  27.63106
  10.39300   2.96027  27.71386
  11.29480   2.50557  27.74986
  12.52250   1.94957  27.84546
  13.74320   1.64717  27.76196
  15.15660   1.22867  27.35936
  16.70370   0.95957  27.32316
  18.33150   0.82937  27.10216
  19.81850   0.83407  26.99836
  21.35390   0.74377  26.86306
  22.69810   0.74887  26.83096
  23.95220   0.61147  26.73556
  25.25290   0.47747  26.67086
  26.03480   0.30957  26.52606
  26.89870   0.57167  26.67156
  27.76240   0.75617  26.61006
  28.35530   0.96567  26.67946
  28.96980   1.44357  26.63106
  29.31210   1.81697  26.79216
  29.57700   2.24717  26.60396
  29.78010   2.54617  26.55156
  29.75140   2.85107  26.55506
  29.55430   3.17137  26.34346
  29.24750   3.52847  26.19896
  28.85240   3.77507  25.80176
  28.36610   3.96407  25.59806
  27.79810   3.86747  25.12696
  26.91410   3.86257  24.61616
  26.13040   3.59997  24.35186
  25.00020   3.65327  23.84476
  23.57280   3.57517  23.49826
  21.99590   3.25067  22.92876
  20.49790   3.07157  22.28196
  18.69670   2.80827  21.47586
  16.67450   2.63787  20.75566
  14.90310   2.44827  20.25156
  12.68520   2.51087  19.70426
  10.48980   2.53637  19.03746
   8.10510   2.53357  18.33576
   5.70180   3.09167  17.92056
   3.65270   3.26917  17.08136
   1.23510   3.52657  16.33886
  -0.80910   3.83797  15.76856
  -2.75720   4.31197  14.94956
  -4.72540   4.72977  14.11596
  -6.49290   5.30847  13.28316
  -8.25660   6.02407  12.34396
  -9.89020   6.73257  11.57236
 -11.54350   7.39007  10.86656
 -13.19410   7.78637  10.11456
 -14.69820   8.33507   9.37456
 -16.01670   8.78677   8.80196
 -17.36130   9.35797   8.20696
 -18.51070   9.60227   7.77746
 -19.55980   9.86327   7.07856
 -20.61010   9.96827   6.72946
 -21.55070   9.76737   6.19546
 -22.55840   9.55607   5.66946
 -23.30780   9.41757   5.21976
 -23.96010   9.15037   4.73086
 -24.66920   8.66377   4.35846
 -25.33490   8.18897   3.97406
 -25.64940   7.28857   3.47236
 -26.08120   6.34067   3.11176
 -26.34240   5.46297   2.72456
 -26.49460   4.60227   2.28196
 -26.89720   3.44727   1.93036
 -27.00170   2.35027   1.38606
 -27.25260   1.38347   0.73606
 -27.44170   0.42507   0.10386
 -27.80130  -0.60253  -0.72574
 -28.10040  -1.40653  -1.71894
 -28.08540  -2.19493  -2.97164
 -28.08750  -2.84963  -4.24264
 -27.90610  -3.51483  -5.79214
 -27.54110  -4.01333  -7.38244
 -27.11250  -4.76403  -9.13604
 -26.52290  -5.16223 -10.99064
 -25.54490  -5.59943 -13.10894
 -24.75950  -5.75053 -15.05514
 -23.78430  -5.79633 -17.02314
 -22.83690  -5.82443 -18.98504
 -21.91540  -5.60503 -20.98754
 -20.91010  -5.48723 -23.00934
 -20.15350  -5.64243 -24.86274
 -19.57570  -5.64243 -26.45384
 -18.92220  -5.70723 -28.19524
 -18.55440  -5.69253 -29.70494
 -18.45480  -5.79213 -31.07054
 -18.40600  -5.73533 -32.43904
 -18.33470  -5.74323 -33.42734
 -18.13480  -5.73553 -34.63364
 -18.09640  -5.86273 -35.57304
 -17.97740  -5.83443 -36.23564
 -17.82290  -5.64273 -37.11594
 -17.85140  -5.53963 -37.76384
 -17.57080  -5.32123 -38.28574
 -17.34710  -4.99113 -38.59904
 -17.20280  -4.72993 -38.94134
 -16.82330  -4.52863 -39.00794
 -16.55140  -4.15153 -38.81714
 -16.49620  -3.92863 -38.84074
 -16.55280  -3.63573 -38.56744
 -16.84200  -3.31043 -38.13604
 -17.27220  -2.96303 -37.70284
 -17.72510  -2.94973 -37.24614
 -18.44550  -2.76293 -36.55224
 -19.00780  -2.66073 -35.71594
 -19.58510  -2.70863 -34.93564
 -20.12610  -2.79893 -34.06634
 -20.45860  -2.80193 -33.17904
 -20.62670  -3.00653 -32.21644
 -20.85840  -3.09233 -31.46694
 -20.85420  -3.30393 -30.49304
 -20.73660  -3.23913 -29.69134
 -20.74550  -3.47603 -28.76154
 -20.60350  -3.54573 -27.81484
 -20.16280  -3.61283 -26.74704
 -19.93740  -3.85083 -25.82864
 -19.26330  -4.08133 -24.83254
 -18.50670  -4.32263 -23.44374
 -18.06200  -4.15503 -22.37454
 -17.26500  -4.23893 -21.17324
 -16.58790  -4.26113 -19.83604
 -15.68370  -3.95323 -18.67314
 -14.67090  -3.90833 -17.64524
 -13.59720  -3.73433 -16.50314
 -12.38490  -3.35843 -15.43554
 -10.90160  -3.30673 -14.62004
  -9.41810  -3.28473 -13.52254
  -7.58930  -3.16433 -12.61584
  -5.79600  -3.12743 -11.76994
  -3.79480  -3.32473 -10.79544
  -1.69310  -3.59503 -10.02264
   0.46710  -4.08933  -9.03554
   2.63630  -4.51833  -7.79044
   4.65970  -5.11473  -6.72014
   6.90550  -5.71493  -5.60854
   9.12200  -6.32733  -4.41334
  11.23280  -6.85693  -3.22444
  13.28400  -7.17413  -1.88164
  15.44070  -7.49023  -0.63504
  17.29380  -7.64413   0.39286
  19.05980  -7.62053   1.38726
  20.84630  -7.45803   2.41716
  22.71910  -7.10873   3.47206
  24.71680  -6.92983   4.50316
  26.43810  -6.46833   5.49006
  28.41120  -6.00863   6.36986
  30.30690  -5.44863   7.40306
  31.98960  -4.99973   8.28366
  33.66810  -4.64083   9.10686
  34.95760  -4.03853   9.75846
  36.03170  -3.86183  10.53026
  37.10000  -3.70043  11.41246
  37.86480  -3.47203  12.04586
  38.57770  -3.48843  12.77136
  38.84510  -3.45543  13.40006
  39.23510  -3.33503  13.99936
  39.49680  -3.12203  14.58786
  39.56810  -2.86553  14.98346
  39.76120  -2.90203  15.40736
  39.74830  -2.63523  15.80266
  39.69710  -2.33733  16.07436
  39.61950  -1.99343  16.29226
  39.42240  -1.49233  16.60586
  39.14110  -1.05113  16.63626
  38.48950  -0.45493  16.85066
  37.65510   0.26117  17.07016
  36.77920   0.92687  17.21236
  35.71890   1.70047  17.39726
  34.33050   2.48327  17.82886
  33.01980   3.03207  18.06596
  31.26670   3.73487  18.51576
  29.55570   4.33787  18.79426
  27.84280   4.89037  19.23826
  25.82270   5.38607  19.54896
  23.67310   5.63387  19.70356
  21.35880   5.94837  20.12516
  19.15910   6.30377  20.55886
  16.88040   6.19877  20.76056
  14.46220   6.22987  20.94856
  12.19490   5.96497  21.18076
  10.06870   5.83727  21.44566
   8.09740   5.47677  21.48896
   6.48110   4.89407  21.76086
   4.91180   4.31027  22.13936
   3.72150   3.68857  22.47866
   2.76610   2.95817  22.74846
   1.90830   2.44847  23.19176
   1.50100   2.07557  23.48216
   0.94680   1.69137  23.82446
   0.39480   1.39957  24.03906
  -0.01110   1.13257  24.21396
  -0.47170   1.11627  24.36666
  -0.96690   1.02897  24.34696
  -1.57220   1.33487  24.24176
  -2.03680   1.69727  24.00446
  -2.49530   2.36267  23.62526
  -2.94370   2.86887  23.17236
  -3.06910   3.54247  22.31706
  -3.34030   4.07837  21.53526
  -3.42210   4.38467  20.51646
  -3.34520   4.43957  19.27666
  -3.09360   4.46527  17.88316
  -2.76930   4.40447  16.47956
  -2.40080   4.07737  14.86906
  -2.15700   3.83657  13.18026
  -1.58620   3.42837  11.54616
  -0.96660   2.95767  10.07556
  -0.47070   2.31847   8.48466
  -0.08940   1.88547   7.16926
   0.32800   1.71457   5.78846
   0.77130   1.20527   4.36286
   1.20870   1.08557   3.17936
   1.59310   1.00677   2.08536
   1.96910   0.88077   1.20816
   2.47360   0.76787   0.09756
   2.66650   0.52607  -0.53634
   2.97260   0.47447  -1.11594
   3.15210   0.44477  -1.66004
   3.08950   0.53477  -1.97494
   3.07450   0.55347  -2.35354
   2.64640   0.93267  -2.49544
   2.28030   1.25087  -2.63294
   1.86270   1.71567  -2.77644
   1.12010   2.25137  -2.95534
   0.42260   2.76787  -3.01164
  -0.52730   3.19597  -3.00844
  -1.61430   3.73117  -3.11754
  -2.63460   3.95207  -3.06494
  -3.80320   4.28737  -3.22934
  -5.12310   4.46297  -3.28664
  -6.49080   4.69047  -3.39164
  -7.66270   4.73297  -3.57094
  -9.26120   4.94417  -3.77904
 -10.69330   5.01637  -3.97684
 -12.29020   5.17237  -4.15504
 -13.95850   4.97407  -4.49684
 -15.63880   5.19367  -4.94174
 -17.38630   5.22307  -5.26724
 -19.26830   4.91637  -5.55484
 -20.91430   5.18127  -5.91114
 -22.78870   4.98017  -6.21294
 -24.49790   4.95537  -6.29484
 -26.16910   4.98627  -6.25974
 -27.91360   5.02947  -6.43444
 -29.40670   4.94137  -6.43444
 -30.74270   4.72367  -6.45944
 -32.04800   4.81627  -6.53754
 -33.46000   4.84127  -6.70844
 -34.59680   4.79587  -6.70444
 -35.52540   4.86937  -6.69434
 -36.65240   4.92897  -6.88584
 -37.28630   4.77607  -7.09674
 -37.93550   4.60587  -7.15244
 -38.28580   4.27237  -7.22744
 -38.46230   3.85767  -7.29504
 -38.85860   3.50627  -7.20034
 -38.74410   2.71707  -7.00184
 -38.83780   2.32077  -6.64134
 -38.73520   1.87537  -6.30604
 -38.50650   1.24437  -5.72454
 -38.17470   0.85997  -5.30184
 -37.95430   0.39217  -4.69394
 -37.36200  -0.05143  -4.11964
 -36.58250  -0.36943  -3.65514
 -35.80950  -0.70843  -3.14634
 -34.76040  -0.79263  -2.64064
 -33.42800  -1.10913  -2.30204
 -32.15070  -1.19073  -1.89264
 -30.51450  -1.26953  -1.42784
 -28.86100  -1.20363  -1.32334
 -27.34890  -1.14473  -0.88514
 -25.37790  -1.06003  -0.64154
 -23.47380  -1.07663  -0.27424
 -21.60850  -1.13323   0.11946
 -19.64350  -0.96463   0.58336
 -17.45320  -1.10143   0.97806
 -14.97270  -1.18583   1.29996
 -12.48710  -1.41643   1.43536
  -9.64610  -1.59483   1.70846
  -6.79990  -1.78463   1.98416
  -3.84230  -2.07293   1.89266
  -0.90330  -2.33413   2.09796
   1.92420  -2.58733   1.87256
   4.72220  -2.71893   1.54386
   7.52650  -2.90973   1.40056
  10.13390  -2.92683   0.90346
  12.67680  -2.89923   0.43606
  15.04130  -2.83673  -0.03414
  17.42780  -2.79983  -0.58144
  19.56080  -2.61933  -1.16434
  21.43670  -2.51603  -1.38784
  23.15840  -2.43553  -1.88794
  25.11330  -2.13793  -2.05894
  26.39270  -1.94973  -2.30534
  27.77450  -1.56793  -2.62754
  28.89100  -1.27403  -2.67924
  29.82130  -1.03273  -2.79284
  30.68870  -0.73923  -2.76894
  30.97400  -0.55783  -2.78274
  31.22340  -0.40053  -2.59404
  31.17880  -0.29833  -2.56554
  31.00930  -0.09073  -2.36874
